<?xml version="1.0" encoding="UTF-8"?>
<gpx version="1.1"
creator="Smartprofil-Office - http://www.rother.de"
xmlns:xsi="http://www.w3.org/2001/XMLSchema-instance"
xmlns="http://www.topografix.com/GPX/1/1"
xsi:schemaLocation="http://www.topografix.com/GPX/1/1 http://www.topografix.com/GPX/1/1/gpx.xsd">
<metadata>

<bounds minlat="39.288833029568195" minlon="3.089774027466774" maxlat="39.313624016940594" maxlon="3.119400031864643"/>
</metadata>
<wpt lat="39.313306007534266" lon="3.119342029094696">
<ele>30</ele>
<name>72_Cala s’Almunia (1)</name>
<cmt></cmt>
<desc></desc>
<sym>Crossing</sym>
</wpt>

<wpt lat="39.304263023659587" lon="3.110055970028043">
<ele>50</ele>
<name>72_Punta des Bauç (2)</name>
<cmt></cmt>
<desc></desc>
<sym>Crossing</sym>
</wpt>

<wpt lat="39.301399011164904" lon="3.099886039271951">
<ele>40</ele>
<name>72_Sa Cova des Drac (3)</name>
<cmt></cmt>
<desc></desc>
<sym>Crossing</sym>
</wpt>

<wpt lat="39.293359005823731" lon="3.092768965288997">
<ele>29</ele>
<name>72_Cala Figuereta (4)</name>
<cmt></cmt>
<desc></desc>
<sym>Crossing</sym>
</wpt>

<wpt lat="39.288838980719447" lon="3.089974019676447">
<ele>0</ele>
<name>72_Caló des Màrmols (5)</name>
<cmt></cmt>
<desc></desc>
<sym>Crossing</sym>
</wpt>

<wpt lat="39.297130024060607" lon="3.103282973170281">
<ele>27</ele>
<name>72_Punta des Bancassos (6)</name>
<cmt></cmt>
<desc></desc>
<sym>Crossing</sym>
</wpt>

<trk>
<name>Mal_72_SAlmunia</name>
<trkseg>
<trkpt lat="39.313306007534266" lon="3.119342029094696">
<ele>30</ele>
</trkpt>
<trkpt lat="39.313320005312562" lon="3.119370024651289">
<ele>31</ele>
</trkpt>
<trkpt lat="39.313321011140943" lon="3.11937203630805">
<ele>32</ele>
</trkpt>
<trkpt lat="39.313322016969323" lon="3.119372958317399">
<ele>32</ele>
</trkpt>
<trkpt lat="39.313343977555633" lon="3.119400031864643">
<ele>33</ele>
</trkpt>
<trkpt lat="39.313343977555633" lon="3.119400031864643">
<ele>34</ele>
</trkpt>
<trkpt lat="39.313343977555633" lon="3.119400031864643">
<ele>35</ele>
</trkpt>
<trkpt lat="39.313296033069491" lon="3.119296012446284">
<ele>36</ele>
</trkpt>
<trkpt lat="39.313260996714234" lon="3.119270028546453">
<ele>37</ele>
</trkpt>
<trkpt lat="39.313163012266159" lon="3.119124015793204">
<ele>38</ele>
</trkpt>
<trkpt lat="39.31314398534596" lon="3.119075987488031">
<ele>39</ele>
</trkpt>
<trkpt lat="39.313120013102889" lon="3.119065007194877">
<ele>38</ele>
</trkpt>
<trkpt lat="39.313147002831101" lon="3.118785973638296">
<ele>37</ele>
</trkpt>
<trkpt lat="39.31316401809454" lon="3.118658987805247">
<ele>36</ele>
</trkpt>
<trkpt lat="39.313206011429429" lon="3.118550023064017">
<ele>34</ele>
</trkpt>
<trkpt lat="39.313220009207726" lon="3.118516998365521">
<ele>33</ele>
</trkpt>
<trkpt lat="39.313226966187358" lon="3.118267972022295">
<ele>33</ele>
</trkpt>
<trkpt lat="39.313236018642783" lon="3.118159007281065">
<ele>32</ele>
</trkpt>
<trkpt lat="39.313184972852468" lon="3.118051970377564">
<ele>31</ele>
</trkpt>
<trkpt lat="39.313268959522247" lon="3.117930013686419">
<ele>30</ele>
</trkpt>
<trkpt lat="39.313346995040774" lon="3.117863964289427">
<ele>28</ele>
</trkpt>
<trkpt lat="39.313383959233761" lon="3.117815013974905">
<ele>30</ele>
</trkpt>
<trkpt lat="39.313442967832088" lon="3.117690961807966">
<ele>31</ele>
</trkpt>
<trkpt lat="39.313478004187346" lon="3.117647962644696">
<ele>33</ele>
</trkpt>
<trkpt lat="39.313544975593686" lon="3.117392985150218">
<ele>36</ele>
</trkpt>
<trkpt lat="39.313624016940594" lon="3.117299024015665">
<ele>36</ele>
</trkpt>
<trkpt lat="39.313608007505536" lon="3.117210008203983">
<ele>38</ele>
</trkpt>
<trkpt lat="39.313523015007377" lon="3.117219982668757">
<ele>40</ele>
</trkpt>
<trkpt lat="39.313447996973991" lon="3.117210008203983">
<ele>42</ele>
</trkpt>
<trkpt lat="39.313374990597367" lon="3.117284020408988">
<ele>43</ele>
</trkpt>
<trkpt lat="39.313368033617735" lon="3.117284020408988">
<ele>44</ele>
</trkpt>
<trkpt lat="39.313228977844119" lon="3.117321990430355">
<ele>45</ele>
</trkpt>
<trkpt lat="39.313159994781017" lon="3.117302963510156">
<ele>45</ele>
</trkpt>
<trkpt lat="39.313067961484194" lon="3.117288965731859">
<ele>45</ele>
</trkpt>
<trkpt lat="39.312966959550977" lon="3.117330959066749">
<ele>46</ele>
</trkpt>
<trkpt lat="39.312837962061167" lon="3.1173300370574">
<ele>47</ele>
</trkpt>
<trkpt lat="39.3127999920398" lon="3.117322996258736">
<ele>46</ele>
</trkpt>
<trkpt lat="39.312709970399737" lon="3.117245966568589">
<ele>46</ele>
</trkpt>
<trkpt lat="39.312595976516604" lon="3.117119986563921">
<ele>48</ele>
</trkpt>
<trkpt lat="39.312516013160348" lon="3.117032982409">
<ele>49</ele>
</trkpt>
<trkpt lat="39.312481982633471" lon="3.116996018216014">
<ele>49</ele>
</trkpt>
<trkpt lat="39.31232700124383" lon="3.116927035152912">
<ele>47</ele>
</trkpt>
<trkpt lat="39.312180988490582" lon="3.116870038211346">
<ele>45</ele>
</trkpt>
<trkpt lat="39.312151987105608" lon="3.116865009069443">
<ele>44</ele>
</trkpt>
<trkpt lat="39.31204603984952" lon="3.116848999634385">
<ele>42</ele>
</trkpt>
<trkpt lat="39.312025001272559" lon="3.116847993806005">
<ele>41</ele>
</trkpt>
<trkpt lat="39.311922993510962" lon="3.11675202101469">
<ele>40</ele>
</trkpt>
<trkpt lat="39.311831966042519" lon="3.116798037663102">
<ele>37</ele>
</trkpt>
<trkpt lat="39.311798019334674" lon="3.116801977157593">
<ele>36</ele>
</trkpt>
<trkpt lat="39.311728030443192" lon="3.116672979667783">
<ele>34</ele>
</trkpt>
<trkpt lat="39.311646977439523" lon="3.116539036855102">
<ele>33</ele>
</trkpt>
<trkpt lat="39.311594003811479" lon="3.116495031863451">
<ele>33</ele>
</trkpt>
<trkpt lat="39.311456959694624" lon="3.116340972483158">
<ele>33</ele>
</trkpt>
<trkpt lat="39.311454026028514" lon="3.116326974704862">
<ele>34</ele>
</trkpt>
<trkpt lat="39.311394011601806" lon="3.116224966943264">
<ele>34</ele>
</trkpt>
<trkpt lat="39.311369033530354" lon="3.116165036335588">
<ele>35</ele>
</trkpt>
<trkpt lat="39.311238024383783" lon="3.115980969741941">
<ele>35</ele>
</trkpt>
<trkpt lat="39.311214974150062" lon="3.115965966135263">
<ele>35</ele>
</trkpt>
<trkpt lat="39.311119001358747" lon="3.11587099917233">
<ele>34</ele>
</trkpt>
<trkpt lat="39.310979023575783" lon="3.115771003067493">
<ele>35</ele>
</trkpt>
<trkpt lat="39.310963014140725" lon="3.115751976147294">
<ele>35</ele>
</trkpt>
<trkpt lat="39.310834016650915" lon="3.115780977532268">
<ele>36</ele>
</trkpt>
<trkpt lat="39.310753969475627" lon="3.115671006962657">
<ele>36</ele>
</trkpt>
<trkpt lat="39.310724968090653" lon="3.115595988929272">
<ele>36</ele>
</trkpt>
<trkpt lat="39.31065103970468" lon="3.115579979494214">
<ele>37</ele>
</trkpt>
<trkpt lat="39.310554983094335" lon="3.115508984774351">
<ele>37</ele>
</trkpt>
<trkpt lat="39.310450963675976" lon="3.115442013368011">
<ele>38</ele>
</trkpt>
<trkpt lat="39.31043503805995" lon="3.11541804112494">
<ele>39</ele>
</trkpt>
<trkpt lat="39.310344010591507" lon="3.115385016426444">
<ele>41</ele>
</trkpt>
<trkpt lat="39.310288019478321" lon="3.115271022543311">
<ele>40</ele>
</trkpt>
<trkpt lat="39.310210989788175" lon="3.115139007568359">
<ele>41</ele>
</trkpt>
<trkpt lat="39.310219036415219" lon="3.115130038931966">
<ele>42</ele>
</trkpt>
<trkpt lat="39.31022297590971" lon="3.115118974819779">
<ele>42</ele>
</trkpt>
<trkpt lat="39.310055002570152" lon="3.115029959008098">
<ele>43</ele>
</trkpt>
<trkpt lat="39.310012003406882" lon="3.114961981773377">
<ele>43</ele>
</trkpt>
<trkpt lat="39.309929022565484" lon="3.114886963739991">
<ele>44</ele>
</trkpt>
<trkpt lat="39.309861967340112" lon="3.114820998162031">
<ele>44</ele>
</trkpt>
<trkpt lat="39.309735987335443" lon="3.114781016483903">
<ele>45</ele>
</trkpt>
<trkpt lat="39.309581005945802" lon="3.114666016772389">
<ele>46</ele>
</trkpt>
<trkpt lat="39.309517974033952" lon="3.114690994843841">
<ele>45</ele>
</trkpt>
<trkpt lat="39.309401968494058" lon="3.114656964316964">
<ele>46</ele>
</trkpt>
<trkpt lat="39.309382019564509" lon="3.114650007337332">
<ele>46</ele>
</trkpt>
<trkpt lat="39.309280011802912" lon="3.114636009559035">
<ele>47</ele>
</trkpt>
<trkpt lat="39.309262996539474" lon="3.114615976810455">
<ele>48</ele>
</trkpt>
<trkpt lat="39.309074990451336" lon="3.114531990140677">
<ele>48</ele>
</trkpt>
<trkpt lat="39.308922020718455" lon="3.114464012905955">
<ele>47</ele>
</trkpt>
<trkpt lat="39.308906011283398" lon="3.114449009299278">
<ele>47</ele>
</trkpt>
<trkpt lat="39.308737032115459" lon="3.114353036507964">
<ele>47</ele>
</trkpt>
<trkpt lat="39.308560006320477" lon="3.114126976579428">
<ele>48</ele>
</trkpt>
<trkpt lat="39.308524969965219" lon="3.114036032930017">
<ele>48</ele>
</trkpt>
<trkpt lat="39.308485994115472" lon="3.113910974934697">
<ele>47</ele>
</trkpt>
<trkpt lat="39.308409970253706" lon="3.11376303434372">
<ele>47</ele>
</trkpt>
<trkpt lat="39.308402007445693" lon="3.113740989938378">
<ele>47</ele>
</trkpt>
<trkpt lat="39.308318020775914" lon="3.113608974963427">
<ele>47</ele>
</trkpt>
<trkpt lat="39.308251971378922" lon="3.1135050393641">
<ele>47</ele>
</trkpt>
<trkpt lat="39.308205032721162" lon="3.11342298053205">
<ele>47</ele>
</trkpt>
<trkpt lat="39.308125991374254" lon="3.113289959728718">
<ele>46</ele>
</trkpt>
<trkpt lat="39.308112999424338" lon="3.11325098387897">
<ele>47</ele>
</trkpt>
<trkpt lat="39.308047033846378" lon="3.113193986937404">
<ele>47</ele>
</trkpt>
<trkpt lat="39.308056002482772" lon="3.113155011087656">
<ele>47</ele>
</trkpt>
<trkpt lat="39.308020966127515" lon="3.113085022196174">
<ele>47</ele>
</trkpt>
<trkpt lat="39.307977966964245" lon="3.112947978079319">
<ele>46</ele>
</trkpt>
<trkpt lat="39.307964975014329" lon="3.11292601749301">
<ele>46</ele>
</trkpt>
<trkpt lat="39.307917030528188" lon="3.112808000296354">
<ele>46</ele>
</trkpt>
<trkpt lat="39.307805970311165" lon="3.112702975049615">
<ele>46</ele>
</trkpt>
<trkpt lat="39.30779398418963" lon="3.112663999199867">
<ele>47</ele>
</trkpt>
<trkpt lat="39.307730030268431" lon="3.112498037517071">
<ele>47</ele>
</trkpt>
<trkpt lat="39.307703040540218" lon="3.112469036132097">
<ele>46</ele>
</trkpt>
<trkpt lat="39.307568008080125" lon="3.112292010337114">
<ele>46</ele>
</trkpt>
<trkpt lat="39.307548981159925" lon="3.112253034487367">
<ele>46</ele>
</trkpt>
<trkpt lat="39.307434987276793" lon="3.11204600147903">
<ele>46</ele>
</trkpt>
<trkpt lat="39.307426018640399" lon="3.112030997872353">
<ele>46</ele>
</trkpt>
<trkpt lat="39.307295009493828" lon="3.11198104172945">
<ele>46</ele>
</trkpt>
<trkpt lat="39.307125024497509" lon="3.111905017867684">
<ele>46</ele>
</trkpt>
<trkpt lat="39.307109015062451" lon="3.111886996775866">
<ele>46</ele>
</trkpt>
<trkpt lat="39.30701999925077" lon="3.1118109729141">
<ele>46</ele>
</trkpt>
<trkpt lat="39.306893013417721" lon="3.111734027042985">
<ele>47</ele>
</trkpt>
<trkpt lat="39.306793017312884" lon="3.111611986532807">
<ele>47</ele>
</trkpt>
<trkpt lat="39.306710958480835" lon="3.111494975164533">
<ele>46</ele>
</trkpt>
<trkpt lat="39.306650022044778" lon="3.111377963796258">
<ele>46</ele>
</trkpt>
<trkpt lat="39.306595036759973" lon="3.111347034573555">
<ele>46</ele>
</trkpt>
<trkpt lat="39.306506020948291" lon="3.11125198379159">
<ele>46</ele>
</trkpt>
<trkpt lat="39.306435026228428" lon="3.11118601821363">
<ele>46</ele>
</trkpt>
<trkpt lat="39.306328995153308" lon="3.111108988523483">
<ele>46</ele>
</trkpt>
<trkpt lat="39.306228999048471" lon="3.111052997410297">
<ele>46</ele>
</trkpt>
<trkpt lat="39.306181976571679" lon="3.111051991581917">
<ele>46</ele>
</trkpt>
<trkpt lat="39.30601098574698" lon="3.110922994092107">
<ele>47</ele>
</trkpt>
<trkpt lat="39.305923981592059" lon="3.110813023522496">
<ele>47</ele>
</trkpt>
<trkpt lat="39.305914007127285" lon="3.110806988552213">
<ele>47</ele>
</trkpt>
<trkpt lat="39.305723989382386" lon="3.110648989677429">
<ele>47</ele>
</trkpt>
<trkpt lat="39.305631034076214" lon="3.110553016886115">
<ele>47</ele>
</trkpt>
<trkpt lat="39.305562973022461" lon="3.110553016886115">
<ele>47</ele>
</trkpt>
<trkpt lat="39.305467000231147" lon="3.110446985810995">
<ele>47</ele>
</trkpt>
<trkpt lat="39.305359963327646" lon="3.110433993861079">
<ele>47</ele>
</trkpt>
<trkpt lat="39.305342026054859" lon="3.110423013567925">
<ele>46</ele>
</trkpt>
<trkpt lat="39.30517103523016" lon="3.110313965007663">
<ele>45</ele>
</trkpt>
<trkpt lat="39.305127030238509" lon="3.11024397611618">
<ele>45</ele>
</trkpt>
<trkpt lat="39.305015970021486" lon="3.110146997496486">
<ele>45</ele>
</trkpt>
<trkpt lat="39.304993003606796" lon="3.110130988061428">
<ele>45</ele>
</trkpt>
<trkpt lat="39.304833998903632" lon="3.11002898029983">
<ele>44</ele>
</trkpt>
<trkpt lat="39.304710030555725" lon="3.109953962266445">
<ele>44</ele>
</trkpt>
<trkpt lat="39.304601987823844" lon="3.109894031658769">
<ele>46</ele>
</trkpt>
<trkpt lat="39.304588995873928" lon="3.10987601056695">
<ele>47</ele>
</trkpt>
<trkpt lat="39.304441977292299" lon="3.109880033880472">
<ele>47</ele>
</trkpt>
<trkpt lat="39.304423034191132" lon="3.109894031658769">
<ele>48</ele>
</trkpt>
<trkpt lat="39.304305016994476" lon="3.110043983906508">
<ele>48</ele>
</trkpt>
<trkpt lat="39.304284984245896" lon="3.110057981684804">
<ele>48</ele>
</trkpt>
<trkpt lat="39.304262017831206" lon="3.110053958371282">
<ele>49</ele>
</trkpt>
<trkpt lat="39.304263023659587" lon="3.110055970028043">
<ele>50</ele>
</trkpt>
<trkpt lat="39.304263023659587" lon="3.110054964199662">
<ele>50</ele>
</trkpt>
<trkpt lat="39.304263023659587" lon="3.110054964199662">
<ele>49</ele>
</trkpt>
<trkpt lat="39.304263023659587" lon="3.110054964199662">
<ele>49</ele>
</trkpt>
<trkpt lat="39.304263023659587" lon="3.110054964199662">
<ele>49</ele>
</trkpt>
<trkpt lat="39.304263023659587" lon="3.110054964199662">
<ele>48</ele>
</trkpt>
<trkpt lat="39.304263023659587" lon="3.110053958371282">
<ele>47</ele>
</trkpt>
<trkpt lat="39.30418599396944" lon="3.110072985291481">
<ele>47</ele>
</trkpt>
<trkpt lat="39.304060013964772" lon="3.110054964199662">
<ele>46</ele>
</trkpt>
<trkpt lat="39.304051967337728" lon="3.110054964199662">
<ele>46</ele>
</trkpt>
<trkpt lat="39.303915007039905" lon="3.11004901304841">
<ele>47</ele>
</trkpt>
<trkpt lat="39.303774023428559" lon="3.109929990023375">
<ele>47</ele>
</trkpt>
<trkpt lat="39.303664974868298" lon="3.109959997236729">
<ele>48</ele>
</trkpt>
<trkpt lat="39.303537989035249" lon="3.110021017491818">
<ele>48</ele>
</trkpt>
<trkpt lat="39.303403962403536" lon="3.110023029148579">
<ele>49</ele>
</trkpt>
<trkpt lat="39.303345959633589" lon="3.109973995015025">
<ele>50</ele>
</trkpt>
<trkpt lat="39.303245041519403" lon="3.109863018617034">
<ele>50</ele>
</trkpt>
<trkpt lat="39.303216962143779" lon="3.10985597781837">
<ele>50</ele>
</trkpt>
<trkpt lat="39.303125012665987" lon="3.109680041670799">
<ele>50</ele>
</trkpt>
<trkpt lat="39.303084025159478" lon="3.109579961746931">
<ele>51</ele>
</trkpt>
<trkpt lat="39.303047982975841" lon="3.109550038352609">
<ele>50</ele>
</trkpt>
<trkpt lat="39.302910016849637" lon="3.109429003670812">
<ele>50</ele>
</trkpt>
<trkpt lat="39.302778001874685" lon="3.109390027821064">
<ele>50</ele>
</trkpt>
<trkpt lat="39.302688986063004" lon="3.109388016164303">
<ele>49</ele>
</trkpt>
<trkpt lat="39.302611034363508" lon="3.109325990080833">
<ele>48</ele>
</trkpt>
<trkpt lat="39.302607011049986" lon="3.10908199287951">
<ele>48</ele>
</trkpt>
<trkpt lat="39.302626959979534" lon="3.108929023146629">
<ele>48</ele>
</trkpt>
<trkpt lat="39.302639029920101" lon="3.108880994841456">
<ele>46</ele>
</trkpt>
<trkpt lat="39.302655039355159" lon="3.108683014288545">
<ele>45</ele>
</trkpt>
<trkpt lat="39.302660990506411" lon="3.108571032062173">
<ele>45</ele>
</trkpt>
<trkpt lat="39.302661996334791" lon="3.108520992100239">
<ele>45</ele>
</trkpt>
<trkpt lat="39.302780013531446" lon="3.108384031802416">
<ele>45</ele>
</trkpt>
<trkpt lat="39.302789987996221" lon="3.108352012932301">
<ele>44</ele>
</trkpt>
<trkpt lat="39.302838016301394" lon="3.108206000179052">
<ele>44</ele>
</trkpt>
<trkpt lat="39.302937006577849" lon="3.108137017115951">
<ele>44</ele>
</trkpt>
<trkpt lat="39.3029810115695" lon="3.108114972710609">
<ele>44</ele>
</trkpt>
<trkpt lat="39.303071033209562" lon="3.108043977990747">
<ele>44</ele>
</trkpt>
<trkpt lat="39.303071033209562" lon="3.108043977990747">
<ele>43</ele>
</trkpt>
<trkpt lat="39.302909011021256" lon="3.107919003814459">
<ele>42</ele>
</trkpt>
<trkpt lat="39.302888978272676" lon="3.107904000207782">
<ele>42</ele>
</trkpt>
<trkpt lat="39.302812032401562" lon="3.107741978019476">
<ele>42</ele>
</trkpt>
<trkpt lat="39.302836004644632" lon="3.107590014114976">
<ele>42</ele>
</trkpt>
<trkpt lat="39.302871040999889" lon="3.107532011345029">
<ele>42</ele>
</trkpt>
<trkpt lat="39.302998026832938" lon="3.107393039390445">
<ele>42</ele>
</trkpt>
<trkpt lat="39.303035996854305" lon="3.107355991378427">
<ele>42</ele>
</trkpt>
<trkpt lat="39.303058963268995" lon="3.107218025252223">
<ele>42</ele>
</trkpt>
<trkpt lat="39.302986962720752" lon="3.107007974758744">
<ele>42</ele>
</trkpt>
<trkpt lat="39.302916973829269" lon="3.106813011690974">
<ele>42</ele>
</trkpt>
<trkpt lat="39.302909011021256" lon="3.106792978942394">
<ele>42</ele>
</trkpt>
<trkpt lat="39.302858971059322" lon="3.106598015874624">
<ele>41</ele>
</trkpt>
<trkpt lat="39.302833992987871" lon="3.106478992849588">
<ele>41</ele>
</trkpt>
<trkpt lat="39.302779007703066" lon="3.106317976489663">
<ele>41</ele>
</trkpt>
<trkpt lat="39.302727961912751" lon="3.106132987886667">
<ele>40</ele>
</trkpt>
<trkpt lat="39.302717987447977" lon="3.1060950178653">
<ele>40</ele>
</trkpt>
<trkpt lat="39.302656967192888" lon="3.105921009555459">
<ele>40</ele>
</trkpt>
<trkpt lat="39.302581027150154" lon="3.105735015124083">
<ele>40</ele>
</trkpt>
<trkpt lat="39.302529981359839" lon="3.105582967400551">
<ele>40</ele>
</trkpt>
<trkpt lat="39.302454963326454" lon="3.105392027646303">
<ele>39</ele>
</trkpt>
<trkpt lat="39.302395032718778" lon="3.105268981307745">
<ele>39</ele>
</trkpt>
<trkpt lat="39.302370976656675" lon="3.105083992704749">
<ele>38</ele>
</trkpt>
<trkpt lat="39.30240198969841" lon="3.105037976056337">
<ele>38</ele>
</trkpt>
<trkpt lat="39.302509026601911" lon="3.104896992444992">
<ele>38</ele>
</trkpt>
<trkpt lat="39.302614973857999" lon="3.104757014662027">
<ele>38</ele>
</trkpt>
<trkpt lat="39.30268001742661" lon="3.10454897582531">
<ele>38</ele>
</trkpt>
<trkpt lat="39.302687980234623" lon="3.104424001649022">
<ele>38</ele>
</trkpt>
<trkpt lat="39.302676999941468" lon="3.104332974180579">
<ele>39</ele>
</trkpt>
<trkpt lat="39.302671970799565" lon="3.104243036359549">
<ele>39</ele>
</trkpt>
<trkpt lat="39.302668031305075" lon="3.104099035263062">
<ele>39</ele>
</trkpt>
<trkpt lat="39.302651016041636" lon="3.104046983644366">
<ele>39</ele>
</trkpt>
<trkpt lat="39.302743971347809" lon="3.103927038609982">
<ele>39</ele>
</trkpt>
<trkpt lat="39.302866011857986" lon="3.103794017806649">
<ele>38</ele>
</trkpt>
<trkpt lat="39.302922002971172" lon="3.103743977844715">
<ele>38</ele>
</trkpt>
<trkpt lat="39.303061980754137" lon="3.10358002781868">
<ele>38</ele>
</trkpt>
<trkpt lat="39.303183015435934" lon="3.103438960388303">
<ele>38</ele>
</trkpt>
<trkpt lat="39.303230959922075" lon="3.103396967053413">
<ele>39</ele>
</trkpt>
<trkpt lat="39.30328200571239" lon="3.103241985663772">
<ele>39</ele>
</trkpt>
<trkpt lat="39.30334797129035" lon="3.10306403785944">
<ele>39</ele>
</trkpt>
<trkpt lat="39.303371021524072" lon="3.10289204120636">
<ele>39</ele>
</trkpt>
<trkpt lat="39.303363980725408" lon="3.102677967399359">
<ele>39</ele>
</trkpt>
<trkpt lat="39.303327016532421" lon="3.102427013218403">
<ele>39</ele>
</trkpt>
<trkpt lat="39.303329028189182" lon="3.102413015440106">
<ele>39</ele>
</trkpt>
<trkpt lat="39.303331961855292" lon="3.102385019883514">
<ele>38</ele>
</trkpt>
<trkpt lat="39.303251998499036" lon="3.102121995761991">
<ele>39</ele>
</trkpt>
<trkpt lat="39.303100034594536" lon="3.101944969967008">
<ele>39</ele>
</trkpt>
<trkpt lat="39.302976988255978" lon="3.101830976083875">
<ele>39</ele>
</trkpt>
<trkpt lat="39.302836004644632" lon="3.101692004129291">
<ele>39</ele>
</trkpt>
<trkpt lat="39.30272301658988" lon="3.101513972505927">
<ele>39</ele>
</trkpt>
<trkpt lat="39.302729973569512" lon="3.10132596641779">
<ele>40</ele>
</trkpt>
<trkpt lat="39.302728967741132" lon="3.101203003898263">
<ele>40</ele>
</trkpt>
<trkpt lat="39.302640035748482" lon="3.101056991145015">
<ele>40</ele>
</trkpt>
<trkpt lat="39.302592007443309" lon="3.101022960618138">
<ele>40</ele>
</trkpt>
<trkpt lat="39.302495028823614" lon="3.100908966735005">
<ele>39</ele>
</trkpt>
<trkpt lat="39.302463009953499" lon="3.100786004215479">
<ele>40</ele>
</trkpt>
<trkpt lat="39.302457980811596" lon="3.100778963416815">
<ele>40</ele>
</trkpt>
<trkpt lat="39.302283972501755" lon="3.100591041147709">
<ele>40</ele>
</trkpt>
<trkpt lat="39.302261006087065" lon="3.100575031712651">
<ele>40</ele>
</trkpt>
<trkpt lat="39.302109964191914" lon="3.10044402256608">
<ele>40</ele>
</trkpt>
<trkpt lat="39.302011979743838" lon="3.100417032837868">
<ele>41</ele>
</trkpt>
<trkpt lat="39.301945008337498" lon="3.10042298398912">
<ele>41</ele>
</trkpt>
<trkpt lat="39.301823973655701" lon="3.100405968725681">
<ele>41</ele>
</trkpt>
<trkpt lat="39.301735041663051" lon="3.100326005369425">
<ele>41</ele>
</trkpt>
<trkpt lat="39.301665974780917" lon="3.100304966792464">
<ele>41</ele>
</trkpt>
<trkpt lat="39.301599003374577" lon="3.100295998156071">
<ele>40</ele>
</trkpt>
<trkpt lat="39.301550975069404" lon="3.100262973457575">
<ele>40</ele>
</trkpt>
<trkpt lat="39.301511999219656" lon="3.100217962637544">
<ele>40</ele>
</trkpt>
<trkpt lat="39.301523985341191" lon="3.100062981247902">
<ele>40</ele>
</trkpt>
<trkpt lat="39.301514010876417" lon="3.100005984306335">
<ele>40</ele>
</trkpt>
<trkpt lat="39.301473023369908" lon="3.099926020950079">
<ele>40</ele>
</trkpt>
<trkpt lat="39.301399011164904" lon="3.099886039271951">
<ele>40</ele>
</trkpt>
<trkpt lat="39.301399011164904" lon="3.099886039271951">
<ele>40</ele>
</trkpt>
<trkpt lat="39.301399011164904" lon="3.099886039271951">
<ele>40</ele>
</trkpt>
<trkpt lat="39.301399011164904" lon="3.099886039271951">
<ele>40</ele>
</trkpt>
<trkpt lat="39.301399011164904" lon="3.099886039271951">
<ele>40</ele>
</trkpt>
<trkpt lat="39.301402028650045" lon="3.099892996251583">
<ele>40</ele>
</trkpt>
<trkpt lat="39.301426000893116" lon="3.099995004013181">
<ele>41</ele>
</trkpt>
<trkpt lat="39.301385013386607" lon="3.100087037310004">
<ele>41</ele>
</trkpt>
<trkpt lat="39.301385013386607" lon="3.100087959319353">
<ele>41</ele>
</trkpt>
<trkpt lat="39.301366992294788" lon="3.10007999651134">
<ele>41</ele>
</trkpt>
<trkpt lat="39.301322987303138" lon="3.100033979862928">
<ele>41</ele>
</trkpt>
<trkpt lat="39.301216034218669" lon="3.099929038435221">
<ele>41</ele>
</trkpt>
<trkpt lat="39.301101034507155" lon="3.099782019853592">
<ele>42</ele>
</trkpt>
<trkpt lat="39.30109198205173" lon="3.099776990711689">
<ele>42</ele>
</trkpt>
<trkpt lat="39.300991985946894" lon="3.099697027355433">
<ele>43</ele>
</trkpt>
<trkpt lat="39.300960972905159" lon="3.099674982950091">
<ele>43</ele>
</trkpt>
<trkpt lat="39.300835998728871" lon="3.099569035694003">
<ele>43</ele>
</trkpt>
<trkpt lat="39.300740025937557" lon="3.099535005167127">
<ele>44</ele>
</trkpt>
<trkpt lat="39.300607005134225" lon="3.09945797547698">
<ele>44</ele>
</trkpt>
<trkpt lat="39.300527041777968" lon="3.099440960213542">
<ele>45</ele>
</trkpt>
<trkpt lat="39.300399972125888" lon="3.099386980757117">
<ele>45</ele>
</trkpt>
<trkpt lat="39.300373988226056" lon="3.099380023777485">
<ele>45</ele>
</trkpt>
<trkpt lat="39.300283966585994" lon="3.099270975217223">
<ele>45</ele>
</trkpt>
<trkpt lat="39.300119010731578" lon="3.09928497299552">
<ele>46</ele>
</trkpt>
<trkpt lat="39.300053967162967" lon="3.09934800490737">
<ele>46</ele>
</trkpt>
<trkpt lat="39.299899991601706" lon="3.099444983527064">
<ele>46</ele>
</trkpt>
<trkpt lat="39.299846012145281" lon="3.09947800822556">
<ele>46</ele>
</trkpt>
<trkpt lat="39.299731012433767" lon="3.099619997665286">
<ele>46</ele>
</trkpt>
<trkpt lat="39.299721959978342" lon="3.099645981565118">
<ele>47</ele>
</trkpt>
<trkpt lat="39.299564966931939" lon="3.099773973226547">
<ele>47</ele>
</trkpt>
<trkpt lat="39.299497995525599" lon="3.099805992096663">
<ele>47</ele>
</trkpt>
<trkpt lat="39.299376960843801" lon="3.099815966561437">
<ele>47</ele>
</trkpt>
<trkpt lat="39.299155008047819" lon="3.099815966561437">
<ele>47</ele>
</trkpt>
<trkpt lat="39.299082001671195" lon="3.099813032895327">
<ele>47</ele>
</trkpt>
<trkpt lat="39.298954010009766" lon="3.099829964339733">
<ele>47</ele>
</trkpt>
<trkpt lat="39.298954010009766" lon="3.099829964339733">
<ele>46</ele>
</trkpt>
<trkpt lat="39.298844039440155" lon="3.0998420342803">
<ele>46</ele>
</trkpt>
<trkpt lat="39.298712024465203" lon="3.099682023748756">
<ele>46</ele>
</trkpt>
<trkpt lat="39.298591995611787" lon="3.099579010158777">
<ele>46</ele>
</trkpt>
<trkpt lat="39.298521000891924" lon="3.099438026547432">
<ele>46</ele>
</trkpt>
<trkpt lat="39.298398960381746" lon="3.099337024614215">
<ele>46</ele>
</trkpt>
<trkpt lat="39.298254959285259" lon="3.099287990480661">
<ele>46</ele>
</trkpt>
<trkpt lat="39.298184970393777" lon="3.099294025450945">
<ele>46</ele>
</trkpt>
<trkpt lat="39.29803803563118" lon="3.09921900741756">
<ele>47</ele>
</trkpt>
<trkpt lat="39.297980032861233" lon="3.099181037396193">
<ele>47</ele>
</trkpt>
<trkpt lat="39.297850029543042" lon="3.099108031019568">
<ele>47</ele>
</trkpt>
<trkpt lat="39.297791020944715" lon="3.099031001329422">
<ele>47</ele>
</trkpt>
<trkpt lat="39.297682978212833" lon="3.098942991346121">
<ele>47</ele>
</trkpt>
<trkpt lat="39.297637967392802" lon="3.098891023546457">
<ele>48</ele>
</trkpt>
<trkpt lat="39.297578958794475" lon="3.098806031048298">
<ele>48</ele>
</trkpt>
<trkpt lat="39.297490026801825" lon="3.098691031336784">
<ele>48</ele>
</trkpt>
<trkpt lat="39.297431018203497" lon="3.098560022190213">
<ele>48</ele>
</trkpt>
<trkpt lat="39.297389024868608" lon="3.098450973629952">
<ele>48</ele>
</trkpt>
<trkpt lat="39.297356000170112" lon="3.098346032202244">
<ele>48</ele>
</trkpt>
<trkpt lat="39.297343008220196" lon="3.098132964223623">
<ele>48</ele>
</trkpt>
<trkpt lat="39.297348959371448" lon="3.098043026402593">
<ele>48</ele>
</trkpt>
<trkpt lat="39.297301014885306" lon="3.097895001992583">
<ele>49</ele>
</trkpt>
<trkpt lat="39.297285005450249" lon="3.097777990624309">
<ele>49</ele>
</trkpt>
<trkpt lat="39.297233037650585" lon="3.097645975649357">
<ele>49</ele>
</trkpt>
<trkpt lat="39.297149972990155" lon="3.097426034510136">
<ele>49</ele>
</trkpt>
<trkpt lat="39.297157013788819" lon="3.09724397957325">
<ele>49</ele>
</trkpt>
<trkpt lat="39.297152990475297" lon="3.097180025652051">
<ele>49</ele>
</trkpt>
<trkpt lat="39.297130024060607" lon="3.097052033990622">
<ele>49</ele>
</trkpt>
<trkpt lat="39.297058023512363" lon="3.096875008195639">
<ele>50</ele>
</trkpt>
<trkpt lat="39.297043019905686" lon="3.096841983497143">
<ele>50</ele>
</trkpt>
<trkpt lat="39.296979987993836" lon="3.096618019044399">
<ele>50</ele>
</trkpt>
<trkpt lat="39.296988034620881" lon="3.096581976860762">
<ele>50</ele>
</trkpt>
<trkpt lat="39.296956015750766" lon="3.096375027671456">
<ele>50</ele>
</trkpt>
<trkpt lat="39.296951992437243" lon="3.096322976052761">
<ele>51</ele>
</trkpt>
<trkpt lat="39.296939000487328" lon="3.096101023256779">
<ele>51</ele>
</trkpt>
<trkpt lat="39.296901030465961" lon="3.095973031595349">
<ele>51</ele>
</trkpt>
<trkpt lat="39.296892983838916" lon="3.095919974148274">
<ele>51</ele>
</trkpt>
<trkpt lat="39.296839004382491" lon="3.095726016908884">
<ele>51</ele>
</trkpt>
<trkpt lat="39.296825006604195" lon="3.095682011917234">
<ele>51</ele>
</trkpt>
<trkpt lat="39.296785024926066" lon="3.095506997779012">
<ele>51</ele>
</trkpt>
<trkpt lat="39.296735990792513" lon="3.095333995297551">
<ele>51</ele>
</trkpt>
<trkpt lat="39.296709001064301" lon="3.095265012234449">
<ele>51</ele>
</trkpt>
<trkpt lat="39.296654015779495" lon="3.094982961192727">
<ele>51</ele>
</trkpt>
<trkpt lat="39.296589978039265" lon="3.09479596093297">
<ele>51</ele>
</trkpt>
<trkpt lat="39.296500962227583" lon="3.094637040048838">
<ele>51</ele>
</trkpt>
<trkpt lat="39.296425022184849" lon="3.094463031738997">
<ele>51</ele>
</trkpt>
<trkpt lat="39.296409012749791" lon="3.094447022303939">
<ele>51</ele>
</trkpt>
<trkpt lat="39.29630097001791" lon="3.094376027584076">
<ele>50</ele>
</trkpt>
<trkpt lat="39.296250008046627" lon="3.094325987622142">
<ele>50</ele>
</trkpt>
<trkpt lat="39.296062001958489" lon="3.094296986237168">
<ele>49</ele>
</trkpt>
<trkpt lat="39.295883970335126" lon="3.094334034249187">
<ele>49</ele>
</trkpt>
<trkpt lat="39.295736029744148" lon="3.094348032027483">
<ele>49</ele>
</trkpt>
<trkpt lat="39.295665035024285" lon="3.094322970137">
<ele>48</ele>
</trkpt>
<trkpt lat="39.295535031706095" lon="3.094240995123982">
<ele>48</ele>
</trkpt>
<trkpt lat="39.295503012835979" lon="3.094224985688925">
<ele>47</ele>
</trkpt>
<trkpt lat="39.295416008681059" lon="3.094076961278915">
<ele>47</ele>
</trkpt>
<trkpt lat="39.295416008681059" lon="3.094076961278915">
<ele>47</ele>
</trkpt>
<trkpt lat="39.295416008681059" lon="3.094076961278915">
<ele>46</ele>
</trkpt>
<trkpt lat="39.295416008681059" lon="3.094076961278915">
<ele>46</ele>
</trkpt>
<trkpt lat="39.295416008681059" lon="3.094076961278915">
<ele>45</ele>
</trkpt>
<trkpt lat="39.295416008681059" lon="3.094076961278915">
<ele>45</ele>
</trkpt>
<trkpt lat="39.295383989810944" lon="3.094062963500619">
<ele>45</ele>
</trkpt>
<trkpt lat="39.295283993706107" lon="3.094025999307632">
<ele>44</ele>
</trkpt>
<trkpt lat="39.295211993157864" lon="3.09417000040412">
<ele>44</ele>
</trkpt>
<trkpt lat="39.295109985396266" lon="3.094339985400438">
<ele>43</ele>
</trkpt>
<trkpt lat="39.295066986232996" lon="3.09440502896905">
<ele>43</ele>
</trkpt>
<trkpt lat="39.294931031763554" lon="3.094532014802098">
<ele>42</ele>
</trkpt>
<trkpt lat="39.294788958504796" lon="3.094629999250174">
<ele>42</ele>
</trkpt>
<trkpt lat="39.294783007353544" lon="3.094638967886567">
<ele>42</ele>
</trkpt>
<trkpt lat="39.294733973219991" lon="3.094842983409762">
<ele>41</ele>
</trkpt>
<trkpt lat="39.294649986550212" lon="3.094889000058174">
<ele>40</ele>
</trkpt>
<trkpt lat="39.29462400265038" lon="3.094871984794736">
<ele>40</ele>
</trkpt>
<trkpt lat="39.294577986001968" lon="3.094866033643484">
<ele>40</ele>
</trkpt>
<trkpt lat="39.294352009892464" lon="3.094856981188059">
<ele>39</ele>
</trkpt>
<trkpt lat="39.294223012402654" lon="3.0948790255934">
<ele>38</ele>
</trkpt>
<trkpt lat="39.294202979654074" lon="3.094881037250161">
<ele>38</ele>
</trkpt>
<trkpt lat="39.294060990214348" lon="3.094850024208427">
<ele>38</ele>
</trkpt>
<trkpt lat="39.293992007151246" lon="3.094810964539647">
<ele>37</ele>
</trkpt>
<trkpt lat="39.293882036581635" lon="3.094744998961687">
<ele>37</ele>
</trkpt>
<trkpt lat="39.293899973854423" lon="3.094763020053506">
<ele>37</ele>
</trkpt>
<trkpt lat="39.293899973854423" lon="3.094763020053506">
<ele>36</ele>
</trkpt>
<trkpt lat="39.293798971921206" lon="3.094608038663864">
<ele>36</ele>
</trkpt>
<trkpt lat="39.293741974979639" lon="3.09447099454701">
<ele>36</ele>
</trkpt>
<trkpt lat="39.293710039928555" lon="3.094378961250186">
<ele>36</ele>
</trkpt>
<trkpt lat="39.293673997744918" lon="3.094340991228819">
<ele>35</ele>
</trkpt>
<trkpt lat="39.293627981096506" lon="3.09419103898108">
<ele>35</ele>
</trkpt>
<trkpt lat="39.293626975268126" lon="3.094177963212133">
<ele>35</ele>
</trkpt>
<trkpt lat="39.293600991368294" lon="3.094018958508968">
<ele>36</ele>
</trkpt>
<trkpt lat="39.293596968054771" lon="3.09386900626123">
<ele>36</ele>
</trkpt>
<trkpt lat="39.293621024116874" lon="3.093794994056225">
<ele>37</ele>
</trkpt>
<trkpt lat="39.293642984703183" lon="3.093755012378097">
<ele>37</ele>
</trkpt>
<trkpt lat="39.293667040765285" lon="3.093595001846552">
<ele>37</ele>
</trkpt>
<trkpt lat="39.293637033551931" lon="3.093435997143388">
<ele>38</ele>
</trkpt>
<trkpt lat="39.293623035773635" lon="3.093269029632211">
<ele>38</ele>
</trkpt>
<trkpt lat="39.293607026338577" lon="3.093213960528374">
<ele>39</ele>
</trkpt>
<trkpt lat="39.293491020798683" lon="3.093097032979131">
<ele>39</ele>
</trkpt>
<trkpt lat="39.293445004150271" lon="3.092998964712024">
<ele>37</ele>
</trkpt>
<trkpt lat="39.293433018028736" lon="3.092863010242581">
<ele>35</ele>
</trkpt>
<trkpt lat="39.293387001380324" lon="3.092792015522718">
<ele>33</ele>
</trkpt>
<trkpt lat="39.293365962803364" lon="3.092766031622887">
<ele>31</ele>
</trkpt>
<trkpt lat="39.293359005823731" lon="3.092768965288997">
<ele>29</ele>
</trkpt>
<trkpt lat="39.293359005823731" lon="3.092768965288997">
<ele>30</ele>
</trkpt>
<trkpt lat="39.293359005823731" lon="3.092768965288997">
<ele>31</ele>
</trkpt>
<trkpt lat="39.293359005823731" lon="3.092768965288997">
<ele>33</ele>
</trkpt>
<trkpt lat="39.293351965025067" lon="3.092772988602519">
<ele>34</ele>
</trkpt>
<trkpt lat="39.293311983346939" lon="3.09283702634275">
<ele>35</ele>
</trkpt>
<trkpt lat="39.293240988627076" lon="3.092885976657271">
<ele>36</ele>
</trkpt>
<trkpt lat="39.293233025819063" lon="3.093046993017197">
<ele>37</ele>
</trkpt>
<trkpt lat="39.293217016384006" lon="3.093083035200834">
<ele>39</ele>
</trkpt>
<trkpt lat="39.293210981413722" lon="3.093208009377122">
<ele>40</ele>
</trkpt>
<trkpt lat="39.29314199835062" lon="3.093260983005166">
<ele>41</ele>
</trkpt>
<trkpt lat="39.292950974777341" lon="3.093369025737047">
<ele>40</ele>
</trkpt>
<trkpt lat="39.292929014191031" lon="3.093386963009834">
<ele>40</ele>
</trkpt>
<trkpt lat="39.292888026684523" lon="3.0934629868716">
<ele>41</ele>
</trkpt>
<trkpt lat="39.292793981730938" lon="3.093486037105322">
<ele>41</ele>
</trkpt>
<trkpt lat="39.292693985626101" lon="3.093515960499644">
<ele>41</ele>
</trkpt>
<trkpt lat="39.292531963437796" lon="3.093463992699981">
<ele>41</ele>
</trkpt>
<trkpt lat="39.292426016181707" lon="3.09354797936976">
<ele>41</ele>
</trkpt>
<trkpt lat="39.292398020625114" lon="3.093555020168424">
<ele>42</ele>
</trkpt>
<trkpt lat="39.292277991771698" lon="3.093529958277941">
<ele>42</ele>
</trkpt>
<trkpt lat="39.292254019528627" lon="3.093514032661915">
<ele>42</ele>
</trkpt>
<trkpt lat="39.292200962081552" lon="3.093602964654565">
<ele>41</ele>
</trkpt>
<trkpt lat="39.292200962081552" lon="3.093714024871588">
<ele>40</ele>
</trkpt>
<trkpt lat="39.292183024808764" lon="3.093907982110977">
<ele>39</ele>
</trkpt>
<trkpt lat="39.292183024808764" lon="3.093907982110977">
<ele>38</ele>
</trkpt>
<trkpt lat="39.292142037302256" lon="3.094189027324319">
<ele>37</ele>
</trkpt>
<trkpt lat="39.292138013988733" lon="3.094209982082248">
<ele>37</ele>
</trkpt>
<trkpt lat="39.292094008997083" lon="3.094379967078567">
<ele>36</ele>
</trkpt>
<trkpt lat="39.292083028703928" lon="3.094422966241837">
<ele>35</ele>
</trkpt>
<trkpt lat="39.292044974863529" lon="3.094498990103602">
<ele>34</ele>
</trkpt>
<trkpt lat="39.292007004842162" lon="3.094632010906935">
<ele>33</ele>
</trkpt>
<trkpt lat="39.291957970708609" lon="3.094777017831802">
<ele>31</ele>
</trkpt>
<trkpt lat="39.29193701595068" lon="3.094813982024789">
<ele>30</ele>
</trkpt>
<trkpt lat="39.291818998754025" lon="3.09488195925951">
<ele>30</ele>
</trkpt>
<trkpt lat="39.291754039004445" lon="3.094908026978374">
<ele>29</ele>
</trkpt>
<trkpt lat="39.291655970737338" lon="3.094997964799404">
<ele>28</ele>
</trkpt>
<trkpt lat="39.291506018489599" lon="3.094988996163011">
<ele>27</ele>
</trkpt>
<trkpt lat="39.2914869915694" lon="3.094997964799404">
<ele>26</ele>
</trkpt>
<trkpt lat="39.291410967707634" lon="3.095028977841139">
<ele>26</ele>
</trkpt>
<trkpt lat="39.29127199575305" lon="3.095057979226112">
<ele>25</ele>
</trkpt>
<trkpt lat="39.291253974661231" lon="3.095054039731622">
<ele>24</ele>
</trkpt>
<trkpt lat="39.291212987154722" lon="3.095052028074861">
<ele>24</ele>
</trkpt>
<trkpt lat="39.291092036291957" lon="3.094995031133294">
<ele>24</ele>
</trkpt>
<trkpt lat="39.291073009371758" lon="3.094999976456165">
<ele>23</ele>
</trkpt>
<trkpt lat="39.29094803519547" lon="3.094935016706586">
<ele>23</ele>
</trkpt>
<trkpt lat="39.29081903770566" lon="3.094907021149993">
<ele>23</ele>
</trkpt>
<trkpt lat="39.290801016613841" lon="3.094895035028458">
<ele>23</ele>
</trkpt>
<trkpt lat="39.290685011073947" lon="3.094880031421781">
<ele>23</ele>
</trkpt>
<trkpt lat="39.290565988048911" lon="3.094865027815104">
<ele>22</ele>
</trkpt>
<trkpt lat="39.290530029684305" lon="3.094821022823453">
<ele>22</ele>
</trkpt>
<trkpt lat="39.290384016931057" lon="3.094597980380058">
<ele>21</ele>
</trkpt>
<trkpt lat="39.290376976132393" lon="3.094590017572045">
<ele>21</ele>
</trkpt>
<trkpt lat="39.290244039148092" lon="3.094409974291921">
<ele>21</ele>
</trkpt>
<trkpt lat="39.290229035541415" lon="3.094378961250186">
<ele>20</ele>
</trkpt>
<trkpt lat="39.290096014738083" lon="3.094197995960712">
<ele>20</ele>
</trkpt>
<trkpt lat="39.290039017796516" lon="3.094161031767726">
<ele>20</ele>
</trkpt>
<trkpt lat="39.289946984499693" lon="3.094144016504288">
<ele>20</ele>
</trkpt>
<trkpt lat="39.289924018085003" lon="3.094152985140681">
<ele>20</ele>
</trkpt>
<trkpt lat="39.289890993386507" lon="3.094138987362385">
<ele>19</ele>
</trkpt>
<trkpt lat="39.289823016151786" lon="3.094047037884593">
<ele>19</ele>
</trkpt>
<trkpt lat="39.289802983403206" lon="3.093949975445867">
<ele>19</ele>
</trkpt>
<trkpt lat="39.289752021431923" lon="3.093830030411482">
<ele>19</ele>
</trkpt>
<trkpt lat="39.289669962599874" lon="3.093769010156393">
<ele>19</ele>
</trkpt>
<trkpt lat="39.289624029770494" lon="3.093691980466247">
<ele>19</ele>
</trkpt>
<trkpt lat="39.289529984816909" lon="3.093572035431862">
<ele>19</ele>
</trkpt>
<trkpt lat="39.289464019238949" lon="3.093432979658246">
<ele>19</ele>
</trkpt>
<trkpt lat="39.289410961791873" lon="3.09337598271668">
<ele>19</ele>
</trkpt>
<trkpt lat="39.28925396874547" lon="3.093285039067268">
<ele>19</ele>
</trkpt>
<trkpt lat="39.289206024259329" lon="3.093140032142401">
<ele>19</ele>
</trkpt>
<trkpt lat="39.289217004552484" lon="3.093085968866944">
<ele>19</ele>
</trkpt>
<trkpt lat="39.289222033694386" lon="3.093082029372454">
<ele>18</ele>
</trkpt>
<trkpt lat="39.289309959858656" lon="3.092940961942077">
<ele>19</ele>
</trkpt>
<trkpt lat="39.289356982335448" lon="3.09283702634275">
<ele>21</ele>
</trkpt>
<trkpt lat="39.289397969841957" lon="3.092747004702687">
<ele>22</ele>
</trkpt>
<trkpt lat="39.289428982883692" lon="3.092634016647935">
<ele>23</ele>
</trkpt>
<trkpt lat="39.289482040330768" lon="3.092542989179492">
<ele>24</ele>
</trkpt>
<trkpt lat="39.289555968716741" lon="3.092371998354793">
<ele>26</ele>
</trkpt>
<trkpt lat="39.289566027000546" lon="3.09232103638351">
<ele>27</ele>
</trkpt>
<trkpt lat="39.289578013122082" lon="3.092186003923416">
<ele>28</ele>
</trkpt>
<trkpt lat="39.289571978151798" lon="3.092168988659978">
<ele>30</ele>
</trkpt>
<trkpt lat="39.289559992030263" lon="3.092080978676677">
<ele>31</ele>
</trkpt>
<trkpt lat="39.289555968716741" lon="3.09195701032877">
<ele>30</ele>
</trkpt>
<trkpt lat="39.289557980373502" lon="3.091804040595889">
<ele>30</ele>
</trkpt>
<trkpt lat="39.289544988423586" lon="3.091752994805574">
<ele>29</ele>
</trkpt>
<trkpt lat="39.28955202922225" lon="3.091674037277699">
<ele>29</ele>
</trkpt>
<trkpt lat="39.289527973160148" lon="3.091605976223946">
<ele>28</ele>
</trkpt>
<trkpt lat="39.289496960118413" lon="3.091555014252663">
<ele>27</ele>
</trkpt>
<trkpt lat="39.289438035339117" lon="3.091428028419614">
<ele>27</ele>
</trkpt>
<trkpt lat="39.289439963176847" lon="3.091321997344494">
<ele>26</ele>
</trkpt>
<trkpt lat="39.289441974833608" lon="3.091299030929804">
<ele>26</ele>
</trkpt>
<trkpt lat="39.289492014795542" lon="3.091122005134821">
<ele>24</ele>
</trkpt>
<trkpt lat="39.289494026452303" lon="3.091110019013286">
<ele>24</ele>
</trkpt>
<trkpt lat="39.289557980373502" lon="3.091022009029985">
<ele>25</ele>
</trkpt>
<trkpt lat="39.289697036147118" lon="3.091010022908449">
<ele>25</ele>
</trkpt>
<trkpt lat="39.289725031703711" lon="3.091010022908449">
<ele>25</ele>
</trkpt>
<trkpt lat="39.289803989231586" lon="3.091029971837997">
<ele>25</ele>
</trkpt>
<trkpt lat="39.289985038340092" lon="3.0910540279001">
<ele>26</ele>
</trkpt>
<trkpt lat="39.290061984211206" lon="3.091046987101436">
<ele>26</ele>
</trkpt>
<trkpt lat="39.290156029164791" lon="3.091027038171887">
<ele>26</ele>
</trkpt>
<trkpt lat="39.290235992521048" lon="3.09101496823132">
<ele>27</ele>
</trkpt>
<trkpt lat="39.290333976969123" lon="3.091013040393591">
<ele>27</ele>
</trkpt>
<trkpt lat="39.290512008592486" lon="3.091008011251688">
<ele>27</ele>
</trkpt>
<trkpt lat="39.290575040504336" lon="3.090985966846347">
<ele>27</ele>
</trkpt>
<trkpt lat="39.290709989145398" lon="3.0909279640764">
<ele>27</ele>
</trkpt>
<trkpt lat="39.29084200412035" lon="3.090877002105117">
<ele>27</ele>
</trkpt>
<trkpt lat="39.290859019383788" lon="3.090857975184917">
<ele>27</ele>
</trkpt>
<trkpt lat="39.290902018547058" lon="3.090701987966895">
<ele>26</ele>
</trkpt>
<trkpt lat="39.290925990790129" lon="3.090655971318483">
<ele>26</ele>
</trkpt>
<trkpt lat="39.2909050360322" lon="3.090513981878758">
<ele>26</ele>
</trkpt>
<trkpt lat="39.290896989405155" lon="3.090504007413983">
<ele>25</ele>
</trkpt>
<trkpt lat="39.290816020220518" lon="3.090570978820324">
<ele>25</ele>
</trkpt>
<trkpt lat="39.290753994137049" lon="3.090622024610639">
<ele>23</ele>
</trkpt>
<trkpt lat="39.290661038830876" lon="3.090685978531838">
<ele>21</ele>
</trkpt>
<trkpt lat="39.290604963898659" lon="3.090696958824992">
<ele>19</ele>
</trkpt>
<trkpt lat="39.290495999157429" lon="3.090673992410302">
<ele>17</ele>
</trkpt>
<trkpt lat="39.290388040244579" lon="3.090610038489103">
<ele>15</ele>
</trkpt>
<trkpt lat="39.290264993906021" lon="3.090558992698789">
<ele>13</ele>
</trkpt>
<trkpt lat="39.290146976709366" lon="3.090481963008642">
<ele>11</ele>
</trkpt>
<trkpt lat="39.290031976997852" lon="3.090480035170913">
<ele>9</ele>
</trkpt>
<trkpt lat="39.289980009198189" lon="3.090468971058726">
<ele>7</ele>
</trkpt>
<trkpt lat="39.289880013093352" lon="3.09038900770247">
<ele>5</ele>
</trkpt>
<trkpt lat="39.289839025586843" lon="3.090366963297129">
<ele>4</ele>
</trkpt>
<trkpt lat="39.289736011996865" lon="3.090413985773921">
<ele>3</ele>
</trkpt>
<trkpt lat="39.289666023105383" lon="3.090384984388948">
<ele>2</ele>
</trkpt>
<trkpt lat="39.289539959281683" lon="3.090354977175593">
<ele>1</ele>
</trkpt>
<trkpt lat="39.289452033117414" lon="3.090367969125509">
<ele>0</ele>
</trkpt>
<trkpt lat="39.289407022297382" lon="3.090367969125509">
<ele>1</ele>
</trkpt>
<trkpt lat="39.289405010640621" lon="3.090364029631019">
<ele>2</ele>
</trkpt>
<trkpt lat="39.289350025355816" lon="3.090182980522513">
<ele>3</ele>
</trkpt>
<trkpt lat="39.289256986230612" lon="3.090103017166257">
<ele>5</ele>
</trkpt>
<trkpt lat="39.28923100233078" lon="3.09008901938796">
<ele>6</ele>
</trkpt>
<trkpt lat="39.289123965427279" lon="3.09000302106142">
<ele>5</ele>
</trkpt>
<trkpt lat="39.289095969870687" lon="3.089914005249739">
<ele>5</ele>
</trkpt>
<trkpt lat="39.289113990962505" lon="3.089795988053083">
<ele>4</ele>
</trkpt>
<trkpt lat="39.289063028991222" lon="3.089813003316522">
<ele>3</ele>
</trkpt>
<trkpt lat="39.289052970707417" lon="3.089820966124535">
<ele>2</ele>
</trkpt>
<trkpt lat="39.288849961012602" lon="3.08989598415792">
<ele>1</ele>
</trkpt>
<trkpt lat="39.288833029568195" lon="3.089972008019686">
<ele>1</ele>
</trkpt>
<trkpt lat="39.288838980719447" lon="3.089974019676447">
<ele>0</ele>
</trkpt>
<trkpt lat="39.288837974891067" lon="3.089974019676447">
<ele>1</ele>
</trkpt>
<trkpt lat="39.288837974891067" lon="3.089974019676447">
<ele>1</ele>
</trkpt>
<trkpt lat="39.288837974891067" lon="3.089974019676447">
<ele>2</ele>
</trkpt>
<trkpt lat="39.28884400986135" lon="3.089979970827699">
<ele>3</ele>
</trkpt>
<trkpt lat="39.288867982104421" lon="3.089989023283124">
<ele>4</ele>
</trkpt>
<trkpt lat="39.288903018459678" lon="3.089994974434376">
<ele>4</ele>
</trkpt>
<trkpt lat="39.288833029568195" lon="3.089983994141221">
<ele>5</ele>
</trkpt>
<trkpt lat="39.288848033174872" lon="3.089953986927867">
<ele>5</ele>
</trkpt>
<trkpt lat="39.288848033174872" lon="3.089953986927867">
<ele>6</ele>
</trkpt>
<trkpt lat="39.289009971544147" lon="3.089774027466774">
<ele>5</ele>
</trkpt>
<trkpt lat="39.289060011506081" lon="3.089791964739561">
<ele>4</ele>
</trkpt>
<trkpt lat="39.289085995405912" lon="3.089796993881464">
<ele>4</ele>
</trkpt>
<trkpt lat="39.289082977920771" lon="3.089931020513177">
<ele>3</ele>
</trkpt>
<trkpt lat="39.289148021489382" lon="3.090044008567929">
<ele>3</ele>
</trkpt>
<trkpt lat="39.289162019267678" lon="3.090054988861084">
<ele>3</ele>
</trkpt>
<trkpt lat="39.289304008707404" lon="3.090142998844385">
<ele>2</ele>
</trkpt>
<trkpt lat="39.289328986778855" lon="3.090178035199642">
<ele>2</ele>
</trkpt>
<trkpt lat="39.289424037560821" lon="3.090289011597633">
<ele>1</ele>
</trkpt>
<trkpt lat="39.289414985105395" lon="3.09036604128778">
<ele>1</ele>
</trkpt>
<trkpt lat="39.289483968168497" lon="3.090392025187612">
<ele>1</ele>
</trkpt>
<trkpt lat="39.289549011737108" lon="3.090380961075425">
<ele>2</ele>
</trkpt>
<trkpt lat="39.289648002013564" lon="3.090405017137528">
<ele>4</ele>
</trkpt>
<trkpt lat="39.289731988683343" lon="3.090436030179262">
<ele>5</ele>
</trkpt>
<trkpt lat="39.289823016151786" lon="3.090464025735855">
<ele>7</ele>
</trkpt>
<trkpt lat="39.289911026135087" lon="3.090508030727506">
<ele>9</ele>
</trkpt>
<trkpt lat="39.289985960349441" lon="3.090526973828673">
<ele>10</ele>
</trkpt>
<trkpt lat="39.290123004466295" lon="3.09054197743535">
<ele>12</ele>
</trkpt>
<trkpt lat="39.290245966985822" lon="3.090592017397285">
<ele>14</ele>
</trkpt>
<trkpt lat="39.29032601416111" lon="3.090653037652373">
<ele>16</ele>
</trkpt>
<trkpt lat="39.290421986952424" lon="3.090698970481753">
<ele>17</ele>
</trkpt>
<trkpt lat="39.290533969178796" lon="3.090740041807294">
<ele>19</ele>
</trkpt>
<trkpt lat="39.290614016354084" lon="3.09073300100863">
<ele>20</ele>
</trkpt>
<trkpt lat="39.290719041600823" lon="3.090696036815643">
<ele>22</ele>
</trkpt>
<trkpt lat="39.290791964158416" lon="3.090630993247032">
<ele>23</ele>
</trkpt>
<trkpt lat="39.290856001898646" lon="3.090570978820324">
<ele>24</ele>
</trkpt>
<trkpt lat="39.290904030203819" lon="3.090782035142183">
<ele>26</ele>
</trkpt>
<trkpt lat="39.290849966928363" lon="3.090881025418639">
<ele>27</ele>
</trkpt>
<trkpt lat="39.290834963321686" lon="3.090922012925148">
<ele>29</ele>
</trkpt>
<trkpt lat="39.290631031617522" lon="3.090932993218303">
<ele>30</ele>
</trkpt>
<trkpt lat="39.290518965572119" lon="3.090983033180237">
<ele>30</ele>
</trkpt>
<trkpt lat="39.290516031906009" lon="3.090988984331489">
<ele>30</ele>
</trkpt>
<trkpt lat="39.290350992232561" lon="3.090979009866715">
<ele>30</ele>
</trkpt>
<trkpt lat="39.290238004177809" lon="3.090964006260037">
<ele>30</ele>
</trkpt>
<trkpt lat="39.290180001407862" lon="3.09096802957356">
<ele>29</ele>
</trkpt>
<trkpt lat="39.290070030838251" lon="3.091008011251688">
<ele>29</ele>
</trkpt>
<trkpt lat="39.290028037503362" lon="3.091016979888082">
<ele>30</ele>
</trkpt>
<trkpt lat="39.289947990328074" lon="3.091021003201604">
<ele>30</ele>
</trkpt>
<trkpt lat="39.289851011708379" lon="3.090993007645011">
<ele>30</ele>
</trkpt>
<trkpt lat="39.289761995896697" lon="3.090970041230321">
<ele>30</ele>
</trkpt>
<trkpt lat="39.289644984528422" lon="3.09097196906805">
<ele>30</ele>
</trkpt>
<trkpt lat="39.289627969264984" lon="3.090975992381573">
<ele>31</ele>
</trkpt>
<trkpt lat="39.289524033665657" lon="3.091069031506777">
<ele>31</ele>
</trkpt>
<trkpt lat="39.289510035887361" lon="3.091130973771215">
<ele>31</ele>
</trkpt>
<trkpt lat="39.289439963176847" lon="3.09131202287972">
<ele>32</ele>
</trkpt>
<trkpt lat="39.28946896456182" lon="3.091489970684052">
<ele>32</ele>
</trkpt>
<trkpt lat="39.28955202922225" lon="3.091632965952158">
<ele>32</ele>
</trkpt>
<trkpt lat="39.289568960666656" lon="3.091759029775858">
<ele>32</ele>
</trkpt>
<trkpt lat="39.289568038657308" lon="3.091884003952146">
<ele>33</ele>
</trkpt>
<trkpt lat="39.289570972323418" lon="3.091939995065332">
<ele>33</ele>
</trkpt>
<trkpt lat="39.289581030607224" lon="3.09200000949204">
<ele>31</ele>
</trkpt>
<trkpt lat="39.289598967880011" lon="3.092121966183186">
<ele>30</ele>
</trkpt>
<trkpt lat="39.289567032828927" lon="3.092417009174824">
<ele>28</ele>
</trkpt>
<trkpt lat="39.289542976766825" lon="3.092451961711049">
<ele>26</ele>
</trkpt>
<trkpt lat="39.289438035339117" lon="3.092595040798187">
<ele>24</ele>
</trkpt>
<trkpt lat="39.289428982883692" lon="3.092682966962457">
<ele>24</ele>
</trkpt>
<trkpt lat="39.289390007033944" lon="3.092836020514369">
<ele>22</ele>
</trkpt>
<trkpt lat="39.289333010092378" lon="3.092958983033896">
<ele>20</ele>
</trkpt>
<trkpt lat="39.289286993443966" lon="3.093015979975462">
<ele>19</ele>
</trkpt>
<trkpt lat="39.289238965138793" lon="3.093092003837228">
<ele>17</ele>
</trkpt>
<trkpt lat="39.289248017594218" lon="3.093175990507007">
<ele>17</ele>
</trkpt>
<trkpt lat="39.289277018979192" lon="3.093261988833547">
<ele>17</ele>
</trkpt>
<trkpt lat="39.289353964850307" lon="3.093357961624861">
<ele>17</ele>
</trkpt>
<trkpt lat="39.289433006197214" lon="3.093369025737047">
<ele>17</ele>
</trkpt>
<trkpt lat="39.289556974545121" lon="3.093576980754733">
<ele>17</ele>
</trkpt>
<trkpt lat="39.289580024778843" lon="3.093628026545048">
<ele>17</ele>
</trkpt>
<trkpt lat="39.289759984239936" lon="3.093828018754721">
<ele>17</ele>
</trkpt>
<trkpt lat="39.289803989231586" lon="3.093932960182428">
<ele>17</ele>
</trkpt>
<trkpt lat="39.289835002273321" lon="3.09397897683084">
<ele>17</ele>
</trkpt>
<trkpt lat="39.289870960637927" lon="3.094091964885593">
<ele>17</ele>
</trkpt>
<trkpt lat="39.289936004206538" lon="3.094133036211133">
<ele>17</ele>
</trkpt>
<trkpt lat="39.290011022239923" lon="3.094152985140681">
<ele>17</ele>
</trkpt>
<trkpt lat="39.290188970044255" lon="3.094282988458872">
<ele>17</ele>
</trkpt>
<trkpt lat="39.290218977257609" lon="3.094338979572058">
<ele>18</ele>
</trkpt>
<trkpt lat="39.290347974747419" lon="3.094493038952351">
<ele>18</ele>
</trkpt>
<trkpt lat="39.290358033031225" lon="3.094510976225138">
<ele>18</ele>
</trkpt>
<trkpt lat="39.290497004985809" lon="3.094675010070205">
<ele>18</ele>
</trkpt>
<trkpt lat="39.290508991107345" lon="3.094695964828134">
<ele>18</ele>
</trkpt>
<trkpt lat="39.290589960291982" lon="3.094854969531298">
<ele>18</ele>
</trkpt>
<trkpt lat="39.29060404188931" lon="3.094877013936639">
<ele>18</ele>
</trkpt>
<trkpt lat="39.290751982480288" lon="3.094889000058174">
<ele>19</ele>
</trkpt>
<trkpt lat="39.290860025212169" lon="3.094910038635135">
<ele>19</ele>
</trkpt>
<trkpt lat="39.290980976074934" lon="3.094941973686218">
<ele>20</ele>
</trkpt>
<trkpt lat="39.291091030463576" lon="3.094992013648152">
<ele>21</ele>
</trkpt>
<trkpt lat="39.291218016296625" lon="3.095063008368015">
<ele>22</ele>
</trkpt>
<trkpt lat="39.291274007409811" lon="3.095070971176028">
<ele>22</ele>
</trkpt>
<trkpt lat="39.291403004899621" lon="3.095071977004409">
<ele>23</ele>
</trkpt>
<trkpt lat="39.291510041803122" lon="3.095054039731622">
<ele>24</ele>
</trkpt>
<trkpt lat="39.291620012372732" lon="3.095038030296564">
<ele>24</ele>
</trkpt>
<trkpt lat="39.291670974344015" lon="3.094999976456165">
<ele>25</ele>
</trkpt>
<trkpt lat="39.291821010410786" lon="3.094914983958006">
<ele>26</ele>
</trkpt>
<trkpt lat="39.291949002072215" lon="3.094844995066524">
<ele>28</ele>
</trkpt>
<trkpt lat="39.291998958215117" lon="3.094757990911603">
<ele>29</ele>
</trkpt>
<trkpt lat="39.292036006227136" lon="3.094550035893917">
<ele>30</ele>
</trkpt>
<trkpt lat="39.292101971805096" lon="3.094419026747346">
<ele>31</ele>
</trkpt>
<trkpt lat="39.292114041745663" lon="3.09436496347189">
<ele>31</ele>
</trkpt>
<trkpt lat="39.29215301759541" lon="3.094243006780744">
<ele>32</ele>
</trkpt>
<trkpt lat="39.292185958474874" lon="3.094076039269567">
<ele>33</ele>
</trkpt>
<trkpt lat="39.292215965688229" lon="3.09393497183919">
<ele>34</ele>
</trkpt>
<trkpt lat="39.292225018143654" lon="3.093908987939358">
<ele>35</ele>
</trkpt>
<trkpt lat="39.292223006486893" lon="3.093739002943039">
<ele>35</ele>
</trkpt>
<trkpt lat="39.29223901592195" lon="3.093660967424512">
<ele>35</ele>
</trkpt>
<trkpt lat="39.292278997600079" lon="3.093528030440211">
<ele>35</ele>
</trkpt>
<trkpt lat="39.292290983721614" lon="3.093529036268592">
<ele>35</ele>
</trkpt>
<trkpt lat="39.292406989261508" lon="3.093559965491295">
<ele>35</ele>
</trkpt>
<trkpt lat="39.29243003949523" lon="3.093560971319675">
<ele>34</ele>
</trkpt>
<trkpt lat="39.292594995349646" lon="3.093495005741715">
<ele>34</ele>
</trkpt>
<trkpt lat="39.292695997282863" lon="3.09354797936976">
<ele>34</ele>
</trkpt>
<trkpt lat="39.292722987011075" lon="3.093538004904985">
<ele>34</ele>
</trkpt>
<trkpt lat="39.292749976739287" lon="3.093544039875269">
<ele>35</ele>
</trkpt>
<trkpt lat="39.292783001437783" lon="3.093550996854901">
<ele>34</ele>
</trkpt>
<trkpt lat="39.292921973392367" lon="3.093478996306658">
<ele>34</ele>
</trkpt>
<trkpt lat="39.29294703528285" lon="3.093423005193472">
<ele>33</ele>
</trkpt>
<trkpt lat="39.293086007237434" lon="3.093302976340056">
<ele>33</ele>
</trkpt>
<trkpt lat="39.293106039986014" lon="3.093283027410507">
<ele>32</ele>
</trkpt>
<trkpt lat="39.293233025819063" lon="3.093185964971781">
<ele>31</ele>
</trkpt>
<trkpt lat="39.293285999447107" lon="3.092977004125714">
<ele>31</ele>
</trkpt>
<trkpt lat="39.293276024982333" lon="3.09292302466929">
<ele>30</ele>
</trkpt>
<trkpt lat="39.2933139950037" lon="3.092854963615537">
<ele>30</ele>
</trkpt>
<trkpt lat="39.293359005823731" lon="3.092768965288997">
<ele>29</ele>
</trkpt>
<trkpt lat="39.293408039957285" lon="3.092824034392834">
<ele>29</ele>
</trkpt>
<trkpt lat="39.293445004150271" lon="3.092916989699006">
<ele>29</ele>
</trkpt>
<trkpt lat="39.293461013585329" lon="3.092992007732391">
<ele>30</ele>
</trkpt>
<trkpt lat="39.293517004698515" lon="3.093072976917028">
<ele>30</ele>
</trkpt>
<trkpt lat="39.293607026338577" lon="3.093156963586807">
<ele>30</ele>
</trkpt>
<trkpt lat="39.293666034936905" lon="3.093271963298321">
<ele>30</ele>
</trkpt>
<trkpt lat="39.293663017451763" lon="3.093432979658246">
<ele>30</ele>
</trkpt>
<trkpt lat="39.293693024665117" lon="3.093582009896636">
<ele>31</ele>
</trkpt>
<trkpt lat="39.293695958331227" lon="3.093670019879937">
<ele>31</ele>
</trkpt>
<trkpt lat="39.293663017451763" lon="3.093739002943039">
<ele>31</ele>
</trkpt>
<trkpt lat="39.293603003025055" lon="3.093862971290946">
<ele>31</ele>
</trkpt>
<trkpt lat="39.293600991368294" lon="3.093941006809473">
<ele>31</ele>
</trkpt>
<trkpt lat="39.293609960004687" lon="3.094087019562721">
<ele>31</ele>
</trkpt>
<trkpt lat="39.29365698248148" lon="3.094226997345686">
<ele>31</ele>
</trkpt>
<trkpt lat="39.293736023828387" lon="3.094392037019134">
<ele>31</ele>
</trkpt>
<trkpt lat="39.29378698579967" lon="3.094506030902267">
<ele>31</ele>
</trkpt>
<trkpt lat="39.293799977749586" lon="3.094541989266872">
<ele>31</ele>
</trkpt>
<trkpt lat="39.293854963034391" lon="3.094660006463528">
<ele>31</ele>
</trkpt>
<trkpt lat="39.293943978846073" lon="3.09479596093297">
<ele>31</ele>
</trkpt>
<trkpt lat="39.294070964679122" lon="3.094855975359678">
<ele>31</ele>
</trkpt>
<trkpt lat="39.29408797994256" lon="3.094867961481214">
<ele>31</ele>
</trkpt>
<trkpt lat="39.294124022126198" lon="3.095108019188047">
<ele>31</ele>
</trkpt>
<trkpt lat="39.294101977720857" lon="3.095143977552652">
<ele>32</ele>
</trkpt>
<trkpt lat="39.294034000486135" lon="3.095185970887542">
<ele>32</ele>
</trkpt>
<trkpt lat="39.293953031301498" lon="3.095381017774344">
<ele>32</ele>
</trkpt>
<trkpt lat="39.2939149774611" lon="3.095526024699211">
<ele>32</ele>
</trkpt>
<trkpt lat="39.293900979682803" lon="3.095573969185352">
<ele>32</ele>
</trkpt>
<trkpt lat="39.293767036870122" lon="3.095680000260472">
<ele>33</ele>
</trkpt>
<trkpt lat="39.293651031330228" lon="3.095787959173322">
<ele>33</ele>
</trkpt>
<trkpt lat="39.293587999418378" lon="3.095859037712216">
<ele>33</ele>
</trkpt>
<trkpt lat="39.293513987213373" lon="3.095964984968305">
<ele>33</ele>
</trkpt>
<trkpt lat="39.293477023020387" lon="3.096089037135243">
<ele>33</ele>
</trkpt>
<trkpt lat="39.29339999333024" lon="3.09623203240335">
<ele>33</ele>
</trkpt>
<trkpt lat="39.293342996388674" lon="3.096321970224381">
<ele>33</ele>
</trkpt>
<trkpt lat="39.293311983346939" lon="3.096351977437735">
<ele>33</ele>
</trkpt>
<trkpt lat="39.293251968920231" lon="3.096564961597323">
<ele>33</ele>
</trkpt>
<trkpt lat="39.29322799667716" lon="3.096761014312506">
<ele>33</ele>
</trkpt>
<trkpt lat="39.293230008333921" lon="3.096788004040718">
<ele>33</ele>
</trkpt>
<trkpt lat="39.293256998062134" lon="3.096808036789298">
<ele>33</ele>
</trkpt>
<trkpt lat="39.293280970305204" lon="3.096915995702148">
<ele>33</ele>
</trkpt>
<trkpt lat="39.293336039409041" lon="3.09709201566875">
<ele>33</ele>
</trkpt>
<trkpt lat="39.293364034965634" lon="3.097162004560232">
<ele>33</ele>
</trkpt>
<trkpt lat="39.293413991108537" lon="3.097303993999958">
<ele>33</ele>
</trkpt>
<trkpt lat="39.293437963351607" lon="3.09739300981164">
<ele>33</ele>
</trkpt>
<trkpt lat="39.293455984443426" lon="3.097556037828326">
<ele>32</ele>
</trkpt>
<trkpt lat="39.293486997485161" lon="3.097641030326486">
<ele>32</ele>
</trkpt>
<trkpt lat="39.293539971113205" lon="3.097795005887747">
<ele>32</ele>
</trkpt>
<trkpt lat="39.29354801774025" lon="3.097920985892415">
<ele>32</ele>
</trkpt>
<trkpt lat="39.293577019125223" lon="3.098031962290406">
<ele>32</ele>
</trkpt>
<trkpt lat="39.293569978326559" lon="3.098034979775548">
<ele>32</ele>
</trkpt>
<trkpt lat="39.293682966381311" lon="3.098330022767186">
<ele>32</ele>
</trkpt>
<trkpt lat="39.293692018836737" lon="3.098368998616934">
<ele>33</ele>
</trkpt>
<trkpt lat="39.293744992464781" lon="3.098562033846974">
<ele>34</ele>
</trkpt>
<trkpt lat="39.293797966092825" lon="3.098699999973178">
<ele>34</ele>
</trkpt>
<trkpt lat="39.293894022703171" lon="3.098758002743125">
<ele>34</ele>
</trkpt>
<trkpt lat="39.293987983837724" lon="3.09885498136282">
<ele>35</ele>
</trkpt>
<trkpt lat="39.294029977172613" lon="3.09894198551774">
<ele>36</ele>
</trkpt>
<trkpt lat="39.294076999649405" lon="3.099032007157803">
<ele>36</ele>
</trkpt>
<trkpt lat="39.294159980490804" lon="3.099179025739431">
<ele>36</ele>
</trkpt>
<trkpt lat="39.294271962717175" lon="3.099325960502029">
<ele>37</ele>
</trkpt>
<trkpt lat="39.294353015720844" lon="3.099512038752437">
<ele>37</ele>
</trkpt>
<trkpt lat="39.294441025704145" lon="3.099681017920375">
<ele>37</ele>
</trkpt>
<trkpt lat="39.294549990445375" lon="3.099833987653256">
<ele>37</ele>
</trkpt>
<trkpt lat="39.29458100348711" lon="3.099870029836893">
<ele>37</ele>
</trkpt>
<trkpt lat="39.294700026512146" lon="3.100028028711677">
<ele>36</ele>
</trkpt>
<trkpt lat="39.29477202706039" lon="3.100083013996482">
<ele>36</ele>
</trkpt>
<trkpt lat="39.294832041487098" lon="3.100159959867597">
<ele>36</ele>
</trkpt>
<trkpt lat="39.294843021780252" lon="3.100359030067921">
<ele>36</ele>
</trkpt>
<trkpt lat="39.294870011508465" lon="3.100418960675597">
<ele>36</ele>
</trkpt>
<trkpt lat="39.294999008998275" lon="3.100533960387111">
<ele>36</ele>
</trkpt>
<trkpt lat="39.295089030638337" lon="3.100621970370412">
<ele>36</ele>
</trkpt>
<trkpt lat="39.295164970681071" lon="3.10068198479712">
<ele>36</ele>
</trkpt>
<trkpt lat="39.295336967334151" lon="3.100765971466899">
<ele>37</ele>
</trkpt>
<trkpt lat="39.295377032831311" lon="3.100823974236846">
<ele>37</ele>
</trkpt>
<trkpt lat="39.295517010614276" lon="3.100923970341682">
<ele>37</ele>
</trkpt>
<trkpt lat="39.295545006170869" lon="3.100965963676572">
<ele>37</ele>
</trkpt>
<trkpt lat="39.295646008104086" lon="3.1010249722749">
<ele>37</ele>
</trkpt>
<trkpt lat="39.295766958966851" lon="3.101156987249851">
<ele>38</ele>
</trkpt>
<trkpt lat="39.295820016413927" lon="3.101183976978064">
<ele>38</ele>
</trkpt>
<trkpt lat="39.295990001410246" lon="3.101204009726644">
<ele>38</ele>
</trkpt>
<trkpt lat="39.296041969209909" lon="3.101217001676559">
<ele>38</ele>
</trkpt>
<trkpt lat="39.296116987243295" lon="3.101296965032816">
<ele>37</ele>
</trkpt>
<trkpt lat="39.296158980578184" lon="3.101356979459524">
<ele>37</ele>
</trkpt>
<trkpt lat="39.296253025531769" lon="3.10145596973598">
<ele>37</ele>
</trkpt>
<trkpt lat="39.296319996938109" lon="3.101571975275874">
<ele>36</ele>
</trkpt>
<trkpt lat="39.296330977231264" lon="3.101612040773034">
<ele>36</ele>
</trkpt>
<trkpt lat="39.296398032456636" lon="3.101767022162676">
<ele>36</ele>
</trkpt>
<trkpt lat="39.29638403467834" lon="3.101805998012424">
<ele>36</ele>
</trkpt>
<trkpt lat="39.296391997486353" lon="3.101910017430782">
<ele>35</ele>
</trkpt>
<trkpt lat="39.296382023021579" lon="3.101932983845472">
<ele>35</ele>
</trkpt>
<trkpt lat="39.296385962516069" lon="3.101967014372349">
<ele>33</ele>
</trkpt>
<trkpt lat="39.296382023021579" lon="3.101990986615419">
<ele>31</ele>
</trkpt>
<trkpt lat="39.296395014971495" lon="3.102029962465167">
<ele>29</ele>
</trkpt>
<trkpt lat="39.296431979164481" lon="3.102074973285198">
<ele>27</ele>
</trkpt>
<trkpt lat="39.296545973047614" lon="3.102213023230434">
<ele>24</ele>
</trkpt>
<trkpt lat="39.296727022156119" lon="3.102255016565323">
<ele>22</ele>
</trkpt>
<trkpt lat="39.296763986349106" lon="3.102294998243451">
<ele>20</ele>
</trkpt>
<trkpt lat="39.296817965805531" lon="3.102377979084849">
<ele>18</ele>
</trkpt>
<trkpt lat="39.296866999939084" lon="3.10248501598835">
<ele>16</ele>
</trkpt>
<trkpt lat="39.296935983002186" lon="3.102478981018066">
<ele>14</ele>
</trkpt>
<trkpt lat="39.297012006863952" lon="3.102470012381673">
<ele>15</ele>
</trkpt>
<trkpt lat="39.297046037390828" lon="3.102478981018066">
<ele>16</ele>
</trkpt>
<trkpt lat="39.297037990763783" lon="3.102471018210053">
<ele>17</ele>
</trkpt>
<trkpt lat="39.297037990763783" lon="3.102471018210053">
<ele>18</ele>
</trkpt>
<trkpt lat="39.297084007412195" lon="3.102656006813049">
<ele>19</ele>
</trkpt>
<trkpt lat="39.297060035169125" lon="3.102749967947602">
<ele>20</ele>
</trkpt>
<trkpt lat="39.297046959400177" lon="3.102789027616382">
<ele>20</ele>
</trkpt>
<trkpt lat="39.297033967450261" lon="3.102901009842753">
<ele>21</ele>
</trkpt>
<trkpt lat="39.297019969671965" lon="3.103079041466117">
<ele>22</ele>
</trkpt>
<trkpt lat="39.297095993533731" lon="3.103145007044077">
<ele>23</ele>
</trkpt>
<trkpt lat="39.297149972990155" lon="3.103257995098829">
<ele>24</ele>
</trkpt>
<trkpt lat="39.297144021838903" lon="3.103266041725874">
<ele>25</ele>
</trkpt>
<trkpt lat="39.297129018232226" lon="3.103282973170281">
<ele>26</ele>
</trkpt>
<trkpt lat="39.297130024060607" lon="3.103282973170281">
<ele>27</ele>
</trkpt>
<trkpt lat="39.297130024060607" lon="3.103282973170281">
<ele>27</ele>
</trkpt>
<trkpt lat="39.297130024060607" lon="3.103282973170281">
<ele>26</ele>
</trkpt>
<trkpt lat="39.297130024060607" lon="3.103282973170281">
<ele>26</ele>
</trkpt>
<trkpt lat="39.297130024060607" lon="3.103282973170281">
<ele>25</ele>
</trkpt>
<trkpt lat="39.297130024060607" lon="3.103282973170281">
<ele>24</ele>
</trkpt>
<trkpt lat="39.297147039324045" lon="3.10325900092721">
<ele>23</ele>
</trkpt>
<trkpt lat="39.297348959371448" lon="3.103234022855759">
<ele>24</ele>
</trkpt>
<trkpt lat="39.297363962978125" lon="3.103227987885475">
<ele>26</ele>
</trkpt>
<trkpt lat="39.29739698767662" lon="3.103194963186979">
<ele>26</ele>
</trkpt>
<trkpt lat="39.297446021810174" lon="3.103073006495833">
<ele>27</ele>
</trkpt>
<trkpt lat="39.297479968518019" lon="3.102924982085824">
<ele>28</ele>
</trkpt>
<trkpt lat="39.297494972124696" lon="3.102883994579315">
<ele>29</ele>
</trkpt>
<trkpt lat="39.297597985714674" lon="3.102832026779652">
<ele>30</ele>
</trkpt>
<trkpt lat="39.297690019011497" lon="3.102788021788001">
<ele>30</ele>
</trkpt>
<trkpt lat="39.297694964334369" lon="3.102779975160956">
<ele>31</ele>
</trkpt>
<trkpt lat="39.297794038429856" lon="3.102730019018054">
<ele>32</ele>
</trkpt>
<trkpt lat="39.297964023426175" lon="3.102791039273143">
<ele>33</ele>
</trkpt>
<trkpt lat="39.298086985945702" lon="3.102833032608032">
<ele>33</ele>
</trkpt>
<trkpt lat="39.298107018694282" lon="3.102835966274142">
<ele>33</ele>
</trkpt>
<trkpt lat="39.298224030062556" lon="3.102932022884488">
<ele>35</ele>
</trkpt>
<trkpt lat="39.298252025619149" lon="3.102927999570966">
<ele>36</ele>
</trkpt>
<trkpt lat="39.298312040045857" lon="3.102877037599683">
<ele>36</ele>
</trkpt>
<trkpt lat="39.298379011452198" lon="3.102950965985656">
<ele>36</ele>
</trkpt>
<trkpt lat="39.298403989523649" lon="3.103113994002342">
<ele>37</ele>
</trkpt>
<trkpt lat="39.29840499535203" lon="3.103122962638736">
<ele>38</ele>
</trkpt>
<trkpt lat="39.298504991456866" lon="3.103283978998661">
<ele>38</ele>
</trkpt>
<trkpt lat="39.298625020310283" lon="3.103331001475453">
<ele>38</ele>
</trkpt>
<trkpt lat="39.298701966181397" lon="3.103394033387303">
<ele>38</ele>
</trkpt>
<trkpt lat="39.298740020021796" lon="3.103426974266768">
<ele>39</ele>
</trkpt>
<trkpt lat="39.298787964507937" lon="3.10349503532052">
<ele>39</ele>
</trkpt>
<trkpt lat="39.298945963382721" lon="3.103542979806662">
<ele>39</ele>
</trkpt>
<trkpt lat="39.299013018608093" lon="3.103571981191635">
<ele>39</ele>
</trkpt>
<trkpt lat="39.299210999161005" lon="3.103613974526525">
<ele>40</ele>
</trkpt>
<trkpt lat="39.299338990822434" lon="3.103627972304821">
<ele>41</ele>
</trkpt>
<trkpt lat="39.299368998035789" lon="3.103633001446724">
<ele>41</ele>
</trkpt>
<trkpt lat="39.299517022445798" lon="3.103651022538543">
<ele>41</ele>
</trkpt>
<trkpt lat="39.299562033265829" lon="3.103699972853065">
<ele>41</ele>
</trkpt>
<trkpt lat="39.29969597607851" lon="3.103757975623012">
<ele>41</ele>
</trkpt>
<trkpt lat="39.299739981070161" lon="3.103757975623012">
<ele>41</ele>
</trkpt>
<trkpt lat="39.299881970509887" lon="3.103643981739879">
<ele>41</ele>
</trkpt>
<trkpt lat="39.300009962171316" lon="3.10358002781868">
<ele>41</ele>
</trkpt>
<trkpt lat="39.300138959661126" lon="3.10360400006175">
<ele>42</ele>
</trkpt>
<trkpt lat="39.300171984359622" lon="3.103601988404989">
<ele>42</ele>
</trkpt>
<trkpt lat="39.300225041806698" lon="3.10362302698195">
<ele>42</ele>
</trkpt>
<trkpt lat="39.300308022648096" lon="3.103627972304821">
<ele>42</ele>
</trkpt>
<trkpt lat="39.30038396269083" lon="3.103769961744547">
<ele>43</ele>
</trkpt>
<trkpt lat="39.300454035401344" lon="3.103870041668415">
<ele>43</ele>
</trkpt>
<trkpt lat="39.300482030957937" lon="3.103918991982937">
<ele>43</ele>
</trkpt>
<trkpt lat="39.300645980983973" lon="3.10401001945138">
<ele>44</ele>
</trkpt>
<trkpt lat="39.300776990130544" lon="3.104091994464397">
<ele>44</ele>
</trkpt>
<trkpt lat="39.300823006778955" lon="3.104123007506132">
<ele>44</ele>
</trkpt>
<trkpt lat="39.300880003720522" lon="3.10418201610446">
<ele>44</ele>
</trkpt>
<trkpt lat="39.300969019532204" lon="3.104296009987593">
<ele>44</ele>
</trkpt>
<trkpt lat="39.301002966240048" lon="3.10435501858592">
<ele>45</ele>
</trkpt>
<trkpt lat="39.301100028678775" lon="3.104450991377235">
<ele>45</ele>
</trkpt>
<trkpt lat="39.301163982599974" lon="3.104536989703775">
<ele>45</ele>
</trkpt>
<trkpt lat="39.301298009231687" lon="3.104689037427306">
<ele>45</ele>
</trkpt>
<trkpt lat="39.3013059720397" lon="3.104695994406939">
<ele>46</ele>
</trkpt>
<trkpt lat="39.301426000893116" lon="3.104859022423625">
<ele>46</ele>
</trkpt>
<trkpt lat="39.301447039470077" lon="3.104876037687063">
<ele>46</ele>
</trkpt>
<trkpt lat="39.301658011972904" lon="3.10497896745801">
<ele>45</ele>
</trkpt>
<trkpt lat="39.301772005856037" lon="3.105125986039639">
<ele>45</ele>
</trkpt>
<trkpt lat="39.30177703499794" lon="3.105136966332793">
<ele>45</ele>
</trkpt>
<trkpt lat="39.301899997517467" lon="3.105245009064674">
<ele>45</ele>
</trkpt>
<trkpt lat="39.301944002509117" lon="3.105284990742803">
<ele>45</ele>
</trkpt>
<trkpt lat="39.302016003057361" lon="3.105408037081361">
<ele>45</ele>
</trkpt>
<trkpt lat="39.302105018869042" lon="3.105466961860657">
<ele>45</ele>
</trkpt>
<trkpt lat="39.302155980840325" lon="3.105539968237281">
<ele>45</ele>
</trkpt>
<trkpt lat="39.302213983610272" lon="3.105611968785524">
<ele>45</ele>
</trkpt>
<trkpt lat="39.302279027178884" lon="3.105697967112064">
<ele>45</ele>
</trkpt>
<trkpt lat="39.302301993593574" lon="3.105748007073999">
<ele>46</ele>
</trkpt>
<trkpt lat="39.302385980263352" lon="3.105924027040601">
<ele>46</ele>
</trkpt>
<trkpt lat="39.302407018840313" lon="3.105973983183503">
<ele>46</ele>
</trkpt>
<trkpt lat="39.302442977204919" lon="3.106099963188171">
<ele>46</ele>
</trkpt>
<trkpt lat="39.302459992468357" lon="3.106162995100021">
<ele>46</ele>
</trkpt>
<trkpt lat="39.302488993853331" lon="3.106339015066624">
<ele>46</ele>
</trkpt>
<trkpt lat="39.302501985803246" lon="3.106362987309694">
<ele>46</ele>
</trkpt>
<trkpt lat="39.302555965259671" lon="3.106530038639903">
<ele>46</ele>
</trkpt>
<trkpt lat="39.302564011886716" lon="3.106604972854257">
<ele>46</ele>
</trkpt>
<trkpt lat="39.302631989121437" lon="3.106774035841227">
<ele>46</ele>
</trkpt>
<trkpt lat="39.302642969414592" lon="3.106899010017514">
<ele>46</ele>
</trkpt>
<trkpt lat="39.302638024091721" lon="3.106941003352404">
<ele>47</ele>
</trkpt>
<trkpt lat="39.302649004384875" lon="3.107134038582444">
<ele>48</ele>
</trkpt>
<trkpt lat="39.302641041576862" lon="3.107179971411824">
<ele>48</ele>
</trkpt>
<trkpt lat="39.302644981071353" lon="3.107186006382108">
<ele>48</ele>
</trkpt>
<trkpt lat="39.302647998556495" lon="3.10727896168828">
<ele>48</ele>
</trkpt>
<trkpt lat="39.302636012434959" lon="3.107395973056555">
<ele>48</ele>
</trkpt>
<trkpt lat="39.302587984129786" lon="3.107480965554714">
<ele>48</ele>
</trkpt>
<trkpt lat="39.302596030756831" lon="3.107522036880255">
<ele>49</ele>
</trkpt>
<trkpt lat="39.302645986899734" lon="3.107695961371064">
<ele>49</ele>
</trkpt>
<trkpt lat="39.302687980234623" lon="3.107847003266215">
<ele>49</ele>
</trkpt>
<trkpt lat="39.302725028246641" lon="3.107954040169716">
<ele>49</ele>
</trkpt>
<trkpt lat="39.302718993276358" lon="3.10798698104918">
<ele>49</ele>
</trkpt>
<trkpt lat="39.302649004384875" lon="3.108166018500924">
<ele>50</ele>
</trkpt>
<trkpt lat="39.302652021870017" lon="3.108216980472207">
<ele>50</ele>
</trkpt>
<trkpt lat="39.302657973021269" lon="3.108247993513942">
<ele>51</ele>
</trkpt>
<trkpt lat="39.302716981619596" lon="3.108526021242142">
<ele>51</ele>
</trkpt>
<trkpt lat="39.302715975791216" lon="3.108555022627115">
<ele>51</ele>
</trkpt>
<trkpt lat="39.302718993276358" lon="3.108654012903571">
<ele>52</ele>
</trkpt>
<trkpt lat="39.302707007154822" lon="3.108693994581699">
<ele>52</ele>
</trkpt>
<trkpt lat="39.302684040740132" lon="3.108854005113244">
<ele>52</ele>
</trkpt>
<trkpt lat="39.302682029083371" lon="3.108885018154979">
<ele>52</ele>
</trkpt>
<trkpt lat="39.302639029920101" lon="3.109086016193032">
<ele>52</ele>
</trkpt>
<trkpt lat="39.302626037970185" lon="3.109240997582674">
<ele>53</ele>
</trkpt>
<trkpt lat="39.302626959979534" lon="3.109259018674493">
<ele>53</ele>
</trkpt>
<trkpt lat="39.302678005769849" lon="3.109390027821064">
<ele>53</ele>
</trkpt>
<trkpt lat="39.302709018811584" lon="3.109415005892515">
<ele>53</ele>
</trkpt>
<trkpt lat="39.302851008251309" lon="3.109449036419392">
<ele>53</ele>
</trkpt>
<trkpt lat="39.302955027669668" lon="3.109459010884166">
<ele>55</ele>
</trkpt>
<trkpt lat="39.302977994084358" lon="3.109461022540927">
<ele>55</ele>
</trkpt>
<trkpt lat="39.303072961047292" lon="3.109542997553945">
<ele>55</ele>
</trkpt>
<trkpt lat="39.303088970482349" lon="3.109562024474144">
<ele>55</ele>
</trkpt>
<trkpt lat="39.303187960758805" lon="3.109722035005689">
<ele>55</ele>
</trkpt>
<trkpt lat="39.303220985457301" lon="3.109811972826719">
<ele>56</ele>
</trkpt>
<trkpt lat="39.303365992382169" lon="3.109922027215362">
<ele>56</ele>
</trkpt>
<trkpt lat="39.303446039557457" lon="3.110044989734888">
<ele>56</ele>
</trkpt>
<trkpt lat="39.303531032055616" lon="3.110053036361933">
<ele>55</ele>
</trkpt>
<trkpt lat="39.303697999566793" lon="3.110002996399999">
<ele>55</ele>
</trkpt>
<trkpt lat="39.303790032863617" lon="3.109965026378632">
<ele>54</ele>
</trkpt>
<trkpt lat="39.303865972906351" lon="3.110038032755256">
<ele>53</ele>
</trkpt>
<trkpt lat="39.303877037018538" lon="3.110011965036392">
<ele>54</ele>
</trkpt>
<trkpt lat="39.303895980119705" lon="3.110007019713521">
<ele>53</ele>
</trkpt>
<trkpt lat="39.304107036441565" lon="3.110065022483468">
<ele>53</ele>
</trkpt>
<trkpt lat="39.304151963442564" lon="3.110078014433384">
<ele>52</ele>
</trkpt>
<trkpt lat="39.304207032546401" lon="3.110101986676455">
<ele>51</ele>
</trkpt>
<trkpt lat="39.30420602671802" lon="3.110103998333216">
<ele>51</ele>
</trkpt>
<trkpt lat="39.304263023659587" lon="3.110055970028043">
<ele>50</ele>
</trkpt>
<trkpt lat="39.304301999509335" lon="3.110066028311849">
<ele>49</ele>
</trkpt>
<trkpt lat="39.304310968145728" lon="3.110055970028043">
<ele>49</ele>
</trkpt>
<trkpt lat="39.304361008107662" lon="3.11000601388514">
<ele>48</ele>
</trkpt>
<trkpt lat="39.30444298312068" lon="3.109999978914857">
<ele>49</ele>
</trkpt>
<trkpt lat="39.30457298643887" lon="3.109973995015025">
<ele>48</ele>
</trkpt>
<trkpt lat="39.304612968116999" lon="3.109970977529883">
<ele>47</ele>
</trkpt>
<trkpt lat="39.304778007790446" lon="3.110014982521534">
<ele>47</ele>
</trkpt>
<trkpt lat="39.304836010560393" lon="3.110057981684804">
<ele>45</ele>
</trkpt>
<trkpt lat="39.30491597391665" lon="3.11009201221168">
<ele>46</ele>
</trkpt>
<trkpt lat="39.305070033296943" lon="3.110211035236716">
<ele>45</ele>
</trkpt>
<trkpt lat="39.305160976946354" lon="3.110280018299818">
<ele>45</ele>
</trkpt>
<trkpt lat="39.305185033008456" lon="3.110324023291469">
<ele>45</ele>
</trkpt>
<trkpt lat="39.305252004414797" lon="3.110361993312836">
<ele>45</ele>
</trkpt>
<trkpt lat="39.305357029661536" lon="3.110440028831363">
<ele>45</ele>
</trkpt>
<trkpt lat="39.305526008829474" lon="3.110470036044717">
<ele>46</ele>
</trkpt>
<trkpt lat="39.30547496303916" lon="3.110460983589292">
<ele>47</ele>
</trkpt>
<trkpt lat="39.305375972762704" lon="3.110442040488124">
<ele>47</ele>
</trkpt>
<trkpt lat="39.305391982197762" lon="3.110442040488124">
<ele>47</ele>
</trkpt>
<trkpt lat="39.305417966097593" lon="3.110451009124517">
<ele>47</ele>
</trkpt>
<trkpt lat="39.30551796220243" lon="3.110468024387956">
<ele>48</ele>
</trkpt>
<trkpt lat="39.305556016042829" lon="3.110496019944549">
<ele>48</ele>
</trkpt>
<trkpt lat="39.305713009089231" lon="3.110580006614327">
<ele>47</ele>
</trkpt>
<trkpt lat="39.305876037105918" lon="3.110779998824">
<ele>46</ele>
</trkpt>
<trkpt lat="39.305938985198736" lon="3.110806988552213">
<ele>46</ele>
</trkpt>
<trkpt lat="39.306003022938967" lon="3.110899021849036">
<ele>46</ele>
</trkpt>
<trkpt lat="39.306067982688546" lon="3.110984014347196">
<ele>47</ele>
</trkpt>
<trkpt lat="39.306172002106905" lon="3.111052997410297">
<ele>47</ele>
</trkpt>
<trkpt lat="39.306212989613414" lon="3.111075041815639">
<ele>46</ele>
</trkpt>
<trkpt lat="39.306475007906556" lon="3.111196998506784">
<ele>46</ele>
</trkpt>
<trkpt lat="39.306578021496534" lon="3.111304035410285">
<ele>46</ele>
</trkpt>
<trkpt lat="39.306686986237764" lon="3.111415011808276">
<ele>46</ele>
</trkpt>
<trkpt lat="39.3066989723593" lon="3.111422974616289">
<ele>46</ele>
</trkpt>
<trkpt lat="39.306810032576323" lon="3.111589020118117">
<ele>46</ele>
</trkpt>
<trkpt lat="39.30691204033792" lon="3.111721035093069">
<ele>45</ele>
</trkpt>
<trkpt lat="39.307054029777646" lon="3.111825976520777">
<ele>44</ele>
</trkpt>
<trkpt lat="39.307158971205354" lon="3.11189797706902">
<ele>45</ele>
</trkpt>
<trkpt lat="39.307254021987319" lon="3.111958997324109">
<ele>44</ele>
</trkpt>
<trkpt lat="39.307319987565279" lon="3.112001996487379">
<ele>43</ele>
</trkpt>
<trkpt lat="39.307444039732218" lon="3.112052958458662">
<ele>42</ele>
</trkpt>
<trkpt lat="39.307565996423364" lon="3.112211041152477">
<ele>42</ele>
</trkpt>
<trkpt lat="39.307586029171944" lon="3.112264014780521">
<ele>42</ele>
</trkpt>
<trkpt lat="39.307731036096811" lon="3.112490996718407">
<ele>42</ele>
</trkpt>
<trkpt lat="39.307803036645055" lon="3.112591998651624">
<ele>42</ele>
</trkpt>
<trkpt lat="39.307819968089461" lon="3.112632986158133">
<ele>42</ele>
</trkpt>
<trkpt lat="39.307873025536537" lon="3.112774975597858">
<ele>41</ele>
</trkpt>
<trkpt lat="39.307948965579271" lon="3.112872038036585">
<ele>41</ele>
</trkpt>
<trkpt lat="39.308042004704475" lon="3.112961975857616">
<ele>42</ele>
</trkpt>
<trkpt lat="39.30807201191783" lon="3.113007992506027">
<ele>42</ele>
</trkpt>
<trkpt lat="39.308147029951215" lon="3.113161968067288">
<ele>41</ele>
</trkpt>
<trkpt lat="39.308191034942865" lon="3.11335701495409">
<ele>41</ele>
</trkpt>
<trkpt lat="39.308211989700794" lon="3.113380987197161">
<ele>40</ele>
</trkpt>
<trkpt lat="39.308293964713812" lon="3.113534040749073">
<ele>41</ele>
</trkpt>
<trkpt lat="39.308336041867733" lon="3.113606041297317">
<ele>41</ele>
</trkpt>
<trkpt lat="39.308404019102454" lon="3.113698996603489">
<ele>41</ele>
</trkpt>
<trkpt lat="39.308509966358542" lon="3.113896977156401">
<ele>40</ele>
</trkpt>
<trkpt lat="39.308522958308458" lon="3.113919021561742">
<ele>40</ele>
</trkpt>
<trkpt lat="39.308580039069057" lon="3.114123959094286">
<ele>40</ele>
</trkpt>
<trkpt lat="39.308679029345512" lon="3.114233007654548">
<ele>41</ele>
</trkpt>
<trkpt lat="39.308700989931822" lon="3.114272989332676">
<ele>41</ele>
</trkpt>
<trkpt lat="39.308767961338162" lon="3.114378014579415">
<ele>41</ele>
</trkpt>
<trkpt lat="39.308911040425301" lon="3.114441968500614">
<ele>40</ele>
</trkpt>
<trkpt lat="39.308920009061694" lon="3.114450015127659">
<ele>40</ele>
</trkpt>
<trkpt lat="39.309013970196247" lon="3.114526038989425">
<ele>40</ele>
</trkpt>
<trkpt lat="39.309060992673039" lon="3.114544982090592">
<ele>40</ele>
</trkpt>
<trkpt lat="39.309198958799243" lon="3.114587981253862">
<ele>38</ele>
</trkpt>
<trkpt lat="39.309299038723111" lon="3.114631986245513">
<ele>37</ele>
</trkpt>
<trkpt lat="39.309318987652659" lon="3.114653024822474">
<ele>37</ele>
</trkpt>
<trkpt lat="39.309468017891049" lon="3.114705998450518">
<ele>37</ele>
</trkpt>
<trkpt lat="39.309533983469009" lon="3.114718990400434">
<ele>37</ele>
</trkpt>
<trkpt lat="39.309633979573846" lon="3.114694012328982">
<ele>36</ele>
</trkpt>
<trkpt lat="39.309745961800218" lon="3.114789985120297">
<ele>35</ele>
</trkpt>
<trkpt lat="39.309750990942121" lon="3.114798031747341">
<ele>34</ele>
</trkpt>
<trkpt lat="39.309842018410563" lon="3.114811023697257">
<ele>34</ele>
</trkpt>
<trkpt lat="39.309898009523749" lon="3.114856034517288">
<ele>33</ele>
</trkpt>
<trkpt lat="39.310006974264979" lon="3.114957036450505">
<ele>33</ele>
</trkpt>
<trkpt lat="39.310030024498701" lon="3.114986959844828">
<ele>32</ele>
</trkpt>
<trkpt lat="39.310089033097029" lon="3.11507698148489">
<ele>31</ele>
</trkpt>
<trkpt lat="39.310173019766808" lon="3.115146970376372">
<ele>30</ele>
</trkpt>
<trkpt lat="39.310219036415219" lon="3.115173038095236">
<ele>30</ele>
</trkpt>
<trkpt lat="39.310276033356786" lon="3.115187035873532">
<ele>28</ele>
</trkpt>
<trkpt lat="39.310316015034914" lon="3.115296000614762">
<ele>27</ele>
</trkpt>
<trkpt lat="39.310331018641591" lon="3.115354003384709">
<ele>27</ele>
</trkpt>
<trkpt lat="39.310396984219551" lon="3.115432038903236">
<ele>26</ele>
</trkpt>
<trkpt lat="39.310408970341086" lon="3.115407982841134">
<ele>26</ele>
</trkpt>
<trkpt lat="39.310495974496007" lon="3.115485012531281">
<ele>26</ele>
</trkpt>
<trkpt lat="39.310521958395839" lon="3.115499010309577">
<ele>25</ele>
</trkpt>
<trkpt lat="39.310704013332725" lon="3.115584002807736">
<ele>24</ele>
</trkpt>
<trkpt lat="39.310771990567446" lon="3.115639993920922">
<ele>23</ele>
</trkpt>
<trkpt lat="39.310793029144406" lon="3.115758011117578">
<ele>24</ele>
</trkpt>
<trkpt lat="39.310945998877287" lon="3.115791035816073">
<ele>23</ele>
</trkpt>
<trkpt lat="39.311001989990473" lon="3.11578500084579">
<ele>22</ele>
</trkpt>
<trkpt lat="39.311078013852239" lon="3.115844009444118">
<ele>21</ele>
</trkpt>
<trkpt lat="39.311110032722354" lon="3.115866975858808">
<ele>21</ele>
</trkpt>
<trkpt lat="39.311238024383783" lon="3.116003014147282">
<ele>21</ele>
</trkpt>
<trkpt lat="39.311324022710323" lon="3.116096975281835">
<ele>23</ele>
</trkpt>
<trkpt lat="39.311330979689956" lon="3.116105021908879">
<ele>24</ele>
</trkpt>
<trkpt lat="39.311429969966412" lon="3.116269977763295">
<ele>25</ele>
</trkpt>
<trkpt lat="39.311512028798461" lon="3.116394029930234">
<ele>25</ele>
</trkpt>
<trkpt lat="39.31159601546824" lon="3.11649402603507">
<ele>26</ele>
</trkpt>
<trkpt lat="39.311630968004465" lon="3.116544988006353">
<ele>28</ele>
</trkpt>
<trkpt lat="39.311733981594443" lon="3.116670968011022">
<ele>26</ele>
</trkpt>
<trkpt lat="39.311772035434842" lon="3.116750009357929">
<ele>25</ele>
</trkpt>
<trkpt lat="39.311838001012802" lon="3.116833996027708">
<ele>24</ele>
</trkpt>
<trkpt lat="39.31200698018074" lon="3.116822009906173">
<ele>22</ele>
</trkpt>
<trkpt lat="39.312057020142674" lon="3.116874983534217">
<ele>24</ele>
</trkpt>
<trkpt lat="39.31213203817606" lon="3.116885963827372">
<ele>26</ele>
</trkpt>
<trkpt lat="39.312265980988741" lon="3.11690297909081">
<ele>27</ele>
</trkpt>
<trkpt lat="39.312405958771706" lon="3.116976991295815">
<ele>28</ele>
</trkpt>
<trkpt lat="39.31252003647387" lon="3.117051003500819">
<ele>30</ele>
</trkpt>
<trkpt lat="39.312612991780043" lon="3.117121998220682">
<ele>31</ele>
</trkpt>
<trkpt lat="39.312668982893229" lon="3.117200033739209">
<ele>31</ele>
</trkpt>
<trkpt lat="39.31282295845449" lon="3.117327019572258">
<ele>30</ele>
</trkpt>
<trkpt lat="39.312835028395057" lon="3.11735400930047">
<ele>28</ele>
</trkpt>
<trkpt lat="39.312991015613079" lon="3.11737303622067">
<ele>27</ele>
</trkpt>
<trkpt lat="39.313082965090871" lon="3.117362977936864">
<ele>26</ele>
</trkpt>
<trkpt lat="39.313176004216075" lon="3.117303969338536">
<ele>26</ele>
</trkpt>
<trkpt lat="39.313219003379345" lon="3.117330959066749">
<ele>25</ele>
</trkpt>
<trkpt lat="39.313280023634434" lon="3.117359960451722">
<ele>25</ele>
</trkpt>
<trkpt lat="39.313326040282845" lon="3.117371024563909">
<ele>26</ele>
</trkpt>
<trkpt lat="39.313391000032425" lon="3.117284020408988">
<ele>27</ele>
</trkpt>
<trkpt lat="39.313393011689186" lon="3.11726700514555">
<ele>30</ele>
</trkpt>
<trkpt lat="39.313562996685505" lon="3.117240015417337">
<ele>32</ele>
</trkpt>
<trkpt lat="39.313586968928576" lon="3.11724403873086">
<ele>33</ele>
</trkpt>
<trkpt lat="39.31355101056397" lon="3.117369012907147">
<ele>35</ele>
</trkpt>
<trkpt lat="39.313489990308881" lon="3.117465991526842">
<ele>36</ele>
</trkpt>
<trkpt lat="39.313457971438766" lon="3.117587026208639">
<ele>38</ele>
</trkpt>
<trkpt lat="39.313400974497199" lon="3.117771008983254">
<ele>41</ele>
</trkpt>
<trkpt lat="39.313344983384013" lon="3.117881985381246">
<ele>43</ele>
</trkpt>
<trkpt lat="39.313283041119576" lon="3.117929007858038">
<ele>45</ele>
</trkpt>
<trkpt lat="39.313201988115907" lon="3.11801802366972">
<ele>47</ele>
</trkpt>
<trkpt lat="39.313233001157641" lon="3.118136962875724">
<ele>46</ele>
</trkpt>
<trkpt lat="39.313237024471164" lon="3.118162024766207">
<ele>46</ele>
</trkpt>
<trkpt lat="39.313241969794035" lon="3.118374003097415">
<ele>45</ele>
</trkpt>
<trkpt lat="39.313227972015738" lon="3.118507023900747">
<ele>44</ele>
</trkpt>
<trkpt lat="39.31318799033761" lon="3.118619006127119">
<ele>43</ele>
</trkpt>
<trkpt lat="39.313169969245791" lon="3.118651024997234">
<ele>42</ele>
</trkpt>
<trkpt lat="39.313136022537947" lon="3.11879301443696">
<ele>40</ele>
</trkpt>
<trkpt lat="39.313105009496212" lon="3.118914971128106">
<ele>40</ele>
</trkpt>
<trkpt lat="39.313061004504561" lon="3.119010021910071">
<ele>39</ele>
</trkpt>
<trkpt lat="39.313114983960986" lon="3.119062995538116">
<ele>38</ele>
</trkpt>
<trkpt lat="39.313153959810734" lon="3.119119992479682">
<ele>35</ele>
</trkpt>
<trkpt lat="39.31316401809454" lon="3.11913700774312">
<ele>32</ele>
</trkpt>
<trkpt lat="39.313257979229093" lon="3.119235998019576">
<ele>30</ele>
</trkpt>
<trkpt lat="39.313282035291195" lon="3.119314033538103">
<ele>27</ele>
</trkpt>
<trkpt lat="39.313306007534266" lon="3.119342029094696">
<ele>30</ele>
</trkpt>
</trkseg>
</trk>
</gpx>
