<?xml version="1.0" encoding="UTF-8"?>
<gpx version="1.1"
creator="Smartprofil-Office - http://www.rother.de"
xmlns:xsi="http://www.w3.org/2001/XMLSchema-instance"
xmlns="http://www.topografix.com/GPX/1/1"
xsi:schemaLocation="http://www.topografix.com/GPX/1/1 http://www.topografix.com/GPX/1/1/gpx.xsd">
<metadata>

<bounds minlat="39.759428864344954" minlon="2.762759020552039" maxlat="39.789102980867028" maxlon="2.79690102674067"/>
</metadata>
<wpt lat="39.787233984097838" lon="2.79690102674067">
<ele>750</ele>
<name>33_Cúber (1)</name>
<cmt></cmt>
<desc></desc>
<sym>Crossing</sym>
</wpt>

<wpt lat="39.769783029332757" lon="2.768213963136077">
<ele>800</ele>
<name>33_Binimorat (2)</name>
<cmt></cmt>
<desc></desc>
<sym>Crossing</sym>
</wpt>

<wpt lat="39.766107983887196" lon="2.763109970837832">
<ele>875</ele>
<name>33_Coll de l’Ofre (3)</name>
<cmt></cmt>
<desc></desc>
<sym>Crossing</sym>
</wpt>

<wpt lat="39.759457027539611" lon="2.767347022891045">
<ele>887</ele>
<name>33_Coll d’en Poma (4)</name>
<cmt></cmt>
<desc></desc>
<sym>Crossing</sym>
</wpt>

<wpt lat="39.763401970267296" lon="2.767082992941141">
<ele>1093</ele>
<name>33_Puig de l’Ofre (5)</name>
<cmt></cmt>
<desc></desc>
<sym>Crossing</sym>
</wpt>

<trk>
<name>Mal_33_Puig_de_lOfre</name>
<trkseg>
<trkpt lat="39.787233984097838" lon="2.79690102674067">
<ele>750</ele>
</trkpt>
<trkpt lat="39.787233984097838" lon="2.79690102674067">
<ele>750</ele>
</trkpt>
<trkpt lat="39.7872359957546" lon="2.79690102674067">
<ele>749</ele>
</trkpt>
<trkpt lat="39.7872359957546" lon="2.79690102674067">
<ele>749</ele>
</trkpt>
<trkpt lat="39.787290981039405" lon="2.79681402258575">
<ele>749</ele>
</trkpt>
<trkpt lat="39.787404974922538" lon="2.796703968197107">
<ele>748</ele>
</trkpt>
<trkpt lat="39.787474041804671" lon="2.796531971544027">
<ele>748</ele>
</trkpt>
<trkpt lat="39.787473035976291" lon="2.796510010957718">
<ele>748</ele>
</trkpt>
<trkpt lat="39.787516035139561" lon="2.796417977660894">
<ele>748</ele>
</trkpt>
<trkpt lat="39.787531960755587" lon="2.796402974054217">
<ele>747</ele>
</trkpt>
<trkpt lat="39.787645032629371" lon="2.796261990442872">
<ele>747</ele>
</trkpt>
<trkpt lat="39.787672022357583" lon="2.79625503346324">
<ele>747</ele>
</trkpt>
<trkpt lat="39.787760032340884" lon="2.796184038743377">
<ele>747</ele>
</trkpt>
<trkpt lat="39.787761960178614" lon="2.796181021258235">
<ele>746</ele>
</trkpt>
<trkpt lat="39.787820968776941" lon="2.796032996848226">
<ele>746</ele>
</trkpt>
<trkpt lat="39.787839995697141" lon="2.796008018776774">
<ele>746</ele>
</trkpt>
<trkpt lat="39.787920964881778" lon="2.795787993818522">
<ele>746</ele>
</trkpt>
<trkpt lat="39.787975028157234" lon="2.795621026307344">
<ele>746</ele>
</trkpt>
<trkpt lat="39.788063960149884" lon="2.795502003282309">
<ele>745</ele>
</trkpt>
<trkpt lat="39.788125986233354" lon="2.795363031327725">
<ele>745</ele>
</trkpt>
<trkpt lat="39.788132021203637" lon="2.795208971947432">
<ele>745</ele>
</trkpt>
<trkpt lat="39.788121040910482" lon="2.795162033289671">
<ele>744</ele>
</trkpt>
<trkpt lat="39.788115005940199" lon="2.795071005821228">
<ele>744</ele>
</trkpt>
<trkpt lat="39.788080975413322" lon="2.794947037473321">
<ele>743</ele>
</trkpt>
<trkpt lat="39.788064965978265" lon="2.794700022786856">
<ele>743</ele>
</trkpt>
<trkpt lat="39.788092039525509" lon="2.794551998376846">
<ele>742</ele>
</trkpt>
<trkpt lat="39.788111988455057" lon="2.794485026970506">
<ele>741</ele>
</trkpt>
<trkpt lat="39.788154987618327" lon="2.794386958703399">
<ele>741</ele>
</trkpt>
<trkpt lat="39.788240985944867" lon="2.794231977313757">
<ele>740</ele>
</trkpt>
<trkpt lat="39.788285996764898" lon="2.794012036174536">
<ele>740</ele>
</trkpt>
<trkpt lat="39.788354979828" lon="2.793815983459353">
<ele>739</ele>
</trkpt>
<trkpt lat="39.78852697648108" lon="2.793722022324801">
<ele>739</ele>
</trkpt>
<trkpt lat="39.788658991456032" lon="2.793634012341499">
<ele>739</ele>
</trkpt>
<trkpt lat="39.788686987012625" lon="2.793610040098429">
<ele>739</ele>
</trkpt>
<trkpt lat="39.788766028359532" lon="2.793542984873056">
<ele>739</ele>
</trkpt>
<trkpt lat="39.78895696811378" lon="2.793390015140176">
<ele>738</ele>
</trkpt>
<trkpt lat="39.789047995582223" lon="2.793326983228326">
<ele>738</ele>
</trkpt>
<trkpt lat="39.789069034159184" lon="2.793312985450029">
<ele>738</ele>
</trkpt>
<trkpt lat="39.789101975038648" lon="2.793181976303458">
<ele>738</ele>
</trkpt>
<trkpt lat="39.789101975038648" lon="2.792891962453723">
<ele>738</ele>
</trkpt>
<trkpt lat="39.789102980867028" lon="2.792880982160568">
<ele>738</ele>
</trkpt>
<trkpt lat="39.789017988368869" lon="2.79251997359097">
<ele>737</ele>
</trkpt>
<trkpt lat="39.788943976163864" lon="2.792399022728205">
<ele>737</ele>
</trkpt>
<trkpt lat="39.788943976163864" lon="2.792399022728205">
<ele>736</ele>
</trkpt>
<trkpt lat="39.788759993389249" lon="2.792043965309858">
<ele>736</ele>
</trkpt>
<trkpt lat="39.788704002276063" lon="2.791951010003686">
<ele>735</ele>
</trkpt>
<trkpt lat="39.788687992841005" lon="2.791933994740248">
<ele>734</ele>
</trkpt>
<trkpt lat="39.788553966209292" lon="2.791697960346937">
<ele>734</ele>
</trkpt>
<trkpt lat="39.788488000631332" lon="2.791588995605707">
<ele>733</ele>
</trkpt>
<trkpt lat="39.788382975384593" lon="2.79137802310288">
<ele>733</ele>
</trkpt>
<trkpt lat="39.788299994543195" lon="2.791208038106561">
<ele>732</ele>
</trkpt>
<trkpt lat="39.788231011480093" lon="2.791023971512914">
<ele>732</ele>
</trkpt>
<trkpt lat="39.788236962631345" lon="2.7909089718014">
<ele>732</ele>
</trkpt>
<trkpt lat="39.788253977894783" lon="2.790796989575028">
<ele>732</ele>
</trkpt>
<trkpt lat="39.788291025906801" lon="2.790653994306922">
<ele>732</ele>
</trkpt>
<trkpt lat="39.788295971229672" lon="2.79045500792563">
<ele>732</ele>
</trkpt>
<trkpt lat="39.788287002593279" lon="2.790438998490572">
<ele>733</ele>
</trkpt>
<trkpt lat="39.788049962371588" lon="2.790364986285567">
<ele>733</ele>
</trkpt>
<trkpt lat="39.788025990128517" lon="2.790351994335651">
<ele>733</ele>
</trkpt>
<trkpt lat="39.787856005132198" lon="2.790249986574054">
<ele>733</ele>
</trkpt>
<trkpt lat="39.787750979885459" lon="2.790098022669554">
<ele>733</ele>
</trkpt>
<trkpt lat="39.787718961015344" lon="2.790040019899607">
<ele>733</ele>
</trkpt>
<trkpt lat="39.787577977403998" lon="2.789831981062889">
<ele>734</ele>
</trkpt>
<trkpt lat="39.787485022097826" lon="2.789654033258557">
<ele>734</ele>
</trkpt>
<trkpt lat="39.787373961880803" lon="2.789481030777097">
<ele>735</ele>
</trkpt>
<trkpt lat="39.787275977432728" lon="2.789307022467256">
<ele>735</ele>
</trkpt>
<trkpt lat="39.787277989089489" lon="2.789305010810494">
<ele>735</ele>
</trkpt>
<trkpt lat="39.787261979654431" lon="2.78927399776876">
<ele>736</ele>
</trkpt>
<trkpt lat="39.787181010469794" lon="2.789113987237215">
<ele>736</ele>
</trkpt>
<trkpt lat="39.787072967737913" lon="2.788926986977458">
<ele>737</ele>
</trkpt>
<trkpt lat="39.786989986896515" lon="2.788770999759436">
<ele>737</ele>
</trkpt>
<trkpt lat="39.786941958591342" lon="2.788706040009856">
<ele>737</ele>
</trkpt>
<trkpt lat="39.786898959428072" lon="2.788619035854936">
<ele>738</ele>
</trkpt>
<trkpt lat="39.786765016615391" lon="2.78843698091805">
<ele>738</ele>
</trkpt>
<trkpt lat="39.786695027723908" lon="2.788338996469975">
<ele>738</ele>
</trkpt>
<trkpt lat="39.786695027723908" lon="2.788338996469975">
<ele>738</ele>
</trkpt>
<trkpt lat="39.786609029397368" lon="2.788171023130417">
<ele>739</ele>
</trkpt>
<trkpt lat="39.786499980837107" lon="2.787970025092363">
<ele>739</ele>
</trkpt>
<trkpt lat="39.786411970853806" lon="2.78781202621758">
<ele>739</ele>
</trkpt>
<trkpt lat="39.786315998062491" lon="2.787665007635951">
<ele>740</ele>
</trkpt>
<trkpt lat="39.786234023049474" lon="2.787514971569181">
<ele>740</ele>
</trkpt>
<trkpt lat="39.786217007786036" lon="2.787455962970853">
<ele>741</ele>
</trkpt>
<trkpt lat="39.786138972267509" lon="2.787301987409592">
<ele>742</ele>
</trkpt>
<trkpt lat="39.786068983376026" lon="2.787207020446658">
<ele>743</ele>
</trkpt>
<trkpt lat="39.786041993647814" lon="2.787159997969866">
<ele>744</ele>
</trkpt>
<trkpt lat="39.78599002584815" lon="2.787066036835313">
<ele>744</ele>
</trkpt>
<trkpt lat="39.785927999764681" lon="2.786985989660025">
<ele>745</ele>
</trkpt>
<trkpt lat="39.785854993388057" lon="2.786922035738826">
<ele>746</ele>
</trkpt>
<trkpt lat="39.785674028098583" lon="2.786626992747188">
<ele>747</ele>
</trkpt>
<trkpt lat="39.785658018663526" lon="2.78656798414886">
<ele>748</ele>
</trkpt>
<trkpt lat="39.785529021173716" lon="2.786347037181258">
<ele>749</ele>
</trkpt>
<trkpt lat="39.785427013412118" lon="2.78618099167943">
<ele>749</ele>
</trkpt>
<trkpt lat="39.785316037014127" lon="2.786010000854731">
<ele>749</ele>
</trkpt>
<trkpt lat="39.785216962918639" lon="2.785830963402987">
<ele>749</ele>
</trkpt>
<trkpt lat="39.785118978470564" lon="2.785643041133881">
<ele>749</ele>
</trkpt>
<trkpt lat="39.785017976537347" lon="2.78547297231853">
<ele>750</ele>
</trkpt>
<trkpt lat="39.78489400818944" lon="2.785279015079141">
<ele>750</ele>
</trkpt>
<trkpt lat="39.78483198210597" lon="2.785141970962286">
<ele>750</ele>
</trkpt>
<trkpt lat="39.7848080098629" lon="2.785119004547596">
<ele>750</ele>
</trkpt>
<trkpt lat="39.784736009314656" lon="2.785011967644095">
<ele>750</ele>
</trkpt>
<trkpt lat="39.78472301736474" lon="2.784981038421392">
<ele>750</ele>
</trkpt>
<trkpt lat="39.784589996561408" lon="2.784813987091184">
<ele>750</ele>
</trkpt>
<trkpt lat="39.784442977979779" lon="2.784722037613392">
<ele>749</ele>
</trkpt>
<trkpt lat="39.784383969381452" lon="2.784667974337935">
<ele>748</ele>
</trkpt>
<trkpt lat="39.784238040447235" lon="2.784554986283183">
<ele>748</ele>
</trkpt>
<trkpt lat="39.784131003543735" lon="2.78448399156332">
<ele>748</ele>
</trkpt>
<trkpt lat="39.784005023539066" lon="2.784366980195046">
<ele>747</ele>
</trkpt>
<trkpt lat="39.783965041860938" lon="2.784322975203395">
<ele>746</ele>
</trkpt>
<trkpt lat="39.783876026049256" lon="2.784190038219094">
<ele>746</ele>
</trkpt>
<trkpt lat="39.783778041601181" lon="2.784061962738633">
<ele>746</ele>
</trkpt>
<trkpt lat="39.78375599719584" lon="2.784043019637466">
<ele>745</ele>
</trkpt>
<trkpt lat="39.783605961129069" lon="2.783952997997403">
<ele>744</ele>
</trkpt>
<trkpt lat="39.783467995002866" lon="2.783782007172704">
<ele>744</ele>
</trkpt>
<trkpt lat="39.783441005274653" lon="2.783771026879549">
<ele>744</ele>
</trkpt>
<trkpt lat="39.783327011391521" lon="2.783698020502925">
<ele>743</ele>
</trkpt>
<trkpt lat="39.783159960061312" lon="2.783606993034482">
<ele>742</ele>
</trkpt>
<trkpt lat="39.782998021692038" lon="2.783514959737659">
<ele>742</ele>
</trkpt>
<trkpt lat="39.782969020307064" lon="2.783490987494588">
<ele>742</ele>
</trkpt>
<trkpt lat="39.782732985913754" lon="2.783356038853526">
<ele>741</ele>
</trkpt>
<trkpt lat="39.782622009515762" lon="2.783289989456534">
<ele>740</ele>
</trkpt>
<trkpt lat="39.782515978440642" lon="2.783202985301614">
<ele>740</ele>
</trkpt>
<trkpt lat="39.78233995847404" lon="2.783049009740353">
<ele>740</ele>
</trkpt>
<trkpt lat="39.782256977632642" lon="2.782983966171742">
<ele>740</ele>
</trkpt>
<trkpt lat="39.782224036753178" lon="2.782943984493613">
<ele>741</ele>
</trkpt>
<trkpt lat="39.782069977372885" lon="2.782797971740365">
<ele>741</ele>
</trkpt>
<trkpt lat="39.781954977661371" lon="2.782643996179104">
<ele>741</ele>
</trkpt>
<trkpt lat="39.781846012920141" lon="2.782489014789462">
<ele>741</ele>
</trkpt>
<trkpt lat="39.781750040128827" lon="2.782350964844227">
<ele>741</ele>
</trkpt>
<trkpt lat="39.781647026538849" lon="2.782210987061262">
<ele>742</ele>
</trkpt>
<trkpt lat="39.78154300712049" lon="2.782043013721705">
<ele>742</ele>
</trkpt>
<trkpt lat="39.781430019065738" lon="2.781889960169792">
<ele>742</ele>
</trkpt>
<trkpt lat="39.781401017680764" lon="2.78186003677547">
<ele>742</ele>
</trkpt>
<trkpt lat="39.781293980777264" lon="2.781763980165124">
<ele>742</ele>
</trkpt>
<trkpt lat="39.781174035742879" lon="2.781671024858952">
<ele>742</ele>
</trkpt>
<trkpt lat="39.78102701716125" lon="2.781544039025903">
<ele>742</ele>
</trkpt>
<trkpt lat="39.780869018286467" lon="2.78139098547399">
<ele>742</ele>
</trkpt>
<trkpt lat="39.780752006918192" lon="2.781266011297703">
<ele>741</ele>
</trkpt>
<trkpt lat="39.780647987499833" lon="2.781183030456305">
<ele>741</ele>
</trkpt>
<trkpt lat="39.78061999194324" lon="2.78115201741457">
<ele>741</ele>
</trkpt>
<trkpt lat="39.78046802803874" lon="2.780969962477684">
<ele>741</ele>
</trkpt>
<trkpt lat="39.780458975583315" lon="2.780966022983193">
<ele>741</ele>
</trkpt>
<trkpt lat="39.780335007235408" lon="2.780845994129777">
<ele>741</ele>
</trkpt>
<trkpt lat="39.780269963666797" lon="2.780791008844972">
<ele>742</ele>
</trkpt>
<trkpt lat="39.780110958963633" lon="2.780727976933122">
<ele>742</ele>
</trkpt>
<trkpt lat="39.78003803640604" lon="2.780730994418263">
<ele>743</ele>
</trkpt>
<trkpt lat="39.780024038627744" lon="2.780737029388547">
<ele>743</ele>
</trkpt>
<trkpt lat="39.779891017824411" lon="2.780659999698401">
<ele>743</ele>
</trkpt>
<trkpt lat="39.779706029221416" lon="2.780502000823617">
<ele>744</ele>
</trkpt>
<trkpt lat="39.779604021459818" lon="2.7804009988904">
<ele>744</ele>
</trkpt>
<trkpt lat="39.779538977891207" lon="2.780336961150169">
<ele>745</ele>
</trkpt>
<trkpt lat="39.779453985393047" lon="2.780169993638992">
<ele>745</ele>
</trkpt>
<trkpt lat="39.779412997886539" lon="2.780046025291085">
<ele>745</ele>
</trkpt>
<trkpt lat="39.779356000944972" lon="2.779843015596271">
<ele>746</ele>
</trkpt>
<trkpt lat="39.77935298345983" lon="2.779830023646355">
<ele>746</ele>
</trkpt>
<trkpt lat="39.779246030375361" lon="2.779531041160226">
<ele>747</ele>
</trkpt>
<trkpt lat="39.77911401540041" lon="2.779371030628681">
<ele>747</ele>
</trkpt>
<trkpt lat="39.779036985710263" lon="2.779306992888451">
<ele>747</ele>
</trkpt>
<trkpt lat="39.778849985450506" lon="2.779163997620344">
<ele>748</ele>
</trkpt>
<trkpt lat="39.778692992404103" lon="2.778992000967264">
<ele>748</ele>
</trkpt>
<trkpt lat="39.778581010177732" lon="2.778846994042397">
<ele>749</ele>
</trkpt>
<trkpt lat="39.778529964387417" lon="2.778783962130547">
<ele>749</ele>
</trkpt>
<trkpt lat="39.778460981324315" lon="2.778727971017361">
<ele>749</ele>
</trkpt>
<trkpt lat="39.778309017419815" lon="2.778625041246414">
<ele>749</ele>
</trkpt>
<trkpt lat="39.778244979679585" lon="2.778564020991325">
<ele>750</ele>
</trkpt>
<trkpt lat="39.778143977746367" lon="2.778505012392998">
<ele>750</ele>
</trkpt>
<trkpt lat="39.778091004118323" lon="2.778461007401347">
<ele>750</ele>
</trkpt>
<trkpt lat="39.777983967214823" lon="2.778302002698183">
<ele>750</ele>
</trkpt>
<trkpt lat="39.777906015515327" lon="2.778104022145271">
<ele>750</ele>
</trkpt>
<trkpt lat="39.777822028845549" lon="2.77790897525847">
<ele>751</ele>
</trkpt>
<trkpt lat="39.77771800942719" lon="2.7776949852705">
<ele>751</ele>
</trkpt>
<trkpt lat="39.777709040790796" lon="2.777667995542288">
<ele>751</ele>
</trkpt>
<trkpt lat="39.777638968080282" lon="2.777581997215748">
<ele>752</ele>
</trkpt>
<trkpt lat="39.777450961992145" lon="2.777418969199061">
<ele>752</ele>
</trkpt>
<trkpt lat="39.777300003916025" lon="2.777276979759336">
<ele>753</ele>
</trkpt>
<trkpt lat="39.777102023363113" lon="2.777174971997738">
<ele>753</ele>
</trkpt>
<trkpt lat="39.776946036145091" lon="2.777062989771366">
<ele>754</ele>
</trkpt>
<trkpt lat="39.776801029220223" lon="2.776936003938317">
<ele>755</ele>
</trkpt>
<trkpt lat="39.776646969839931" lon="2.776803988963366">
<ele>755</ele>
</trkpt>
<trkpt lat="39.776464998722076" lon="2.776697035878897">
<ele>756</ele>
</trkpt>
<trkpt lat="39.776328960433602" lon="2.776514980942011">
<ele>756</ele>
</trkpt>
<trkpt lat="39.776207003742456" lon="2.776324041187763">
<ele>757</ele>
</trkpt>
<trkpt lat="39.776012040674686" lon="2.776143997907639">
<ele>758</ele>
</trkpt>
<trkpt lat="39.775868961587548" lon="2.776011982932687">
<ele>759</ele>
</trkpt>
<trkpt lat="39.775831997394562" lon="2.775948029011488">
<ele>759</ele>
</trkpt>
<trkpt lat="39.775707023218274" lon="2.775764968246222">
<ele>760</ele>
</trkpt>
<trkpt lat="39.775611972436309" lon="2.775682993233204">
<ele>761</ele>
</trkpt>
<trkpt lat="39.775439975783229" lon="2.775575034320355">
<ele>762</ele>
</trkpt>
<trkpt lat="39.775268984958529" lon="2.775477971881628">
<ele>763</ele>
</trkpt>
<trkpt lat="39.775122972205281" lon="2.775420974940062">
<ele>763</ele>
</trkpt>
<trkpt lat="39.775077039375901" lon="2.775433966889978">
<ele>764</ele>
</trkpt>
<trkpt lat="39.774965979158878" lon="2.775429021567106">
<ele>765</ele>
</trkpt>
<trkpt lat="39.774918034672737" lon="2.775349980220199">
<ele>766</ele>
</trkpt>
<trkpt lat="39.774826001375914" lon="2.775185024365783">
<ele>766</ele>
</trkpt>
<trkpt lat="39.774737991392612" lon="2.775101037696004">
<ele>767</ele>
</trkpt>
<trkpt lat="39.774576975032687" lon="2.774992994964123">
<ele>768</ele>
</trkpt>
<trkpt lat="39.774435991421342" lon="2.774887969717383">
<ele>768</ele>
</trkpt>
<trkpt lat="39.774326020851731" lon="2.77475000359118">
<ele>769</ele>
</trkpt>
<trkpt lat="39.774311017245054" lon="2.774593010544777">
<ele>770</ele>
</trkpt>
<trkpt lat="39.774306993931532" lon="2.774473987519741">
<ele>771</ele>
</trkpt>
<trkpt lat="39.774329960346222" lon="2.774325963109732">
<ele>771</ele>
</trkpt>
<trkpt lat="39.774427022784948" lon="2.774134017527103">
<ele>772</ele>
</trkpt>
<trkpt lat="39.77447303943336" lon="2.774003008380532">
<ele>773</ele>
</trkpt>
<trkpt lat="39.77447303943336" lon="2.773948023095727">
<ele>773</ele>
</trkpt>
<trkpt lat="39.774373965337873" lon="2.773831011727452">
<ele>774</ele>
</trkpt>
<trkpt lat="39.774234993383288" lon="2.773687010630965">
<ele>774</ele>
</trkpt>
<trkpt lat="39.774115970358253" lon="2.773559018969536">
<ele>775</ele>
</trkpt>
<trkpt lat="39.773974986746907" lon="2.773395990952849">
<ele>776</ele>
</trkpt>
<trkpt lat="39.773853030055761" lon="2.773243021219969">
<ele>776</ele>
</trkpt>
<trkpt lat="39.773751022294164" lon="2.773059960454702">
<ele>777</ele>
</trkpt>
<trkpt lat="39.773641973733902" lon="2.772875977680087">
<ele>777</ele>
</trkpt>
<trkpt lat="39.773505013436079" lon="2.772760977968574">
<ele>778</ele>
</trkpt>
<trkpt lat="39.773343997076154" lon="2.772642038762569">
<ele>779</ele>
</trkpt>
<trkpt lat="39.773233020678163" lon="2.772461995482445">
<ele>780</ele>
</trkpt>
<trkpt lat="39.773144004866481" lon="2.772264014929533">
<ele>780</ele>
</trkpt>
<trkpt lat="39.773043002933264" lon="2.772058993577957">
<ele>781</ele>
</trkpt>
<trkpt lat="39.77294703014195" lon="2.771864030510187">
<ele>782</ele>
</trkpt>
<trkpt lat="39.772848961874843" lon="2.771689016371965">
<ele>783</ele>
</trkpt>
<trkpt lat="39.772730022668839" lon="2.771495981141925">
<ele>784</ele>
</trkpt>
<trkpt lat="39.772617034614086" lon="2.771340999752283">
<ele>784</ele>
</trkpt>
<trkpt lat="39.772511003538966" lon="2.771153999492526">
<ele>785</ele>
</trkpt>
<trkpt lat="39.772376976907253" lon="2.77094797231257">
<ele>786</ele>
</trkpt>
<trkpt lat="39.772241022437811" lon="2.77083900757134">
<ele>787</ele>
</trkpt>
<trkpt lat="39.77206701412797" lon="2.770750997588038">
<ele>787</ele>
</trkpt>
<trkpt lat="39.771893005818129" lon="2.770671034231782">
<ele>788</ele>
</trkpt>
<trkpt lat="39.771751016378403" lon="2.770543964579701">
<ele>788</ele>
</trkpt>
<trkpt lat="39.771645991131663" lon="2.770355036482215">
<ele>789</ele>
</trkpt>
<trkpt lat="39.77153199724853" lon="2.770170969888568">
<ele>790</ele>
</trkpt>
<trkpt lat="39.771397970616817" lon="2.769968966022134">
<ele>790</ele>
</trkpt>
<trkpt lat="39.771282970905304" lon="2.769805015996099">
<ele>791</ele>
</trkpt>
<trkpt lat="39.771169982850552" lon="2.769662020727992">
<ele>791</ele>
</trkpt>
<trkpt lat="39.771150033921003" lon="2.769620027393103">
<ele>792</ele>
</trkpt>
<trkpt lat="39.770935960114002" lon="2.769325990229845">
<ele>793</ele>
</trkpt>
<trkpt lat="39.770788019523025" lon="2.769232029095292">
<ele>793</ele>
</trkpt>
<trkpt lat="39.770641000941396" lon="2.7691659796983">
<ele>794</ele>
</trkpt>
<trkpt lat="39.77050001733005" lon="2.7690140157938">
<ele>795</ele>
</trkpt>
<trkpt lat="39.770403038710356" lon="2.768874960020185">
<ele>795</ele>
</trkpt>
<trkpt lat="39.770248979330063" lon="2.768760966137052">
<ele>796</ele>
</trkpt>
<trkpt lat="39.770150994881988" lon="2.768660970032215">
<ele>797</ele>
</trkpt>
<trkpt lat="39.770078994333744" lon="2.768544964492321">
<ele>797</ele>
</trkpt>
<trkpt lat="39.770066002383828" lon="2.768525015562773">
<ele>798</ele>
</trkpt>
<trkpt lat="39.769937004894018" lon="2.76834899559617">
<ele>799</ele>
</trkpt>
<trkpt lat="39.76987699046731" lon="2.768324017524719">
<ele>799</ele>
</trkpt>
<trkpt lat="39.769783029332757" lon="2.768213963136077">
<ele>800</ele>
</trkpt>
<trkpt lat="39.769783029332757" lon="2.768212035298348">
<ele>801</ele>
</trkpt>
<trkpt lat="39.769783029332757" lon="2.768212035298348">
<ele>802</ele>
</trkpt>
<trkpt lat="39.769780011847615" lon="2.768209017813206">
<ele>803</ele>
</trkpt>
<trkpt lat="39.769870033487678" lon="2.767925038933754">
<ele>804</ele>
</trkpt>
<trkpt lat="39.769814964383841" lon="2.767781037837267">
<ele>804</ele>
</trkpt>
<trkpt lat="39.769708011299372" lon="2.76768296957016">
<ele>805</ele>
</trkpt>
<trkpt lat="39.769586976617575" lon="2.767612980678678">
<ele>806</ele>
</trkpt>
<trkpt lat="39.769567027688026" lon="2.76759403757751">
<ele>807</ele>
</trkpt>
<trkpt lat="39.769473988562822" lon="2.767481971532106">
<ele>808</ele>
</trkpt>
<trkpt lat="39.769388996064663" lon="2.767410976812244">
<ele>809</ele>
</trkpt>
<trkpt lat="39.769278019666672" lon="2.76727301068604">
<ele>811</ele>
</trkpt>
<trkpt lat="39.769178023561835" lon="2.767192963510752">
<ele>812</ele>
</trkpt>
<trkpt lat="39.769100993871689" lon="2.767071006819606">
<ele>814</ele>
</trkpt>
<trkpt lat="39.769033016636968" lon="2.766956007108092">
<ele>816</ele>
</trkpt>
<trkpt lat="39.768970990553498" lon="2.766904961317778">
<ele>818</ele>
</trkpt>
<trkpt lat="39.768911981955171" lon="2.766794990748167">
<ele>819</ele>
</trkpt>
<trkpt lat="39.768838975578547" lon="2.76662802323699">
<ele>821</ele>
</trkpt>
<trkpt lat="39.768745014443994" lon="2.766366004943848">
<ele>823</ele>
</trkpt>
<trkpt lat="39.768667984753847" lon="2.766225021332502">
<ele>824</ele>
</trkpt>
<trkpt lat="39.768550973385572" lon="2.766055958345532">
<ele>826</ele>
</trkpt>
<trkpt lat="39.768462041392922" lon="2.765913968905807">
<ele>828</ele>
</trkpt>
<trkpt lat="39.768375037238002" lon="2.765787988901138">
<ele>830</ele>
</trkpt>
<trkpt lat="39.768246039748192" lon="2.765653040260077">
<ele>832</ele>
</trkpt>
<trkpt lat="39.768215026706457" lon="2.765610963106155">
<ele>834</ele>
</trkpt>
<trkpt lat="39.768117964267731" lon="2.765461010858417">
<ele>836</ele>
</trkpt>
<trkpt lat="39.767990978434682" lon="2.765348022803664">
<ele>837</ele>
</trkpt>
<trkpt lat="39.767829962074757" lon="2.76527501642704">
<ele>839</ele>
</trkpt>
<trkpt lat="39.767741030082107" lon="2.765164040029049">
<ele>841</ele>
</trkpt>
<trkpt lat="39.767680009827018" lon="2.765111988410354">
<ele>843</ele>
</trkpt>
<trkpt lat="39.767528967931867" lon="2.764988020062447">
<ele>845</ele>
</trkpt>
<trkpt lat="39.767455039545894" lon="2.764986008405685">
<ele>847</ele>
</trkpt>
<trkpt lat="39.767369041219354" lon="2.764906967058778">
<ele>849</ele>
</trkpt>
<trkpt lat="39.76725596934557" lon="2.764827003702521">
<ele>850</ele>
</trkpt>
<trkpt lat="39.767220010980964" lon="2.764815017580986">
<ele>852</ele>
</trkpt>
<trkpt lat="39.767133006826043" lon="2.764734970405698">
<ele>854</ele>
</trkpt>
<trkpt lat="39.767055977135897" lon="2.764624999836087">
<ele>856</ele>
</trkpt>
<trkpt lat="39.766978025436401" lon="2.764535984024406">
<ele>858</ele>
</trkpt>
<trkpt lat="39.766980037093163" lon="2.764435987919569">
<ele>859</ele>
</trkpt>
<trkpt lat="39.766924967989326" lon="2.764317970722914">
<ele>861</ele>
</trkpt>
<trkpt lat="39.76684601046145" lon="2.764217974618077">
<ele>863</ele>
</trkpt>
<trkpt lat="39.766799993813038" lon="2.764089982956648">
<ele>864</ele>
</trkpt>
<trkpt lat="39.766726987436414" lon="2.76396400295198">
<ele>865</ele>
</trkpt>
<trkpt lat="39.766649035736918" lon="2.763915974646807">
<ele>866</ele>
</trkpt>
<trkpt lat="39.766555996611714" lon="2.763865012675524">
<ele>867</ele>
</trkpt>
<trkpt lat="39.766515009105206" lon="2.763726962730289">
<ele>868</ele>
</trkpt>
<trkpt lat="39.766448959708214" lon="2.763641970232129">
<ele>869</ele>
</trkpt>
<trkpt lat="39.766400009393692" lon="2.763554966077209">
<ele>869</ele>
</trkpt>
<trkpt lat="39.76624796167016" lon="2.763516996055841">
<ele>870</ele>
</trkpt>
<trkpt lat="39.766198005527258" lon="2.763423034921289">
<ele>871</ele>
</trkpt>
<trkpt lat="39.766163975000381" lon="2.763311974704266">
<ele>872</ele>
</trkpt>
<trkpt lat="39.766134973615408" lon="2.763235028833151">
<ele>873</ele>
</trkpt>
<trkpt lat="39.766124999150634" lon="2.76312799192965">
<ele>874</ele>
</trkpt>
<trkpt lat="39.766107983887196" lon="2.763109970837832">
<ele>875</ele>
</trkpt>
<trkpt lat="39.766100021079183" lon="2.763091027736664">
<ele>875</ele>
</trkpt>
<trkpt lat="39.766091974452138" lon="2.763073006644845">
<ele>874</ele>
</trkpt>
<trkpt lat="39.766040006652474" lon="2.763007963076234">
<ele>874</ele>
</trkpt>
<trkpt lat="39.765894999727607" lon="2.762915007770062">
<ele>874</ele>
</trkpt>
<trkpt lat="39.765819981694221" lon="2.762880977243185">
<ele>874</ele>
</trkpt>
<trkpt lat="39.76564303971827" lon="2.762817023321986">
<ele>873</ele>
</trkpt>
<trkpt lat="39.765585036948323" lon="2.762788021937013">
<ele>873</ele>
</trkpt>
<trkpt lat="39.765378003939986" lon="2.762785004451871">
<ele>873</ele>
</trkpt>
<trkpt lat="39.765327963978052" lon="2.762759020552039">
<ele>872</ele>
</trkpt>
<trkpt lat="39.765239031985402" lon="2.762791961431503">
<ele>872</ele>
</trkpt>
<trkpt lat="39.765099976211786" lon="2.762925988063216">
<ele>872</ele>
</trkpt>
<trkpt lat="39.765065023675561" lon="2.76297502219677">
<ele>872</ele>
</trkpt>
<trkpt lat="39.764995034784079" lon="2.763042999431491">
<ele>873</ele>
</trkpt>
<trkpt lat="39.764899984002113" lon="2.763101002201438">
<ele>873</ele>
</trkpt>
<trkpt lat="39.764867965131998" lon="2.76312799192965">
<ele>873</ele>
</trkpt>
<trkpt lat="39.764745002612472" lon="2.763180965557694">
<ele>873</ele>
</trkpt>
<trkpt lat="39.76459102705121" lon="2.763238968327642">
<ele>873</ele>
</trkpt>
<trkpt lat="39.764432022348046" lon="2.763274004682899">
<ele>874</ele>
</trkpt>
<trkpt lat="39.764295984059572" lon="2.763252966105938">
<ele>874</ele>
</trkpt>
<trkpt lat="39.764228006824851" lon="2.763207033276558">
<ele>874</ele>
</trkpt>
<trkpt lat="39.764121975749731" lon="2.763198986649513">
<ele>874</ele>
</trkpt>
<trkpt lat="39.76401099935174" lon="2.763181971386075">
<ele>873</ele>
</trkpt>
<trkpt lat="39.763855012133718" lon="2.763142995536327">
<ele>873</ele>
</trkpt>
<trkpt lat="39.763830034062266" lon="2.763133021071553">
<ele>873</ele>
</trkpt>
<trkpt lat="39.763575978577137" lon="2.763206027448177">
<ele>872</ele>
</trkpt>
<trkpt lat="39.763563992455602" lon="2.763200998306274">
<ele>872</ele>
</trkpt>
<trkpt lat="39.763532979413867" lon="2.763196974992752">
<ele>872</ele>
</trkpt>
<trkpt lat="39.763397024944425" lon="2.76319001801312">
<ele>872</ele>
</trkpt>
<trkpt lat="39.763221004977822" lon="2.76316998526454">
<ele>871</ele>
</trkpt>
<trkpt lat="39.763055965304375" lon="2.763182977214456">
<ele>871</ele>
</trkpt>
<trkpt lat="39.762941971421242" lon="2.763220025226474">
<ele>872</ele>
</trkpt>
<trkpt lat="39.762849016115069" lon="2.763263024389744">
<ele>872</ele>
</trkpt>
<trkpt lat="39.762808028608561" lon="2.763280039653182">
<ele>872</ele>
</trkpt>
<trkpt lat="39.762633014470339" lon="2.763329995796084">
<ele>873</ele>
</trkpt>
<trkpt lat="39.762503011152148" lon="2.763395039364696">
<ele>874</ele>
</trkpt>
<trkpt lat="39.76248599588871" lon="2.763396967202425">
<ele>874</ele>
</trkpt>
<trkpt lat="39.76222800090909" lon="2.763496041297913">
<ele>874</ele>
</trkpt>
<trkpt lat="39.762082993984222" lon="2.763583967462182">
<ele>875</ele>
</trkpt>
<trkpt lat="39.761985009536147" lon="2.763631995767355">
<ele>876</ele>
</trkpt>
<trkpt lat="39.761889036744833" lon="2.763739032670856">
<ele>876</ele>
</trkpt>
<trkpt lat="39.761817036196589" lon="2.763774991035461">
<ele>876</ele>
</trkpt>
<trkpt lat="39.761643027886748" lon="2.76383601129055">
<ele>876</ele>
</trkpt>
<trkpt lat="39.761633975431323" lon="2.763831987977028">
<ele>876</ele>
</trkpt>
<trkpt lat="39.761587958782911" lon="2.763842968270183">
<ele>876</ele>
</trkpt>
<trkpt lat="39.76149600930512" lon="2.763843974098563">
<ele>876</ele>
</trkpt>
<trkpt lat="39.761458961293101" lon="2.763866018503904">
<ele>875</ele>
</trkpt>
<trkpt lat="39.761315966024995" lon="2.763991998508573">
<ele>875</ele>
</trkpt>
<trkpt lat="39.761271039023995" lon="2.764109009876847">
<ele>875</ele>
</trkpt>
<trkpt lat="39.761212030425668" lon="2.764192996546626">
<ele>875</ele>
</trkpt>
<trkpt lat="39.761083032935858" lon="2.764326017349958">
<ele>875</ele>
</trkpt>
<trkpt lat="39.760935008525848" lon="2.764424001798034">
<ele>875</ele>
</trkpt>
<trkpt lat="39.760902989655733" lon="2.764449985697866">
<ele>875</ele>
</trkpt>
<trkpt lat="39.760802993550897" lon="2.764482004567981">
<ele>875</ele>
</trkpt>
<trkpt lat="39.760688999667764" lon="2.764537995681167">
<ele>875</ele>
</trkpt>
<trkpt lat="39.760577017441392" lon="2.764603961259127">
<ele>874</ele>
</trkpt>
<trkpt lat="39.76046696305275" lon="2.764617037028074">
<ele>874</ele>
</trkpt>
<trkpt lat="39.760324973613024" lon="2.764699012041092">
<ele>874</ele>
</trkpt>
<trkpt lat="39.76024903357029" lon="2.764837983995676">
<ele>874</ele>
</trkpt>
<trkpt lat="39.760147025808692" lon="2.765063038095832">
<ele>874</ele>
</trkpt>
<trkpt lat="39.760088017210364" lon="2.765260012820363">
<ele>874</ele>
</trkpt>
<trkpt lat="39.760061027482152" lon="2.765351962298155">
<ele>876</ele>
</trkpt>
<trkpt lat="39.759989026933908" lon="2.765629990026355">
<ele>877</ele>
</trkpt>
<trkpt lat="39.759980980306864" lon="2.765663014724851">
<ele>878</ele>
</trkpt>
<trkpt lat="39.759962959215045" lon="2.765864012762904">
<ele>880</ele>
</trkpt>
<trkpt lat="39.759948961436749" lon="2.765975994989276">
<ele>882</ele>
</trkpt>
<trkpt lat="39.759905962273479" lon="2.766117984429002">
<ele>883</ele>
</trkpt>
<trkpt lat="39.759873021394014" lon="2.766298027709127">
<ele>884</ele>
</trkpt>
<trkpt lat="39.759870003908873" lon="2.766315964981914">
<ele>886</ele>
</trkpt>
<trkpt lat="39.759814012795687" lon="2.766442028805614">
<ele>888</ele>
</trkpt>
<trkpt lat="39.759744023904204" lon="2.766651995480061">
<ele>889</ele>
</trkpt>
<trkpt lat="39.759655008092523" lon="2.766763977706432">
<ele>889</ele>
</trkpt>
<trkpt lat="39.759574960917234" lon="2.766889035701752">
<ele>888</ele>
</trkpt>
<trkpt lat="39.759485023096204" lon="2.767047034576535">
<ele>888</ele>
</trkpt>
<trkpt lat="39.759430037811399" lon="2.767191035673022">
<ele>888</ele>
</trkpt>
<trkpt lat="39.759429031983018" lon="2.767237974330783">
<ele>888</ele>
</trkpt>
<trkpt lat="39.75945602171123" lon="2.767350040376186">
<ele>887</ele>
</trkpt>
<trkpt lat="39.759457027539611" lon="2.767347022891045">
<ele>887</ele>
</trkpt>
<trkpt lat="39.759457027539611" lon="2.767347022891045">
<ele>889</ele>
</trkpt>
<trkpt lat="39.759465996176004" lon="2.767341993749142">
<ele>891</ele>
</trkpt>
<trkpt lat="39.759464990347624" lon="2.767342999577522">
<ele>894</ele>
</trkpt>
<trkpt lat="39.759464990347624" lon="2.767342999577522">
<ele>896</ele>
</trkpt>
<trkpt lat="39.759588958695531" lon="2.76744500733912">
<ele>898</ele>
</trkpt>
<trkpt lat="39.759676968678832" lon="2.767454981803894">
<ele>900</ele>
</trkpt>
<trkpt lat="39.759773025289178" lon="2.767439978197217">
<ele>902</ele>
</trkpt>
<trkpt lat="39.759882995858788" lon="2.76742204092443">
<ele>905</ele>
</trkpt>
<trkpt lat="39.759949967265129" lon="2.767462022602558">
<ele>907</ele>
</trkpt>
<trkpt lat="39.760023979470134" lon="2.767514996230602">
<ele>909</ele>
</trkpt>
<trkpt lat="39.76012104190886" lon="2.767608035355806">
<ele>912</ele>
</trkpt>
<trkpt lat="39.760164963081479" lon="2.767666960135102">
<ele>916</ele>
</trkpt>
<trkpt lat="39.760283986106515" lon="2.767759999260306">
<ele>920</ele>
</trkpt>
<trkpt lat="39.760360009968281" lon="2.767804004251957">
<ele>923</ele>
</trkpt>
<trkpt lat="39.760385993868113" lon="2.767816996201873">
<ele>926</ele>
</trkpt>
<trkpt lat="39.760511973872781" lon="2.767825964838266">
<ele>930</ele>
</trkpt>
<trkpt lat="39.760648012161255" lon="2.76774600148201">
<ele>934</ele>
</trkpt>
<trkpt lat="39.760720012709498" lon="2.767706019803882">
<ele>937</ele>
</trkpt>
<trkpt lat="39.760752031579614" lon="2.767676012590528">
<ele>940</ele>
</trkpt>
<trkpt lat="39.760812968015671" lon="2.767434027045965">
<ele>944</ele>
</trkpt>
<trkpt lat="39.760816991329193" lon="2.767350040376186">
<ele>948</ele>
</trkpt>
<trkpt lat="39.760857978835702" lon="2.767202015966177">
<ele>951</ele>
</trkpt>
<trkpt lat="39.760950012132525" lon="2.767086010426283">
<ele>955</ele>
</trkpt>
<trkpt lat="39.760978007689118" lon="2.76703798212111">
<ele>959</ele>
</trkpt>
<trkpt lat="39.761041961610317" lon="2.767051979899406">
<ele>962</ele>
</trkpt>
<trkpt lat="39.761156039312482" lon="2.767013004049659">
<ele>966</ele>
</trkpt>
<trkpt lat="39.761202977970243" lon="2.766988025978208">
<ele>970</ele>
</trkpt>
<trkpt lat="39.761276990175247" lon="2.767059020698071">
<ele>974</ele>
</trkpt>
<trkpt lat="39.761326024308801" lon="2.767119035124779">
<ele>977</ele>
</trkpt>
<trkpt lat="39.76143297739327" lon="2.767057009041309">
<ele>981</ele>
</trkpt>
<trkpt lat="39.76143297739327" lon="2.767057009041309">
<ele>986</ele>
</trkpt>
<trkpt lat="39.761491985991597" lon="2.767043011263013">
<ele>991</ele>
</trkpt>
<trkpt lat="39.761568009853363" lon="2.76710101403296">
<ele>996</ele>
</trkpt>
<trkpt lat="39.761651996523142" lon="2.767139989882708">
<ele>1001</ele>
</trkpt>
<trkpt lat="39.761761967092752" lon="2.767225988209248">
<ele>1006</ele>
</trkpt>
<trkpt lat="39.761918960139155" lon="2.76731600984931">
<ele>1010</ele>
</trkpt>
<trkpt lat="39.761959025636315" lon="2.767331013455987">
<ele>1015</ele>
</trkpt>
<trkpt lat="39.762006970122457" lon="2.767355991527438">
<ele>1020</ele>
</trkpt>
<trkpt lat="39.762132028117776" lon="2.767453975975514">
<ele>1025</ele>
</trkpt>
<trkpt lat="39.762224983423948" lon="2.767545003443956">
<ele>1030</ele>
</trkpt>
<trkpt lat="39.762292960658669" lon="2.767580039799213">
<ele>1034</ele>
</trkpt>
<trkpt lat="39.762374013662338" lon="2.767589008435607">
<ele>1037</ele>
</trkpt>
<trkpt lat="39.762424975633621" lon="2.767627984285355">
<ele>1040</ele>
</trkpt>
<trkpt lat="39.762522960081697" lon="2.767742983996868">
<ele>1044</ele>
</trkpt>
<trkpt lat="39.762617005035281" lon="2.767671989277005">
<ele>1048</ele>
</trkpt>
<trkpt lat="39.762622034177184" lon="2.767672995105386">
<ele>1051</ele>
</trkpt>
<trkpt lat="39.762676013633609" lon="2.767669977620244">
<ele>1054</ele>
</trkpt>
<trkpt lat="39.762741979211569" lon="2.767686992883682">
<ele>1058</ele>
</trkpt>
<trkpt lat="39.762784726917744" lon="2.767716497182846">
<ele>1062</ele>
</trkpt>
<trkpt lat="39.762865528464317" lon="2.767742816358805">
<ele>1065</ele>
</trkpt>
<trkpt lat="39.762870976701379" lon="2.767742816358805">
<ele>1067</ele>
</trkpt>
<trkpt lat="39.762976923957467" lon="2.767784558236599">
<ele>1069</ele>
</trkpt>
<trkpt lat="39.762978767976165" lon="2.767784558236599">
<ele>1071</ele>
</trkpt>
<trkpt lat="39.763183537870646" lon="2.767782295122743">
<ele>1073</ele>
</trkpt>
<trkpt lat="39.763285964727402" lon="2.767826216295362">
<ele>1075</ele>
</trkpt>
<trkpt lat="39.763377578929067" lon="2.767806435003877">
<ele>1077</ele>
</trkpt>
<trkpt lat="39.763383027166128" lon="2.767806435003877">
<ele>1079</ele>
</trkpt>
<trkpt lat="39.763427870348096" lon="2.767795454710722">
<ele>1081</ele>
</trkpt>
<trkpt lat="39.76343147456646" lon="2.767795454710722">
<ele>1083</ele>
</trkpt>
<trkpt lat="39.76349794305861" lon="2.767788916826248">
<ele>1085</ele>
</trkpt>
<trkpt lat="39.763501547276974" lon="2.767788916826248">
<ele>1086</ele>
</trkpt>
<trkpt lat="39.763546474277973" lon="2.767817415297031">
<ele>1087</ele>
</trkpt>
<trkpt lat="39.763616546988487" lon="2.767716497182846">
<ele>1088</ele>
</trkpt>
<trkpt lat="39.763596765697002" lon="2.767703337594867">
<ele>1089</ele>
</trkpt>
<trkpt lat="39.763560891151428" lon="2.767677018418908">
<ele>1089</ele>
</trkpt>
<trkpt lat="39.763480005785823" lon="2.767499405890703">
<ele>1090</ele>
</trkpt>
<trkpt lat="39.763429714366794" lon="2.767308549955487">
<ele>1091</ele>
</trkpt>
<trkpt lat="39.763408172875643" lon="2.767165973782539">
<ele>1092</ele>
</trkpt>
<trkpt lat="39.763401970267296" lon="2.767082992941141">
<ele>1093</ele>
</trkpt>
<trkpt lat="39.763402976095676" lon="2.767117023468018">
<ele>1092</ele>
</trkpt>
<trkpt lat="39.763402976095676" lon="2.767117023468018">
<ele>1091</ele>
</trkpt>
<trkpt lat="39.763403981924057" lon="2.76714401319623">
<ele>1091</ele>
</trkpt>
<trkpt lat="39.763434994965792" lon="2.767341993749142">
<ele>1090</ele>
</trkpt>
<trkpt lat="39.763441029936075" lon="2.767422962933779">
<ele>1089</ele>
</trkpt>
<trkpt lat="39.763471037149429" lon="2.76748800650239">
<ele>1088</ele>
</trkpt>
<trkpt lat="39.763498026877642" lon="2.767586996778846">
<ele>1087</ele>
</trkpt>
<trkpt lat="39.763616798445582" lon="2.767700739204884">
<ele>1087</ele>
</trkpt>
<trkpt lat="39.763548569753766" lon="2.767821438610554">
<ele>1086</ele>
</trkpt>
<trkpt lat="39.763428205624223" lon="2.767803836613894">
<ele>1085</ele>
</trkpt>
<trkpt lat="39.763291664421558" lon="2.767827976495028">
<ele>1081</ele>
</trkpt>
<trkpt lat="39.763173060491681" lon="2.767786318436265">
<ele>1076</ele>
</trkpt>
<trkpt lat="39.763034759089351" lon="2.76778849773109">
<ele>1072</ele>
</trkpt>
<trkpt lat="39.763034759089351" lon="2.767792940139771">
<ele>1068</ele>
</trkpt>
<trkpt lat="39.762856895104051" lon="2.767742481082678">
<ele>1064</ele>
</trkpt>
<trkpt lat="39.762774249538779" lon="2.767718341201544">
<ele>1059</ele>
</trkpt>
<trkpt lat="39.762599905952811" lon="2.767676683142781">
<ele>1055</ele>
</trkpt>
<trkpt lat="39.762546010315418" lon="2.767696380615234">
<ele>1051</ele>
</trkpt>
<trkpt lat="39.762540645897388" lon="2.767749018967152">
<ele>1046</ele>
</trkpt>
<trkpt lat="39.762477781623602" lon="2.767700739204884">
<ele>1042</ele>
</trkpt>
<trkpt lat="39.762370744720101" lon="2.767587248235941">
<ele>1036</ele>
</trkpt>
<trkpt lat="39.76221626624465" lon="2.767545590177178">
<ele>1030</ele>
</trkpt>
<trkpt lat="39.762130016461015" lon="2.767460094764829">
<ele>1024</ele>
</trkpt>
<trkpt lat="39.762022225186229" lon="2.767350375652313">
<ele>1018</ele>
</trkpt>
<trkpt lat="39.761896412819624" lon="2.767306538298726">
<ele>1012</ele>
</trkpt>
<trkpt lat="39.761758111417294" lon="2.767234118655324">
<ele>1005</ele>
</trkpt>
<trkpt lat="39.761686278507113" lon="2.76714644394815">
<ele>999</ele>
</trkpt>
<trkpt lat="39.761562310159206" lon="2.767106965184212">
<ele>993</ele>
</trkpt>
<trkpt lat="39.761522747576237" lon="2.767058685421944">
<ele>987</ele>
</trkpt>
<trkpt lat="39.761371789500117" lon="2.767082825303078">
<ele>981</ele>
</trkpt>
<trkpt lat="39.761338178068399" lon="2.767100092023611">
<ele>977</ele>
</trkpt>
<trkpt lat="39.761262740939856" lon="2.767038652673364">
<ele>974</ele>
</trkpt>
<trkpt lat="39.761205241084099" lon="2.766986014321446">
<ele>970</ele>
</trkpt>
<trkpt lat="39.7611153870821" lon="2.767064971849322">
<ele>967</ele>
</trkpt>
<trkpt lat="39.761077668517828" lon="2.767071593552828">
<ele>963</ele>
</trkpt>
<trkpt lat="39.760969877243042" lon="2.767036473378539">
<ele>959</ele>
</trkpt>
<trkpt lat="39.760883627459407" lon="2.767183408141136">
<ele>956</ele>
</trkpt>
<trkpt lat="39.760883627459407" lon="2.767185671254993">
<ele>952</ele>
</trkpt>
<trkpt lat="39.760806346312165" lon="2.767352303490043">
<ele>949</ele>
</trkpt>
<trkpt lat="39.760795617476106" lon="2.767479540780187">
<ele>945</ele>
</trkpt>
<trkpt lat="39.760792013257742" lon="2.767600156366825">
<ele>942</ele>
</trkpt>
<trkpt lat="39.760770387947559" lon="2.767663775011897">
<ele>939</ele>
</trkpt>
<trkpt lat="39.760702159255743" lon="2.767716413363814">
<ele>936</ele>
</trkpt>
<trkpt lat="39.760612305253744" lon="2.767769051715732">
<ele>933</ele>
</trkpt>
<trkpt lat="39.760610545054078" lon="2.767771231010556">
<ele>930</ele>
</trkpt>
<trkpt lat="39.760497305542231" lon="2.767837028950453">
<ele>928</ele>
</trkpt>
<trkpt lat="39.760429076850414" lon="2.767810709774494">
<ele>925</ele>
</trkpt>
<trkpt lat="39.760344587266445" lon="2.767791012302041">
<ele>922</ele>
</trkpt>
<trkpt lat="39.760341066867113" lon="2.767793191596866">
<ele>919</ele>
</trkpt>
<trkpt lat="39.760222462937236" lon="2.767731752246618">
<ele>916</ele>
</trkpt>
<trkpt lat="39.760218858718872" lon="2.767731752246618">
<ele>913</ele>
</trkpt>
<trkpt lat="39.760150546208024" lon="2.767654974013567">
<ele>911</ele>
</trkpt>
<trkpt lat="39.760094890370965" lon="2.767578195780516">
<ele>908</ele>
</trkpt>
<trkpt lat="39.759978633373976" lon="2.767481887713075">
<ele>905</ele>
</trkpt>
<trkpt lat="39.759890623390675" lon="2.767427070066333">
<ele>903</ele>
</trkpt>
<trkpt lat="39.759888779371977" lon="2.767427070066333">
<ele>900</ele>
</trkpt>
<trkpt lat="39.759710915386677" lon="2.767455568537116">
<ele>898</ele>
</trkpt>
<trkpt lat="39.759709155187011" lon="2.767455568537116">
<ele>895</ele>
</trkpt>
<trkpt lat="39.759608488529921" lon="2.767457747831941">
<ele>892</ele>
</trkpt>
<trkpt lat="39.759527686983347" lon="2.767424890771508">
<ele>890</ele>
</trkpt>
<trkpt lat="39.759457027539611" lon="2.767347022891045">
<ele>887</ele>
</trkpt>
<trkpt lat="39.759430624544621" lon="2.76730427518487">
<ele>887</ele>
</trkpt>
<trkpt lat="39.759428864344954" lon="2.76717041619122">
<ele>886</ele>
</trkpt>
<trkpt lat="39.759482759982347" lon="2.767049800604582">
<ele>886</ele>
</trkpt>
<trkpt lat="39.759569009765983" lon="2.76691384613514">
<ele>886</ele>
</trkpt>
<trkpt lat="39.759651655331254" lon="2.766775628551841">
<ele>886</ele>
</trkpt>
<trkpt lat="39.759748633950949" lon="2.766646211966872">
<ele>885</ele>
</trkpt>
<trkpt lat="39.759815102443099" lon="2.766442280262709">
<ele>885</ele>
</trkpt>
<trkpt lat="39.759816946461797" lon="2.76643792167306">
<ele>885</ele>
</trkpt>
<trkpt lat="39.759872602298856" lon="2.766280006617308">
<ele>884</ele>
</trkpt>
<trkpt lat="39.759921133518219" lon="2.766082612797618">
<ele>884</ele>
</trkpt>
<trkpt lat="39.759945776313543" lon="2.765937354415655">
<ele>882</ele>
</trkpt>
<trkpt lat="39.759947536513209" lon="2.765932995826006">
<ele>881</ele>
</trkpt>
<trkpt lat="39.759967317804694" lon="2.765770638361573">
<ele>879</ele>
</trkpt>
<trkpt lat="39.759969161823392" lon="2.76575094088912">
<ele>877</ele>
</trkpt>
<trkpt lat="39.760042754933238" lon="2.76544164866209">
<ele>876</ele>
</trkpt>
<trkpt lat="39.760096650570631" lon="2.765237716957927">
<ele>874</ele>
</trkpt>
<trkpt lat="39.760098494589329" lon="2.765231095254421">
<ele>872</ele>
</trkpt>
<trkpt lat="39.760152390226722" lon="2.765038060024381">
<ele>870</ele>
</trkpt>
<trkpt lat="39.760227827355266" lon="2.764902105554938">
<ele>869</ele>
</trkpt>
<trkpt lat="39.760281722992659" lon="2.76477268896997">
<ele>867</ele>
</trkpt>
<trkpt lat="39.760283567011356" lon="2.764768330380321">
<ele>868</ele>
</trkpt>
<trkpt lat="39.760342827066779" lon="2.764674033969641">
<ele>868</ele>
</trkpt>
<trkpt lat="39.760472159832716" lon="2.764612594619393">
<ele>869</ele>
</trkpt>
<trkpt lat="39.760578190907836" lon="2.764614773914218">
<ele>869</ele>
</trkpt>
<trkpt lat="39.760675169527531" lon="2.764544617384672">
<ele>870</ele>
</trkpt>
<trkpt lat="39.760799137875438" lon="2.764478819444776">
<ele>871</ele>
</trkpt>
<trkpt lat="39.760911539196968" lon="2.76445216499269">
<ele>871</ele>
</trkpt>
<trkpt lat="39.761006757616997" lon="2.764377566054463">
<ele>872</ele>
</trkpt>
<trkpt lat="39.761116309091449" lon="2.764292070642114">
<ele>872</ele>
</trkpt>
<trkpt lat="39.761227704584599" lon="2.764169191941619">
<ele>873</ele>
</trkpt>
<trkpt lat="39.761236673220992" lon="2.764158295467496">
<ele>873</ele>
</trkpt>
<trkpt lat="39.761301381513476" lon="2.764042038470507">
<ele>873</ele>
</trkpt>
<trkpt lat="39.761362485587597" lon="2.763963080942631">
<ele>873</ele>
</trkpt>
<trkpt lat="39.761463068425655" lon="2.763862162828445">
<ele>873</ele>
</trkpt>
<trkpt lat="39.761464912444353" lon="2.763862162828445">
<ele>872</ele>
</trkpt>
<trkpt lat="39.761592401191592" lon="2.763840202242136">
<ele>872</ele>
</trkpt>
<trkpt lat="39.761768504977226" lon="2.763807345181704">
<ele>872</ele>
</trkpt>
<trkpt lat="39.761852994561195" lon="2.763756886124611">
<ele>872</ele>
</trkpt>
<trkpt lat="39.76194997318089" lon="2.763671390712261">
<ele>872</ele>
</trkpt>
<trkpt lat="39.762092716991901" lon="2.763573322445154">
<ele>872</ele>
</trkpt>
<trkpt lat="39.762094477191567" lon="2.763573322445154">
<ele>872</ele>
</trkpt>
<trkpt lat="39.762288518249989" lon="2.763472404330969">
<ele>872</ele>
</trkpt>
<trkpt lat="39.762435872107744" lon="2.763419765979052">
<ele>872</ele>
</trkpt>
<trkpt lat="39.762579621747136" lon="2.763358326628804">
<ele>872</ele>
</trkpt>
<trkpt lat="39.762714318931103" lon="2.763305688276887">
<ele>872</ele>
</trkpt>
<trkpt lat="39.76283828727901" lon="2.763275010511279">
<ele>871</ele>
</trkpt>
<trkpt lat="39.762964099645615" lon="2.763220192864537">
<ele>871</ele>
</trkpt>
<trkpt lat="39.763104245066643" lon="2.763176271691918">
<ele>871</ele>
</trkpt>
<trkpt lat="39.763261824846268" lon="2.76317342184484">
<ele>871</ele>
</trkpt>
<trkpt lat="39.763260064646602" lon="2.76317342184484">
<ele>871</ele>
</trkpt>
<trkpt lat="39.76342711597681" lon="2.763199741020799">
<ele>872</ele>
</trkpt>
<trkpt lat="39.763432564213872" lon="2.763199741020799">
<ele>872</ele>
</trkpt>
<trkpt lat="39.763561896979809" lon="2.763193203136325">
<ele>873</ele>
</trkpt>
<trkpt lat="39.763718219473958" lon="2.763184402137995">
<ele>873</ele>
</trkpt>
<trkpt lat="39.763834979385138" lon="2.763129584491253">
<ele>874</ele>
</trkpt>
<trkpt lat="39.764018207788467" lon="2.763184402137995">
<ele>875</ele>
</trkpt>
<trkpt lat="39.764167405664921" lon="2.76319538243115">
<ele>875</ele>
</trkpt>
<trkpt lat="39.764230269938707" lon="2.763199741020799">
<ele>876</ele>
</trkpt>
<trkpt lat="39.764435375109315" lon="2.763282805681229">
<ele>876</ele>
</trkpt>
<trkpt lat="39.764600666239858" lon="2.763238968327642">
<ele>877</ele>
</trkpt>
<trkpt lat="39.764749780297279" lon="2.763177528977394">
<ele>877</ele>
</trkpt>
<trkpt lat="39.764898978173733" lon="2.763111731037498">
<ele>877</ele>
</trkpt>
<trkpt lat="39.765008529648185" lon="2.763019613921642">
<ele>877</ele>
</trkpt>
<trkpt lat="39.76508941501379" lon="2.762938477098942">
<ele>876</ele>
</trkpt>
<trkpt lat="39.765263674780726" lon="2.76278056204319">
<ele>876</ele>
</trkpt>
<trkpt lat="39.765331903472543" lon="2.762769581750035">
<ele>876</ele>
</trkpt>
<trkpt lat="39.765542121604085" lon="2.762778382748365">
<ele>876</ele>
</trkpt>
<trkpt lat="39.765632059425116" lon="2.762801935896277">
<ele>876</ele>
</trkpt>
<trkpt lat="39.765761476010084" lon="2.762856753543019">
<ele>876</ele>
</trkpt>
<trkpt lat="39.765827944502234" lon="2.76287435553968">
<ele>875</ele>
</trkpt>
<trkpt lat="39.765905141830444" lon="2.762913834303618">
<ele>875</ele>
</trkpt>
<trkpt lat="39.766059704124928" lon="2.763038808479905">
<ele>875</ele>
</trkpt>
<trkpt lat="39.766107983887196" lon="2.763109970837832">
<ele>875</ele>
</trkpt>
<trkpt lat="39.766138745471835" lon="2.763227401301265">
<ele>874</ele>
</trkpt>
<trkpt lat="39.766135141253471" lon="2.763227401301265">
<ele>874</ele>
</trkpt>
<trkpt lat="39.766174703836441" lon="2.763365618884563">
<ele>873</ele>
</trkpt>
<trkpt lat="39.766199849545956" lon="2.76343141682446">
<ele>872</ele>
</trkpt>
<trkpt lat="39.766339994966984" lon="2.763488413766027">
<ele>872</ele>
</trkpt>
<trkpt lat="39.766429765149951" lon="2.763609113171697">
<ele>871</ele>
</trkpt>
<trkpt lat="39.766517104580998" lon="2.763727465644479">
<ele>870</ele>
</trkpt>
<trkpt lat="39.766558427363634" lon="2.763874484226108">
<ele>869</ele>
</trkpt>
<trkpt lat="39.766687760129571" lon="2.763933660462499">
<ele>869</ele>
</trkpt>
<trkpt lat="39.766687760129571" lon="2.763935839757323">
<ele>868</ele>
</trkpt>
<trkpt lat="39.766729082912207" lon="2.763962158933282">
<ele>867</ele>
</trkpt>
<trkpt lat="39.766806364059448" lon="2.764106914401054">
<ele>865</ele>
</trkpt>
<trkpt lat="39.766806364059448" lon="2.76410473510623">
<ele>864</ele>
</trkpt>
<trkpt lat="39.766845926642418" lon="2.764218812808394">
<ele>863</ele>
</trkpt>
<trkpt lat="39.766926728188992" lon="2.764319647103548">
<ele>862</ele>
</trkpt>
<trkpt lat="39.766977019608021" lon="2.764433724805713">
<ele>860</ele>
</trkpt>
<trkpt lat="39.766973499208689" lon="2.764536822214723">
<ele>859</ele>
</trkpt>
<trkpt lat="39.766971655189991" lon="2.764536822214723">
<ele>858</ele>
</trkpt>
<trkpt lat="39.767052540555596" lon="2.764628939330578">
<ele>856</ele>
</trkpt>
<trkpt lat="39.767135186120868" lon="2.764743017032743">
<ele>855</ele>
</trkpt>
<trkpt lat="39.767217831686139" lon="2.764817532151938">
<ele>853</ele>
</trkpt>
<trkpt lat="39.76731120608747" lon="2.764872433617711">
<ele>850</ele>
</trkpt>
<trkpt lat="39.767397455871105" lon="2.764946948736906">
<ele>848</ele>
</trkpt>
<trkpt lat="39.767449591308832" lon="2.764988606795669">
<ele>846</ele>
</trkpt>
<trkpt lat="39.767613038420677" lon="2.765054404735565">
<ele>844</ele>
</trkpt>
<trkpt lat="39.767694175243378" lon="2.765141995623708">
<ele>841</ele>
</trkpt>
<trkpt lat="39.767764247953892" lon="2.765194633975625">
<ele>839</ele>
</trkpt>
<trkpt lat="39.767897268757224" lon="2.765304269269109">
<ele>837</ele>
</trkpt>
<trkpt lat="39.767988882958889" lon="2.765348106622696">
<ele>834</ele>
</trkpt>
<trkpt lat="39.768118215724826" lon="2.76546654291451">
<ele>832</ele>
</trkpt>
<trkpt lat="39.768211673945189" lon="2.765602581202984">
<ele>831</ele>
</trkpt>
<trkpt lat="39.76825475692749" lon="2.765657398849726">
<ele>829</ele>
</trkpt>
<trkpt lat="39.768376965075731" lon="2.765799975022674">
<ele>828</ele>
</trkpt>
<trkpt lat="39.768456006422639" lon="2.765907431021333">
<ele>827</ele>
</trkpt>
<trkpt lat="39.768547620624304" lon="2.7660455647856">
<ele>826</ele>
</trkpt>
<trkpt lat="39.768547620624304" lon="2.766047827899456">
<ele>824</ele>
</trkpt>
<trkpt lat="39.768657172098756" lon="2.766214460134506">
<ele>823</ele>
</trkpt>
<trkpt lat="39.768739817664027" lon="2.76635049842298">
<ele>822</ele>
</trkpt>
<trkpt lat="39.768799161538482" lon="2.766514951363206">
<ele>820</ele>
</trkpt>
<trkpt lat="39.768843753263354" lon="2.766653252765536">
<ele>819</ele>
</trkpt>
<trkpt lat="39.768892200663686" lon="2.766762971878052">
<ele>818</ele>
</trkpt>
<trkpt lat="39.768965877592564" lon="2.766907727345824">
<ele>817</ele>
</trkpt>
<trkpt lat="39.769026981666684" lon="2.766955923289061">
<ele>815</ele>
</trkpt>
<trkpt lat="39.769104262813926" lon="2.767083160579205">
<ele>814</ele>
</trkpt>
<trkpt lat="39.76917969994247" lon="2.767197238281369">
<ele>813</ele>
</trkpt>
<trkpt lat="39.769287491217256" lon="2.767291534692049">
<ele>812</ele>
</trkpt>
<trkpt lat="39.769386313855648" lon="2.767401169985533">
<ele>811</ele>
</trkpt>
<trkpt lat="39.769386313855648" lon="2.767405612394214">
<ele>809</ele>
</trkpt>
<trkpt lat="39.769474323838949" lon="2.767480127513409">
<ele>808</ele>
</trkpt>
<trkpt lat="39.769573146477342" lon="2.767607364803553">
<ele>807</ele>
</trkpt>
<trkpt lat="39.769706083461642" lon="2.767677521333098">
<ele>806</ele>
</trkpt>
<trkpt lat="39.769813874736428" lon="2.767774080857635">
<ele>805</ele>
</trkpt>
<trkpt lat="39.769871374592185" lon="2.767918836325407">
<ele>804</ele>
</trkpt>
<trkpt lat="39.769867770373821" lon="2.768015312030911">
<ele>803</ele>
</trkpt>
<trkpt lat="39.76981932297349" lon="2.768122768029571">
<ele>802</ele>
</trkpt>
<trkpt lat="39.76981932297349" lon="2.768124947324395">
<ele>801</ele>
</trkpt>
<trkpt lat="39.769783029332757" lon="2.768213963136077">
<ele>800</ele>
</trkpt>
<trkpt lat="39.769828543066978" lon="2.768273809924722">
<ele>799</ele>
</trkpt>
<trkpt lat="39.769875230267644" lon="2.768322005867958">
<ele>799</ele>
</trkpt>
<trkpt lat="39.76993809454143" lon="2.768339607864618">
<ele>798</ele>
</trkpt>
<trkpt lat="39.770010011270642" lon="2.768453601747751">
<ele>798</ele>
</trkpt>
<trkpt lat="39.770108833909035" lon="2.768585197627544">
<ele>797</ele>
</trkpt>
<trkpt lat="39.770162729546428" lon="2.768679494038224">
<ele>796</ele>
</trkpt>
<trkpt lat="39.770247135311365" lon="2.768762893974781">
<ele>796</ele>
</trkpt>
<trkpt lat="39.770401697605848" lon="2.768876887857914">
<ele>795</ele>
</trkpt>
<trkpt lat="39.770507644861937" lon="2.769019464030862">
<ele>795</ele>
</trkpt>
<trkpt lat="39.770635217428207" lon="2.769166482612491">
<ele>794</ele>
</trkpt>
<trkpt lat="39.770782571285963" lon="2.769234459847212">
<ele>793</ele>
</trkpt>
<trkpt lat="39.770922716706991" lon="2.769322134554386">
<ele>793</ele>
</trkpt>
<trkpt lat="39.771030507981777" lon="2.76944937184453">
<ele>792</ele>
</trkpt>
<trkpt lat="39.771118937060237" lon="2.769565125927329">
<ele>791</ele>
</trkpt>
<trkpt lat="39.771176436915994" lon="2.769661601632834">
<ele>790</ele>
</trkpt>
<trkpt lat="39.771282384172082" lon="2.769804177805781">
<ele>790</ele>
</trkpt>
<trkpt lat="39.771395623683929" lon="2.769959913566709">
<ele>789</ele>
</trkpt>
<trkpt lat="39.77148899808526" lon="2.770095868036151">
<ele>788</ele>
</trkpt>
<trkpt lat="39.771591424942017" lon="2.770255962386727">
<ele>788</ele>
</trkpt>
<trkpt lat="39.771670466288924" lon="2.770387642085552">
<ele>787</ele>
</trkpt>
<trkpt lat="39.771744143217802" lon="2.770547736436129">
<ele>787</ele>
</trkpt>
<trkpt lat="39.771871715784073" lon="2.770653013139963">
<ele>786</ele>
</trkpt>
<trkpt lat="39.77199568413198" lon="2.770712189376354">
<ele>786</ele>
</trkpt>
<trkpt lat="39.772157371044159" lon="2.770804306492209">
<ele>786</ele>
</trkpt>
<trkpt lat="39.772234652191401" lon="2.770835068076849">
<ele>786</ele>
</trkpt>
<trkpt lat="39.772382508963346" lon="2.770953336730599">
<ele>785</ele>
</trkpt>
<trkpt lat="39.77250823751092" lon="2.771150730550289">
<ele>785</ele>
</trkpt>
<trkpt lat="39.772590883076191" lon="2.771293306723237">
<ele>785</ele>
</trkpt>
<trkpt lat="39.772651987150311" lon="2.771400762721896">
<ele>784</ele>
</trkpt>
<trkpt lat="39.772777715697885" lon="2.771569658070803">
<ele>784</ele>
</trkpt>
<trkpt lat="39.772890955209732" lon="2.771764872595668">
<ele>783</ele>
</trkpt>
<trkpt lat="39.77296999655664" lon="2.771916249766946">
<ele>783</ele>
</trkpt>
<trkpt lat="39.773054402321577" lon="2.772085061296821">
<ele>782</ele>
</trkpt>
<trkpt lat="39.773146016523242" lon="2.772256135940552">
<ele>781</ele>
</trkpt>
<trkpt lat="39.773203516378999" lon="2.772381193935871">
<ele>780</ele>
</trkpt>
<trkpt lat="39.773259256035089" lon="2.772499630227685">
<ele>780</ele>
</trkpt>
<trkpt lat="39.773345505818725" lon="2.772642206400633">
<ele>779</ele>
</trkpt>
<trkpt lat="39.773495206609368" lon="2.772766090929508">
<ele>778</ele>
</trkpt>
<trkpt lat="39.773495206609368" lon="2.772770449519157">
<ele>778</ele>
</trkpt>
<trkpt lat="39.773640800267458" lon="2.772875726222992">
<ele>777</ele>
</trkpt>
<trkpt lat="39.773714393377304" lon="2.77299634180963">
<ele>776</ele>
</trkpt>
<trkpt lat="39.773788070306182" lon="2.773125758394599">
<ele>776</ele>
</trkpt>
<trkpt lat="39.77378991432488" lon="2.773127937689424">
<ele>776</ele>
</trkpt>
<trkpt lat="39.773852778598666" lon="2.773246373981237">
<ele>775</ele>
</trkpt>
<trkpt lat="39.773854538798332" lon="2.773246373981237">
<ele>774</ele>
</trkpt>
<trkpt lat="39.773969538509846" lon="2.773395488038659">
<ele>774</ele>
</trkpt>
<trkpt lat="39.774115048348904" lon="2.773564383387566">
<ele>774</ele>
</trkpt>
<trkpt lat="39.774231808260083" lon="2.773685082793236">
<ele>773</ele>
</trkpt>
<trkpt lat="39.774346807971597" lon="2.773812236264348">
<ele>772</ele>
</trkpt>
<trkpt lat="39.774346807971597" lon="2.773814415559173">
<ele>772</ele>
</trkpt>
<trkpt lat="39.77443490177393" lon="2.773882476612926">
<ele>772</ele>
</trkpt>
<trkpt lat="39.774472620338202" lon="2.773948274552822">
<ele>771</ele>
</trkpt>
<trkpt lat="39.774429453536868" lon="2.774125887081027">
<ele>771</ele>
</trkpt>
<trkpt lat="39.774427693337202" lon="2.774128066375852">
<ele>771</ele>
</trkpt>
<trkpt lat="39.774352256208658" lon="2.77427944354713">
<ele>770</ele>
</trkpt>
<trkpt lat="39.774321662262082" lon="2.774353958666325">
<ele>770</ele>
</trkpt>
<trkpt lat="39.774301880970597" lon="2.774518495425582">
<ele>770</ele>
</trkpt>
<trkpt lat="39.774317052215338" lon="2.774641122668982">
<ele>770</ele>
</trkpt>
<trkpt lat="39.774317052215338" lon="2.774643301963806">
<ele>769</ele>
</trkpt>
<trkpt lat="39.774435656145215" lon="2.774897692725062">
<ele>769</ele>
</trkpt>
<trkpt lat="39.774572197347879" lon="2.774998610839248">
<ele>768</ele>
</trkpt>
<trkpt lat="39.774732124060392" lon="2.775101708248258">
<ele>767</ele>
</trkpt>
<trkpt lat="39.774829102680087" lon="2.775193825364113">
<ele>766</ele>
</trkpt>
<trkpt lat="39.774829102680087" lon="2.775196004658938">
<ele>765</ele>
</trkpt>
<trkpt lat="39.774899175390601" lon="2.775305723771453">
<ele>764</ele>
</trkpt>
<trkpt lat="39.77495483122766" lon="2.775426339358091">
<ele>762</ele>
</trkpt>
<trkpt lat="39.775069830939174" lon="2.775441678240895">
<ele>761</ele>
</trkpt>
<trkpt lat="39.775121966376901" lon="2.77542189694941">
<ele>760</ele>
</trkpt>
<trkpt lat="39.775272840633988" lon="2.775483336299658">
<ele>759</ele>
</trkpt>
<trkpt lat="39.775434527546167" lon="2.775577632710338">
<ele>758</ele>
</trkpt>
<trkpt lat="39.775434527546167" lon="2.775579812005162">
<ele>758</ele>
</trkpt>
<trkpt lat="39.775529829785228" lon="2.77563245035708">
<ele>758</ele>
</trkpt>
<trkpt lat="39.775623707100749" lon="2.775698164477944">
<ele>758</ele>
</trkpt>
<trkpt lat="39.77570635266602" lon="2.775770500302315">
<ele>758</ele>
</trkpt>
<trkpt lat="39.775792602449656" lon="2.775904359295964">
<ele>758</ele>
</trkpt>
<trkpt lat="39.775866279378533" lon="2.776024974882603">
<ele>757</ele>
</trkpt>
<trkpt lat="39.776011789217591" lon="2.776145590469241">
<ele>757</ele>
</trkpt>
<trkpt lat="39.776148330420256" lon="2.776277186349034">
<ele>757</ele>
</trkpt>
<trkpt lat="39.776205830276012" lon="2.776323202997446">
<ele>757</ele>
</trkpt>
<trkpt lat="39.776270538568497" lon="2.776424121111631">
<ele>757</ele>
</trkpt>
<trkpt lat="39.776358548551798" lon="2.776555716991425">
<ele>757</ele>
</trkpt>
<trkpt lat="39.776455610990524" lon="2.776696113869548">
<ele>756</ele>
</trkpt>
<trkpt lat="39.776590308174491" lon="2.776783872395754">
<ele>756</ele>
</trkpt>
<trkpt lat="39.776651412248611" lon="2.776810191571713">
<ele>755</ele>
</trkpt>
<trkpt lat="39.776753839105368" lon="2.776902308687568">
<ele>755</ele>
</trkpt>
<trkpt lat="39.776885351166129" lon="2.777018817141652">
<ele>755</ele>
</trkpt>
<trkpt lat="39.777009319514036" lon="2.777113113552332">
<ele>754</ele>
</trkpt>
<trkpt lat="39.777097413316369" lon="2.777181090787053">
<ele>754</ele>
</trkpt>
<trkpt lat="39.777194391936064" lon="2.777229370549321">
<ele>753</ele>
</trkpt>
<trkpt lat="39.77729681879282" lon="2.777282008901238">
<ele>753</ele>
</trkpt>
<trkpt lat="39.777379464358091" lon="2.777356524020433">
<ele>753</ele>
</trkpt>
<trkpt lat="39.777494464069605" lon="2.777457442134619">
<ele>753</ele>
</trkpt>
<trkpt lat="39.777596807107329" lon="2.777549559250474">
<ele>753</ele>
</trkpt>
<trkpt lat="39.777663359418511" lon="2.77761971578002">
<ele>753</ele>
</trkpt>
<trkpt lat="39.777790848165751" lon="2.77783471159637">
<ele>752</ele>
</trkpt>
<trkpt lat="39.777846587821841" lon="2.777944346889854">
<ele>752</ele>
</trkpt>
<trkpt lat="39.777846587821841" lon="2.777948705479503">
<ele>752</ele>
</trkpt>
<trkpt lat="39.7779022436589" lon="2.778100082650781">
<ele>752</ele>
</trkpt>
<trkpt lat="39.777959743514657" lon="2.778238216415048">
<ele>752</ele>
</trkpt>
<trkpt lat="39.778006263077259" lon="2.778339134529233">
<ele>752</ele>
</trkpt>
<trkpt lat="39.778060158714652" lon="2.778424629941583">
<ele>752</ele>
</trkpt>
<trkpt lat="39.778141044080257" lon="2.778512388467789">
<ele>752</ele>
</trkpt>
<trkpt lat="39.778108689934015" lon="2.778665944933891">
<ele>751</ele>
</trkpt>
<trkpt lat="39.778140038251877" lon="2.778733000159264">
<ele>751</ele>
</trkpt>
<trkpt lat="39.778174990788102" lon="2.77880902402103">
<ele>751</ele>
</trkpt>
<trkpt lat="39.778227964416146" lon="2.778972974047065">
<ele>751</ele>
</trkpt>
<trkpt lat="39.77825403213501" lon="2.779002981260419">
<ele>751</ele>
</trkpt>
<trkpt lat="39.778418987989426" lon="2.779234992340207">
<ele>750</ele>
</trkpt>
<trkpt lat="39.778423011302948" lon="2.779242033138871">
<ele>750</ele>
</trkpt>
<trkpt lat="39.778476990759373" lon="2.779346974566579">
<ele>750</ele>
</trkpt>
<trkpt lat="39.77849300019443" lon="2.779393997043371">
<ele>750</ele>
</trkpt>
<trkpt lat="39.778630966320634" lon="2.779648974537849">
<ele>750</ele>
</trkpt>
<trkpt lat="39.778634989634156" lon="2.779660960659385">
<ele>749</ele>
</trkpt>
<trkpt lat="39.778689974918962" lon="2.77975601144135">
<ele>749</ele>
</trkpt>
<trkpt lat="39.778726017102599" lon="2.779794987291098">
<ele>749</ele>
</trkpt>
<trkpt lat="39.778805980458856" lon="2.779965978115797">
<ele>749</ele>
</trkpt>
<trkpt lat="39.778906982392073" lon="2.780107967555523">
<ele>749</ele>
</trkpt>
<trkpt lat="39.778992980718613" lon="2.780265966430306">
<ele>748</ele>
</trkpt>
<trkpt lat="39.779100017622113" lon="2.780413990840316">
<ele>748</ele>
</trkpt>
<trkpt lat="39.779110997915268" lon="2.780422959476709">
<ele>748</ele>
</trkpt>
<trkpt lat="39.779214011505246" lon="2.780584981665015">
<ele>747</ele>
</trkpt>
<trkpt lat="39.779274025931954" lon="2.780692018568516">
<ele>747</ele>
</trkpt>
<trkpt lat="39.779313001781702" lon="2.780730994418263">
<ele>746</ele>
</trkpt>
<trkpt lat="39.779367987066507" lon="2.780805006623268">
<ele>746</ele>
</trkpt>
<trkpt lat="39.779452979564667" lon="2.780936015769839">
<ele>745</ele>
</trkpt>
<trkpt lat="39.779467983171344" lon="2.780998963862658">
<ele>744</ele>
</trkpt>
<trkpt lat="39.779526991769671" lon="2.781232986599207">
<ele>744</ele>
</trkpt>
<trkpt lat="39.779529003426433" lon="2.7812609821558">
<ele>743</ele>
</trkpt>
<trkpt lat="39.779540989547968" lon="2.781487964093685">
<ele>743</ele>
</trkpt>
<trkpt lat="39.779601003974676" lon="2.781674964353442">
<ele>742</ele>
</trkpt>
<trkpt lat="39.77960703894496" lon="2.781684016808868">
<ele>742</ele>
</trkpt>
<trkpt lat="39.779691025614738" lon="2.781798010692">
<ele>741</ele>
</trkpt>
<trkpt lat="39.779710974544287" lon="2.781835980713368">
<ele>741</ele>
</trkpt>
<trkpt lat="39.779829997569323" lon="2.782133035361767">
<ele>741</ele>
</trkpt>
<trkpt lat="39.779829997569323" lon="2.782133035361767">
<ele>740</ele>
</trkpt>
<trkpt lat="39.77990903891623" lon="2.782386001199484">
<ele>740</ele>
</trkpt>
<trkpt lat="39.779937034472823" lon="2.78246303088963">
<ele>740</ele>
</trkpt>
<trkpt lat="39.77999797090888" lon="2.782660005614162">
<ele>740</ele>
</trkpt>
<trkpt lat="39.780010962858796" lon="2.782736029475927">
<ele>739</ele>
</trkpt>
<trkpt lat="39.780027978122234" lon="2.782816998660564">
<ele>739</ele>
</trkpt>
<trkpt lat="39.780020015314221" lon="2.782865026965737">
<ele>739</ele>
</trkpt>
<trkpt lat="39.780053040012717" lon="2.783009028062224">
<ele>738</ele>
</trkpt>
<trkpt lat="39.780054967850447" lon="2.783020008355379">
<ele>738</ele>
</trkpt>
<trkpt lat="39.780056979507208" lon="2.783168032765389">
<ele>737</ele>
</trkpt>
<trkpt lat="39.780095033347607" lon="2.783313039690256">
<ele>737</ele>
</trkpt>
<trkpt lat="39.780178014189005" lon="2.783380011096597">
<ele>737</ele>
</trkpt>
<trkpt lat="39.780222019180655" lon="2.783415969461203">
<ele>736</ele>
</trkpt>
<trkpt lat="39.780367026105523" lon="2.783558964729309">
<ele>736</ele>
</trkpt>
<trkpt lat="39.780410025268793" lon="2.783713024109602">
<ele>735</ele>
</trkpt>
<trkpt lat="39.780409019440413" lon="2.783754011616111">
<ele>735</ele>
</trkpt>
<trkpt lat="39.780357973650098" lon="2.78400999493897">
<ele>735</ele>
</trkpt>
<trkpt lat="39.780345987528563" lon="2.784108985215426">
<ele>736</ele>
</trkpt>
<trkpt lat="39.780301982536912" lon="2.784264972433448">
<ele>736</ele>
</trkpt>
<trkpt lat="39.78029502555728" lon="2.784470999613404">
<ele>737</ele>
</trkpt>
<trkpt lat="39.780383035540581" lon="2.784726982936263">
<ele>737</ele>
</trkpt>
<trkpt lat="39.78042502887547" lon="2.78480501845479">
<ele>737</ele>
</trkpt>
<trkpt lat="39.780458975583315" lon="2.784965028986335">
<ele>738</ele>
</trkpt>
<trkpt lat="39.780475990846753" lon="2.785037029534578">
<ele>738</ele>
</trkpt>
<trkpt lat="39.780479008331895" lon="2.785069970414043">
<ele>739</ele>
</trkpt>
<trkpt lat="39.780542040243745" lon="2.785366019234061">
<ele>739</ele>
</trkpt>
<trkpt lat="39.780551008880138" lon="2.785413041710854">
<ele>739</ele>
</trkpt>
<trkpt lat="39.780527958646417" lon="2.785563999786973">
<ele>740</ele>
</trkpt>
<trkpt lat="39.78053298778832" lon="2.785593001171947">
<ele>740</ele>
</trkpt>
<trkpt lat="39.78051002137363" lon="2.785721998661757">
<ele>741</ele>
</trkpt>
<trkpt lat="39.78051102720201" lon="2.785786036401987">
<ele>741</ele>
</trkpt>
<trkpt lat="39.780512033030391" lon="2.785849990323186">
<ele>741</ele>
</trkpt>
<trkpt lat="39.780523013323545" lon="2.786002038046718">
<ele>742</ele>
</trkpt>
<trkpt lat="39.780522007495165" lon="2.786014024168253">
<ele>742</ele>
</trkpt>
<trkpt lat="39.780516978353262" lon="2.786130029708147">
<ele>743</ele>
</trkpt>
<trkpt lat="39.780529970303178" lon="2.786296997219324">
<ele>743</ele>
</trkpt>
<trkpt lat="39.7805339936167" lon="2.786436975002289">
<ele>743</ele>
</trkpt>
<trkpt lat="39.780550003051758" lon="2.786679966375232">
<ele>744</ele>
</trkpt>
<trkpt lat="39.780539022758603" lon="2.786768982186914">
<ele>744</ele>
</trkpt>
<trkpt lat="39.780538016930223" lon="2.786822961643338">
<ele>745</ele>
</trkpt>
<trkpt lat="39.780526030808687" lon="2.787165027111769">
<ele>745</ele>
</trkpt>
<trkpt lat="39.780530976131558" lon="2.787194028496742">
<ele>745</ele>
</trkpt>
<trkpt lat="39.780525024980307" lon="2.787301987409592">
<ele>746</ele>
</trkpt>
<trkpt lat="39.780498035252094" lon="2.787356972694397">
<ele>746</ele>
</trkpt>
<trkpt lat="39.780456963926554" lon="2.787493010982871">
<ele>747</ele>
</trkpt>
<trkpt lat="39.780416982248425" lon="2.787665007635951">
<ele>747</ele>
</trkpt>
<trkpt lat="39.780421005561948" lon="2.787806997075677">
<ele>747</ele>
</trkpt>
<trkpt lat="39.780419999733567" lon="2.787864999845624">
<ele>747</ele>
</trkpt>
<trkpt lat="39.780393010005355" lon="2.787955021485686">
<ele>748</ele>
</trkpt>
<trkpt lat="39.780286978930235" lon="2.788165993988514">
<ele>748</ele>
</trkpt>
<trkpt lat="39.780268035829067" lon="2.788327010348439">
<ele>748</ele>
</trkpt>
<trkpt lat="39.780236016958952" lon="2.788435975089669">
<ele>748</ele>
</trkpt>
<trkpt lat="39.780240962281823" lon="2.788442010059953">
<ele>748</ele>
</trkpt>
<trkpt lat="39.780235011130571" lon="2.788468999788165">
<ele>749</ele>
</trkpt>
<trkpt lat="39.780240962281823" lon="2.788596991449595">
<ele>749</ele>
</trkpt>
<trkpt lat="39.780262000858784" lon="2.788656000047922">
<ele>749</ele>
</trkpt>
<trkpt lat="39.780308017507195" lon="2.78880201280117">
<ele>748</ele>
</trkpt>
<trkpt lat="39.780320003628731" lon="2.788896979764104">
<ele>746</ele>
</trkpt>
<trkpt lat="39.780330983921885" lon="2.789198979735375">
<ele>744</ele>
</trkpt>
<trkpt lat="39.780354034155607" lon="2.789308028295636">
<ele>743</ele>
</trkpt>
<trkpt lat="39.780390998348594" lon="2.789456974714994">
<ele>742</ele>
</trkpt>
<trkpt lat="39.780422011390328" lon="2.789761992171407">
<ele>740</ele>
</trkpt>
<trkpt lat="39.780484959483147" lon="2.78989601880312">
<ele>738</ele>
</trkpt>
<trkpt lat="39.780493006110191" lon="2.789908004924655">
<ele>737</ele>
</trkpt>
<trkpt lat="39.78059601970017" lon="2.79009098187089">
<ele>736</ele>
</trkpt>
<trkpt lat="39.780700039118528" lon="2.790272030979395">
<ele>734</ele>
</trkpt>
<trkpt lat="39.780699033290148" lon="2.79026398435235">
<ele>734</ele>
</trkpt>
<trkpt lat="39.780699033290148" lon="2.79026398435235">
<ele>734</ele>
</trkpt>
<trkpt lat="39.780710013583302" lon="2.790580987930298">
<ele>734</ele>
</trkpt>
<trkpt lat="39.780709007754922" lon="2.790596997365356">
<ele>734</ele>
</trkpt>
<trkpt lat="39.780727028846741" lon="2.79090796597302">
<ele>734</ele>
</trkpt>
<trkpt lat="39.780729040503502" lon="2.791016008704901">
<ele>733</ele>
</trkpt>
<trkpt lat="39.780731974169612" lon="2.791343992576003">
<ele>733</ele>
</trkpt>
<trkpt lat="39.780729962512851" lon="2.79159301891923">
<ele>733</ele>
</trkpt>
<trkpt lat="39.780737003311515" lon="2.791783958673477">
<ele>733</ele>
</trkpt>
<trkpt lat="39.780743960291147" lon="2.791947992518544">
<ele>733</ele>
</trkpt>
<trkpt lat="39.780781008303165" lon="2.792063998058438">
<ele>734</ele>
</trkpt>
<trkpt lat="39.7808120213449" lon="2.792133986949921">
<ele>734</ele>
</trkpt>
<trkpt lat="39.780893996357918" lon="2.792226020246744">
<ele>735</ele>
</trkpt>
<trkpt lat="39.781016958877444" lon="2.792349988594651">
<ele>736</ele>
</trkpt>
<trkpt lat="39.781057024374604" lon="2.792402962222695">
<ele>736</ele>
</trkpt>
<trkpt lat="39.781207982450724" lon="2.792523996904492">
<ele>737</ele>
</trkpt>
<trkpt lat="39.781342009082437" lon="2.792598009109497">
<ele>738</ele>
</trkpt>
<trkpt lat="39.781422978267074" lon="2.792640002444387">
<ele>739</ele>
</trkpt>
<trkpt lat="39.781534038484097" lon="2.792676966637373">
<ele>739</ele>
</trkpt>
<trkpt lat="39.781695976853371" lon="2.792739998549223">
<ele>740</ele>
</trkpt>
<trkpt lat="39.781839977949858" lon="2.792793978005648">
<ele>740</ele>
</trkpt>
<trkpt lat="39.782004011794925" lon="2.792854998260737">
<ele>740</ele>
</trkpt>
<trkpt lat="39.782062014564872" lon="2.792891040444374">
<ele>741</ele>
</trkpt>
<trkpt lat="39.782278016209602" lon="2.79299003072083">
<ele>741</ele>
</trkpt>
<trkpt lat="39.782286984845996" lon="2.79299296438694">
<ele>741</ele>
</trkpt>
<trkpt lat="39.782430985942483" lon="2.793049961328507">
<ele>741</ele>
</trkpt>
<trkpt lat="39.782609017565846" lon="2.793130008503795">
<ele>741</ele>
</trkpt>
<trkpt lat="39.782768022269011" lon="2.793196979910135">
<ele>742</ele>
</trkpt>
<trkpt lat="39.78293901309371" lon="2.793279038742185">
<ele>742</ele>
</trkpt>
<trkpt lat="39.782950999215245" lon="2.793287001550198">
<ele>742</ele>
</trkpt>
<trkpt lat="39.783127019181848" lon="2.793361013755202">
<ele>742</ele>
</trkpt>
<trkpt lat="39.783324999734759" lon="2.793431002646685">
<ele>742</ele>
</trkpt>
<trkpt lat="39.783505965024233" lon="2.793469978496432">
<ele>742</ele>
</trkpt>
<trkpt lat="39.783658012747765" lon="2.793465033173561">
<ele>742</ele>
</trkpt>
<trkpt lat="39.783855993300676" lon="2.793455980718136">
<ele>742</ele>
</trkpt>
<trkpt lat="39.783930005505681" lon="2.793468972668052">
<ele>742</ele>
</trkpt>
<trkpt lat="39.78410099633038" lon="2.793581038713455">
<ele>742</ele>
</trkpt>
<trkpt lat="39.784264024347067" lon="2.793697966262698">
<ele>742</ele>
</trkpt>
<trkpt lat="39.784430991858244" lon="2.793811038136482">
<ele>742</ele>
</trkpt>
<trkpt lat="39.784622015431523" lon="2.793852025642991">
<ele>742</ele>
</trkpt>
<trkpt lat="39.78470298461616" lon="2.793846996501088">
<ele>742</ele>
</trkpt>
<trkpt lat="39.784749001264572" lon="2.793846996501088">
<ele>741</ele>
</trkpt>
<trkpt lat="39.784813961014152" lon="2.793851019814611">
<ele>741</ele>
</trkpt>
<trkpt lat="39.784986963495612" lon="2.793849008157849">
<ele>741</ele>
</trkpt>
<trkpt lat="39.785031974315643" lon="2.793852025642991">
<ele>740</ele>
</trkpt>
<trkpt lat="39.785076985135674" lon="2.793844984844327">
<ele>740</ele>
</trkpt>
<trkpt lat="39.785287035629153" lon="2.793824030086398">
<ele>740</ele>
</trkpt>
<trkpt lat="39.785451991483569" lon="2.793814977630973">
<ele>740</ele>
</trkpt>
<trkpt lat="39.78551996871829" lon="2.793813971802592">
<ele>739</ele>
</trkpt>
<trkpt lat="39.785614013671875" lon="2.793810032308102">
<ele>739</ele>
</trkpt>
<trkpt lat="39.785655001178384" lon="2.793808020651341">
<ele>739</ele>
</trkpt>
<trkpt lat="39.785820040851831" lon="2.793826963752508">
<ele>740</ele>
</trkpt>
<trkpt lat="39.785964963957667" lon="2.793903993442655">
<ele>740</ele>
</trkpt>
<trkpt lat="39.786091027781367" lon="2.794081019237638">
<ele>741</ele>
</trkpt>
<trkpt lat="39.786197980865836" lon="2.794265002012253">
<ele>741</ele>
</trkpt>
<trkpt lat="39.786233017221093" lon="2.794339014217258">
<ele>741</ele>
</trkpt>
<trkpt lat="39.786307029426098" lon="2.794481003656983">
<ele>742</ele>
</trkpt>
<trkpt lat="39.786418005824089" lon="2.794665992259979">
<ele>742</ele>
</trkpt>
<trkpt lat="39.7865279763937" lon="2.79486296698451">
<ele>743</ele>
</trkpt>
<trkpt lat="39.786630989983678" lon="2.795071005821228">
<ele>743</ele>
</trkpt>
<trkpt lat="39.786683963611722" lon="2.795158009976149">
<ele>744</ele>
</trkpt>
<trkpt lat="39.786777002736926" lon="2.795345010235906">
<ele>744</ele>
</trkpt>
<trkpt lat="39.78687297552824" lon="2.795514995232225">
<ele>745</ele>
</trkpt>
<trkpt lat="39.786894014105201" lon="2.795568974688649">
<ele>745</ele>
</trkpt>
<trkpt lat="39.786956962198019" lon="2.795667964965105">
<ele>746</ele>
</trkpt>
<trkpt lat="39.786993004381657" lon="2.795768966898322">
<ele>746</ele>
</trkpt>
<trkpt lat="39.787042960524559" lon="2.79591397382319">
<ele>747</ele>
</trkpt>
<trkpt lat="39.787105992436409" lon="2.796144979074597">
<ele>747</ele>
</trkpt>
<trkpt lat="39.787143040448427" lon="2.796308007091284">
<ele>748</ele>
</trkpt>
<trkpt lat="39.78717296384275" lon="2.796472040936351">
<ele>748</ele>
</trkpt>
<trkpt lat="39.787177992984653" lon="2.796517973765731">
<ele>749</ele>
</trkpt>
<trkpt lat="39.787242030724883" lon="2.79681402258575">
<ele>749</ele>
</trkpt>
<trkpt lat="39.787233984097838" lon="2.79690102674067">
<ele>750</ele>
</trkpt>
</trkseg>
</trk>
</gpx>
