<?xml version="1.0" encoding="UTF-8"?>
<gpx version="1.1"
creator="Smartprofil-Office - http://www.rother.de"
xmlns:xsi="http://www.w3.org/2001/XMLSchema-instance"
xmlns="http://www.topografix.com/GPX/1/1"
xsi:schemaLocation="http://www.topografix.com/GPX/1/1 http://www.topografix.com/GPX/1/1/gpx.xsd">
<metadata>

<bounds minlat="39.524777987971902" minlon="2.422291981056333" maxlat="39.53225389122963" maxlon="2.435130458325148"/>
</metadata>
<wpt lat="39.531117472797632" lon="2.435130458325148">
<ele>23</ele>
<name>02_Cala Fornells (1)</name>
<cmt></cmt>
<desc></desc>
<sym>Crossing</sym>
</wpt>

<wpt lat="39.531542183831334" lon="2.43060540407896">
<ele>25</ele>
<name>02_(2)</name>
<cmt></cmt>
<desc></desc>
<sym>Crossing</sym>
</wpt>

<wpt lat="39.529103972017765" lon="2.424825998023152">
<ele>160</ele>
<name>02_Torre des Cap Andritxol (3)</name>
<cmt></cmt>
<desc></desc>
<sym>Crossing</sym>
</wpt>

<wpt lat="39.524777987971902" lon="2.422291981056333">
<ele>173</ele>
<name>02_Cap Andritxol (4)</name>
<cmt></cmt>
<desc></desc>
<sym>Crossing</sym>
</wpt>

<wpt lat="39.528646655380726" lon="2.430241713300347">
<ele>1</ele>
<name>02_Caló d'en Monjo (5)</name>
<cmt></cmt>
<desc></desc>
<sym>Crossing</sym>
</wpt>

<trk>
<name>Mal_02_Andritxol</name>
<trkseg>
<trkpt lat="39.531117472797632" lon="2.435130458325148">
<ele>23</ele>
</trkpt>
<trkpt lat="39.531116466969252" lon="2.435046974569559">
<ele>23</ele>
</trkpt>
<trkpt lat="39.531121831387281" lon="2.434831978753209">
<ele>23</ele>
</trkpt>
<trkpt lat="39.531134404242039" lon="2.434577587991953">
<ele>25</ele>
</trkpt>
<trkpt lat="39.53114521689713" lon="2.434312216937542">
<ele>25</ele>
</trkpt>
<trkpt lat="39.531175727024674" lon="2.434062184765935">
<ele>25</ele>
</trkpt>
<trkpt lat="39.531215289607644" lon="2.433788012713194">
<ele>25</ele>
</trkpt>
<trkpt lat="39.531274549663067" lon="2.433583997189999">
<ele>26</ele>
</trkpt>
<trkpt lat="39.531315872445703" lon="2.433408563956618">
<ele>27</ele>
</trkpt>
<trkpt lat="39.531379071995616" lon="2.433202117681503">
<ele>27</ele>
</trkpt>
<trkpt lat="39.531427603214979" lon="2.433033222332597">
<ele>27</ele>
</trkpt>
<trkpt lat="39.531492227688432" lon="2.43279199115932">
<ele>28</ele>
</trkpt>
<trkpt lat="39.531547967344522" lon="2.432570457458496">
<ele>27</ele>
</trkpt>
<trkpt lat="39.531598258763552" lon="2.432348923757672">
<ele>27</ele>
</trkpt>
<trkpt lat="39.531630612909794" lon="2.432173490524292">
<ele>26</ele>
</trkpt>
<trkpt lat="39.531648550182581" lon="2.431984813883901">
<ele>26</ele>
</trkpt>
<trkpt lat="39.531655758619308" lon="2.431811559945345">
<ele>27</ele>
</trkpt>
<trkpt lat="39.531653914600611" lon="2.431640485301614">
<ele>26</ele>
</trkpt>
<trkpt lat="39.531618291512132" lon="2.431500172242522">
<ele>26</ele>
</trkpt>
<trkpt lat="39.531566156074405" lon="2.431311579421163">
<ele>26</ele>
</trkpt>
<trkpt lat="39.531530281528831" lon="2.431101026013494">
<ele>26</ele>
</trkpt>
<trkpt lat="39.531499687582254" lon="2.430901369079948">
<ele>26</ele>
</trkpt>
<trkpt lat="39.531510500237346" lon="2.430756613612175">
<ele>25</ele>
</trkpt>
<trkpt lat="39.531542183831334" lon="2.43060540407896">
<ele>25</ele>
</trkpt>
<trkpt lat="39.531593145802617" lon="2.430399125441909">
<ele>28</ele>
</trkpt>
<trkpt lat="39.531627260148525" lon="2.430223692208529">
<ele>30</ele>
</trkpt>
<trkpt lat="39.531693728640676" lon="2.430030656978488">
<ele>32</ele>
</trkpt>
<trkpt lat="39.531787186861038" lon="2.429817924275994">
<ele>35</ele>
</trkpt>
<trkpt lat="39.531837478280067" lon="2.429684149101377">
<ele>38</ele>
</trkpt>
<trkpt lat="39.531895061954856" lon="2.429543668404222">
<ele>40</ele>
</trkpt>
<trkpt lat="39.531918447464705" lon="2.429427411407232">
<ele>42</ele>
</trkpt>
<trkpt lat="39.531920207664371" lon="2.429313417524099">
<ele>45</ele>
</trkpt>
<trkpt lat="39.531945353373885" lon="2.429190538823605">
<ele>48</ele>
</trkpt>
<trkpt lat="39.532060353085399" lon="2.429019464179874">
<ele>50</ele>
</trkpt>
<trkpt lat="39.532062197104096" lon="2.428791392594576">
<ele>53</ele>
</trkpt>
<trkpt lat="39.53206580132246" lon="2.428583018481731">
<ele>55</ele>
</trkpt>
<trkpt lat="39.532067561522126" lon="2.428583018481731">
<ele>58</ele>
</trkpt>
<trkpt lat="39.532035207375884" lon="2.428436083719134">
<ele>61</ele>
</trkpt>
<trkpt lat="39.532051384449005" lon="2.428271546959877">
<ele>64</ele>
</trkpt>
<trkpt lat="39.532110644504428" lon="2.42805227637291">
<ele>66</ele>
</trkpt>
<trkpt lat="39.532164623960853" lon="2.427841722965241">
<ele>69</ele>
</trkpt>
<trkpt lat="39.532193290069699" lon="2.427688166499138">
<ele>72</ele>
</trkpt>
<trkpt lat="39.532184321433306" lon="2.427549948915839">
<ele>74</ele>
</trkpt>
<trkpt lat="39.532191781327128" lon="2.427416006103158">
<ele>77</ele>
</trkpt>
<trkpt lat="39.532136041671038" lon="2.427365547046065">
<ele>78</ele>
</trkpt>
<trkpt lat="39.5320516359061" lon="2.427308550104499">
<ele>79</ele>
</trkpt>
<trkpt lat="39.532060604542494" lon="2.427220791578293">
<ele>81</ele>
</trkpt>
<trkpt lat="39.532125312834978" lon="2.427073856815696">
<ele>82</ele>
</trkpt>
<trkpt lat="39.532175604254007" lon="2.426937902346253">
<ele>83</ele>
</trkpt>
<trkpt lat="39.532222291454673" lon="2.426801864057779">
<ele>84</ele>
</trkpt>
<trkpt lat="39.532242072746158" lon="2.426663730293512">
<ele>85</ele>
</trkpt>
<trkpt lat="39.532252801582217" lon="2.426534313708544">
<ele>87</ele>
</trkpt>
<trkpt lat="39.532186333090067" lon="2.42650137282908">
<ele>88</ele>
</trkpt>
<trkpt lat="39.532105531543493" lon="2.426464157178998">
<ele>89</ele>
</trkpt>
<trkpt lat="39.532010313123465" lon="2.426420236006379">
<ele>90</ele>
</trkpt>
<trkpt lat="39.531916854903102" lon="2.426374219357967">
<ele>90</ele>
</trkpt>
<trkpt lat="39.531803699210286" lon="2.426317138597369">
<ele>91</ele>
</trkpt>
<trkpt lat="39.531677886843681" lon="2.426266763359308">
<ele>92</ele>
</trkpt>
<trkpt lat="39.531573699787259" lon="2.426238181069493">
<ele>92</ele>
</trkpt>
<trkpt lat="39.531462304294109" lon="2.426179004833102">
<ele>93</ele>
</trkpt>
<trkpt lat="39.531379658728838" lon="2.426036428660154">
<ele>94</ele>
</trkpt>
<trkpt lat="39.531297013163567" lon="2.425900474190712">
<ele>95</ele>
</trkpt>
<trkpt lat="39.531200034543872" lon="2.425738284364343">
<ele>95</ele>
</trkpt>
<trkpt lat="39.531203638762236" lon="2.425648346543312">
<ele>96</ele>
</trkpt>
<trkpt lat="39.531200034543872" lon="2.425744822248817">
<ele>99</ele>
</trkpt>
<trkpt lat="39.53109584748745" lon="2.425762340426445">
<ele>101</ele>
</trkpt>
<trkpt lat="39.531013201922178" lon="2.425841297954321">
<ele>104</ele>
</trkpt>
<trkpt lat="39.530903566628695" lon="2.425828138366342">
<ele>106</ele>
</trkpt>
<trkpt lat="39.530738275498152" lon="2.42579092271626">
<ele>109</ele>
</trkpt>
<trkpt lat="39.530650265514851" lon="2.425768962129951">
<ele>112</ele>
</trkpt>
<trkpt lat="39.530569380149245" lon="2.42575136013329">
<ele>114</ele>
</trkpt>
<trkpt lat="39.530414901673794" lon="2.425738200545311">
<ele>117</ele>
</trkpt>
<trkpt lat="39.530256818979979" lon="2.425716239959002">
<ele>119</ele>
</trkpt>
<trkpt lat="39.530157996341586" lon="2.425709702074528">
<ele>122</ele>
</trkpt>
<trkpt lat="39.530100496485829" lon="2.425698721781373">
<ele>124</ele>
</trkpt>
<trkpt lat="39.530075350776315" lon="2.42554952390492">
<ele>126</ele>
</trkpt>
<trkpt lat="39.53005556948483" lon="2.425444247201085">
<ele>127</ele>
</trkpt>
<trkpt lat="39.530035788193345" lon="2.425325810909271">
<ele>129</ele>
</trkpt>
<trkpt lat="39.529998069629073" lon="2.425178876146674">
<ele>131</ele>
</trkpt>
<trkpt lat="39.529974767938256" lon="2.425189856439829">
<ele>133</ele>
</trkpt>
<trkpt lat="39.52994417399168" lon="2.425281973555684">
<ele>135</ele>
</trkpt>
<trkpt lat="39.529845351353288" lon="2.425292953848839">
<ele>136</ele>
</trkpt>
<trkpt lat="39.52980587258935" lon="2.425213996320963">
<ele>138</ele>
</trkpt>
<trkpt lat="39.529795059934258" lon="2.425203016027808">
<ele>140</ele>
</trkpt>
<trkpt lat="39.529687268659472" lon="2.425417928025127">
<ele>142</ele>
</trkpt>
<trkpt lat="39.529635803773999" lon="2.425507782027125">
<ele>143</ele>
</trkpt>
<trkpt lat="39.529513595625758" lon="2.425564778968692">
<ele>145</ele>
</trkpt>
<trkpt lat="39.529454335570335" lon="2.425529742613435">
<ele>146</ele>
</trkpt>
<trkpt lat="39.529434554278851" lon="2.425479283556342">
<ele>148</ele>
</trkpt>
<trkpt lat="39.529450731351972" lon="2.425295049324632">
<ele>149</ele>
</trkpt>
<trkpt lat="39.529427345842123" lon="2.425229251384735">
<ele>151</ele>
</trkpt>
<trkpt lat="39.529317794367671" lon="2.425196310505271">
<ele>152</ele>
</trkpt>
<trkpt lat="39.529231544584036" lon="2.425161274150014">
<ele>154</ele>
</trkpt>
<trkpt lat="39.529168680310249" lon="2.425073515623808">
<ele>155</ele>
</trkpt>
<trkpt lat="39.529143534600735" lon="2.424957258626819">
<ele>157</ele>
</trkpt>
<trkpt lat="39.529082430526614" lon="2.424882743507624">
<ele>158</ele>
</trkpt>
<trkpt lat="39.529103972017765" lon="2.424825998023152">
<ele>160</ele>
</trkpt>
<trkpt lat="39.528967430815101" lon="2.424775203689933">
<ele>161</ele>
</trkpt>
<trkpt lat="39.528841702267528" lon="2.424707226455212">
<ele>162</ele>
</trkpt>
<trkpt lat="39.528733910992742" lon="2.424667747691274">
<ele>163</ele>
</trkpt>
<trkpt lat="39.52861706726253" lon="2.424672190099955">
<ele>163</ele>
</trkpt>
<trkpt lat="39.528487902134657" lon="2.424676297232509">
<ele>164</ele>
</trkpt>
<trkpt lat="39.528340548276901" lon="2.424678476527333">
<ele>165</ele>
</trkpt>
<trkpt lat="39.528301069512963" lon="2.424667496234179">
<ele>166</ele>
</trkpt>
<trkpt lat="39.528200402855873" lon="2.424575379118323">
<ele>167</ele>
</trkpt>
<trkpt lat="39.528083642944694" lon="2.424507401883602">
<ele>168</ele>
</trkpt>
<trkpt lat="39.527956070378423" lon="2.424439424648881">
<ele>168</ele>
</trkpt>
<trkpt lat="39.527814164757729" lon="2.424358287826181">
<ele>168</ele>
</trkpt>
<trkpt lat="39.527704529464245" lon="2.424231050536037">
<ele>168</ele>
</trkpt>
<trkpt lat="39.527591373771429" lon="2.424141112715006">
<ele>169</ele>
</trkpt>
<trkpt lat="39.52750151976943" lon="2.424081936478615">
<ele>169</ele>
</trkpt>
<trkpt lat="39.527332792058587" lon="2.42405142635107">
<ele>169</ele>
</trkpt>
<trkpt lat="39.527217792347074" lon="2.424025107175112">
<ele>168</ele>
</trkpt>
<trkpt lat="39.527104552835226" lon="2.4239790905267">
<ele>168</ele>
</trkpt>
<trkpt lat="39.527020147070289" lon="2.423932990059257">
<ele>169</ele>
</trkpt>
<trkpt lat="39.526867428794503" lon="2.423869371414185">
<ele>169</ele>
</trkpt>
<trkpt lat="39.52674706466496" lon="2.423770716413856">
<ele>169</ele>
</trkpt>
<trkpt lat="39.526678752154112" lon="2.423647837713361">
<ele>171</ele>
</trkpt>
<trkpt lat="39.526612283661962" lon="2.423527222126722">
<ele>171</ele>
</trkpt>
<trkpt lat="39.526547659188509" lon="2.423397805541754">
<ele>173</ele>
</trkpt>
<trkpt lat="39.526477586477995" lon="2.423307867720723">
<ele>175</ele>
</trkpt>
<trkpt lat="39.526357222348452" lon="2.423217762261629">
<ele>176</ele>
</trkpt>
<trkpt lat="39.526251275092363" lon="2.423143163323402">
<ele>178</ele>
</trkpt>
<trkpt lat="39.526249431073666" lon="2.423140984028578">
<ele>180</ele>
</trkpt>
<trkpt lat="39.526157816872001" lon="2.423051046207547">
<ele>181</ele>
</trkpt>
<trkpt lat="39.526066202670336" lon="2.422945769503713">
<ele>182</ele>
</trkpt>
<trkpt lat="39.525979952886701" lon="2.422858094796538">
<ele>184</ele>
</trkpt>
<trkpt lat="39.525881130248308" lon="2.422772515565157">
<ele>183</ele>
</trkpt>
<trkpt lat="39.525798484683037" lon="2.422702359035611">
<ele>183</ele>
</trkpt>
<trkpt lat="39.525726651772857" lon="2.422667238861322">
<ele>182</ele>
</trkpt>
<trkpt lat="39.525572089478374" lon="2.422691378742456">
<ele>180</ele>
</trkpt>
<trkpt lat="39.525507465004921" lon="2.422763798385859">
<ele>179</ele>
</trkpt>
<trkpt lat="39.525352902710438" lon="2.422781316563487">
<ele>178</ele>
</trkpt>
<trkpt lat="39.525264892727137" lon="2.422750638797879">
<ele>178</ele>
</trkpt>
<trkpt lat="39.525146540254354" lon="2.422609822824597">
<ele>177</ele>
</trkpt>
<trkpt lat="39.524979405105114" lon="2.422515526413918">
<ele>176</ele>
</trkpt>
<trkpt lat="39.524887790903449" lon="2.422405891120434">
<ele>175</ele>
</trkpt>
<trkpt lat="39.524833895266056" lon="2.422333471477032">
<ele>174</ele>
</trkpt>
<trkpt lat="39.524777987971902" lon="2.422291981056333">
<ele>173</ele>
</trkpt>
<trkpt lat="39.524839259684086" lon="2.422342272475362">
<ele>175</ele>
</trkpt>
<trkpt lat="39.524891395121813" lon="2.422405891120434">
<ele>176</ele>
</trkpt>
<trkpt lat="39.52497580088675" lon="2.422504546120763">
<ele>178</ele>
</trkpt>
<trkpt lat="39.525089040398598" lon="2.422576965764165">
<ele>181</ele>
</trkpt>
<trkpt lat="39.525141092017293" lon="2.422601021826267">
<ele>182</ele>
</trkpt>
<trkpt lat="39.525205800309777" lon="2.422686601057649">
<ele>184</ele>
</trkpt>
<trkpt lat="39.525256091728806" lon="2.422743597999215">
<ele>186</ele>
</trkpt>
<trkpt lat="39.525351310148835" lon="2.422778718173504">
<ele>188</ele>
</trkpt>
<trkpt lat="39.525450132787228" lon="2.422805037349463">
<ele>189</ele>
</trkpt>
<trkpt lat="39.525534538552165" lon="2.422741418704391">
<ele>192</ele>
</trkpt>
<trkpt lat="39.525572676211596" lon="2.422695569694042">
<ele>190</ele>
</trkpt>
<trkpt lat="39.525727154687047" lon="2.422669250518084">
<ele>188</ele>
</trkpt>
<trkpt lat="39.525878112763166" lon="2.422774527221918">
<ele>187</ele>
</trkpt>
<trkpt lat="39.525978695601225" lon="2.422857927158475">
<ele>185</ele>
</trkpt>
<trkpt lat="39.526066705584526" lon="2.422943422570825">
<ele>183</ele>
</trkpt>
<trkpt lat="39.526154799386859" lon="2.423048699274659">
<ele>182</ele>
</trkpt>
<trkpt lat="39.526246413588524" lon="2.423140816390514">
<ele>180</ele>
</trkpt>
<trkpt lat="39.526355965062976" lon="2.423221953213215">
<ele>179</ele>
</trkpt>
<trkpt lat="39.526474568992853" lon="2.423307532444596">
<ele>177</ele>
</trkpt>
<trkpt lat="39.526544641703367" lon="2.423393027856946">
<ele>175</ele>
</trkpt>
<trkpt lat="39.526618318632245" lon="2.423535604029894">
<ele>174</ele>
</trkpt>
<trkpt lat="39.526679422706366" lon="2.423645239323378">
<ele>174</ele>
</trkpt>
<trkpt lat="39.526742035523057" lon="2.423770716413856">
<ele>173</ele>
</trkpt>
<trkpt lat="39.526743879541755" lon="2.423770716413856">
<ele>172</ele>
</trkpt>
<trkpt lat="39.526864243671298" lon="2.423869455233216">
<ele>171</ele>
</trkpt>
<trkpt lat="39.527016961947083" lon="2.423941791057587">
<ele>169</ele>
</trkpt>
<trkpt lat="39.527140930294991" lon="2.423992250114679">
<ele>168</ele>
</trkpt>
<trkpt lat="39.52725769020617" lon="2.424038350582123">
<ele>168</ele>
</trkpt>
<trkpt lat="39.527388866990805" lon="2.424066849052906">
<ele>167</ele>
</trkpt>
<trkpt lat="39.527500262483954" lon="2.424086546525359">
<ele>166</ele>
</trkpt>
<trkpt lat="39.527602689340711" lon="2.424147985875607">
<ele>165</ele>
</trkpt>
<trkpt lat="39.527681730687618" lon="2.424207162111998">
<ele>165</ele>
</trkpt>
<trkpt lat="39.527760772034526" lon="2.424301542341709">
<ele>164</ele>
</trkpt>
<trkpt lat="39.527816427871585" lon="2.424360802397132">
<ele>165</ele>
</trkpt>
<trkpt lat="39.527952969074249" lon="2.424439759925008">
<ele>164</ele>
</trkpt>
<trkpt lat="39.528082301840186" lon="2.42450337857008">
<ele>164</ele>
</trkpt>
<trkpt lat="39.528195541352034" lon="2.424573535099626">
<ele>163</ele>
</trkpt>
<trkpt lat="39.528294363990426" lon="2.424672273918986">
<ele>162</ele>
</trkpt>
<trkpt lat="39.528486561030149" lon="2.424676632508636">
<ele>162</ele>
</trkpt>
<trkpt lat="39.52861949801445" lon="2.42467001080513">
<ele>162</ele>
</trkpt>
<trkpt lat="39.528736341744661" lon="2.424663472920656">
<ele>162</ele>
</trkpt>
<trkpt lat="39.528844133019447" lon="2.424702951684594">
<ele>161</ele>
</trkpt>
<trkpt lat="39.528962485492229" lon="2.424773359671235">
<ele>161</ele>
</trkpt>
<trkpt lat="39.529103972017765" lon="2.424825998023152">
<ele>160</ele>
</trkpt>
<trkpt lat="39.529086453840137" lon="2.424876373261213">
<ele>158</ele>
</trkpt>
<trkpt lat="39.529143953695893" lon="2.424955330789089">
<ele>157</ele>
</trkpt>
<trkpt lat="39.529167339205742" lon="2.425065049901605">
<ele>155</ele>
</trkpt>
<trkpt lat="39.529228443279862" lon="2.425152724608779">
<ele>154</ele>
</trkpt>
<trkpt lat="39.529314609244466" lon="2.425194466486573">
<ele>152</ele>
</trkpt>
<trkpt lat="39.529426004737616" lon="2.425222964957357">
<ele>150</ele>
</trkpt>
<trkpt lat="39.529447630047798" lon="2.425284320488572">
<ele>149</ele>
</trkpt>
<trkpt lat="39.529436817392707" lon="2.425472997128964">
<ele>147</ele>
</trkpt>
<trkpt lat="39.5294457860291" lon="2.425523456186056">
<ele>146</ele>
</trkpt>
<trkpt lat="39.529517702758312" lon="2.425562934949994">
<ele>144</ele>
</trkpt>
<trkpt lat="39.529639827087522" lon="2.425497137010098">
<ele>142</ele>
</trkpt>
<trkpt lat="39.52973504550755" lon="2.42534575983882">
<ele>140</ele>
</trkpt>
<trkpt lat="39.529790785163641" lon="2.425233945250511">
<ele>139</ele>
</trkpt>
<trkpt lat="39.529801513999701" lon="2.425218522548676">
<ele>137</ele>
</trkpt>
<trkpt lat="39.529938055202365" lon="2.425295300781727">
<ele>135</ele>
</trkpt>
<trkpt lat="39.529938055202365" lon="2.425293121486902">
<ele>133</ele>
</trkpt>
<trkpt lat="39.529995555058122" lon="2.425181223079562">
<ele>131</ele>
</trkpt>
<trkpt lat="39.530036877840757" lon="2.425317261368036">
<ele>130</ele>
</trkpt>
<trkpt lat="39.530054898932576" lon="2.425453215837479">
<ele>128</ele>
</trkpt>
<trkpt lat="39.530081804841757" lon="2.425576010718942">
<ele>126</ele>
</trkpt>
<trkpt lat="39.530099742114544" lon="2.425698889419437">
<ele>123</ele>
</trkpt>
<trkpt lat="39.530261512845755" lon="2.42571858689189">
<ele>121</ele>
</trkpt>
<trkpt lat="39.530412387102842" lon="2.425738368183374">
<ele>118</ele>
</trkpt>
<trkpt lat="39.530570469796658" lon="2.425753707066178">
<ele>116</ele>
</trkpt>
<trkpt lat="39.530703406780958" lon="2.425784384831786">
<ele>113</ele>
</trkpt>
<trkpt lat="39.530813209712505" lon="2.425806513056159">
<ele>110</ele>
</trkpt>
<trkpt lat="39.530938938260078" lon="2.425830652937293">
<ele>108</ele>
</trkpt>
<trkpt lat="39.531012615188956" lon="2.425843812525272">
<ele>105</ele>
</trkpt>
<trkpt lat="39.531091656535864" lon="2.425767034292221">
<ele>103</ele>
</trkpt>
<trkpt lat="39.531208416447043" lon="2.425751695409417">
<ele>100</ele>
</trkpt>
<trkpt lat="39.531273124739528" lon="2.425863509997726">
<ele>99</ele>
</trkpt>
<trkpt lat="39.531273124739528" lon="2.42586568929255">
<ele>98</ele>
</trkpt>
<trkpt lat="39.531343197450042" lon="2.425981946289539">
<ele>97</ele>
</trkpt>
<trkpt lat="39.531429447233677" lon="2.426115721464157">
<ele>96</ele>
</trkpt>
<trkpt lat="39.531459957361221" lon="2.426172802224755">
<ele>96</ele>
</trkpt>
<trkpt lat="39.531565988436341" lon="2.426238600164652">
<ele>95</ele>
</trkpt>
<trkpt lat="39.531675539910793" lon="2.426264919340611">
<ele>94</ele>
</trkpt>
<trkpt lat="39.531799340620637" lon="2.426319736987352">
<ele>93</ele>
</trkpt>
<trkpt lat="39.53191434033215" lon="2.426376733928919">
<ele>92</ele>
</trkpt>
<trkpt lat="39.532043673098087" lon="2.426438173279166">
<ele>91</ele>
</trkpt>
<trkpt lat="39.532182058319449" lon="2.426501791924238">
<ele>89</ele>
</trkpt>
<trkpt lat="39.53225389122963" lon="2.426541270688176">
<ele>88</ele>
</trkpt>
<trkpt lat="39.532246682792902" lon="2.42665970697999">
<ele>86</ele>
</trkpt>
<trkpt lat="39.532217932865024" lon="2.426795661449432">
<ele>85</ele>
</trkpt>
<trkpt lat="39.532178454101086" lon="2.426922898739576">
<ele>83</ele>
</trkpt>
<trkpt lat="39.532111985608935" lon="2.427102690562606">
<ele>81</ele>
</trkpt>
<trkpt lat="39.532059850171208" lon="2.427218947559595">
<ele>80</ele>
</trkpt>
<trkpt lat="39.532047277316451" lon="2.427306706085801">
<ele>78</ele>
</trkpt>
<trkpt lat="39.532189182937145" lon="2.42740536108613">
<ele>77</ele>
</trkpt>
<trkpt lat="39.532191026955843" lon="2.427550116553903">
<ele>75</ele>
</trkpt>
<trkpt lat="39.532191026955843" lon="2.42771465331316">
<ele>72</ele>
</trkpt>
<trkpt lat="39.532155068591237" lon="2.42789008654654">
<ele>70</ele>
</trkpt>
<trkpt lat="39.532115506008267" lon="2.428039284422994">
<ele>68</ele>
</trkpt>
<trkpt lat="39.532068818807602" lon="2.428179597482085">
<ele>65</ele>
</trkpt>
<trkpt lat="39.532040068879724" lon="2.428337512537837">
<ele>62</ele>
</trkpt>
<trkpt lat="39.532043673098087" lon="2.428431892767549">
<ele>60</ele>
</trkpt>
<trkpt lat="39.532067058607936" lon="2.428591987118125">
<ele>58</ele>
</trkpt>
<trkpt lat="39.532067058607936" lon="2.42859416641295">
<ele>55</ele>
</trkpt>
<trkpt lat="39.532059850171208" lon="2.428809078410268">
<ele>52</ele>
</trkpt>
<trkpt lat="39.532059850171208" lon="2.429010914638639">
<ele>50</ele>
</trkpt>
<trkpt lat="39.531944850459695" lon="2.429186347872019">
<ele>48</ele>
</trkpt>
<trkpt lat="39.531921464949846" lon="2.429304784163833">
<ele>45</ele>
</trkpt>
<trkpt lat="39.531916100531816" lon="2.429418861865997">
<ele>42</ele>
</trkpt>
<trkpt lat="39.531889194622636" lon="2.429567975923419">
<ele>40</ele>
</trkpt>
<trkpt lat="39.531838819384575" lon="2.429675431922078">
<ele>38</ele>
</trkpt>
<trkpt lat="39.531768998131156" lon="2.429864276200533">
<ele>35</ele>
</trkpt>
<trkpt lat="39.531680988147855" lon="2.430059406906366">
<ele>32</ele>
</trkpt>
<trkpt lat="39.531623488292098" lon="2.430232744663954">
<ele>30</ele>
</trkpt>
<trkpt lat="39.531583925709128" lon="2.430434497073293">
<ele>28</ele>
</trkpt>
<trkpt lat="39.531542183831334" lon="2.43060540407896">
<ele>25</ele>
</trkpt>
<trkpt lat="39.531503124162555" lon="2.430509096011519">
<ele>24</ele>
</trkpt>
<trkpt lat="39.531431207433343" lon="2.430390659719706">
<ele>24</ele>
</trkpt>
<trkpt lat="39.531427603214979" lon="2.430390659719706">
<ele>23</ele>
</trkpt>
<trkpt lat="39.531343197450042" lon="2.430294100195169">
<ele>23</ele>
</trkpt>
<trkpt lat="39.531242614611983" lon="2.430162504315376">
<ele>22</ele>
</trkpt>
<trkpt lat="39.531124010682106" lon="2.4300835467875">
<ele>21</ele>
</trkpt>
<trkpt lat="39.530989229679108" lon="2.430050689727068">
<ele>21</ele>
</trkpt>
<trkpt lat="39.530800636857748" lon="2.430006768554449">
<ele>20</ele>
</trkpt>
<trkpt lat="39.530703658238053" lon="2.430004673078656">
<ele>20</ele>
</trkpt>
<trkpt lat="39.530592262744904" lon="2.430024370551109">
<ele>19</ele>
</trkpt>
<trkpt lat="39.530461169779301" lon="2.430094610899687">
<ele>18</ele>
</trkpt>
<trkpt lat="39.530329992994666" lon="2.430158145725727">
<ele>16</ele>
</trkpt>
<trkpt lat="39.530231170356274" lon="2.430219585075975">
<ele>15</ele>
</trkpt>
<trkpt lat="39.530099993571639" lon="2.430272223427892">
<ele>13</ele>
</trkpt>
<trkpt lat="39.529956243932247" lon="2.430340200662613">
<ele>12</ele>
</trkpt>
<trkpt lat="39.529812578111887" lon="2.430390659719706">
<ele>11</ele>
</trkpt>
<trkpt lat="39.529690369963646" lon="2.43041479960084">
<ele>9</ele>
</trkpt>
<trkpt lat="39.529537735506892" lon="2.430458972230554">
<ele>8</ele>
</trkpt>
<trkpt lat="39.529446121305227" lon="2.430551089346409">
<ele>6</ele>
</trkpt>
<trkpt lat="39.529336569830775" lon="2.430656366050243">
<ele>5</ele>
</trkpt>
<trkpt lat="39.529288038611412" lon="2.430623341351748">
<ele>4</ele>
</trkpt>
<trkpt lat="39.529191059991717" lon="2.430428126826882">
<ele>4</ele>
</trkpt>
<trkpt lat="39.529104810208082" lon="2.430311869829893">
<ele>4</ele>
</trkpt>
<trkpt lat="39.528978997841477" lon="2.430210951715708">
<ele>3</ele>
</trkpt>
<trkpt lat="39.528837092220783" lon="2.430114476010203">
<ele>2</ele>
</trkpt>
<trkpt lat="39.528754446655512" lon="2.430057479068637">
<ele>2</ele>
</trkpt>
<trkpt lat="39.528662832453847" lon="2.430191254243255">
<ele>2</ele>
</trkpt>
<trkpt lat="39.528646655380726" lon="2.430241713300347">
<ele>1</ele>
</trkpt>
<trkpt lat="39.528660988435149" lon="2.430202234536409">
<ele>2</ele>
</trkpt>
<trkpt lat="39.528752602636814" lon="2.430064016953111">
<ele>3</ele>
</trkpt>
<trkpt lat="39.528847821056843" lon="2.430125456303358">
<ele>4</ele>
</trkpt>
<trkpt lat="39.52897178940475" lon="2.430215394124389">
<ele>5</ele>
</trkpt>
<trkpt lat="39.529095757752657" lon="2.430307511240244">
<ele>6</ele>
</trkpt>
<trkpt lat="39.52918385155499" lon="2.430423768237233">
<ele>8</ele>
</trkpt>
<trkpt lat="39.529279069975019" lon="2.430618898943067">
<ele>8</ele>
</trkpt>
<trkpt lat="39.529331121593714" lon="2.430667178705335">
<ele>9</ele>
</trkpt>
<trkpt lat="39.529447965323925" lon="2.430555364117026">
<ele>10</ele>
</trkpt>
<trkpt lat="39.529541339725256" lon="2.430463247001171">
<ele>11</ele>
</trkpt>
<trkpt lat="39.529676120728254" lon="2.430421505123377">
<ele>12</ele>
</trkpt>
<trkpt lat="39.529764298349619" lon="2.430397365242243">
<ele>13</ele>
</trkpt>
<trkpt lat="39.529920537024736" lon="2.430346990004182">
<ele>14</ele>
</trkpt>
<trkpt lat="39.530033776536584" lon="2.430309690535069">
<ele>15</ele>
</trkpt>
<trkpt lat="39.530128994956613" lon="2.43026576936245">
<ele>15</ele>
</trkpt>
<trkpt lat="39.530229577794671" lon="2.430235091596842">
<ele>16</ele>
</trkpt>
<trkpt lat="39.530296046286821" lon="2.430320670828223">
<ele>16</ele>
</trkpt>
<trkpt lat="39.530396712943912" lon="2.430403986945748">
<ele>17</ele>
</trkpt>
<trkpt lat="39.53049193136394" lon="2.430520243942738">
<ele>18</ele>
</trkpt>
<trkpt lat="39.530606511980295" lon="2.430632142350078">
<ele>19</ele>
</trkpt>
<trkpt lat="39.530712543055415" lon="2.430748399347067">
<ele>20</ele>
</trkpt>
<trkpt lat="39.530805917456746" lon="2.430866835638881">
<ele>20</ele>
</trkpt>
<trkpt lat="39.530890407040715" lon="2.430972112342715">
<ele>21</ele>
</trkpt>
<trkpt lat="39.530990989878774" lon="2.43107738904655">
<ele>22</ele>
</trkpt>
<trkpt lat="39.53109878115356" lon="2.431193646043539">
<ele>22</ele>
</trkpt>
<trkpt lat="39.531258707866073" lon="2.431349381804466">
<ele>24</ele>
</trkpt>
<trkpt lat="39.531325176358223" lon="2.431413000449538">
<ele>24</ele>
</trkpt>
<trkpt lat="39.531441936269403" lon="2.431476535275579">
<ele>24</ele>
</trkpt>
<trkpt lat="39.531528186053038" lon="2.431535795331001">
<ele>25</ele>
</trkpt>
<trkpt lat="39.53160990960896" lon="2.431610729545355">
<ele>25</ele>
</trkpt>
<trkpt lat="39.531656596809626" lon="2.431652387604117">
<ele>26</ele>
</trkpt>
<trkpt lat="39.531652992591262" lon="2.431816924363375">
<ele>27</ele>
</trkpt>
<trkpt lat="39.531644023954868" lon="2.431928738951683">
<ele>28</ele>
</trkpt>
<trkpt lat="39.531640419736505" lon="2.432053796947002">
<ele>28</ele>
</trkpt>
<trkpt lat="39.531640419736505" lon="2.432055976241827">
<ele>29</ele>
</trkpt>
<trkpt lat="39.531622482463717" lon="2.432202911004424">
<ele>29</ele>
</trkpt>
<trkpt lat="39.531577555462718" lon="2.432435424998403">
<ele>29</ele>
</trkpt>
<trkpt lat="39.531539836898446" lon="2.432602057233453">
<ele>28</ele>
</trkpt>
<trkpt lat="39.53147697262466" lon="2.432825770229101">
<ele>28</ele>
</trkpt>
<trkpt lat="39.531433805823326" lon="2.433003466576338">
<ele>28</ele>
</trkpt>
<trkpt lat="39.531383514404297" lon="2.433170098811388">
<ele>28</ele>
</trkpt>
<trkpt lat="39.531336827203631" lon="2.433325834572315">
<ele>28</ele>
</trkpt>
<trkpt lat="39.531295504420996" lon="2.433483749628067">
<ele>28</ele>
</trkpt>
<trkpt lat="39.531263150274754" lon="2.433610986918211">
<ele>28</ele>
</trkpt>
<trkpt lat="39.531218390911818" lon="2.433786923065782">
<ele>28</ele>
</trkpt>
<trkpt lat="39.531186036765575" lon="2.433951459825039">
<ele>28</ele>
</trkpt>
<trkpt lat="39.531162651255727" lon="2.43414449505508">
<ele>27</ele>
</trkpt>
<trkpt lat="39.531148318201303" lon="2.434300146996975">
<ele>25</ele>
</trkpt>
<trkpt lat="39.531141109764576" lon="2.434460325166583">
<ele>25</ele>
</trkpt>
<trkpt lat="39.531132141128182" lon="2.434681775048375">
<ele>25</ele>
</trkpt>
<trkpt lat="39.531119568273425" lon="2.434866009280086">
<ele>24</ele>
</trkpt>
<trkpt lat="39.531108755618334" lon="2.434999868273735">
<ele>23</ele>
</trkpt>
<trkpt lat="39.531117472797632" lon="2.435130458325148">
<ele>23</ele>
</trkpt>
</trkseg>
</trk>
</gpx>
