<?xml version="1.0" encoding="UTF-8"?>
<gpx version="1.1"
creator="Smartprofil-Office - http://www.rother.de"
xmlns:xsi="http://www.w3.org/2001/XMLSchema-instance"
xmlns="http://www.topografix.com/GPX/1/1"
xsi:schemaLocation="http://www.topografix.com/GPX/1/1 http://www.topografix.com/GPX/1/1/gpx.xsd">
<metadata>

<bounds minlat="39.545611962676048" minlon="2.353166006505489" maxlat="39.578005000948906" maxlon="2.390684997662902"/>
</metadata>
<wpt lat="39.545611962676048" lon="2.390133971348405">
<ele>1</ele>
<name>05_Port d’Andratx (1)</name>
<cmt></cmt>
<desc></desc>
<sym>Crossing</sym>
</wpt>

<wpt lat="39.55532499589026" lon="2.372056972235441">
<ele>163</ele>
<name>05_Coll des Vent (2)</name>
<cmt></cmt>
<desc></desc>
<sym>Crossing</sym>
</wpt>

<wpt lat="39.570073038339615" lon="2.367901979014278">
<ele>303</ele>
<name>05_Pas Vermell (3)</name>
<cmt></cmt>
<desc></desc>
<sym>Crossing</sym>
</wpt>

<wpt lat="39.571685967966914" lon="2.367789996787906">
<ele>226</ele>
<name>05_226 (4)</name>
<cmt></cmt>
<desc></desc>
<sym>Crossing</sym>
</wpt>

<wpt lat="39.578005000948906" lon="2.354333018884063">
<ele>2</ele>
<name>05_Sant Elm (5)</name>
<cmt></cmt>
<desc></desc>
<sym>Crossing</sym>
</wpt>

<trk>
<name>Mal_05_dAndratx-SantElm</name>
<trkseg>
<trkpt lat="39.545611962676048" lon="2.390133971348405">
<ele>1</ele>
</trkpt>
<trkpt lat="39.545694021508098" lon="2.390137994661927">
<ele>1</ele>
</trkpt>
<trkpt lat="39.545784965157509" lon="2.390179987996817">
<ele>1</ele>
</trkpt>
<trkpt lat="39.545899964869022" lon="2.390264980494976">
<ele>1</ele>
</trkpt>
<trkpt lat="39.546011025086045" lon="2.390381991863251">
<ele>1</ele>
</trkpt>
<trkpt lat="39.546196013689041" lon="2.390580978244543">
<ele>1</ele>
</trkpt>
<trkpt lat="39.546273965388536" lon="2.390684997662902">
<ele>1</ele>
</trkpt>
<trkpt lat="39.546347977593541" lon="2.390563962981105">
<ele>1</ele>
</trkpt>
<trkpt lat="39.546480998396873" lon="2.390395989641547">
<ele>1</ele>
</trkpt>
<trkpt lat="39.546789033338428" lon="2.39005601964891">
<ele>1</ele>
</trkpt>
<trkpt lat="39.54709799028933" lon="2.38971596583724">
<ele>1</ele>
</trkpt>
<trkpt lat="39.547394961118698" lon="2.389375995844603">
<ele>1</ele>
</trkpt>
<trkpt lat="39.547694027423859" lon="2.389036025851965">
<ele>1</ele>
</trkpt>
<trkpt lat="39.54795696772635" lon="2.388744000345469">
<ele>1</ele>
</trkpt>
<trkpt lat="39.548157965764403" lon="2.388463960960507">
<ele>1</ele>
</trkpt>
<trkpt lat="39.548292998224497" lon="2.388155004009605">
<ele>1</ele>
</trkpt>
<trkpt lat="39.548392994329333" lon="2.387836994603276">
<ele>1</ele>
</trkpt>
<trkpt lat="39.548472035676241" lon="2.387508004903793">
<ele>1</ele>
</trkpt>
<trkpt lat="39.548531966283917" lon="2.386973993852735">
<ele>1</ele>
</trkpt>
<trkpt lat="39.548533977940679" lon="2.386281983926892">
<ele>1</ele>
</trkpt>
<trkpt lat="39.548540012910962" lon="2.385582011193037">
<ele>1</ele>
</trkpt>
<trkpt lat="39.548510005697608" lon="2.385294009000063">
<ele>2</ele>
</trkpt>
<trkpt lat="39.54842702485621" lon="2.385054035112262">
<ele>2</ele>
</trkpt>
<trkpt lat="39.548294004052877" lon="2.384797967970371">
<ele>2</ele>
</trkpt>
<trkpt lat="39.54817296937108" lon="2.384582972154021">
<ele>3</ele>
</trkpt>
<trkpt lat="39.548138016834855" lon="2.384392032399774">
<ele>4</ele>
</trkpt>
<trkpt lat="39.54817296937108" lon="2.384249959141016">
<ele>4</ele>
</trkpt>
<trkpt lat="39.54830096103251" lon="2.384209977462888">
<ele>4</ele>
</trkpt>
<trkpt lat="39.54829903319478" lon="2.384209977462888">
<ele>5</ele>
</trkpt>
<trkpt lat="39.548401040956378" lon="2.384178964421153">
<ele>6</ele>
</trkpt>
<trkpt lat="39.548438005149364" lon="2.384161027148366">
<ele>6</ele>
</trkpt>
<trkpt lat="39.548573959618807" lon="2.384133031591773">
<ele>7</ele>
</trkpt>
<trkpt lat="39.548688037320971" lon="2.38408399745822">
<ele>7</ele>
</trkpt>
<trkpt lat="39.548693988472223" lon="2.384077962487936">
<ele>8</ele>
</trkpt>
<trkpt lat="39.548834972083569" lon="2.384048039093614">
<ele>9</ele>
</trkpt>
<trkpt lat="39.548977967351675" lon="2.384007973596454">
<ele>10</ele>
</trkpt>
<trkpt lat="39.549077041447163" lon="2.3839779663831">
<ele>10</ele>
</trkpt>
<trkpt lat="39.549196986481547" lon="2.383933961391449">
<ele>11</ele>
</trkpt>
<trkpt lat="39.549249960109591" lon="2.383919041603804">
<ele>12</ele>
</trkpt>
<trkpt lat="39.549440983682871" lon="2.38384896889329">
<ele>12</ele>
</trkpt>
<trkpt lat="39.549483982846141" lon="2.383824996650219">
<ele>13</ele>
</trkpt>
<trkpt lat="39.549579033628106" lon="2.383769005537033">
<ele>13</ele>
</trkpt>
<trkpt lat="39.549646005034447" lon="2.383721983060241">
<ele>14</ele>
</trkpt>
<trkpt lat="39.549755975604057" lon="2.383673032745719">
<ele>14</ele>
</trkpt>
<trkpt lat="39.549769973382354" lon="2.383639002218843">
<ele>15</ele>
</trkpt>
<trkpt lat="39.549786988645792" lon="2.383531965315342">
<ele>15</ele>
</trkpt>
<trkpt lat="39.549796963110566" lon="2.383292997255921">
<ele>15</ele>
</trkpt>
<trkpt lat="39.549810960888863" lon="2.383122006431222">
<ele>16</ele>
</trkpt>
<trkpt lat="39.549821019172668" lon="2.382972976192832">
<ele>16</ele>
</trkpt>
<trkpt lat="39.549822025001049" lon="2.382926037535071">
<ele>17</ele>
</trkpt>
<trkpt lat="39.549852032214403" lon="2.382792010903359">
<ele>17</ele>
</trkpt>
<trkpt lat="39.549852032214403" lon="2.382779018953443">
<ele>16</ele>
</trkpt>
<trkpt lat="39.549858989194036" lon="2.382727973163128">
<ele>16</ele>
</trkpt>
<trkpt lat="39.549864018335938" lon="2.382648009806871">
<ele>16</ele>
</trkpt>
<trkpt lat="39.549868041649461" lon="2.382512977346778">
<ele>15</ele>
</trkpt>
<trkpt lat="39.549908023327589" lon="2.3822579998523">
<ele>14</ele>
</trkpt>
<trkpt lat="39.549951022490859" lon="2.382030012086034">
<ele>14</ele>
</trkpt>
<trkpt lat="39.550007013604045" lon="2.381823984906077">
<ele>14</ele>
</trkpt>
<trkpt lat="39.550026040524244" lon="2.381747961044312">
<ele>13</ele>
</trkpt>
<trkpt lat="39.550087982788682" lon="2.381604965776205">
<ele>12</ele>
</trkpt>
<trkpt lat="39.550112038850784" lon="2.381517961621285">
<ele>12</ele>
</trkpt>
<trkpt lat="39.55016702413559" lon="2.381405979394913">
<ele>13</ele>
</trkpt>
<trkpt lat="39.55021102912724" lon="2.381316041573882">
<ele>13</ele>
</trkpt>
<trkpt lat="39.550285041332245" lon="2.381189977750182">
<ele>14</ele>
</trkpt>
<trkpt lat="39.550397023558617" lon="2.38107799552381">
<ele>14</ele>
</trkpt>
<trkpt lat="39.550413032993674" lon="2.381061986088753">
<ele>15</ele>
</trkpt>
<trkpt lat="39.550652001053095" lon="2.380994008854032">
<ele>16</ele>
</trkpt>
<trkpt lat="39.550772029906511" lon="2.380943968892098">
<ele>16</ele>
</trkpt>
<trkpt lat="39.550831038504839" lon="2.380929971113801">
<ele>17</ele>
</trkpt>
<trkpt lat="39.551047962158918" lon="2.380817988887429">
<ele>17</ele>
</trkpt>
<trkpt lat="39.551085010170937" lon="2.380795022472739">
<ele>18</ele>
</trkpt>
<trkpt lat="39.551188023760915" lon="2.380746994167566">
<ele>18</ele>
</trkpt>
<trkpt lat="39.551291959360242" lon="2.380700977519155">
<ele>19</ele>
</trkpt>
<trkpt lat="39.551430009305477" lon="2.380629982799292">
<ele>20</ele>
</trkpt>
<trkpt lat="39.551430009305477" lon="2.380629982799292">
<ele>20</ele>
</trkpt>
<trkpt lat="39.551537968218327" lon="2.3805380333215">
<ele>20</ele>
</trkpt>
<trkpt lat="39.551569987088442" lon="2.380515988916159">
<ele>21</ele>
</trkpt>
<trkpt lat="39.551804009824991" lon="2.380438959226012">
<ele>22</ele>
</trkpt>
<trkpt lat="39.551943987607956" lon="2.380331000313163">
<ele>22</ele>
</trkpt>
<trkpt lat="39.552022023126483" lon="2.380188005045056">
<ele>22</ele>
</trkpt>
<trkpt lat="39.552100980654359" lon="2.379996981471777">
<ele>23</ele>
</trkpt>
<trkpt lat="39.552182033658028" lon="2.379810987040401">
<ele>24</ele>
</trkpt>
<trkpt lat="39.552264008671045" lon="2.379646031185985">
<ele>24</ele>
</trkpt>
<trkpt lat="39.552355958148837" lon="2.379489038139582">
<ele>25</ele>
</trkpt>
<trkpt lat="39.552439022809267" lon="2.379374038428068">
<ele>26</ele>
</trkpt>
<trkpt lat="39.552485039457679" lon="2.379328021779656">
<ele>26</ele>
</trkpt>
<trkpt lat="39.552540024742484" lon="2.37922802567482">
<ele>27</ele>
</trkpt>
<trkpt lat="39.552571959793568" lon="2.379170022904873">
<ele>28</ele>
</trkpt>
<trkpt lat="39.552642032504082" lon="2.37909902818501">
<ele>29</ele>
</trkpt>
<trkpt lat="39.552715960890055" lon="2.378996014595032">
<ele>29</ele>
</trkpt>
<trkpt lat="39.55274797976017" lon="2.378939017653465">
<ele>30</ele>
</trkpt>
<trkpt lat="39.552732976153493" lon="2.378856958821416">
<ele>30</ele>
</trkpt>
<trkpt lat="39.552700035274029" lon="2.378801973536611">
<ele>30</ele>
</trkpt>
<trkpt lat="39.552625017240644" lon="2.378731984645128">
<ele>30</ele>
</trkpt>
<trkpt lat="39.552487973123789" lon="2.378718992695212">
<ele>30</ele>
</trkpt>
<trkpt lat="39.55248998478055" lon="2.378718992695212">
<ele>30</ele>
</trkpt>
<trkpt lat="39.552361993119121" lon="2.378756962716579">
<ele>31</ele>
</trkpt>
<trkpt lat="39.552253028377891" lon="2.378799961879849">
<ele>31</ele>
</trkpt>
<trkpt lat="39.552158983424306" lon="2.378813959658146">
<ele>31</ele>
</trkpt>
<trkpt lat="39.552122019231319" lon="2.378768026828766">
<ele>31</ele>
</trkpt>
<trkpt lat="39.552120007574558" lon="2.378698959946632">
<ele>31</ele>
</trkpt>
<trkpt lat="39.552193013951182" lon="2.378604998812079">
<ele>32</ele>
</trkpt>
<trkpt lat="39.552304996177554" lon="2.378496034070849">
<ele>33</ele>
</trkpt>
<trkpt lat="39.552413960918784" lon="2.378393020480871">
<ele>34</ele>
</trkpt>
<trkpt lat="39.552526026964188" lon="2.37832697108388">
<ele>35</ele>
</trkpt>
<trkpt lat="39.552678996697068" lon="2.378345998004079">
<ele>36</ele>
</trkpt>
<trkpt lat="39.552785027772188" lon="2.378354966640472">
<ele>38</ele>
</trkpt>
<trkpt lat="39.552916036918759" lon="2.378379022702575">
<ele>39</ele>
</trkpt>
<trkpt lat="39.553003963083029" lon="2.378353038802743">
<ele>40</ele>
</trkpt>
<trkpt lat="39.553029024973512" lon="2.378271985799074">
<ele>41</ele>
</trkpt>
<trkpt lat="39.553006980568171" lon="2.378200991079211">
<ele>42</ele>
</trkpt>
<trkpt lat="39.552939003333449" lon="2.378181964159012">
<ele>43</ele>
</trkpt>
<trkpt lat="39.552816962823272" lon="2.378172995522618">
<ele>44</ele>
</trkpt>
<trkpt lat="39.552711015567183" lon="2.378157991915941">
<ele>45</ele>
</trkpt>
<trkpt lat="39.552634991705418" lon="2.378109963610768">
<ele>46</ele>
</trkpt>
<trkpt lat="39.552606996148825" lon="2.378020025789738">
<ele>48</ele>
</trkpt>
<trkpt lat="39.552629962563515" lon="2.377922963351011">
<ele>49</ele>
</trkpt>
<trkpt lat="39.552727025002241" lon="2.377873007208109">
<ele>50</ele>
</trkpt>
<trkpt lat="39.552873037755489" lon="2.377825984731317">
<ele>51</ele>
</trkpt>
<trkpt lat="39.553031036630273" lon="2.377778040245175">
<ele>52</ele>
</trkpt>
<trkpt lat="39.553163973614573" lon="2.377738980576396">
<ele>53</ele>
</trkpt>
<trkpt lat="39.553346028551459" lon="2.377687012776732">
<ele>54</ele>
</trkpt>
<trkpt lat="39.55347896553576" lon="2.377677960321307">
<ele>54</ele>
</trkpt>
<trkpt lat="39.553566975519061" lon="2.377696987241507">
<ele>55</ele>
</trkpt>
<trkpt lat="39.553665965795517" lon="2.377735041081905">
<ele>56</ele>
</trkpt>
<trkpt lat="39.553745007142425" lon="2.377736968919635">
<ele>56</ele>
</trkpt>
<trkpt lat="39.553808039054275" lon="2.377710985019803">
<ele>57</ele>
</trkpt>
<trkpt lat="39.553868975490332" lon="2.377586010843515">
<ele>58</ele>
</trkpt>
<trkpt lat="39.553852966055274" lon="2.377426000311971">
<ele>59</ele>
</trkpt>
<trkpt lat="39.553733021020889" lon="2.37736196257174">
<ele>59</ele>
</trkpt>
<trkpt lat="39.553592959418893" lon="2.377318041399121">
<ele>60</ele>
</trkpt>
<trkpt lat="39.553592959418893" lon="2.377319969236851">
<ele>61</ele>
</trkpt>
<trkpt lat="39.553437978029251" lon="2.37729599699378">
<ele>62</ele>
</trkpt>
<trkpt lat="39.553268998861313" lon="2.377280993387103">
<ele>62</ele>
</trkpt>
<trkpt lat="39.553094990551472" lon="2.377288034185767">
<ele>63</ele>
</trkpt>
<trkpt lat="39.552998011931777" lon="2.377274036407471">
<ele>64</ele>
</trkpt>
<trkpt lat="39.552832972258329" lon="2.377259032800794">
<ele>65</ele>
</trkpt>
<trkpt lat="39.552700035274029" lon="2.377254003658891">
<ele>66</ele>
</trkpt>
<trkpt lat="39.55261898227036" lon="2.377217039465904">
<ele>66</ele>
</trkpt>
<trkpt lat="39.552571959793568" lon="2.377150990068913">
<ele>67</ele>
</trkpt>
<trkpt lat="39.552567014470696" lon="2.377059040591121">
<ele>68</ele>
</trkpt>
<trkpt lat="39.552610013633966" lon="2.376969018951058">
<ele>70</ele>
</trkpt>
<trkpt lat="39.552749991416931" lon="2.37690799869597">
<ele>71</ele>
</trkpt>
<trkpt lat="39.552896004170179" lon="2.376824012026191">
<ele>73</ele>
</trkpt>
<trkpt lat="39.553025001659989" lon="2.376734996214509">
<ele>75</ele>
</trkpt>
<trkpt lat="39.553189035505056" lon="2.376581020653248">
<ele>76</ele>
</trkpt>
<trkpt lat="39.553318032994866" lon="2.376429978758097">
<ele>78</ele>
</trkpt>
<trkpt lat="39.553388021886349" lon="2.376276003196836">
<ele>80</ele>
</trkpt>
<trkpt lat="39.553388021886349" lon="2.376281032338738">
<ele>82</ele>
</trkpt>
<trkpt lat="39.553415011614561" lon="2.376162009313703">
<ele>83</ele>
</trkpt>
<trkpt lat="39.553415011614561" lon="2.376008033752441">
<ele>85</ele>
</trkpt>
<trkpt lat="39.55334804020822" lon="2.375854980200529">
<ele>86</ele>
</trkpt>
<trkpt lat="39.553287019953132" lon="2.375740986317396">
<ele>88</ele>
</trkpt>
<trkpt lat="39.553244020789862" lon="2.375595979392529">
<ele>90</ele>
</trkpt>
<trkpt lat="39.553230023011565" lon="2.375473016873002">
<ele>91</ele>
</trkpt>
<trkpt lat="39.553230023011565" lon="2.375471005216241">
<ele>92</ele>
</trkpt>
<trkpt lat="39.553274028003216" lon="2.375292973592877">
<ele>94</ele>
</trkpt>
<trkpt lat="39.55337000079453" lon="2.375285010784864">
<ele>96</ele>
</trkpt>
<trkpt lat="39.553501009941101" lon="2.375292973592877">
<ele>97</ele>
</trkpt>
<trkpt lat="39.553600000217557" lon="2.375308983027935">
<ele>98</ele>
</trkpt>
<trkpt lat="39.553718017414212" lon="2.375241005793214">
<ele>100</ele>
</trkpt>
<trkpt lat="39.553782977163792" lon="2.375111002475023">
<ele>102</ele>
</trkpt>
<trkpt lat="39.553829999640584" lon="2.374937999993563">
<ele>104</ele>
</trkpt>
<trkpt lat="39.553866041824222" lon="2.374807996675372">
<ele>107</ele>
</trkpt>
<trkpt lat="39.553908035159111" lon="2.374655026942492">
<ele>109</ele>
</trkpt>
<trkpt lat="39.553947011008859" lon="2.374500967562199">
<ele>111</ele>
</trkpt>
<trkpt lat="39.55399202182889" lon="2.37433198839426">
<ele>113</ele>
</trkpt>
<trkpt lat="39.55403896048665" lon="2.374209025874734">
<ele>115</ele>
</trkpt>
<trkpt lat="39.554149014875293" lon="2.37413702532649">
<ele>118</ele>
</trkpt>
<trkpt lat="39.554300978779793" lon="2.374119004234672">
<ele>120</ele>
</trkpt>
<trkpt lat="39.554428970441222" lon="2.374097965657711">
<ele>122</ele>
</trkpt>
<trkpt lat="39.554492002353072" lon="2.374065024778247">
<ele>124</ele>
</trkpt>
<trkpt lat="39.554527038708329" lon="2.374009033665061">
<ele>126</ele>
</trkpt>
<trkpt lat="39.554524021223187" lon="2.373906020075083">
<ele>128</ele>
</trkpt>
<trkpt lat="39.554585041478276" lon="2.37375196069479">
<ele>130</ele>
</trkpt>
<trkpt lat="39.554632985964417" lon="2.373593961820006">
<ele>132</ele>
</trkpt>
<trkpt lat="39.554674979299307" lon="2.373463958501816">
<ele>135</ele>
</trkpt>
<trkpt lat="39.554760977625847" lon="2.373310988768935">
<ele>137</ele>
</trkpt>
<trkpt lat="39.554859967902303" lon="2.373173022642732">
<ele>139</ele>
</trkpt>
<trkpt lat="39.554930040612817" lon="2.373047964647412">
<ele>141</ele>
</trkpt>
<trkpt lat="39.554963987320662" lon="2.372945034876466">
<ele>143</ele>
</trkpt>
<trkpt lat="39.554995000362396" lon="2.372802039608359">
<ele>145</ele>
</trkpt>
<trkpt lat="39.55508996732533" lon="2.372802039608359">
<ele>147</ele>
</trkpt>
<trkpt lat="39.555260958150029" lon="2.372836992144585">
<ele>148</ele>
</trkpt>
<trkpt lat="39.555396996438503" lon="2.372865993529558">
<ele>150</ele>
</trkpt>
<trkpt lat="39.555530017241836" lon="2.372857024893165">
<ele>152</ele>
</trkpt>
<trkpt lat="39.555637976154685" lon="2.372819976881146">
<ele>154</ele>
</trkpt>
<trkpt lat="39.555707965046167" lon="2.372787036001682">
<ele>156</ele>
</trkpt>
<trkpt lat="39.555778037756681" lon="2.372705982998014">
<ele>157</ele>
</trkpt>
<trkpt lat="39.555799998342991" lon="2.372598024085164">
<ele>159</ele>
</trkpt>
<trkpt lat="39.555781977251172" lon="2.372465003281832">
<ele>161</ele>
</trkpt>
<trkpt lat="39.555781977251172" lon="2.372462991625071">
<ele>161</ele>
</trkpt>
<trkpt lat="39.55564702861011" lon="2.37233298830688">
<ele>162</ele>
</trkpt>
<trkpt lat="39.55552096478641" lon="2.372221006080508">
<ele>162</ele>
</trkpt>
<trkpt lat="39.555407976731658" lon="2.37213802523911">
<ele>163</ele>
</trkpt>
<trkpt lat="39.55532499589026" lon="2.372056972235441">
<ele>163</ele>
</trkpt>
<trkpt lat="39.55521896481514" lon="2.371967034414411">
<ele>162</ele>
</trkpt>
<trkpt lat="39.555088961496949" lon="2.371930992230773">
<ele>162</ele>
</trkpt>
<trkpt lat="39.554919982329011" lon="2.371852034702897">
<ele>161</ele>
</trkpt>
<trkpt lat="39.554815962910652" lon="2.371799983084202">
<ele>161</ele>
</trkpt>
<trkpt lat="39.554815962910652" lon="2.371797971427441">
<ele>160</ele>
</trkpt>
<trkpt lat="39.554743962362409" lon="2.371742986142635">
<ele>159</ele>
</trkpt>
<trkpt lat="39.554752008989453" lon="2.371682971715927">
<ele>159</ele>
</trkpt>
<trkpt lat="39.554795008152723" lon="2.371654976159334">
<ele>158</ele>
</trkpt>
<trkpt lat="39.554921993985772" lon="2.371696969494224">
<ele>158</ele>
</trkpt>
<trkpt lat="39.555054008960724" lon="2.37170996144414">
<ele>157</ele>
</trkpt>
<trkpt lat="39.55515400506556" lon="2.371662016957998">
<ele>156</ele>
</trkpt>
<trkpt lat="39.555205972865224" lon="2.371479962021112">
<ele>155</ele>
</trkpt>
<trkpt lat="39.555221982300282" lon="2.371294973418117">
<ele>154</ele>
</trkpt>
<trkpt lat="39.555228017270565" lon="2.371146026998758">
<ele>153</ele>
</trkpt>
<trkpt lat="39.555166997015476" lon="2.370984004810453">
<ele>152</ele>
</trkpt>
<trkpt lat="39.555121986195445" lon="2.370872022584081">
<ele>152</ele>
</trkpt>
<trkpt lat="39.555092984810472" lon="2.370680999010801">
<ele>151</ele>
</trkpt>
<trkpt lat="39.555074041709304" lon="2.370524005964398">
<ele>150</ele>
</trkpt>
<trkpt lat="39.555127015337348" lon="2.370358966290951">
<ele>149</ele>
</trkpt>
<trkpt lat="39.555191975086927" lon="2.370197027921677">
<ele>148</ele>
</trkpt>
<trkpt lat="39.555308986455202" lon="2.370050009340048">
<ele>148</ele>
</trkpt>
<trkpt lat="39.555405965074897" lon="2.369949007406831">
<ele>148</ele>
</trkpt>
<trkpt lat="39.55551702529192" lon="2.36992503516376">
<ele>148</ele>
</trkpt>
<trkpt lat="39.555645016953349" lon="2.370003992691636">
<ele>148</ele>
</trkpt>
<trkpt lat="39.555645016953349" lon="2.370006004348397">
<ele>148</ele>
</trkpt>
<trkpt lat="39.555774014443159" lon="2.370115974918008">
<ele>148</ele>
</trkpt>
<trkpt lat="39.555889014154673" lon="2.370244972407818">
<ele>148</ele>
</trkpt>
<trkpt lat="39.556031003594398" lon="2.370331976562738">
<ele>148</ele>
</trkpt>
<trkpt lat="39.556143991649151" lon="2.370375981554389">
<ele>148</ele>
</trkpt>
<trkpt lat="39.556342978030443" lon="2.37035402096808">
<ele>148</ele>
</trkpt>
<trkpt lat="39.556526960805058" lon="2.370341029018164">
<ele>148</ele>
</trkpt>
<trkpt lat="39.55669904127717" lon="2.370318984612823">
<ele>147</ele>
</trkpt>
<trkpt lat="39.556860979646444" lon="2.370301969349384">
<ele>147</ele>
</trkpt>
<trkpt lat="39.557006992399693" lon="2.370328037068248">
<ele>146</ele>
</trkpt>
<trkpt lat="39.557148981839418" lon="2.370401965454221">
<ele>146</ele>
</trkpt>
<trkpt lat="39.55715099349618" lon="2.370404982939363">
<ele>146</ele>
</trkpt>
<trkpt lat="39.55732299014926" lon="2.370502967387438">
<ele>145</ele>
</trkpt>
<trkpt lat="39.557475037872791" lon="2.370590977370739">
<ele>145</ele>
</trkpt>
<trkpt lat="39.557584002614021" lon="2.370645962655544">
<ele>144</ele>
</trkpt>
<trkpt lat="39.557734960690141" lon="2.370590977370739">
<ele>144</ele>
</trkpt>
<trkpt lat="39.557897988706827" lon="2.370514031499624">
<ele>142</ele>
</trkpt>
<trkpt lat="39.558062022551894" lon="2.370437001809478">
<ele>140</ele>
</trkpt>
<trkpt lat="39.558116002008319" lon="2.370400037616491">
<ele>139</ele>
</trkpt>
<trkpt lat="39.558133017271757" lon="2.370337005704641">
<ele>137</ele>
</trkpt>
<trkpt lat="39.558106027543545" lon="2.370150005444884">
<ele>135</ele>
</trkpt>
<trkpt lat="39.558057999238372" lon="2.369937021285296">
<ele>133</ele>
</trkpt>
<trkpt lat="39.558057999238372" lon="2.369790002703667">
<ele>131</ele>
</trkpt>
<trkpt lat="39.558113990351558" lon="2.369741974398494">
<ele>130</ele>
</trkpt>
<trkpt lat="39.558202000334859" lon="2.369722025468946">
<ele>128</ele>
</trkpt>
<trkpt lat="39.558327980339527" lon="2.369758989661932">
<ele>126</ele>
</trkpt>
<trkpt lat="39.558445997536182" lon="2.369852028787136">
<ele>125</ele>
</trkpt>
<trkpt lat="39.55856803804636" lon="2.369979014620185">
<ele>124</ele>
</trkpt>
<trkpt lat="39.558698963373899" lon="2.37009895965457">
<ele>123</ele>
</trkpt>
<trkpt lat="39.558811029419303" lon="2.370209014043212">
<ele>122</ele>
</trkpt>
<trkpt lat="39.558979002758861" lon="2.370330970734358">
<ele>121</ele>
</trkpt>
<trkpt lat="39.559159968048334" lon="2.370413029566407">
<ele>120</ele>
</trkpt>
<trkpt lat="39.559257030487061" lon="2.370518976822496">
<ele>119</ele>
</trkpt>
<trkpt lat="39.559318972751498" lon="2.370732966810465">
<ele>118</ele>
</trkpt>
<trkpt lat="39.559350991621614" lon="2.370970007032156">
<ele>117</ele>
</trkpt>
<trkpt lat="39.559402037411928" lon="2.371120965108275">
<ele>116</ele>
</trkpt>
<trkpt lat="39.559540003538132" lon="2.371251974254847">
<ele>116</ele>
</trkpt>
<trkpt lat="39.559638993814588" lon="2.371551962569356">
<ele>116</ele>
</trkpt>
<trkpt lat="39.559701019898057" lon="2.371738962829113">
<ele>116</ele>
</trkpt>
<trkpt lat="39.559738989919424" lon="2.371907019987702">
<ele>116</ele>
</trkpt>
<trkpt lat="39.559831023216248" lon="2.371976003050804">
<ele>116</ele>
</trkpt>
<trkpt lat="39.56003000959754" lon="2.37203199416399">
<ele>117</ele>
</trkpt>
<trkpt lat="39.560203012079" lon="2.37218102440238">
<ele>117</ele>
</trkpt>
<trkpt lat="39.56037500873208" lon="2.372339023277164">
<ele>117</ele>
</trkpt>
<trkpt lat="39.560475004836917" lon="2.372424015775323">
<ele>117</ele>
</trkpt>
<trkpt lat="39.560637027025223" lon="2.372344974428415">
<ele>117</ele>
</trkpt>
<trkpt lat="39.560866020619869" lon="2.372207008302212">
<ele>118</ele>
</trkpt>
<trkpt lat="39.560945983976126" lon="2.372101983055472">
<ele>119</ele>
</trkpt>
<trkpt lat="39.56101899035275" lon="2.371953958645463">
<ele>120</ele>
</trkpt>
<trkpt lat="39.561161985620856" lon="2.372062001377344">
<ele>121</ele>
</trkpt>
<trkpt lat="39.561333982273936" lon="2.372229974716902">
<ele>122</ele>
</trkpt>
<trkpt lat="39.561496004462242" lon="2.372293006628752">
<ele>124</ele>
</trkpt>
<trkpt lat="39.561646962538362" lon="2.372325025498867">
<ele>125</ele>
</trkpt>
<trkpt lat="39.561638999730349" lon="2.372328964993358">
<ele>126</ele>
</trkpt>
<trkpt lat="39.5617710147053" lon="2.372237015515566">
<ele>127</ele>
</trkpt>
<trkpt lat="39.56187897361815" lon="2.372049009427428">
<ele>128</ele>
</trkpt>
<trkpt lat="39.561970001086593" lon="2.371904002502561">
<ele>130</ele>
</trkpt>
<trkpt lat="39.562080977484584" lon="2.371832001954317">
<ele>132</ele>
</trkpt>
<trkpt lat="39.562193965539336" lon="2.37179595977068">
<ele>134</ele>
</trkpt>
<trkpt lat="39.562193965539336" lon="2.371806018054485">
<ele>136</ele>
</trkpt>
<trkpt lat="39.5623719971627" lon="2.37190299667418">
<ele>138</ele>
</trkpt>
<trkpt lat="39.562536031007767" lon="2.371997041627765">
<ele>139</ele>
</trkpt>
<trkpt lat="39.5626309979707" lon="2.371942978352308">
<ele>141</ele>
</trkpt>
<trkpt lat="39.562747003510594" lon="2.37179595977068">
<ele>143</ele>
</trkpt>
<trkpt lat="39.562837025150657" lon="2.371706021949649">
<ele>145</ele>
</trkpt>
<trkpt lat="39.562941966578364" lon="2.371675008907914">
<ele>147</ele>
</trkpt>
<trkpt lat="39.56312301568687" lon="2.371685989201069">
<ele>149</ele>
</trkpt>
<trkpt lat="39.563190992921591" lon="2.37147300504148">
<ele>152</ele>
</trkpt>
<trkpt lat="39.563251007348299" lon="2.371261026710272">
<ele>154</ele>
</trkpt>
<trkpt lat="39.563337005674839" lon="2.371074026450515">
<ele>156</ele>
</trkpt>
<trkpt lat="39.563392996788025" lon="2.370973024517298">
<ele>158</ele>
</trkpt>
<trkpt lat="39.563540015369654" lon="2.370876967906952">
<ele>161</ele>
</trkpt>
<trkpt lat="39.563631964847445" lon="2.37076498568058">
<ele>163</ele>
</trkpt>
<trkpt lat="39.563716035336256" lon="2.370657026767731">
<ele>165</ele>
</trkpt>
<trkpt lat="39.563809996470809" lon="2.370661972090602">
<ele>168</ele>
</trkpt>
<trkpt lat="39.563922984525561" lon="2.370790969580412">
<ele>170</ele>
</trkpt>
<trkpt lat="39.564059022814035" lon="2.370948968455195">
<ele>172</ele>
</trkpt>
<trkpt lat="39.564187014475465" lon="2.371051982045174">
<ele>175</ele>
</trkpt>
<trkpt lat="39.564345013350248" lon="2.371152983978391">
<ele>178</ele>
</trkpt>
<trkpt lat="39.564511980861425" lon="2.371222972869873">
<ele>180</ele>
</trkpt>
<trkpt lat="39.564513992518187" lon="2.371222972869873">
<ele>182</ele>
</trkpt>
<trkpt lat="39.56469202414155" lon="2.371302014216781">
<ele>185</ele>
</trkpt>
<trkpt lat="39.564856979995966" lon="2.371410978958011">
<ele>188</ele>
</trkpt>
<trkpt lat="39.564982960000634" lon="2.371513992547989">
<ele>190</ele>
</trkpt>
<trkpt lat="39.565097959712148" lon="2.371674003079534">
<ele>192</ele>
</trkpt>
<trkpt lat="39.565203990787268" lon="2.371844993904233">
<ele>195</ele>
</trkpt>
<trkpt lat="39.565314967185259" lon="2.372010033577681">
<ele>198</ele>
</trkpt>
<trkpt lat="39.565341034904122" lon="2.372177001088858">
<ele>201</ele>
</trkpt>
<trkpt lat="39.565386967733502" lon="2.372333994135261">
<ele>204</ele>
</trkpt>
<trkpt lat="39.56546600908041" lon="2.372468020766974">
<ele>207</ele>
</trkpt>
<trkpt lat="39.565584026277065" lon="2.372628031298518">
<ele>210</ele>
</trkpt>
<trkpt lat="39.565710006281734" lon="2.372790975496173">
<ele>213</ele>
</trkpt>
<trkpt lat="39.565847972407937" lon="2.372887032106519">
<ele>216</ele>
</trkpt>
<trkpt lat="39.565978981554508" lon="2.372961966320872">
<ele>219</ele>
</trkpt>
<trkpt lat="39.566093981266022" lon="2.373033966869116">
<ele>222</ele>
</trkpt>
<trkpt lat="39.566221972927451" lon="2.373216021806002">
<ele>225</ele>
</trkpt>
<trkpt lat="39.566362034529448" lon="2.37340503372252">
<ele>228</ele>
</trkpt>
<trkpt lat="39.566486002877355" lon="2.373561020940542">
<ele>230</ele>
</trkpt>
<trkpt lat="39.566486002877355" lon="2.373559009283781">
<ele>233</ele>
</trkpt>
<trkpt lat="39.56656202673912" lon="2.373680965974927">
<ele>235</ele>
</trkpt>
<trkpt lat="39.566657999530435" lon="2.373809041455388">
<ele>238</ele>
</trkpt>
<trkpt lat="39.56679898314178" lon="2.373871989548206">
<ele>241</ele>
</trkpt>
<trkpt lat="39.566942313686013" lon="2.373820524662733">
<ele>243</ele>
</trkpt>
<trkpt lat="39.567005261778831" lon="2.373839216306806">
<ele>246</ele>
</trkpt>
<trkpt lat="39.567046584561467" lon="2.373867211863399">
<ele>248</ele>
</trkpt>
<trkpt lat="39.567077094689012" lon="2.373941894620657">
<ele>251</ele>
</trkpt>
<trkpt lat="39.567157980054617" lon="2.373983887955546">
<ele>253</ele>
</trkpt>
<trkpt lat="39.567211959511042" lon="2.37400802783668">
<ele>255</ele>
</trkpt>
<trkpt lat="39.567312961444259" lon="2.373998975381255">
<ele>258</ele>
</trkpt>
<trkpt lat="39.567368030548096" lon="2.374071981757879">
<ele>260</ele>
</trkpt>
<trkpt lat="39.56731203943491" lon="2.374184969812632">
<ele>262</ele>
</trkpt>
<trkpt lat="39.567219000309706" lon="2.374329976737499">
<ele>264</ele>
</trkpt>
<trkpt lat="39.567196033895016" lon="2.374446988105774">
<ele>266</ele>
</trkpt>
<trkpt lat="39.567284965887666" lon="2.374327965080738">
<ele>269</ele>
</trkpt>
<trkpt lat="39.567428966984153" lon="2.374251019209623">
<ele>271</ele>
</trkpt>
<trkpt lat="39.5675940066576" lon="2.374174995347858">
<ele>273</ele>
</trkpt>
<trkpt lat="39.567761979997158" lon="2.374099977314472">
<ele>274</ele>
</trkpt>
<trkpt lat="39.567896006628871" lon="2.374044992029667">
<ele>276</ele>
</trkpt>
<trkpt lat="39.568034978583455" lon="2.373979026451707">
<ele>277</ele>
</trkpt>
<trkpt lat="39.568146038800478" lon="2.373915994539857">
<ele>279</ele>
</trkpt>
<trkpt lat="39.568220973014832" lon="2.37381499260664">
<ele>280</ele>
</trkpt>
<trkpt lat="39.568262966349721" lon="2.373627992346883">
<ele>281</ele>
</trkpt>
<trkpt lat="39.568262966349721" lon="2.37362002953887">
<ele>283</ele>
</trkpt>
<trkpt lat="39.56821602769196" lon="2.373421965166926">
<ele>284</ele>
</trkpt>
<trkpt lat="39.568189037963748" lon="2.37325600348413">
<ele>286</ele>
</trkpt>
<trkpt lat="39.56819599494338" lon="2.373077971860766">
<ele>287</ele>
</trkpt>
<trkpt lat="39.568178979679942" lon="2.372940005734563">
<ele>288</ele>
</trkpt>
<trkpt lat="39.568185014650226" lon="2.372839003801346">
<ele>290</ele>
</trkpt>
<trkpt lat="39.56821896135807" lon="2.372782006859779">
<ele>291</ele>
</trkpt>
<trkpt lat="39.568277969956398" lon="2.372800027951598">
<ele>292</ele>
</trkpt>
<trkpt lat="39.568327004089952" lon="2.372868005186319">
<ele>294</ele>
</trkpt>
<trkpt lat="39.568336978554726" lon="2.372997002676129">
<ele>295</ele>
</trkpt>
<trkpt lat="39.568359022960067" lon="2.373131029307842">
<ele>296</ele>
</trkpt>
<trkpt lat="39.568375032395124" lon="2.373302020132542">
<ele>297</ele>
</trkpt>
<trkpt lat="39.568405961617827" lon="2.373403022065759">
<ele>299</ele>
</trkpt>
<trkpt lat="39.568499000743032" lon="2.373382989317179">
<ele>300</ele>
</trkpt>
<trkpt lat="39.568584999069571" lon="2.373264972120524">
<ele>301</ele>
</trkpt>
<trkpt lat="39.568675020709634" lon="2.373100016266108">
<ele>303</ele>
</trkpt>
<trkpt lat="39.568766970187426" lon="2.372937994077802">
<ele>304</ele>
</trkpt>
<trkpt lat="39.568827990442514" lon="2.372847972437739">
<ele>306</ele>
</trkpt>
<trkpt lat="39.568934021517634" lon="2.372777983546257">
<ele>307</ele>
</trkpt>
<trkpt lat="39.569044997915626" lon="2.372702965512872">
<ele>308</ele>
</trkpt>
<trkpt lat="39.569138959050179" lon="2.372539015486836">
<ele>310</ele>
</trkpt>
<trkpt lat="39.569211965426803" lon="2.372360983863473">
<ele>311</ele>
</trkpt>
<trkpt lat="39.569285977631807" lon="2.372189993038774">
<ele>313</ele>
</trkpt>
<trkpt lat="39.569379016757011" lon="2.372070970013738">
<ele>314</ele>
</trkpt>
<trkpt lat="39.569498039782047" lon="2.371922023594379">
<ele>314</ele>
</trkpt>
<trkpt lat="39.569543972611427" lon="2.371726976707578">
<ele>313</ele>
</trkpt>
<trkpt lat="39.569631982594728" lon="2.371565038338304">
<ele>313</ele>
</trkpt>
<trkpt lat="39.569722004234791" lon="2.371378038078547">
<ele>313</ele>
</trkpt>
<trkpt lat="39.569820994511247" lon="2.371191959828138">
<ele>312</ele>
</trkpt>
<trkpt lat="39.569911016151309" lon="2.371009988710284">
<ele>312</ele>
</trkpt>
<trkpt lat="39.570001037791371" lon="2.370845032855868">
<ele>312</ele>
</trkpt>
<trkpt lat="39.570073038339615" lon="2.370708994567394">
<ele>312</ele>
</trkpt>
<trkpt lat="39.570162976160645" lon="2.37054898403585">
<ele>311</ele>
</trkpt>
<trkpt lat="39.570250986143947" lon="2.370372964069247">
<ele>311</ele>
</trkpt>
<trkpt lat="39.570291973650455" lon="2.370250001549721">
<ele>310</ele>
</trkpt>
<trkpt lat="39.570298008620739" lon="2.370113963261247">
<ele>310</ele>
</trkpt>
<trkpt lat="39.570231037214398" lon="2.369950013235211">
<ele>309</ele>
</trkpt>
<trkpt lat="39.570229025557637" lon="2.369950013235211">
<ele>308</ele>
</trkpt>
<trkpt lat="39.570162976160645" lon="2.369807017967105">
<ele>308</ele>
</trkpt>
<trkpt lat="39.570079995319247" lon="2.369641978293657">
<ele>307</ele>
</trkpt>
<trkpt lat="39.570039007812738" lon="2.369463024660945">
<ele>306</ele>
</trkpt>
<trkpt lat="39.569996008649468" lon="2.369292033836246">
<ele>305</ele>
</trkpt>
<trkpt lat="39.56997899338603" lon="2.369108973070979">
<ele>305</ele>
</trkpt>
<trkpt lat="39.569981005042791" lon="2.369108973070979">
<ele>304</ele>
</trkpt>
<trkpt lat="39.569969018921256" lon="2.368964971974492">
<ele>304</ele>
</trkpt>
<trkpt lat="39.569960972294211" lon="2.3688730224967">
<ele>304</ele>
</trkpt>
<trkpt lat="39.569907998666167" lon="2.368669006973505">
<ele>304</ele>
</trkpt>
<trkpt lat="39.569828035309911" lon="2.368419980630279">
<ele>304</ele>
</trkpt>
<trkpt lat="39.569728039205074" lon="2.368220994248986">
<ele>304</ele>
</trkpt>
<trkpt lat="39.569627959281206" lon="2.368023013696075">
<ele>304</ele>
</trkpt>
<trkpt lat="39.569521006196737" lon="2.36786400899291">
<ele>304</ele>
</trkpt>
<trkpt lat="39.569440707564354" lon="2.367715984582901">
<ele>304</ele>
</trkpt>
<trkpt lat="39.569552103057504" lon="2.36773794516921">
<ele>304</ele>
</trkpt>
<trkpt lat="39.569611446931958" lon="2.367821261286736">
<ele>304</ele>
</trkpt>
<trkpt lat="39.56971563398838" lon="2.367836683988571">
<ele>304</ele>
</trkpt>
<trkpt lat="39.569825185462832" lon="2.367915641516447">
<ele>304</ele>
</trkpt>
<trkpt lat="39.569927612319589" lon="2.367990156635642">
<ele>303</ele>
</trkpt>
<trkpt lat="39.570006653666496" lon="2.367987977340818">
<ele>303</ele>
</trkpt>
<trkpt lat="39.570073038339615" lon="2.367901979014278">
<ele>303</ele>
</trkpt>
<trkpt lat="39.570107236504555" lon="2.367979260161519">
<ele>303</ele>
</trkpt>
<trkpt lat="39.570145038887858" lon="2.368115969002247">
<ele>303</ele>
</trkpt>
<trkpt lat="39.570180997252464" lon="2.368216970935464">
<ele>303</ele>
</trkpt>
<trkpt lat="39.570230031386018" lon="2.3683169670403">
<ele>303</ele>
</trkpt>
<trkpt lat="39.570286022499204" lon="2.368415035307407">
<ele>303</ele>
</trkpt>
<trkpt lat="39.57034301944077" lon="2.368501033633947">
<ele>303</ele>
</trkpt>
<trkpt lat="39.570370009168983" lon="2.368564987555146">
<ele>303</ele>
</trkpt>
<trkpt lat="39.570413008332253" lon="2.36861796118319">
<ele>303</ele>
</trkpt>
<trkpt lat="39.570447960868478" lon="2.368698008358479">
<ele>303</ele>
</trkpt>
<trkpt lat="39.570475034415722" lon="2.368778977543116">
<ele>303</ele>
</trkpt>
<trkpt lat="39.570505041629076" lon="2.368834968656302">
<ele>302</ele>
</trkpt>
<trkpt lat="39.570538988336921" lon="2.36887201666832">
<ele>301</ele>
</trkpt>
<trkpt lat="39.570564972236753" lon="2.368908980861306">
<ele>300</ele>
</trkpt>
<trkpt lat="39.570593973621726" lon="2.368971006944776">
<ele>299</ele>
</trkpt>
<trkpt lat="39.570629009976983" lon="2.369005037471652">
<ele>298</ele>
</trkpt>
<trkpt lat="39.57066697999835" lon="2.369011994451284">
<ele>296</ele>
</trkpt>
<trkpt lat="39.570700004696846" lon="2.368993973359466">
<ele>295</ele>
</trkpt>
<trkpt lat="39.570706961676478" lon="2.36893798224628">
<ele>294</ele>
</trkpt>
<trkpt lat="39.57070897333324" lon="2.368874028325081">
<ele>293</ele>
</trkpt>
<trkpt lat="39.570717019960284" lon="2.368843015283346">
<ele>292</ele>
</trkpt>
<trkpt lat="39.570753984153271" lon="2.368807978928089">
<ele>290</ele>
</trkpt>
<trkpt lat="39.570787008851767" lon="2.368802027776837">
<ele>288</ele>
</trkpt>
<trkpt lat="39.570819027721882" lon="2.368780989199877">
<ele>287</ele>
</trkpt>
<trkpt lat="39.570821039378643" lon="2.368721980601549">
<ele>285</ele>
</trkpt>
<trkpt lat="39.570826990529895" lon="2.368661966174841">
<ele>283</ele>
</trkpt>
<trkpt lat="39.570846017450094" lon="2.368632964789867">
<ele>281</ele>
</trkpt>
<trkpt lat="39.570852974429727" lon="2.368606980890036">
<ele>279</ele>
</trkpt>
<trkpt lat="39.570873007178307" lon="2.3685949947685">
<ele>278</ele>
</trkpt>
<trkpt lat="39.570916006341577" lon="2.368600023910403">
<ele>276</ele>
</trkpt>
<trkpt lat="39.570931009948254" lon="2.368579991161823">
<ele>274</ele>
</trkpt>
<trkpt lat="39.570934027433395" lon="2.368534980341792">
<ele>273</ele>
</trkpt>
<trkpt lat="39.57096797414124" lon="2.368520982563496">
<ele>272</ele>
</trkpt>
<trkpt lat="39.5710080396384" lon="2.368500027805567">
<ele>272</ele>
</trkpt>
<trkpt lat="39.57107299938798" lon="2.368515031412244">
<ele>271</ele>
</trkpt>
<trkpt lat="39.571121027693152" lon="2.368534980341792">
<ele>270</ele>
</trkpt>
<trkpt lat="39.571151034906507" lon="2.36859398894012">
<ele>269</ele>
</trkpt>
<trkpt lat="39.571192022413015" lon="2.368654003366828">
<ele>268</ele>
</trkpt>
<trkpt lat="39.571226974949241" lon="2.36872399225831">
<ele>268</ele>
</trkpt>
<trkpt lat="39.571233009919524" lon="2.36878601834178">
<ele>267</ele>
</trkpt>
<trkpt lat="39.571232004091144" lon="2.368859024718404">
<ele>266</ele>
</trkpt>
<trkpt lat="39.571236027404666" lon="2.368919961154461">
<ele>264</ele>
</trkpt>
<trkpt lat="39.571235021576285" lon="2.368982993066311">
<ele>261</ele>
</trkpt>
<trkpt lat="39.57124600186944" lon="2.369008976966143">
<ele>259</ele>
</trkpt>
<trkpt lat="39.571296963840723" lon="2.369004031643271">
<ele>257</ele>
</trkpt>
<trkpt lat="39.571343986317515" lon="2.369010988622904">
<ele>254</ele>
</trkpt>
<trkpt lat="39.571405006572604" lon="2.36910997889936">
<ele>252</ele>
</trkpt>
<trkpt lat="39.571467032656074" lon="2.369213998317719">
<ele>250</ele>
</trkpt>
<trkpt lat="39.571531992405653" lon="2.369274012744427">
<ele>248</ele>
</trkpt>
<trkpt lat="39.571627965196967" lon="2.369357999414206">
<ele>245</ele>
</trkpt>
<trkpt lat="39.571682028472424" lon="2.369348024949431">
<ele>243</ele>
</trkpt>
<trkpt lat="39.571693008765578" lon="2.369298990815878">
<ele>242</ele>
</trkpt>
<trkpt lat="39.571724021807313" lon="2.369276024401188">
<ele>240</ele>
</trkpt>
<trkpt lat="39.571742964908481" lon="2.369192959740758">
<ele>239</ele>
</trkpt>
<trkpt lat="39.571750005707145" lon="2.369144009426236">
<ele>238</ele>
</trkpt>
<trkpt lat="39.571814965456724" lon="2.369089024141431">
<ele>236</ele>
</trkpt>
<trkpt lat="39.571854025125504" lon="2.369055999442935">
<ele>235</ele>
</trkpt>
<trkpt lat="39.571910016238689" lon="2.369033033028245">
<ele>234</ele>
</trkpt>
<trkpt lat="39.571900963783264" lon="2.368997996672988">
<ele>233</ele>
</trkpt>
<trkpt lat="39.571947986260056" lon="2.368995985016227">
<ele>231</ele>
</trkpt>
<trkpt lat="39.571977993473411" lon="2.368936976417899">
<ele>230</ele>
</trkpt>
<trkpt lat="39.572000959888101" lon="2.368875034153462">
<ele>230</ele>
</trkpt>
<trkpt lat="39.571999032050371" lon="2.368813008069992">
<ele>229</ele>
</trkpt>
<trkpt lat="39.571974975988269" lon="2.368746958673">
<ele>229</ele>
</trkpt>
<trkpt lat="39.571916973218322" lon="2.368674958124757">
<ele>228</ele>
</trkpt>
<trkpt lat="39.571858970448375" lon="2.368540009483695">
<ele>228</ele>
</trkpt>
<trkpt lat="39.571797028183937" lon="2.368412017822266">
<ele>228</ele>
</trkpt>
<trkpt lat="39.571731984615326" lon="2.36825100146234">
<ele>227</ele>
</trkpt>
<trkpt lat="39.571674987673759" lon="2.368085961788893">
<ele>227</ele>
</trkpt>
<trkpt lat="39.571663001552224" lon="2.367962999269366">
<ele>226</ele>
</trkpt>
<trkpt lat="39.571685967966914" lon="2.367789996787906">
<ele>226</ele>
</trkpt>
<trkpt lat="39.571690997108817" lon="2.367686983197928">
<ele>225</ele>
</trkpt>
<trkpt lat="39.571678005158901" lon="2.367566032335162">
<ele>224</ele>
</trkpt>
<trkpt lat="39.571627965196967" lon="2.367473999038339">
<ele>223</ele>
</trkpt>
<trkpt lat="39.571561999619007" lon="2.367389006540179">
<ele>222</ele>
</trkpt>
<trkpt lat="39.571474995464087" lon="2.367269983515143">
<ele>222</ele>
</trkpt>
<trkpt lat="39.57139796577394" lon="2.367195971310139">
<ele>221</ele>
</trkpt>
<trkpt lat="39.571405006572604" lon="2.367155989632011">
<ele>220</ele>
</trkpt>
<trkpt lat="39.571466026827693" lon="2.367134029045701">
<ele>219</ele>
</trkpt>
<trkpt lat="39.571579014882445" lon="2.367163030430675">
<ele>218</ele>
</trkpt>
<trkpt lat="39.57165302708745" lon="2.367073008790612">
<ele>217</ele>
</trkpt>
<trkpt lat="39.571697032079101" lon="2.366877039894462">
<ele>216</ele>
</trkpt>
<trkpt lat="39.571742964908481" lon="2.366723986342549">
<ele>214</ele>
</trkpt>
<trkpt lat="39.571776995435357" lon="2.366586020216346">
<ele>213</ele>
</trkpt>
<trkpt lat="39.571800967678428" lon="2.366414023563266">
<ele>212</ele>
</trkpt>
<trkpt lat="39.571799039840698" lon="2.366207996383309">
<ele>210</ele>
</trkpt>
<trkpt lat="39.571816977113485" lon="2.366075981408358">
<ele>209</ele>
</trkpt>
<trkpt lat="39.571834998205304" lon="2.365923011675477">
<ele>208</ele>
</trkpt>
<trkpt lat="39.571888977661729" lon="2.365775993093848">
<ele>207</ele>
</trkpt>
<trkpt lat="39.571865005418658" lon="2.365641966462135">
<ele>205</ele>
</trkpt>
<trkpt lat="39.571842039003968" lon="2.365539036691189">
<ele>204</ele>
</trkpt>
<trkpt lat="39.571842039003968" lon="2.365421019494534">
<ele>204</ele>
</trkpt>
<trkpt lat="39.571789987385273" lon="2.365318005904555">
<ele>203</ele>
</trkpt>
<trkpt lat="39.571728967130184" lon="2.365206023678184">
<ele>203</ele>
</trkpt>
<trkpt lat="39.571631988510489" lon="2.365170987322927">
<ele>203</ele>
</trkpt>
<trkpt lat="39.571540039032698" lon="2.365056993439794">
<ele>202</ele>
</trkpt>
<trkpt lat="39.571508020162582" lon="2.365006031468511">
<ele>202</ele>
</trkpt>
<trkpt lat="39.5714380312711" lon="2.364880973473191">
<ele>202</ele>
</trkpt>
<trkpt lat="39.571415986865759" lon="2.364827999845147">
<ele>202</ele>
</trkpt>
<trkpt lat="39.571426967158914" lon="2.364673018455505">
<ele>201</ele>
</trkpt>
<trkpt lat="39.571426967158914" lon="2.364671006798744">
<ele>201</ele>
</trkpt>
<trkpt lat="39.57146099768579" lon="2.364572016522288">
<ele>200</ele>
</trkpt>
<trkpt lat="39.571532998234034" lon="2.364471014589071">
<ele>199</ele>
</trkpt>
<trkpt lat="39.571600975468755" lon="2.364422986283898">
<ele>198</ele>
</trkpt>
<trkpt lat="39.571713041514158" lon="2.364391973242164">
<ele>197</ele>
</trkpt>
<trkpt lat="39.571830974891782" lon="2.364360960200429">
<ele>196</ele>
</trkpt>
<trkpt lat="39.571955027058721" lon="2.36431703902781">
<ele>194</ele>
</trkpt>
<trkpt lat="39.571974975988269" lon="2.364225005730987">
<ele>193</ele>
</trkpt>
<trkpt lat="39.571995008736849" lon="2.364161973819137">
<ele>192</ele>
</trkpt>
<trkpt lat="39.572155019268394" lon="2.364088967442513">
<ele>191</ele>
</trkpt>
<trkpt lat="39.572286028414965" lon="2.36401503905654">
<ele>190</ele>
</trkpt>
<trkpt lat="39.572393987327814" lon="2.363955024629831">
<ele>189</ele>
</trkpt>
<trkpt lat="39.572504963725805" lon="2.363883024081588">
<ele>188</ele>
</trkpt>
<trkpt lat="39.572580987587571" lon="2.363814963027835">
<ele>187</ele>
</trkpt>
<trkpt lat="39.572572018951178" lon="2.363658975809813">
<ele>186</ele>
</trkpt>
<trkpt lat="39.572570007294416" lon="2.363525032997131">
<ele>185</ele>
</trkpt>
<trkpt lat="39.572592973709106" lon="2.363409027457237">
<ele>184</ele>
</trkpt>
<trkpt lat="39.572689030319452" lon="2.363342978060246">
<ele>183</ele>
</trkpt>
<trkpt lat="39.5727280061692" lon="2.363210963085294">
<ele>182</ele>
</trkpt>
<trkpt lat="39.5727280061692" lon="2.363034021109343">
<ele>181</ele>
</trkpt>
<trkpt lat="39.572725994512439" lon="2.362863030284643">
<ele>180</ele>
</trkpt>
<trkpt lat="39.572734963148832" lon="2.36275096423924">
<ele>178</ele>
</trkpt>
<trkpt lat="39.572714008390903" lon="2.362610986456275">
<ele>177</ele>
</trkpt>
<trkpt lat="39.572681989520788" lon="2.362425997853279">
<ele>176</ele>
</trkpt>
<trkpt lat="39.572657011449337" lon="2.362285014241934">
<ele>174</ele>
</trkpt>
<trkpt lat="39.572638990357518" lon="2.362140007317066">
<ele>172</ele>
</trkpt>
<trkpt lat="39.572618035599589" lon="2.362002041190863">
<ele>171</ele>
</trkpt>
<trkpt lat="39.572600014507771" lon="2.361830966547132">
<ele>170</ele>
</trkpt>
<trkpt lat="39.572557015344501" lon="2.361667016521096">
<ele>168</ele>
</trkpt>
<trkpt lat="39.572507981210947" lon="2.361558973789215">
<ele>166</ele>
</trkpt>
<trkpt lat="39.572472022846341" lon="2.361406004056335">
<ele>165</ele>
</trkpt>
<trkpt lat="39.572423994541168" lon="2.361248005181551">
<ele>166</ele>
</trkpt>
<trkpt lat="39.572392981499434" lon="2.361092017963529">
<ele>166</ele>
</trkpt>
<trkpt lat="39.572345037013292" lon="2.360960002988577">
<ele>166</ele>
</trkpt>
<trkpt lat="39.572343025356531" lon="2.360960002988577">
<ele>167</ele>
</trkpt>
<trkpt lat="39.572265995666385" lon="2.360851038247347">
<ele>168</ele>
</trkpt>
<trkpt lat="39.572167005389929" lon="2.360719023272395">
<ele>168</ele>
</trkpt>
<trkpt lat="39.572119982913136" lon="2.360649034380913">
<ele>168</ele>
</trkpt>
<trkpt lat="39.572118977084756" lon="2.360492963343859">
<ele>169</ele>
</trkpt>
<trkpt lat="39.572116965427995" lon="2.360492963343859">
<ele>170</ele>
</trkpt>
<trkpt lat="39.572078995406628" lon="2.360357008874416">
<ele>170</ele>
</trkpt>
<trkpt lat="39.57204001955688" lon="2.360233962535858">
<ele>170</ele>
</trkpt>
<trkpt lat="39.572000037878752" lon="2.360123991966248">
<ele>170</ele>
</trkpt>
<trkpt lat="39.571906998753548" lon="2.360047968104482">
<ele>169</ele>
</trkpt>
<trkpt lat="39.571848995983601" lon="2.360023995861411">
<ele>169</ele>
</trkpt>
<trkpt lat="39.571872968226671" lon="2.359897010028362">
<ele>169</ele>
</trkpt>
<trkpt lat="39.571914039552212" lon="2.359707998111844">
<ele>169</ele>
</trkpt>
<trkpt lat="39.571922002360225" lon="2.359553016722202">
<ele>169</ele>
</trkpt>
<trkpt lat="39.571891995146871" lon="2.35939702950418">
<ele>168</ele>
</trkpt>
<trkpt lat="39.571771966293454" lon="2.359300972893834">
<ele>168</ele>
</trkpt>
<trkpt lat="39.571736007928848" lon="2.359203994274139">
<ele>168</ele>
</trkpt>
<trkpt lat="39.571784036234021" lon="2.359127970412374">
<ele>166</ele>
</trkpt>
<trkpt lat="39.571841033175588" lon="2.358997967094183">
<ele>164</ele>
</trkpt>
<trkpt lat="39.571809014305472" lon="2.358836028724909">
<ele>161</ele>
</trkpt>
<trkpt lat="39.571772972121835" lon="2.3586689773947">
<ele>159</ele>
</trkpt>
<trkpt lat="39.571744976565242" lon="2.358544003218412">
<ele>157</ele>
</trkpt>
<trkpt lat="39.571723015978932" lon="2.358479965478182">
<ele>155</ele>
</trkpt>
<trkpt lat="39.571650009602308" lon="2.358468985185027">
<ele>153</ele>
</trkpt>
<trkpt lat="39.5715899951756" lon="2.358398996293545">
<ele>150</ele>
</trkpt>
<trkpt lat="39.571575997397304" lon="2.358336970210075">
<ele>148</ele>
</trkpt>
<trkpt lat="39.571592006832361" lon="2.358263041824102">
<ele>146</ele>
</trkpt>
<trkpt lat="39.571520006284118" lon="2.358165979385376">
<ele>144</ele>
</trkpt>
<trkpt lat="39.571517994627357" lon="2.358167991042137">
<ele>142</ele>
</trkpt>
<trkpt lat="39.571471977978945" lon="2.358142007142305">
<ele>140</ele>
</trkpt>
<trkpt lat="39.571436019614339" lon="2.358067994937301">
<ele>138</ele>
</trkpt>
<trkpt lat="39.571380028501153" lon="2.357985014095902">
<ele>136</ele>
</trkpt>
<trkpt lat="39.571350021287799" lon="2.357922988012433">
<ele>134</ele>
</trkpt>
<trkpt lat="39.571302998811007" lon="2.357873031869531">
<ele>132</ele>
</trkpt>
<trkpt lat="39.571280032396317" lon="2.35774302855134">
<ele>130</ele>
</trkpt>
<trkpt lat="39.571284977719188" lon="2.357684019953013">
<ele>128</ele>
</trkpt>
<trkpt lat="39.571265028789639" lon="2.357576983049512">
<ele>126</ele>
</trkpt>
<trkpt lat="39.571235021576285" lon="2.357469024136663">
<ele>123</ele>
</trkpt>
<trkpt lat="39.57118296995759" lon="2.357387971132994">
<ele>121</ele>
</trkpt>
<trkpt lat="39.571120021864772" lon="2.357304990291596">
<ele>118</ele>
</trkpt>
<trkpt lat="39.57105397246778" lon="2.357262996956706">
<ele>115</ele>
</trkpt>
<trkpt lat="39.570970991626382" lon="2.357193008065224">
<ele>112</ele>
</trkpt>
<trkpt lat="39.570935033261776" lon="2.357149003073573">
<ele>110</ele>
</trkpt>
<trkpt lat="39.570915000513196" lon="2.357063004747033">
<ele>107</ele>
</trkpt>
<trkpt lat="39.570915000513196" lon="2.357066022232175">
<ele>104</ele>
</trkpt>
<trkpt lat="39.5710080396384" lon="2.356909029185772">
<ele>102</ele>
</trkpt>
<trkpt lat="39.571035029366612" lon="2.356766033917666">
<ele>99</ele>
</trkpt>
<trkpt lat="39.57111700437963" lon="2.356625972315669">
<ele>98</ele>
</trkpt>
<trkpt lat="39.571210965514183" lon="2.356524970382452">
<ele>97</ele>
</trkpt>
<trkpt lat="39.571312973275781" lon="2.356444001197815">
<ele>96</ele>
</trkpt>
<trkpt lat="39.571416992694139" lon="2.356391027569771">
<ele>95</ele>
</trkpt>
<trkpt lat="39.571563005447388" lon="2.356332018971443">
<ele>94</ele>
</trkpt>
<trkpt lat="39.571697032079101" lon="2.356278039515019">
<ele>92</ele>
</trkpt>
<trkpt lat="39.571795016527176" lon="2.35621701925993">
<ele>91</ele>
</trkpt>
<trkpt lat="39.571883026510477" lon="2.356225987896323">
<ele>90</ele>
</trkpt>
<trkpt lat="39.571883026510477" lon="2.356227999553084">
<ele>89</ele>
</trkpt>
<trkpt lat="39.571977993473411" lon="2.356324978172779">
<ele>88</ele>
</trkpt>
<trkpt lat="39.572031972929835" lon="2.356401002034545">
<ele>87</ele>
</trkpt>
<trkpt lat="39.572082012891769" lon="2.35654198564589">
<ele>86</ele>
</trkpt>
<trkpt lat="39.572102967649698" lon="2.356689004227519">
<ele>85</ele>
</trkpt>
<trkpt lat="39.572117971256375" lon="2.356765028089285">
<ele>84</ele>
</trkpt>
<trkpt lat="39.572117971256375" lon="2.356767961755395">
<ele>83</ele>
</trkpt>
<trkpt lat="39.572164993733168" lon="2.356898970901966">
<ele>82</ele>
</trkpt>
<trkpt lat="39.572259960696101" lon="2.357007013633847">
<ele>81</ele>
</trkpt>
<trkpt lat="39.572342019528151" lon="2.357095023617148">
<ele>80</ele>
</trkpt>
<trkpt lat="39.572437992319465" lon="2.35709703527391">
<ele>79</ele>
</trkpt>
<trkpt lat="39.572501024231315" lon="2.356996033340693">
<ele>78</ele>
</trkpt>
<trkpt lat="39.572575958445668" lon="2.356883967295289">
<ele>76</ele>
</trkpt>
<trkpt lat="39.572681989520788" lon="2.356826970353723">
<ele>74</ele>
</trkpt>
<trkpt lat="39.572817021980882" lon="2.356752036139369">
<ele>72</ele>
</trkpt>
<trkpt lat="39.572884999215603" lon="2.356592025607824">
<ele>70</ele>
</trkpt>
<trkpt lat="39.572889022529125" lon="2.356421034783125">
<ele>68</ele>
</trkpt>
<trkpt lat="39.572993963956833" lon="2.356286002323031">
<ele>66</ele>
</trkpt>
<trkpt lat="39.573145005851984" lon="2.356124985963106">
<ele>64</ele>
</trkpt>
<trkpt lat="39.57315900363028" lon="2.356106964871287">
<ele>62</ele>
</trkpt>
<trkpt lat="39.573274003341794" lon="2.356243003159761">
<ele>60</ele>
</trkpt>
<trkpt lat="39.573385985568166" lon="2.35639002174139">
<ele>58</ele>
</trkpt>
<trkpt lat="39.573551025241613" lon="2.356508038938046">
<ele>57</ele>
</trkpt>
<trkpt lat="39.573551025241613" lon="2.356509966775775">
<ele>55</ele>
</trkpt>
<trkpt lat="39.573693014681339" lon="2.356671988964081">
<ele>54</ele>
</trkpt>
<trkpt lat="39.573801979422569" lon="2.356763016432524">
<ele>52</ele>
</trkpt>
<trkpt lat="39.573948998004198" lon="2.356877010315657">
<ele>51</ele>
</trkpt>
<trkpt lat="39.574108002707362" lon="2.356999972835183">
<ele>50</ele>
</trkpt>
<trkpt lat="39.574242029339075" lon="2.357086976990104">
<ele>48</ele>
</trkpt>
<trkpt lat="39.574331967160106" lon="2.357156965881586">
<ele>47</ele>
</trkpt>
<trkpt lat="39.574470017105341" lon="2.357210023328662">
<ele>45</ele>
</trkpt>
<trkpt lat="39.574557021260262" lon="2.357256039977074">
<ele>44</ele>
</trkpt>
<trkpt lat="39.574716025963426" lon="2.357369028031826">
<ele>43</ele>
</trkpt>
<trkpt lat="39.574716025963426" lon="2.357372967526317">
<ele>42</ele>
</trkpt>
<trkpt lat="39.574880981817842" lon="2.357473969459534">
<ele>41</ele>
</trkpt>
<trkpt lat="39.574994975700974" lon="2.357532978057861">
<ele>40</ele>
</trkpt>
<trkpt lat="39.57513302564621" lon="2.357602966949344">
<ele>39</ele>
</trkpt>
<trkpt lat="39.57526596263051" lon="2.357631968334317">
<ele>38</ele>
</trkpt>
<trkpt lat="39.575375011190772" lon="2.357611013576388">
<ele>37</ele>
</trkpt>
<trkpt lat="39.575483975932002" lon="2.357587041333318">
<ele>36</ele>
</trkpt>
<trkpt lat="39.575610961765051" lon="2.35757002606988">
<ele>35</ele>
</trkpt>
<trkpt lat="39.575698971748352" lon="2.357547981664538">
<ele>34</ele>
</trkpt>
<trkpt lat="39.575786981731653" lon="2.35746500082314">
<ele>34</ele>
</trkpt>
<trkpt lat="39.575863005593419" lon="2.357486039400101">
<ele>35</ele>
</trkpt>
<trkpt lat="39.57597398199141" lon="2.357473969459534">
<ele>35</ele>
</trkpt>
<trkpt lat="39.576013963669538" lon="2.357363998889923">
<ele>35</ele>
</trkpt>
<trkpt lat="39.576111026108265" lon="2.357201976701617">
<ele>36</ele>
</trkpt>
<trkpt lat="39.576175985857844" lon="2.357020005583763">
<ele>36</ele>
</trkpt>
<trkpt lat="39.576244968920946" lon="2.356854965910316">
<ele>36</ele>
</trkpt>
<trkpt lat="39.576280005276203" lon="2.356750024482608">
<ele>36</ele>
</trkpt>
<trkpt lat="39.576210016384721" lon="2.35664701089263">
<ele>37</ele>
</trkpt>
<trkpt lat="39.576132986694574" lon="2.356504015624523">
<ele>37</ele>
</trkpt>
<trkpt lat="39.576047994196415" lon="2.356344005092979">
<ele>36</ele>
</trkpt>
<trkpt lat="39.575964007526636" lon="2.356204027310014">
<ele>35</ele>
</trkpt>
<trkpt lat="39.575880020856857" lon="2.356038987636566">
<ele>34</ele>
</trkpt>
<trkpt lat="39.575782958418131" lon="2.355890041217208">
<ele>33</ele>
</trkpt>
<trkpt lat="39.575691008940339" lon="2.355728019028902">
<ele>32</ele>
</trkpt>
<trkpt lat="39.575609033927321" lon="2.355560967698693">
<ele>31</ele>
</trkpt>
<trkpt lat="39.57560702227056" lon="2.35540296882391">
<ele>30</ele>
</trkpt>
<trkpt lat="39.575592018663883" lon="2.355265002697706">
<ele>29</ele>
</trkpt>
<trkpt lat="39.575570980086923" lon="2.355128964409232">
<ele>28</ele>
</trkpt>
<trkpt lat="39.575503002852201" lon="2.354934001341462">
<ele>27</ele>
</trkpt>
<trkpt lat="39.575462015345693" lon="2.354803998023272">
<ele>26</ele>
</trkpt>
<trkpt lat="39.575336035341024" lon="2.354654967784882">
<ele>25</ele>
</trkpt>
<trkpt lat="39.575225980952382" lon="2.354527981951833">
<ele>24</ele>
</trkpt>
<trkpt lat="39.575074017047882" lon="2.354428991675377">
<ele>23</ele>
</trkpt>
<trkpt lat="39.574903026223183" lon="2.35430896282196">
<ele>22</ele>
</trkpt>
<trkpt lat="39.574724994599819" lon="2.35419899225235">
<ele>20</ele>
</trkpt>
<trkpt lat="39.574603037908673" lon="2.354095978662372">
<ele>19</ele>
</trkpt>
<trkpt lat="39.574562972411513" lon="2.354040993377566">
<ele>18</ele>
</trkpt>
<trkpt lat="39.574586022645235" lon="2.353926999494433">
<ele>17</ele>
</trkpt>
<trkpt lat="39.574605971574783" lon="2.35376900061965">
<ele>16</ele>
</trkpt>
<trkpt lat="39.574590967968106" lon="2.353572025895119">
<ele>16</ele>
</trkpt>
<trkpt lat="39.574573030695319" lon="2.353387037292123">
<ele>16</ele>
</trkpt>
<trkpt lat="39.574631033465266" lon="2.353261979296804">
<ele>16</ele>
</trkpt>
<trkpt lat="39.574744021520019" lon="2.353176986798644">
<ele>16</ele>
</trkpt>
<trkpt lat="39.574859021231532" lon="2.353166006505489">
<ele>16</ele>
</trkpt>
<trkpt lat="39.575033029541373" lon="2.353225015103817">
<ele>16</ele>
</trkpt>
<trkpt lat="39.57519999705255" lon="2.353368010371923">
<ele>16</ele>
</trkpt>
<trkpt lat="39.575333017855883" lon="2.353492984548211">
<ele>16</ele>
</trkpt>
<trkpt lat="39.575469978153706" lon="2.353606978431344">
<ele>16</ele>
</trkpt>
<trkpt lat="39.575754962861538" lon="2.353891963139176">
<ele>16</ele>
</trkpt>
<trkpt lat="39.576042965054512" lon="2.354106036946178">
<ele>16</ele>
</trkpt>
<trkpt lat="39.576158970594406" lon="2.354292031377554">
<ele>15</ele>
</trkpt>
<trkpt lat="39.576155031099916" lon="2.35447802580893">
<ele>14</ele>
</trkpt>
<trkpt lat="39.576114965602756" lon="2.354713976383209">
<ele>14</ele>
</trkpt>
<trkpt lat="39.576073978096247" lon="2.354978006333113">
<ele>14</ele>
</trkpt>
<trkpt lat="39.576065009459853" lon="2.355125024914742">
<ele>13</ele>
</trkpt>
<trkpt lat="39.576163999736309" lon="2.355218986049295">
<ele>12</ele>
</trkpt>
<trkpt lat="39.576411014422774" lon="2.355157965794206">
<ele>12</ele>
</trkpt>
<trkpt lat="39.576613018289208" lon="2.355130976065993">
<ele>12</ele>
</trkpt>
<trkpt lat="39.576770011335611" lon="2.355130976065993">
<ele>11</ele>
</trkpt>
<trkpt lat="39.576837988570333" lon="2.355124019086361">
<ele>10</ele>
</trkpt>
<trkpt lat="39.576968997716904" lon="2.355003990232945">
<ele>10</ele>
</trkpt>
<trkpt lat="39.577091038227081" lon="2.354860994964838">
<ele>9</ele>
</trkpt>
<trkpt lat="39.577198997139931" lon="2.354754041880369">
<ele>8</ele>
</trkpt>
<trkpt lat="39.577318020164967" lon="2.354625966399908">
<ele>8</ele>
</trkpt>
<trkpt lat="39.577428996562958" lon="2.354527981951833">
<ele>7</ele>
</trkpt>
<trkpt lat="39.57751901820302" lon="2.354472996667028">
<ele>6</ele>
</trkpt>
<trkpt lat="39.57756201736629" lon="2.354449024423957">
<ele>5</ele>
</trkpt>
<trkpt lat="39.577728984877467" lon="2.354422034695745">
<ele>5</ele>
</trkpt>
<trkpt lat="39.577872985973954" lon="2.354397978633642">
<ele>4</ele>
</trkpt>
<trkpt lat="39.577950015664101" lon="2.354386998340488">
<ele>3</ele>
</trkpt>
<trkpt lat="39.577987985685468" lon="2.354374006390572">
<ele>3</ele>
</trkpt>
<trkpt lat="39.578005000948906" lon="2.354333018884063">
<ele>2</ele>
</trkpt>
</trkseg>
</trk>
</gpx>
