<?xml version="1.0" encoding="UTF-8"?>
<gpx version="1.1"
creator="Smartprofil-Office - http://www.rother.de"
xmlns:xsi="http://www.w3.org/2001/XMLSchema-instance"
xmlns="http://www.topografix.com/GPX/1/1"
xsi:schemaLocation="http://www.topografix.com/GPX/1/1 http://www.topografix.com/GPX/1/1/gpx.xsd">
<metadata>

<bounds minlat="39.816076029092073" minlon="2.884478000923991" maxlat="39.842910021543503" maxlon="2.912298962473869"/>
</metadata>
<wpt lat="39.82053997926414" lon="2.884624013677239">
<ele>480</ele>
<name>41_Lluc (1)</name>
<cmt></cmt>
<desc></desc>
<sym>Crossing</sym>
</wpt>

<wpt lat="39.818571992218494" lon="2.891665985807777">
<ele>545</ele>
<name>41_Refugi de Son Amer (2)</name>
<cmt></cmt>
<desc></desc>
<sym>Crossing</sym>
</wpt>

<wpt lat="39.819030985236168" lon="2.902831016108394">
<ele>591</ele>
<name>41_S'Ermita Son Amer (3)</name>
<cmt></cmt>
<desc></desc>
<sym>Crossing</sym>
</wpt>

<wpt lat="39.821461988613009" lon="2.9014060087502">
<ele>664</ele>
<name>41_Mirador (4)</name>
<cmt></cmt>
<desc></desc>
<sym>Crossing</sym>
</wpt>

<wpt lat="39.822037992998958" lon="2.904418967664242">
<ele>686</ele>
<name>41_Coll Pelat (5)</name>
<cmt></cmt>
<desc></desc>
<sym>Crossing</sym>
</wpt>

<wpt lat="39.833973990753293" lon="2.912298962473869">
<ele>650</ele>
<name>41_Coll des Pedregaret (6)</name>
<cmt></cmt>
<desc></desc>
<sym>Crossing</sym>
</wpt>

<wpt lat="39.838924007490277" lon="2.908916026353836">
<ele>580</ele>
<name>41_Binifaldó (7)</name>
<cmt></cmt>
<desc></desc>
<sym>Crossing</sym>
</wpt>

<wpt lat="39.841894051060081" lon="2.902672179043293">
<ele>514</ele>
<name>41_Refugi de sa Coma (8)</name>
<cmt></cmt>
<desc></desc>
<sym>Crossing</sym>
</wpt>

<wpt lat="39.8364810179919" lon="2.897235006093979">
<ele>537</ele>
<name>41_Menut (9)</name>
<cmt></cmt>
<desc></desc>
<sym>Crossing</sym>
</wpt>

<wpt lat="39.833619855344296" lon="2.895368523895741">
<ele>542</ele>
<name>41_Es Pixarells (10)</name>
<cmt></cmt>
<desc></desc>
<sym>Crossing</sym>
</wpt>

<wpt lat="39.823692999780178" lon="2.890523029491305">
<ele>501</ele>
<name>41_Camell (11)</name>
<cmt></cmt>
<desc></desc>
<sym>Crossing</sym>
</wpt>

<trk>
<name>Mal_41_Lluc</name>
<trkseg>
<trkpt lat="39.82053997926414" lon="2.884624013677239">
<ele>480</ele>
</trkpt>
<trkpt lat="39.82053997926414" lon="2.884624013677239">
<ele>480</ele>
</trkpt>
<trkpt lat="39.82053997926414" lon="2.884622002020478">
<ele>480</ele>
</trkpt>
<trkpt lat="39.82053997926414" lon="2.884622002020478">
<ele>479</ele>
</trkpt>
<trkpt lat="39.820722034201026" lon="2.884702971205115">
<ele>479</ele>
</trkpt>
<trkpt lat="39.82079797424376" lon="2.884768014773727">
<ele>479</ele>
</trkpt>
<trkpt lat="39.820800991728902" lon="2.884782012552023">
<ele>479</ele>
</trkpt>
<trkpt lat="39.820844996720552" lon="2.884945962578058">
<ele>479</ele>
</trkpt>
<trkpt lat="39.820920014753938" lon="2.885166993364692">
<ele>478</ele>
</trkpt>
<trkpt lat="39.820992015302181" lon="2.88533303886652">
<ele>478</ele>
</trkpt>
<trkpt lat="39.821082036942244" lon="2.885515009984374">
<ele>478</ele>
</trkpt>
<trkpt lat="39.821165017783642" lon="2.885654987767339">
<ele>478</ele>
</trkpt>
<trkpt lat="39.821186978369951" lon="2.885694969445467">
<ele>478</ele>
</trkpt>
<trkpt lat="39.821249004453421" lon="2.885843999683857">
<ele>477</ele>
</trkpt>
<trkpt lat="39.821282029151917" lon="2.885903008282185">
<ele>477</ele>
</trkpt>
<trkpt lat="39.821349000558257" lon="2.886051032692194">
<ele>477</ele>
</trkpt>
<trkpt lat="39.821409014984965" lon="2.886176006868482">
<ele>477</ele>
</trkpt>
<trkpt lat="39.821431981399655" lon="2.886226968839765">
<ele>477</ele>
</trkpt>
<trkpt lat="39.821544969454408" lon="2.886455040425062">
<ele>476</ele>
</trkpt>
<trkpt lat="39.821557039394975" lon="2.886489992961288">
<ele>476</ele>
</trkpt>
<trkpt lat="39.821670027449727" lon="2.886738013476133">
<ele>476</ele>
</trkpt>
<trkpt lat="39.821754014119506" lon="2.886872040107846">
<ele>476</ele>
</trkpt>
<trkpt lat="39.821770023554564" lon="2.886901963502169">
<ele>476</ele>
</trkpt>
<trkpt lat="39.821822997182608" lon="2.887070020660758">
<ele>476</ele>
</trkpt>
<trkpt lat="39.821792989969254" lon="2.887129029259086">
<ele>476</ele>
</trkpt>
<trkpt lat="39.821742027997971" lon="2.887230031192303">
<ele>476</ele>
</trkpt>
<trkpt lat="39.821733981370926" lon="2.887243023142219">
<ele>477</ele>
</trkpt>
<trkpt lat="39.821590986102819" lon="2.887486014515162">
<ele>477</ele>
</trkpt>
<trkpt lat="39.821581011638045" lon="2.887511998414993">
<ele>477</ele>
</trkpt>
<trkpt lat="39.821499958634377" lon="2.887726994231343">
<ele>477</ele>
</trkpt>
<trkpt lat="39.821472968906164" lon="2.88778499700129">
<ele>477</ele>
</trkpt>
<trkpt lat="39.821410020813346" lon="2.887931009754539">
<ele>477</ele>
</trkpt>
<trkpt lat="39.821330979466438" lon="2.888134019449353">
<ele>478</ele>
</trkpt>
<trkpt lat="39.821253027766943" lon="2.888324959203601">
<ele>478</ele>
</trkpt>
<trkpt lat="39.821149008348584" lon="2.888505002483726">
<ele>478</ele>
</trkpt>
<trkpt lat="39.821107015013695" lon="2.888567028567195">
<ele>478</ele>
</trkpt>
<trkpt lat="39.820983968675137" lon="2.888748999685049">
<ele>479</ele>
</trkpt>
<trkpt lat="39.820939041674137" lon="2.888829968869686">
<ele>479</ele>
</trkpt>
<trkpt lat="39.820789005607367" lon="2.88903096690774">
<ele>479</ele>
</trkpt>
<trkpt lat="39.820765033364296" lon="2.889064997434616">
<ele>480</ele>
</trkpt>
<trkpt lat="39.820665037259459" lon="2.889221990481019">
<ele>480</ele>
</trkpt>
<trkpt lat="39.820612985640764" lon="2.889313017949462">
<ele>481</ele>
</trkpt>
<trkpt lat="39.820507960394025" lon="2.889463976025581">
<ele>481</ele>
</trkpt>
<trkpt lat="39.820412993431091" lon="2.889551986008883">
<ele>482</ele>
</trkpt>
<trkpt lat="39.820389021188021" lon="2.889569001272321">
<ele>482</ele>
</trkpt>
<trkpt lat="39.820304028689861" lon="2.889634966850281">
<ele>483</ele>
</trkpt>
<trkpt lat="39.820277960970998" lon="2.88967302069068">
<ele>484</ele>
</trkpt>
<trkpt lat="39.820107975974679" lon="2.889869995415211">
<ele>484</ele>
</trkpt>
<trkpt lat="39.820047961547971" lon="2.889956999570131">
<ele>485</ele>
</trkpt>
<trkpt lat="39.819991970434785" lon="2.890032017603517">
<ele>485</ele>
</trkpt>
<trkpt lat="39.819833971560001" lon="2.890203008428216">
<ele>486</ele>
</trkpt>
<trkpt lat="39.819741016253829" lon="2.890288000926375">
<ele>487</ele>
</trkpt>
<trkpt lat="39.819612018764019" lon="2.890420015901327">
<ele>489</ele>
</trkpt>
<trkpt lat="39.819518979638815" lon="2.890497967600822">
<ele>490</ele>
</trkpt>
<trkpt lat="39.819447984918952" lon="2.890620008111">
<ele>492</ele>
</trkpt>
<trkpt lat="39.819395011290908" lon="2.890688991174102">
<ele>493</ele>
</trkpt>
<trkpt lat="39.819328039884567" lon="2.890884038060904">
<ele>494</ele>
</trkpt>
<trkpt lat="39.8193349968642" lon="2.890940029174089">
<ele>496</ele>
</trkpt>
<trkpt lat="39.819333991035819" lon="2.890961989760399">
<ele>497</ele>
</trkpt>
<trkpt lat="39.819333991035819" lon="2.890961989760399">
<ele>499</ele>
</trkpt>
<trkpt lat="39.819411020725965" lon="2.891155024990439">
<ele>500</ele>
</trkpt>
<trkpt lat="39.819449996575713" lon="2.891258038580418">
<ele>502</ele>
</trkpt>
<trkpt lat="39.819433987140656" lon="2.891289973631501">
<ele>503</ele>
</trkpt>
<trkpt lat="39.819347988814116" lon="2.891382006928325">
<ele>505</ele>
</trkpt>
<trkpt lat="39.819284034892917" lon="2.891388963907957">
<ele>506</ele>
</trkpt>
<trkpt lat="39.819117989391088" lon="2.89137102663517">
<ele>508</ele>
</trkpt>
<trkpt lat="39.819043977186084" lon="2.891334984451532">
<ele>510</ele>
</trkpt>
<trkpt lat="39.818809032440186" lon="2.89124496281147">
<ele>511</ele>
</trkpt>
<trkpt lat="39.81877600774169" lon="2.891248986124992">
<ele>513</ele>
</trkpt>
<trkpt lat="39.818796962499619" lon="2.891301037743688">
<ele>514</ele>
</trkpt>
<trkpt lat="39.818869968876243" lon="2.891376977786422">
<ele>516</ele>
</trkpt>
<trkpt lat="39.818908022716641" lon="2.891411008313298">
<ele>518</ele>
</trkpt>
<trkpt lat="39.818958984687924" lon="2.891621980816126">
<ele>519</ele>
</trkpt>
<trkpt lat="39.818965019658208" lon="2.891646036878228">
<ele>521</ele>
</trkpt>
<trkpt lat="39.818987986072898" lon="2.891755001619458">
<ele>523</ele>
</trkpt>
<trkpt lat="39.818953033536673" lon="2.891743015497923">
<ele>524</ele>
</trkpt>
<trkpt lat="39.818943981081247" lon="2.891702027991414">
<ele>526</ele>
</trkpt>
<trkpt lat="39.818880027160048" lon="2.891622986644507">
<ele>528</ele>
</trkpt>
<trkpt lat="39.818815989419818" lon="2.891568001359701">
<ele>530</ele>
</trkpt>
<trkpt lat="39.818873992189765" lon="2.891718037426472">
<ele>531</ele>
</trkpt>
<trkpt lat="39.818879021331668" lon="2.891811998561025">
<ele>533</ele>
</trkpt>
<trkpt lat="39.818769972771406" lon="2.891756007447839">
<ele>535</ele>
</trkpt>
<trkpt lat="39.818663019686937" lon="2.891644025221467">
<ele>538</ele>
</trkpt>
<trkpt lat="39.818600993603468" lon="2.891615023836494">
<ele>540</ele>
</trkpt>
<trkpt lat="39.818576015532017" lon="2.891665985807777">
<ele>543</ele>
</trkpt>
<trkpt lat="39.818571992218494" lon="2.891665985807777">
<ele>545</ele>
</trkpt>
<trkpt lat="39.818575009703636" lon="2.891667997464538">
<ele>544</ele>
</trkpt>
<trkpt lat="39.818574003875256" lon="2.891674032434821">
<ele>543</ele>
</trkpt>
<trkpt lat="39.818572998046875" lon="2.891681995242834">
<ele>542</ele>
</trkpt>
<trkpt lat="39.818517006933689" lon="2.891915012151003">
<ele>541</ele>
</trkpt>
<trkpt lat="39.818557994440198" lon="2.891988018527627">
<ele>540</ele>
</trkpt>
<trkpt lat="39.8184750135988" lon="2.89199598133564">
<ele>539</ele>
</trkpt>
<trkpt lat="39.818370994180441" lon="2.891990030184388">
<ele>538</ele>
</trkpt>
<trkpt lat="39.818221963942051" lon="2.891943007707596">
<ele>537</ele>
</trkpt>
<trkpt lat="39.81802498921752" lon="2.891882993280888">
<ele>536</ele>
</trkpt>
<trkpt lat="39.817972015589476" lon="2.891874024644494">
<ele>535</ele>
</trkpt>
<trkpt lat="39.817875036969781" lon="2.891895985230804">
<ele>534</ele>
</trkpt>
<trkpt lat="39.817829020321369" lon="2.891924986615777">
<ele>532</ele>
</trkpt>
<trkpt lat="39.817708991467953" lon="2.892011990770698">
<ele>531</ele>
</trkpt>
<trkpt lat="39.817643025889993" lon="2.892036968842149">
<ele>530</ele>
</trkpt>
<trkpt lat="39.817547975108027" lon="2.892095977440476">
<ele>528</ele>
</trkpt>
<trkpt lat="39.817512016743422" lon="2.892120033502579">
<ele>527</ele>
</trkpt>
<trkpt lat="39.81738100759685" lon="2.892288006842136">
<ele>526</ele>
</trkpt>
<trkpt lat="39.817326022312045" lon="2.892449023202062">
<ele>525</ele>
</trkpt>
<trkpt lat="39.817281011492014" lon="2.892561005428433">
<ele>523</ele>
</trkpt>
<trkpt lat="39.817243963479996" lon="2.892734007909894">
<ele>522</ele>
</trkpt>
<trkpt lat="39.817240023985505" lon="2.892752029001713">
<ele>522</ele>
</trkpt>
<trkpt lat="39.817169029265642" lon="2.892913967370987">
<ele>521</ele>
</trkpt>
<trkpt lat="39.817065009847283" lon="2.893015975132585">
<ele>521</ele>
</trkpt>
<trkpt lat="39.816891001537442" lon="2.892972975969315">
<ele>520</ele>
</trkpt>
<trkpt lat="39.816797962412238" lon="2.892994014546275">
<ele>520</ele>
</trkpt>
<trkpt lat="39.816742977127433" lon="2.893079007044435">
<ele>520</ele>
</trkpt>
<trkpt lat="39.816706012934446" lon="2.893227031454444">
<ele>519</ele>
</trkpt>
<trkpt lat="39.816683968529105" lon="2.89334898814559">
<ele>519</ele>
</trkpt>
<trkpt lat="39.816680029034615" lon="2.893683006986976">
<ele>518</ele>
</trkpt>
<trkpt lat="39.816679023206234" lon="2.893711002543569">
<ele>518</ele>
</trkpt>
<trkpt lat="39.816769966855645" lon="2.893895991146565">
<ele>518</ele>
</trkpt>
<trkpt lat="39.816698972135782" lon="2.894023982807994">
<ele>519</ele>
</trkpt>
<trkpt lat="39.816682962700725" lon="2.894047033041716">
<ele>519</ele>
</trkpt>
<trkpt lat="39.816637029871345" lon="2.894275020807982">
<ele>519</ele>
</trkpt>
<trkpt lat="39.816636024042964" lon="2.894299998879433">
<ele>520</ele>
</trkpt>
<trkpt lat="39.816582966595888" lon="2.89448699913919">
<ele>520</ele>
</trkpt>
<trkpt lat="39.816558994352818" lon="2.894648015499115">
<ele>520</ele>
</trkpt>
<trkpt lat="39.816519012674689" lon="2.89483099244535">
<ele>520</ele>
</trkpt>
<trkpt lat="39.8164770193398" lon="2.894988991320133">
<ele>521</ele>
</trkpt>
<trkpt lat="39.81647802516818" lon="2.8950269613415">
<ele>521</ele>
</trkpt>
<trkpt lat="39.8164579924196" lon="2.895108014345169">
<ele>521</ele>
</trkpt>
<trkpt lat="39.816455980762839" lon="2.895170962437987">
<ele>521</ele>
</trkpt>
<trkpt lat="39.816553965210915" lon="2.895182026550174">
<ele>522</ele>
</trkpt>
<trkpt lat="39.816558994352818" lon="2.895242040976882">
<ele>522</ele>
</trkpt>
<trkpt lat="39.816561006009579" lon="2.895267019048333">
<ele>522</ele>
</trkpt>
<trkpt lat="39.816474001854658" lon="2.8955830167979">
<ele>522</ele>
</trkpt>
<trkpt lat="39.816446006298065" lon="2.895745960995555">
<ele>522</ele>
</trkpt>
<trkpt lat="39.816408036276698" lon="2.895877975970507">
<ele>523</ele>
</trkpt>
<trkpt lat="39.816407030448318" lon="2.895959028974176">
<ele>523</ele>
</trkpt>
<trkpt lat="39.816393032670021" lon="2.896194979548454">
<ele>523</ele>
</trkpt>
<trkpt lat="39.816403007134795" lon="2.89624703116715">
<ele>524</ele>
</trkpt>
<trkpt lat="39.816402001306415" lon="2.896304028108716">
<ele>524</ele>
</trkpt>
<trkpt lat="39.816410969942808" lon="2.896450962871313">
<ele>525</ele>
</trkpt>
<trkpt lat="39.816374005749822" lon="2.896493040025234">
<ele>526</ele>
</trkpt>
<trkpt lat="39.816293036565185" lon="2.896709041669965">
<ele>526</ele>
</trkpt>
<trkpt lat="39.816276021301746" lon="2.896747011691332">
<ele>527</ele>
</trkpt>
<trkpt lat="39.816202009096742" lon="2.896925965324044">
<ele>528</ele>
</trkpt>
<trkpt lat="39.81617703102529" lon="2.896977011114359">
<ele>529</ele>
</trkpt>
<trkpt lat="39.816110981628299" lon="2.897178009152412">
<ele>529</ele>
</trkpt>
<trkpt lat="39.816100001335144" lon="2.897241963073611">
<ele>530</ele>
</trkpt>
<trkpt lat="39.816105030477047" lon="2.897450001910329">
<ele>531</ele>
</trkpt>
<trkpt lat="39.816103018820286" lon="2.897471962496638">
<ele>531</ele>
</trkpt>
<trkpt lat="39.816105030477047" lon="2.897536000236869">
<ele>532</ele>
</trkpt>
<trkpt lat="39.816087009385228" lon="2.897674972191453">
<ele>532</ele>
</trkpt>
<trkpt lat="39.816076029092073" lon="2.897699028253555">
<ele>533</ele>
</trkpt>
<trkpt lat="39.816108969971538" lon="2.897825008258224">
<ele>534</ele>
</trkpt>
<trkpt lat="39.816116010770202" lon="2.897850992158055">
<ele>534</ele>
</trkpt>
<trkpt lat="39.816131014376879" lon="2.898015026003122">
<ele>535</ele>
</trkpt>
<trkpt lat="39.816113999113441" lon="2.898200014606118">
<ele>535</ele>
</trkpt>
<trkpt lat="39.816116010770202" lon="2.898242007941008">
<ele>536</ele>
</trkpt>
<trkpt lat="39.816106036305428" lon="2.898295987397432">
<ele>537</ele>
</trkpt>
<trkpt lat="39.816126991063356" lon="2.898314008489251">
<ele>537</ele>
</trkpt>
<trkpt lat="39.816140988841653" lon="2.898330017924309">
<ele>538</ele>
</trkpt>
<trkpt lat="39.816095978021622" lon="2.898546019569039">
<ele>539</ele>
</trkpt>
<trkpt lat="39.816078040748835" lon="2.898649033159018">
<ele>540</ele>
</trkpt>
<trkpt lat="39.81609103269875" lon="2.898889007046819">
<ele>540</ele>
</trkpt>
<trkpt lat="39.816101007163525" lon="2.898947009816766">
<ele>541</ele>
</trkpt>
<trkpt lat="39.816178036853671" lon="2.899195030331612">
<ele>542</ele>
</trkpt>
<trkpt lat="39.816167978569865" lon="2.899270970374346">
<ele>542</ele>
</trkpt>
<trkpt lat="39.816248025745153" lon="2.899402985349298">
<ele>543</ele>
</trkpt>
<trkpt lat="39.816281972452998" lon="2.899458976462483">
<ele>544</ele>
</trkpt>
<trkpt lat="39.816333018243313" lon="2.899570958688855">
<ele>545</ele>
</trkpt>
<trkpt lat="39.816382974386215" lon="2.899749996140599">
<ele>546</ele>
</trkpt>
<trkpt lat="39.816450029611588" lon="2.899891985580325">
<ele>547</ele>
</trkpt>
<trkpt lat="39.816514989361167" lon="2.900001034140587">
<ele>548</ele>
</trkpt>
<trkpt lat="39.816517001017928" lon="2.900047972798348">
<ele>550</ele>
</trkpt>
<trkpt lat="39.816594030708075" lon="2.900175964459777">
<ele>551</ele>
</trkpt>
<trkpt lat="39.8166289832443" lon="2.900213012471795">
<ele>552</ele>
</trkpt>
<trkpt lat="39.816755969077349" lon="2.900399006903172">
<ele>553</ele>
</trkpt>
<trkpt lat="39.816682040691376" lon="2.900403030216694">
<ele>554</ele>
</trkpt>
<trkpt lat="39.816659996286035" lon="2.900680974125862">
<ele>555</ele>
</trkpt>
<trkpt lat="39.816661002114415" lon="2.900716010481119">
<ele>556</ele>
</trkpt>
<trkpt lat="39.816731996834278" lon="2.900837967172265">
<ele>558</ele>
</trkpt>
<trkpt lat="39.81675798073411" lon="2.900935029610992">
<ele>559</ele>
</trkpt>
<trkpt lat="39.816699977964163" lon="2.900927988812327">
<ele>560</ele>
</trkpt>
<trkpt lat="39.816682962700725" lon="2.900925977155566">
<ele>561</ele>
</trkpt>
<trkpt lat="39.816862000152469" lon="2.90119101293385">
<ele>562</ele>
</trkpt>
<trkpt lat="39.8168879840523" lon="2.90127701126039">
<ele>564</ele>
</trkpt>
<trkpt lat="39.81695001013577" lon="2.90138497017324">
<ele>565</ele>
</trkpt>
<trkpt lat="39.816969959065318" lon="2.901414977386594">
<ele>566</ele>
</trkpt>
<trkpt lat="39.817023016512394" lon="2.901543974876404">
<ele>567</ele>
</trkpt>
<trkpt lat="39.817031985148787" lon="2.901553027331829">
<ele>568</ele>
</trkpt>
<trkpt lat="39.817113038152456" lon="2.901656962931156">
<ele>570</ele>
</trkpt>
<trkpt lat="39.817168023437262" lon="2.901734998449683">
<ele>571</ele>
</trkpt>
<trkpt lat="39.817326022312045" lon="2.901838012039661">
<ele>572</ele>
</trkpt>
<trkpt lat="39.817398022860289" lon="2.901904983446002">
<ele>573</ele>
</trkpt>
<trkpt lat="39.817545963451266" lon="2.9019879642874">
<ele>574</ele>
</trkpt>
<trkpt lat="39.817610001191497" lon="2.902024006471038">
<ele>576</ele>
</trkpt>
<trkpt lat="39.817754002287984" lon="2.902196003124118">
<ele>577</ele>
</trkpt>
<trkpt lat="39.81783396564424" lon="2.902304967865348">
<ele>578</ele>
</trkpt>
<trkpt lat="39.817899009212852" lon="2.902338998392224">
<ele>578</ele>
</trkpt>
<trkpt lat="39.818018032237887" lon="2.902403958141804">
<ele>578</ele>
</trkpt>
<trkpt lat="39.818106964230537" lon="2.902488028630614">
<ele>579</ele>
</trkpt>
<trkpt lat="39.818191034719348" lon="2.902578972280026">
<ele>579</ele>
</trkpt>
<trkpt lat="39.818305028602481" lon="2.90267301723361">
<ele>579</ele>
</trkpt>
<trkpt lat="39.818330006673932" lon="2.902681985870004">
<ele>579</ele>
</trkpt>
<trkpt lat="39.818480964750051" lon="2.902689026668668">
<ele>579</ele>
</trkpt>
<trkpt lat="39.818687997758389" lon="2.902638986706734">
<ele>580</ele>
</trkpt>
<trkpt lat="39.81879897415638" lon="2.902576038613915">
<ele>580</ele>
</trkpt>
<trkpt lat="39.818911962211132" lon="2.902515018358827">
<ele>580</ele>
</trkpt>
<trkpt lat="39.818911962211132" lon="2.902515018358827">
<ele>581</ele>
</trkpt>
<trkpt lat="39.819009024649858" lon="2.902349978685379">
<ele>582</ele>
</trkpt>
<trkpt lat="39.819155959412456" lon="2.902280995622277">
<ele>584</ele>
</trkpt>
<trkpt lat="39.819128969684243" lon="2.902367999777198">
<ele>585</ele>
</trkpt>
<trkpt lat="39.819124024361372" lon="2.902488028630614">
<ele>586</ele>
</trkpt>
<trkpt lat="39.819126036018133" lon="2.902579978108406">
<ele>587</ele>
</trkpt>
<trkpt lat="39.81905797496438" lon="2.902753986418247">
<ele>589</ele>
</trkpt>
<trkpt lat="39.819043977186084" lon="2.902809977531433">
<ele>590</ele>
</trkpt>
<trkpt lat="39.819030985236168" lon="2.902831016108394">
<ele>591</ele>
</trkpt>
<trkpt lat="39.819030985236168" lon="2.902831016108394">
<ele>592</ele>
</trkpt>
<trkpt lat="39.819030985236168" lon="2.902831016108394">
<ele>592</ele>
</trkpt>
<trkpt lat="39.819030985236168" lon="2.902831016108394">
<ele>593</ele>
</trkpt>
<trkpt lat="39.819010030478239" lon="2.90295297279954">
<ele>594</ele>
</trkpt>
<trkpt lat="39.81897197663784" lon="2.90310200303793">
<ele>594</ele>
</trkpt>
<trkpt lat="39.818937024101615" lon="2.90323200635612">
<ele>595</ele>
</trkpt>
<trkpt lat="39.81883903965354" lon="2.903287997469306">
<ele>596</ele>
</trkpt>
<trkpt lat="39.818701995536685" lon="2.903362009674311">
<ele>597</ele>
</trkpt>
<trkpt lat="39.818634018301964" lon="2.903390005230904">
<ele>597</ele>
</trkpt>
<trkpt lat="39.818505020812154" lon="2.90342403575778">
<ele>598</ele>
</trkpt>
<trkpt lat="39.818407958373427" lon="2.903464017435908">
<ele>600</ele>
</trkpt>
<trkpt lat="39.818399995565414" lon="2.903564013540745">
<ele>602</ele>
</trkpt>
<trkpt lat="39.818419022485614" lon="2.903603995218873">
<ele>603</ele>
</trkpt>
<trkpt lat="39.818491023033857" lon="2.903707008808851">
<ele>605</ele>
</trkpt>
<trkpt lat="39.818591019138694" lon="2.903784960508347">
<ele>607</ele>
</trkpt>
<trkpt lat="39.818718004971743" lon="2.903827037662268">
<ele>609</ele>
</trkpt>
<trkpt lat="39.818812971934676" lon="2.903904989361763">
<ele>611</ele>
</trkpt>
<trkpt lat="39.818888995796442" lon="2.903968021273613">
<ele>612</ele>
</trkpt>
<trkpt lat="39.818984968587756" lon="2.904009008780122">
<ele>614</ele>
</trkpt>
<trkpt lat="39.819136010482907" lon="2.904043961316347">
<ele>616</ele>
</trkpt>
<trkpt lat="39.819194013252854" lon="2.904033986851573">
<ele>618</ele>
</trkpt>
<trkpt lat="39.819311024621129" lon="2.903957962989807">
<ele>620</ele>
</trkpt>
<trkpt lat="39.81940196827054" lon="2.903898032382131">
<ele>622</ele>
</trkpt>
<trkpt lat="39.819473968818784" lon="2.90385696105659">
<ele>624</ele>
</trkpt>
<trkpt lat="39.819572037085891" lon="2.903842963278294">
<ele>626</ele>
</trkpt>
<trkpt lat="39.819606989622116" lon="2.903828965499997">
<ele>629</ele>
</trkpt>
<trkpt lat="39.819757025688887" lon="2.903842041268945">
<ele>631</ele>
</trkpt>
<trkpt lat="39.81982802040875" lon="2.903870036825538">
<ele>633</ele>
</trkpt>
<trkpt lat="39.820002028718591" lon="2.904000040143728">
<ele>635</ele>
</trkpt>
<trkpt lat="39.820076962932944" lon="2.904009008780122">
<ele>637</ele>
</trkpt>
<trkpt lat="39.820253988727927" lon="2.904033986851573">
<ele>639</ele>
</trkpt>
<trkpt lat="39.820438977330923" lon="2.904034992679954">
<ele>641</ele>
</trkpt>
<trkpt lat="39.820520030334592" lon="2.904022000730038">
<ele>642</ele>
</trkpt>
<trkpt lat="39.820612985640764" lon="2.90402602404356">
<ele>644</ele>
</trkpt>
<trkpt lat="39.82071097008884" lon="2.904033986851573">
<ele>646</ele>
</trkpt>
<trkpt lat="39.820758998394012" lon="2.90400599129498">
<ele>648</ele>
</trkpt>
<trkpt lat="39.820878021419048" lon="2.903959974646568">
<ele>650</ele>
</trkpt>
<trkpt lat="39.820963013917208" lon="2.903916975483298">
<ele>651</ele>
</trkpt>
<trkpt lat="39.821068039163947" lon="2.903802981600165">
<ele>653</ele>
</trkpt>
<trkpt lat="39.821148002520204" lon="2.903702985495329">
<ele>655</ele>
</trkpt>
<trkpt lat="39.821234000846744" lon="2.903620004653931">
<ele>656</ele>
</trkpt>
<trkpt lat="39.821280017495155" lon="2.903476003557444">
<ele>656</ele>
</trkpt>
<trkpt lat="39.821279011666775" lon="2.903459994122386">
<ele>657</ele>
</trkpt>
<trkpt lat="39.821243975311518" lon="2.90325497277081">
<ele>658</ele>
</trkpt>
<trkpt lat="39.821243975311518" lon="2.903148019686341">
<ele>658</ele>
</trkpt>
<trkpt lat="39.821226960048079" lon="2.902994966134429">
<ele>659</ele>
</trkpt>
<trkpt lat="39.821249004453421" lon="2.902886001393199">
<ele>660</ele>
</trkpt>
<trkpt lat="39.821272976696491" lon="2.902748035266995">
<ele>661</ele>
</trkpt>
<trkpt lat="39.821294015273452" lon="2.902604034170508">
<ele>661</ele>
</trkpt>
<trkpt lat="39.821298960596323" lon="2.902462966740131">
<ele>662</ele>
</trkpt>
<trkpt lat="39.821341959759593" lon="2.902360036969185">
<ele>662</ele>
</trkpt>
<trkpt lat="39.821343971416354" lon="2.902343021705747">
<ele>662</ele>
</trkpt>
<trkpt lat="39.821370961144567" lon="2.902159038931131">
<ele>662</ele>
</trkpt>
<trkpt lat="39.821360986679792" lon="2.902057031169534">
<ele>663</ele>
</trkpt>
<trkpt lat="39.821336008608341" lon="2.901888974010944">
<ele>663</ele>
</trkpt>
<trkpt lat="39.821337014436722" lon="2.90176902897656">
<ele>663</ele>
</trkpt>
<trkpt lat="39.821342965587974" lon="2.901632990688086">
<ele>663</ele>
</trkpt>
<trkpt lat="39.82135696336627" lon="2.901616981253028">
<ele>663</ele>
</trkpt>
<trkpt lat="39.821430975571275" lon="2.901454959064722">
<ele>664</ele>
</trkpt>
<trkpt lat="39.821443967521191" lon="2.901431992650032">
<ele>664</ele>
</trkpt>
<trkpt lat="39.821461988613009" lon="2.901403997093439">
<ele>664</ele>
</trkpt>
<trkpt lat="39.821461988613009" lon="2.9014060087502">
<ele>664</ele>
</trkpt>
<trkpt lat="39.821461988613009" lon="2.9014060087502">
<ele>664</ele>
</trkpt>
<trkpt lat="39.821461988613009" lon="2.9014060087502">
<ele>665</ele>
</trkpt>
<trkpt lat="39.821459976956248" lon="2.901400979608297">
<ele>665</ele>
</trkpt>
<trkpt lat="39.821380013599992" lon="2.901549004018307">
<ele>666</ele>
</trkpt>
<trkpt lat="39.821357969194651" lon="2.901561995968223">
<ele>666</ele>
</trkpt>
<trkpt lat="39.821352018043399" lon="2.901790989562869">
<ele>666</ele>
</trkpt>
<trkpt lat="39.821346988901496" lon="2.901865001767874">
<ele>667</ele>
</trkpt>
<trkpt lat="39.821366015821695" lon="2.902110004797578">
<ele>667</ele>
</trkpt>
<trkpt lat="39.821370039135218" lon="2.90217999368906">
<ele>668</ele>
</trkpt>
<trkpt lat="39.821341959759593" lon="2.902365988120437">
<ele>668</ele>
</trkpt>
<trkpt lat="39.821298960596323" lon="2.902475036680698">
<ele>668</ele>
</trkpt>
<trkpt lat="39.821286974474788" lon="2.902536978945136">
<ele>669</ele>
</trkpt>
<trkpt lat="39.821272976696491" lon="2.902674023061991">
<ele>669</ele>
</trkpt>
<trkpt lat="39.821240035817027" lon="2.902795979753137">
<ele>670</ele>
</trkpt>
<trkpt lat="39.821232995018363" lon="2.90284400805831">
<ele>670</ele>
</trkpt>
<trkpt lat="39.821206005290151" lon="2.903028996661305">
<ele>670</ele>
</trkpt>
<trkpt lat="39.821198964491487" lon="2.903175009414554">
<ele>671</ele>
</trkpt>
<trkpt lat="39.821222014725208" lon="2.903344994410873">
<ele>671</ele>
</trkpt>
<trkpt lat="39.821223020553589" lon="2.903356980532408">
<ele>672</ele>
</trkpt>
<trkpt lat="39.821345983073115" lon="2.90350902825594">
<ele>672</ele>
</trkpt>
<trkpt lat="39.821416977792978" lon="2.903690999373794">
<ele>673</ele>
</trkpt>
<trkpt lat="39.821412032470107" lon="2.903717989102006">
<ele>675</ele>
</trkpt>
<trkpt lat="39.821396023035049" lon="2.903776997700334">
<ele>676</ele>
</trkpt>
<trkpt lat="39.821457965299487" lon="2.903861990198493">
<ele>677</ele>
</trkpt>
<trkpt lat="39.821524014696479" lon="2.903914041817188">
<ele>678</ele>
</trkpt>
<trkpt lat="39.821658041328192" lon="2.904027029871941">
<ele>680</ele>
</trkpt>
<trkpt lat="39.821735993027687" lon="2.904084026813507">
<ele>681</ele>
</trkpt>
<trkpt lat="39.821830959990621" lon="2.904144041240215">
<ele>682</ele>
</trkpt>
<trkpt lat="39.821899021044374" lon="2.904197014868259">
<ele>683</ele>
</trkpt>
<trkpt lat="39.822032963857055" lon="2.90439298376441">
<ele>685</ele>
</trkpt>
<trkpt lat="39.822037992998958" lon="2.904418967664242">
<ele>686</ele>
</trkpt>
<trkpt lat="39.822036987170577" lon="2.904423996806145">
<ele>686</ele>
</trkpt>
<trkpt lat="39.822036987170577" lon="2.904423996806145">
<ele>685</ele>
</trkpt>
<trkpt lat="39.822037992998958" lon="2.90441301651299">
<ele>685</ele>
</trkpt>
<trkpt lat="39.822218958288431" lon="2.904368005692959">
<ele>684</ele>
</trkpt>
<trkpt lat="39.822351979091763" lon="2.904377980157733">
<ele>684</ele>
</trkpt>
<trkpt lat="39.822362037375569" lon="2.904377980157733">
<ele>684</ele>
</trkpt>
<trkpt lat="39.822479970753193" lon="2.90430698543787">
<ele>683</ele>
</trkpt>
<trkpt lat="39.822520958259702" lon="2.90428401902318">
<ele>683</ele>
</trkpt>
<trkpt lat="39.822714999318123" lon="2.904286030679941">
<ele>682</ele>
</trkpt>
<trkpt lat="39.822845002636313" lon="2.904225010424852">
<ele>682</ele>
</trkpt>
<trkpt lat="39.822897976264358" lon="2.904259040951729">
<ele>682</ele>
</trkpt>
<trkpt lat="39.822940975427628" lon="2.904261974617839">
<ele>682</ele>
</trkpt>
<trkpt lat="39.82305396348238" lon="2.904174970462918">
<ele>682</ele>
</trkpt>
<trkpt lat="39.823190001770854" lon="2.904205983504653">
<ele>682</ele>
</trkpt>
<trkpt lat="39.823276000097394" lon="2.904181005433202">
<ele>682</ele>
</trkpt>
<trkpt lat="39.823340037837625" lon="2.904178993776441">
<ele>682</ele>
</trkpt>
<trkpt lat="39.823457971215248" lon="2.904252000153065">
<ele>682</ele>
</trkpt>
<trkpt lat="39.823498958721757" lon="2.904296005144715">
<ele>682</ele>
</trkpt>
<trkpt lat="39.823569031432271" lon="2.90443598292768">
<ele>682</ele>
</trkpt>
<trkpt lat="39.82363399118185" lon="2.904543019831181">
<ele>682</ele>
</trkpt>
<trkpt lat="39.823753014206886" lon="2.904687020927668">
<ele>682</ele>
</trkpt>
<trkpt lat="39.823797019198537" lon="2.904789028689265">
<ele>682</ele>
</trkpt>
<trkpt lat="39.823806993663311" lon="2.904830016195774">
<ele>682</ele>
</trkpt>
<trkpt lat="39.823876982554793" lon="2.904954990372062">
<ele>682</ele>
</trkpt>
<trkpt lat="39.82393397949636" lon="2.905031014233828">
<ele>682</ele>
</trkpt>
<trkpt lat="39.824026012793183" lon="2.905131010338664">
<ele>681</ele>
</trkpt>
<trkpt lat="39.824057025834918" lon="2.905183983966708">
<ele>681</ele>
</trkpt>
<trkpt lat="39.824151992797852" lon="2.905390011146665">
<ele>681</ele>
</trkpt>
<trkpt lat="39.824219970032573" lon="2.905482966452837">
<ele>681</ele>
</trkpt>
<trkpt lat="39.824287025257945" lon="2.905639037489891">
<ele>681</ele>
</trkpt>
<trkpt lat="39.824307980015874" lon="2.905806005001068">
<ele>681</ele>
</trkpt>
<trkpt lat="39.824358019977808" lon="2.905947994440794">
<ele>681</ele>
</trkpt>
<trkpt lat="39.824377968907356" lon="2.905971966683865">
<ele>680</ele>
</trkpt>
<trkpt lat="39.824442006647587" lon="2.906161984428763">
<ele>680</ele>
</trkpt>
<trkpt lat="39.824462039396167" lon="2.906200960278511">
<ele>680</ele>
</trkpt>
<trkpt lat="39.824633030220866" lon="2.906501032412052">
<ele>680</ele>
</trkpt>
<trkpt lat="39.824654990807176" lon="2.906557023525238">
<ele>680</ele>
</trkpt>
<trkpt lat="39.824763033539057" lon="2.906789034605026">
<ele>679</ele>
</trkpt>
<trkpt lat="39.824812989681959" lon="2.906977962702513">
<ele>679</ele>
</trkpt>
<trkpt lat="39.824821958318353" lon="2.907039988785982">
<ele>679</ele>
</trkpt>
<trkpt lat="39.824849031865597" lon="2.907198993489146">
<ele>678</ele>
</trkpt>
<trkpt lat="39.824865963310003" lon="2.907354980707169">
<ele>678</ele>
</trkpt>
<trkpt lat="39.824867974966764" lon="2.907365038990974">
<ele>677</ele>
</trkpt>
<trkpt lat="39.824890019372106" lon="2.907481966540217">
<ele>677</ele>
</trkpt>
<trkpt lat="39.824890019372106" lon="2.907451959326863">
<ele>676</ele>
</trkpt>
<trkpt lat="39.825035026296973" lon="2.907647006213665">
<ele>675</ele>
</trkpt>
<trkpt lat="39.825095040723681" lon="2.907696962356567">
<ele>675</ele>
</trkpt>
<trkpt lat="39.82520199380815" lon="2.907742979004979">
<ele>674</ele>
</trkpt>
<trkpt lat="39.825249016284943" lon="2.907771980389953">
<ele>674</ele>
</trkpt>
<trkpt lat="39.825338032096624" lon="2.907863007858396">
<ele>673</ele>
</trkpt>
<trkpt lat="39.825362004339695" lon="2.907879017293453">
<ele>672</ele>
</trkpt>
<trkpt lat="39.825464012101293" lon="2.907948000356555">
<ele>670</ele>
</trkpt>
<trkpt lat="39.825598960742354" lon="2.907964009791613">
<ele>669</ele>
</trkpt>
<trkpt lat="39.825658975169063" lon="2.908000973984599">
<ele>667</ele>
</trkpt>
<trkpt lat="39.825768023729324" lon="2.908107005059719">
<ele>666</ele>
</trkpt>
<trkpt lat="39.825923005118966" lon="2.908176993951201">
<ele>665</ele>
</trkpt>
<trkpt lat="39.826030964031816" lon="2.908154027536511">
<ele>663</ele>
</trkpt>
<trkpt lat="39.826046973466873" lon="2.908129971474409">
<ele>662</ele>
</trkpt>
<trkpt lat="39.826116040349007" lon="2.907990999519825">
<ele>660</ele>
</trkpt>
<trkpt lat="39.826179994270205" lon="2.907955041155219">
<ele>659</ele>
</trkpt>
<trkpt lat="39.826283007860184" lon="2.908036010339856">
<ele>657</ele>
</trkpt>
<trkpt lat="39.826432960107923" lon="2.908129971474409">
<ele>656</ele>
</trkpt>
<trkpt lat="39.82653396204114" lon="2.908179005607963">
<ele>654</ele>
</trkpt>
<trkpt lat="39.826657008379698" lon="2.908210018649697">
<ele>653</ele>
</trkpt>
<trkpt lat="39.826677963137627" lon="2.908218987286091">
<ele>651</ele>
</trkpt>
<trkpt lat="39.826841996982694" lon="2.908270033076406">
<ele>649</ele>
</trkpt>
<trkpt lat="39.826960014179349" lon="2.908390983939171">
<ele>648</ele>
</trkpt>
<trkpt lat="39.826965965330601" lon="2.908400036394596">
<ele>646</ele>
</trkpt>
<trkpt lat="39.827085994184017" lon="2.908553006127477">
<ele>645</ele>
</trkpt>
<trkpt lat="39.827218009158969" lon="2.90871100500226">
<ele>643</ele>
</trkpt>
<trkpt lat="39.827272994443774" lon="2.908785017207265">
<ele>643</ele>
</trkpt>
<trkpt lat="39.827443985268474" lon="2.908907979726791">
<ele>643</ele>
</trkpt>
<trkpt lat="39.827525038272142" lon="2.908963970839977">
<ele>643</ele>
</trkpt>
<trkpt lat="39.827652024105191" lon="2.909057009965181">
<ele>643</ele>
</trkpt>
<trkpt lat="39.827660992741585" lon="2.909068996086717">
<ele>644</ele>
</trkpt>
<trkpt lat="39.827752020210028" lon="2.909273011609912">
<ele>644</ele>
</trkpt>
<trkpt lat="39.827767023816705" lon="2.909403014928103">
<ele>644</ele>
</trkpt>
<trkpt lat="39.827782027423382" lon="2.909423969686031">
<ele>644</ele>
</trkpt>
<trkpt lat="39.827893003821373" lon="2.909556990489364">
<ele>644</ele>
</trkpt>
<trkpt lat="39.827953018248081" lon="2.909624967724085">
<ele>644</ele>
</trkpt>
<trkpt lat="39.828072041273117" lon="2.909797970205545">
<ele>644</ele>
</trkpt>
<trkpt lat="39.828111017122865" lon="2.90984801016748">
<ele>645</ele>
</trkpt>
<trkpt lat="39.828271027654409" lon="2.910087984055281">
<ele>645</ele>
</trkpt>
<trkpt lat="39.828291982412338" lon="2.910115979611874">
<ele>645</ele>
</trkpt>
<trkpt lat="39.828392984345555" lon="2.910225028172135">
<ele>646</ele>
</trkpt>
<trkpt lat="39.828396001830697" lon="2.910237014293671">
<ele>646</ele>
</trkpt>
<trkpt lat="39.828428020700812" lon="2.910360982641578">
<ele>646</ele>
</trkpt>
<trkpt lat="39.828469008207321" lon="2.910440023988485">
<ele>646</ele>
</trkpt>
<trkpt lat="39.8285529948771" lon="2.910510012879968">
<ele>647</ele>
</trkpt>
<trkpt lat="39.828623989596963" lon="2.910628030076623">
<ele>647</ele>
</trkpt>
<trkpt lat="39.828678974881768" lon="2.910768007859588">
<ele>646</ele>
</trkpt>
<trkpt lat="39.828709987923503" lon="2.91086096316576">
<ele>645</ele>
</trkpt>
<trkpt lat="39.828857006505132" lon="2.910891976207495">
<ele>644</ele>
</trkpt>
<trkpt lat="39.828983992338181" lon="2.910930030047894">
<ele>643</ele>
</trkpt>
<trkpt lat="39.829072002321482" lon="2.910994989797473">
<ele>642</ele>
</trkpt>
<trkpt lat="39.829107960686088" lon="2.911003036424518">
<ele>642</ele>
</trkpt>
<trkpt lat="39.829242993146181" lon="2.911003036424518">
<ele>641</ele>
</trkpt>
<trkpt lat="39.829370984807611" lon="2.91103002615273">
<ele>640</ele>
</trkpt>
<trkpt lat="39.829420018941164" lon="2.911088028922677">
<ele>639</ele>
</trkpt>
<trkpt lat="39.829533006995916" lon="2.911121975630522">
<ele>638</ele>
</trkpt>
<trkpt lat="39.829544993117452" lon="2.911129016429186">
<ele>638</ele>
</trkpt>
<trkpt lat="39.829650018364191" lon="2.911191964522004">
<ele>639</ele>
</trkpt>
<trkpt lat="39.829695029184222" lon="2.911206968128681">
<ele>640</ele>
</trkpt>
<trkpt lat="39.829838024452329" lon="2.911244016140699">
<ele>640</ele>
</trkpt>
<trkpt lat="39.829874988645315" lon="2.911229012534022">
<ele>640</ele>
</trkpt>
<trkpt lat="39.829951012507081" lon="2.911218032240868">
<ele>641</ele>
</trkpt>
<trkpt lat="39.830136001110077" lon="2.911263965070248">
<ele>642</ele>
</trkpt>
<trkpt lat="39.830240020528436" lon="2.911304030567408">
<ele>642</ele>
</trkpt>
<trkpt lat="39.830377986654639" lon="2.91133102029562">
<ele>642</ele>
</trkpt>
<trkpt lat="39.830407993867993" lon="2.911335965618491">
<ele>643</ele>
</trkpt>
<trkpt lat="39.830580996349454" lon="2.911384999752045">
<ele>644</ele>
</trkpt>
<trkpt lat="39.830687027424574" lon="2.911371001973748">
<ele>645</ele>
</trkpt>
<trkpt lat="39.830764979124069" lon="2.911403020843864">
<ele>646</ele>
</trkpt>
<trkpt lat="39.830924989655614" lon="2.911415006965399">
<ele>647</ele>
</trkpt>
<trkpt lat="39.831032026559114" lon="2.911449959501624">
<ele>648</ele>
</trkpt>
<trkpt lat="39.831137973815203" lon="2.911359015852213">
<ele>648</ele>
</trkpt>
<trkpt lat="39.831241993233562" lon="2.911335965618491">
<ele>649</ele>
</trkpt>
<trkpt lat="39.831336038187146" lon="2.911318028345704">
<ele>650</ele>
</trkpt>
<trkpt lat="39.831428993493319" lon="2.911222977563739">
<ele>651</ele>
</trkpt>
<trkpt lat="39.831536030396819" lon="2.911134967580438">
<ele>652</ele>
</trkpt>
<trkpt lat="39.83158104121685" lon="2.911064978688955">
<ele>652</ele>
</trkpt>
<trkpt lat="39.831676008179784" lon="2.91103295981884">
<ele>653</ele>
</trkpt>
<trkpt lat="39.831836018711329" lon="2.911043018102646">
<ele>653</ele>
</trkpt>
<trkpt lat="39.831900978460908" lon="2.911003958433867">
<ele>653</ele>
</trkpt>
<trkpt lat="39.831997035071254" lon="2.91094402782619">
<ele>654</ele>
</trkpt>
<trkpt lat="39.832069035619497" lon="2.910915026441217">
<ele>654</ele>
</trkpt>
<trkpt lat="39.832186968997121" lon="2.910842020064592">
<ele>654</ele>
</trkpt>
<trkpt lat="39.832285037264228" lon="2.910833973437548">
<ele>654</ele>
</trkpt>
<trkpt lat="39.83231202699244" lon="2.910828022286296">
<ele>655</ele>
</trkpt>
<trkpt lat="39.8323970194906" lon="2.910877978429198">
<ele>655</ele>
</trkpt>
<trkpt lat="39.832495003938675" lon="2.910933969542384">
<ele>655</ele>
</trkpt>
<trkpt lat="39.832536997273564" lon="2.910988032817841">
<ele>654</ele>
</trkpt>
<trkpt lat="39.832673035562038" lon="2.911028014495969">
<ele>654</ele>
</trkpt>
<trkpt lat="39.832793986424804" lon="2.911078976467252">
<ele>654</ele>
</trkpt>
<trkpt lat="39.832815025001764" lon="2.911088028922677">
<ele>654</ele>
</trkpt>
<trkpt lat="39.83291401527822" lon="2.911147959530354">
<ele>653</ele>
</trkpt>
<trkpt lat="39.83297998085618" lon="2.911262959241867">
<ele>653</ele>
</trkpt>
<trkpt lat="39.833033960312605" lon="2.911351975053549">
<ele>653</ele>
</trkpt>
<trkpt lat="39.833076959475875" lon="2.911472003906965">
<ele>652</ele>
</trkpt>
<trkpt lat="39.83310897834599" lon="2.911505028605461">
<ele>652</ele>
</trkpt>
<trkpt lat="39.833207968622446" lon="2.911657998338342">
<ele>652</ele>
</trkpt>
<trkpt lat="39.83332003466785" lon="2.911790013313294">
<ele>652</ele>
</trkpt>
<trkpt lat="39.83340997248888" lon="2.911893026903272">
<ele>651</ele>
</trkpt>
<trkpt lat="39.833490019664168" lon="2.91199897415936">
<ele>651</ele>
</trkpt>
<trkpt lat="39.833565959706903" lon="2.912124032154679">
<ele>651</ele>
</trkpt>
<trkpt lat="39.833680959418416" lon="2.912178011611104">
<ele>651</ele>
</trkpt>
<trkpt lat="39.833800988271832" lon="2.912263004109263">
<ele>650</ele>
</trkpt>
<trkpt lat="39.833872988820076" lon="2.912227967754006">
<ele>650</ele>
</trkpt>
<trkpt lat="39.833973990753293" lon="2.912298962473869">
<ele>650</ele>
</trkpt>
<trkpt lat="39.833952030166984" lon="2.912157978862524">
<ele>650</ele>
</trkpt>
<trkpt lat="39.833951024338603" lon="2.912156973034143">
<ele>650</ele>
</trkpt>
<trkpt lat="39.833962004631758" lon="2.912160996347666">
<ele>651</ele>
</trkpt>
<trkpt lat="39.834078010171652" lon="2.912140041589737">
<ele>651</ele>
</trkpt>
<trkpt lat="39.834167025983334" lon="2.912110034376383">
<ele>651</ele>
</trkpt>
<trkpt lat="39.834281019866467" lon="2.912100981920958">
<ele>651</ele>
</trkpt>
<trkpt lat="39.834374981001019" lon="2.912090001627803">
<ele>651</ele>
</trkpt>
<trkpt lat="39.834467014297843" lon="2.912064017727971">
<ele>652</ele>
</trkpt>
<trkpt lat="39.834534991532564" lon="2.912087989971042">
<ele>652</ele>
</trkpt>
<trkpt lat="39.834625013172626" lon="2.9120849724859">
<ele>652</ele>
</trkpt>
<trkpt lat="39.834717968478799" lon="2.912154961377382">
<ele>651</ele>
</trkpt>
<trkpt lat="39.834834979847074" lon="2.912173988297582">
<ele>650</ele>
</trkpt>
<trkpt lat="39.834842020645738" lon="2.91217097081244">
<ele>650</ele>
</trkpt>
<trkpt lat="39.834861969575286" lon="2.91216803714633">
<ele>649</ele>
</trkpt>
<trkpt lat="39.835143014788628" lon="2.912166025489569">
<ele>648</ele>
</trkpt>
<trkpt lat="39.835162963718176" lon="2.912164013832808">
<ele>647</ele>
</trkpt>
<trkpt lat="39.835277963429689" lon="2.912143981084228">
<ele>646</ele>
</trkpt>
<trkpt lat="39.835371002554893" lon="2.912153033539653">
<ele>646</ele>
</trkpt>
<trkpt lat="39.835495976731181" lon="2.912145992740989">
<ele>645</ele>
</trkpt>
<trkpt lat="39.835541993379593" lon="2.91212503798306">
<ele>644</ele>
</trkpt>
<trkpt lat="39.835691023617983" lon="2.912112968042493">
<ele>642</ele>
</trkpt>
<trkpt lat="39.835796970874071" lon="2.912096958607435">
<ele>641</ele>
</trkpt>
<trkpt lat="39.835981959477067" lon="2.912061000242829">
<ele>639</ele>
</trkpt>
<trkpt lat="39.8360510263592" lon="2.912049014121294">
<ele>638</ele>
</trkpt>
<trkpt lat="39.836229979991913" lon="2.912014983594418">
<ele>636</ele>
</trkpt>
<trkpt lat="39.836384961381555" lon="2.911971984431148">
<ele>634</ele>
</trkpt>
<trkpt lat="39.836551006883383" lon="2.911956980824471">
<ele>633</ele>
</trkpt>
<trkpt lat="39.836624013260007" lon="2.911934014409781">
<ele>631</ele>
</trkpt>
<trkpt lat="39.836807996034622" lon="2.911877017468214">
<ele>630</ele>
</trkpt>
<trkpt lat="39.836915032938123" lon="2.911841981112957">
<ele>628</ele>
</trkpt>
<trkpt lat="39.836956020444632" lon="2.911832006648183">
<ele>627</ele>
</trkpt>
<trkpt lat="39.837097004055977" lon="2.911800993606448">
<ele>626</ele>
</trkpt>
<trkpt lat="39.837164981290698" lon="2.911794036626816">
<ele>625</ele>
</trkpt>
<trkpt lat="39.837281992658973" lon="2.911784984171391">
<ele>624</ele>
</trkpt>
<trkpt lat="39.837336977943778" lon="2.911763023585081">
<ele>623</ele>
</trkpt>
<trkpt lat="39.837521966546774" lon="2.911754976958036">
<ele>622</ele>
</trkpt>
<trkpt lat="39.837536970153451" lon="2.911746008321643">
<ele>621</ele>
</trkpt>
<trkpt lat="39.837608970701694" lon="2.911506034433842">
<ele>620</ele>
</trkpt>
<trkpt lat="39.837519032880664" lon="2.911489019170404">
<ele>619</ele>
</trkpt>
<trkpt lat="39.837391963228583" lon="2.911421963945031">
<ele>618</ele>
</trkpt>
<trkpt lat="39.837332032620907" lon="2.911392962560058">
<ele>617</ele>
</trkpt>
<trkpt lat="39.837172022089362" lon="2.911366978660226">
<ele>616</ele>
</trkpt>
<trkpt lat="39.837072025984526" lon="2.911363039165735">
<ele>615</ele>
</trkpt>
<trkpt lat="39.836971024051309" lon="2.911322973668575">
<ele>614</ele>
</trkpt>
<trkpt lat="39.836848983541131" lon="2.911247033625841">
<ele>613</ele>
</trkpt>
<trkpt lat="39.83682501129806" lon="2.911190958693624">
<ele>612</ele>
</trkpt>
<trkpt lat="39.836905980482697" lon="2.911136979237199">
<ele>611</ele>
</trkpt>
<trkpt lat="39.836965994909406" lon="2.911171009764075">
<ele>610</ele>
</trkpt>
<trkpt lat="39.837123993784189" lon="2.91118199005723">
<ele>609</ele>
</trkpt>
<trkpt lat="39.837161963805556" lon="2.911161035299301">
<ele>608</ele>
</trkpt>
<trkpt lat="39.837328009307384" lon="2.911124993115664">
<ele>607</ele>
</trkpt>
<trkpt lat="39.837376959621906" lon="2.911110995337367">
<ele>605</ele>
</trkpt>
<trkpt lat="39.837539987638593" lon="2.911064978688955">
<ele>604</ele>
</trkpt>
<trkpt lat="39.837708966806531" lon="2.911017034202814">
<ele>602</ele>
</trkpt>
<trkpt lat="39.837718019261956" lon="2.911013010889292">
<ele>601</ele>
</trkpt>
<trkpt lat="39.837847016751766" lon="2.910949978977442">
<ele>600</ele>
</trkpt>
<trkpt lat="39.837884986773133" lon="2.910930030047894">
<ele>598</ele>
</trkpt>
<trkpt lat="39.838029993698001" lon="2.910759039223194">
<ele>597</ele>
</trkpt>
<trkpt lat="39.838109035044909" lon="2.910632975399494">
<ele>595</ele>
</trkpt>
<trkpt lat="39.838154967874289" lon="2.910574972629547">
<ele>594</ele>
</trkpt>
<trkpt lat="39.8382200114429" lon="2.910453015938401">
<ele>593</ele>
</trkpt>
<trkpt lat="39.838253958150744" lon="2.91036400012672">
<ele>592</ele>
</trkpt>
<trkpt lat="39.838278014212847" lon="2.910240031778812">
<ele>591</ele>
</trkpt>
<trkpt lat="39.838320007547736" lon="2.91016903705895">
<ele>590</ele>
</trkpt>
<trkpt lat="39.838425032794476" lon="2.909995028749108">
<ele>590</ele>
</trkpt>
<trkpt lat="39.838511031121016" lon="2.909884974360466">
<ele>589</ele>
</trkpt>
<trkpt lat="39.838599041104317" lon="2.909787995740771">
<ele>588</ele>
</trkpt>
<trkpt lat="39.838682021945715" lon="2.909650029614568">
<ele>587</ele>
</trkpt>
<trkpt lat="39.838687973096967" lon="2.909598983824253">
<ele>586</ele>
</trkpt>
<trkpt lat="39.83873600140214" lon="2.909346017986536">
<ele>585</ele>
</trkpt>
<trkpt lat="39.83873600140214" lon="2.909346017986536">
<ele>584</ele>
</trkpt>
<trkpt lat="39.8387570399791" lon="2.909195981919766">
<ele>584</ele>
</trkpt>
<trkpt lat="39.838859969750047" lon="2.909067990258336">
<ele>583</ele>
</trkpt>
<trkpt lat="39.838875979185104" lon="2.909048041328788">
<ele>582</ele>
</trkpt>
<trkpt lat="39.838915960863233" lon="2.908933963626623">
<ele>581</ele>
</trkpt>
<trkpt lat="39.838921995833516" lon="2.908927006646991">
<ele>581</ele>
</trkpt>
<trkpt lat="39.838924007490277" lon="2.908916026353836">
<ele>580</ele>
</trkpt>
<trkpt lat="39.838924007490277" lon="2.908916026353836">
<ele>580</ele>
</trkpt>
<trkpt lat="39.838921995833516" lon="2.908916026353836">
<ele>580</ele>
</trkpt>
<trkpt lat="39.838921995833516" lon="2.908916026353836">
<ele>579</ele>
</trkpt>
<trkpt lat="39.8390609677881" lon="2.909044018015266">
<ele>579</ele>
</trkpt>
<trkpt lat="39.839192982763052" lon="2.909015016630292">
<ele>579</ele>
</trkpt>
<trkpt lat="39.839225001633167" lon="2.908993978053331">
<ele>579</ele>
</trkpt>
<trkpt lat="39.839304964989424" lon="2.908913008868694">
<ele>579</ele>
</trkpt>
<trkpt lat="39.839357016608119" lon="2.908875038847327">
<ele>578</ele>
</trkpt>
<trkpt lat="39.83944796025753" lon="2.908818041905761">
<ele>578</ele>
</trkpt>
<trkpt lat="39.839468998834491" lon="2.908818041905761">
<ele>578</ele>
</trkpt>
<trkpt lat="39.839546028524637" lon="2.908823993057013">
<ele>578</ele>
</trkpt>
<trkpt lat="39.839700004085898" lon="2.908917032182217">
<ele>578</ele>
</trkpt>
<trkpt lat="39.839730011299253" lon="2.908929018303752">
<ele>578</ele>
</trkpt>
<trkpt lat="39.839922040700912" lon="2.909038988873363">
<ele>578</ele>
</trkpt>
<trkpt lat="39.839992029592395" lon="2.909075031057">
<ele>578</ele>
</trkpt>
<trkpt lat="39.84011197462678" lon="2.909138984978199">
<ele>579</ele>
</trkpt>
<trkpt lat="39.840137036517262" lon="2.909157006070018">
<ele>579</ele>
</trkpt>
<trkpt lat="39.84030400402844" lon="2.909245016053319">
<ele>579</ele>
</trkpt>
<trkpt lat="39.840485975146294" lon="2.909343000501394">
<ele>579</ele>
</trkpt>
<trkpt lat="39.84056199900806" lon="2.909378958866">
<ele>579</ele>
</trkpt>
<trkpt lat="39.84064900316298" lon="2.909420030191541">
<ele>580</ele>
</trkpt>
<trkpt lat="39.840785963460803" lon="2.909498987719417">
<ele>580</ele>
</trkpt>
<trkpt lat="39.840826028957963" lon="2.909524971619248">
<ele>580</ele>
</trkpt>
<trkpt lat="39.840917978435755" lon="2.909571994096041">
<ele>581</ele>
</trkpt>
<trkpt lat="39.840935999527574" lon="2.909578029066324">
<ele>582</ele>
</trkpt>
<trkpt lat="39.841110007837415" lon="2.9096760135144">
<ele>582</ele>
</trkpt>
<trkpt lat="39.841147977858782" lon="2.909726975485683">
<ele>582</ele>
</trkpt>
<trkpt lat="39.841259960085154" lon="2.909822026267648">
<ele>583</ele>
</trkpt>
<trkpt lat="39.841337995603681" lon="2.909851027652621">
<ele>584</ele>
</trkpt>
<trkpt lat="39.841360962018371" lon="2.909864019602537">
<ele>584</ele>
</trkpt>
<trkpt lat="39.84157201834023" lon="2.909928979352117">
<ele>584</ele>
</trkpt>
<trkpt lat="39.841585010290146" lon="2.909931996837258">
<ele>584</ele>
</trkpt>
<trkpt lat="39.841704033315182" lon="2.909904001280665">
<ele>584</ele>
</trkpt>
<trkpt lat="39.841713001951575" lon="2.909900983795524">
<ele>584</ele>
</trkpt>
<trkpt lat="39.841805035248399" lon="2.90987097658217">
<ele>584</ele>
</trkpt>
<trkpt lat="39.841901008039713" lon="2.909840969368815">
<ele>584</ele>
</trkpt>
<trkpt lat="39.842027993872762" lon="2.909861002117395">
<ele>584</ele>
</trkpt>
<trkpt lat="39.842065963894129" lon="2.909874999895692">
<ele>584</ele>
</trkpt>
<trkpt lat="39.842193033546209" lon="2.909855972975493">
<ele>584</ele>
</trkpt>
<trkpt lat="39.842208959162235" lon="2.909836024045944">
<ele>584</ele>
</trkpt>
<trkpt lat="39.842159003019333" lon="2.909669978544116">
<ele>583</ele>
</trkpt>
<trkpt lat="39.842090019956231" lon="2.909521032124758">
<ele>583</ele>
</trkpt>
<trkpt lat="39.842074010521173" lon="2.909490019083023">
<ele>582</ele>
</trkpt>
<trkpt lat="39.841993041336536" lon="2.909296983852983">
<ele>581</ele>
</trkpt>
<trkpt lat="39.841973008587956" lon="2.909245016053319">
<ele>580</ele>
</trkpt>
<trkpt lat="39.841882986947894" lon="2.909174021333456">
<ele>580</ele>
</trkpt>
<trkpt lat="39.841821966692805" lon="2.909072013571858">
<ele>579</ele>
</trkpt>
<trkpt lat="39.841716019436717" lon="2.908974029123783">
<ele>578</ele>
</trkpt>
<trkpt lat="39.841706966981292" lon="2.908936981111765">
<ele>578</ele>
</trkpt>
<trkpt lat="39.841634966433048" lon="2.908823993057013">
<ele>577</ele>
</trkpt>
<trkpt lat="39.841582998633385" lon="2.908729026094079">
<ele>577</ele>
</trkpt>
<trkpt lat="39.841516027227044" lon="2.908635986968875">
<ele>576</ele>
</trkpt>
<trkpt lat="39.841397004202008" lon="2.908487040549517">
<ele>576</ele>
</trkpt>
<trkpt lat="39.841371020302176" lon="2.908449992537499">
<ele>576</ele>
</trkpt>
<trkpt lat="39.841286027804017" lon="2.908332981169224">
<ele>576</ele>
</trkpt>
<trkpt lat="39.841243028640747" lon="2.90828101336956">
<ele>575</ele>
</trkpt>
<trkpt lat="39.841173039749265" lon="2.908146986737847">
<ele>575</ele>
</trkpt>
<trkpt lat="39.841104978695512" lon="2.908064005896449">
<ele>575</ele>
</trkpt>
<trkpt lat="39.841030966490507" lon="2.908025030046701">
<ele>574</ele>
</trkpt>
<trkpt lat="39.840941028669477" lon="2.907975995913148">
<ele>574</ele>
</trkpt>
<trkpt lat="39.840837009251118" lon="2.907736022025347">
<ele>574</ele>
</trkpt>
<trkpt lat="39.840796021744609" lon="2.907557990401983">
<ele>573</ele>
</trkpt>
<trkpt lat="39.840762997046113" lon="2.907480960711837">
<ele>572</ele>
</trkpt>
<trkpt lat="39.84071496874094" lon="2.90731399320066">
<ele>572</ele>
</trkpt>
<trkpt lat="39.840700970962644" lon="2.907274011522532">
<ele>572</ele>
</trkpt>
<trkpt lat="39.840641040354967" lon="2.907038982957602">
<ele>571</ele>
</trkpt>
<trkpt lat="39.840632993727922" lon="2.906996989622712">
<ele>570</ele>
</trkpt>
<trkpt lat="39.84058496542275" lon="2.906817030161619">
<ele>570</ele>
</trkpt>
<trkpt lat="39.840595023706555" lon="2.906643021851778">
<ele>570</ele>
</trkpt>
<trkpt lat="39.84062603674829" lon="2.906545037403703">
<ele>569</ele>
</trkpt>
<trkpt lat="39.840727038681507" lon="2.906430959701538">
<ele>569</ele>
</trkpt>
<trkpt lat="39.840865004807711" lon="2.906274972483516">
<ele>568</ele>
</trkpt>
<trkpt lat="39.841001965105534" lon="2.906155027449131">
<ele>568</ele>
</trkpt>
<trkpt lat="39.841043958440423" lon="2.906130971387029">
<ele>568</ele>
</trkpt>
<trkpt lat="39.841258032247424" lon="2.905861996114254">
<ele>568</ele>
</trkpt>
<trkpt lat="39.841264989227057" lon="2.90585202164948">
<ele>567</ele>
</trkpt>
<trkpt lat="39.841350987553596" lon="2.905706008896232">
<ele>567</ele>
</trkpt>
<trkpt lat="39.841428017243743" lon="2.905649011954665">
<ele>567</ele>
</trkpt>
<trkpt lat="39.841601019725204" lon="2.905596038326621">
<ele>566</ele>
</trkpt>
<trkpt lat="39.841627003625035" lon="2.905602995306253">
<ele>566</ele>
</trkpt>
<trkpt lat="39.841717025265098" lon="2.905558990314603">
<ele>565</ele>
</trkpt>
<trkpt lat="39.841745020821691" lon="2.9055539611727">
<ele>564</ele>
</trkpt>
<trkpt lat="39.841881981119514" lon="2.905457988381386">
<ele>562</ele>
</trkpt>
<trkpt lat="39.841946018859744" lon="2.905394034460187">
<ele>561</ele>
</trkpt>
<trkpt lat="39.842037968337536" lon="2.905327985063195">
<ele>560</ele>
</trkpt>
<trkpt lat="39.842058001086116" lon="2.905204016715288">
<ele>559</ele>
</trkpt>
<trkpt lat="39.842157997190952" lon="2.905193036422133">
<ele>558</ele>
</trkpt>
<trkpt lat="39.84217400662601" lon="2.905206028372049">
<ele>556</ele>
</trkpt>
<trkpt lat="39.842197978869081" lon="2.905214997008443">
<ele>555</ele>
</trkpt>
<trkpt lat="39.842326976358891" lon="2.905219020321965">
<ele>554</ele>
</trkpt>
<trkpt lat="39.842419009655714" lon="2.905170992016792">
<ele>553</ele>
</trkpt>
<trkpt lat="39.842545995488763" lon="2.90505800396204">
<ele>552</ele>
</trkpt>
<trkpt lat="39.842645991593599" lon="2.904904028400779">
<ele>550</ele>
</trkpt>
<trkpt lat="39.842695025727153" lon="2.90482297539711">
<ele>549</ele>
</trkpt>
<trkpt lat="39.842745987698436" lon="2.904644021764398">
<ele>548</ele>
</trkpt>
<trkpt lat="39.842778006568551" lon="2.904444029554725">
<ele>547</ele>
</trkpt>
<trkpt lat="39.842827040702105" lon="2.904330035671592">
<ele>546</ele>
</trkpt>
<trkpt lat="39.842875991016626" lon="2.90419802069664">
<ele>544</ele>
</trkpt>
<trkpt lat="39.842886971309781" lon="2.904171030968428">
<ele>543</ele>
</trkpt>
<trkpt lat="39.842910021543503" lon="2.904042033478618">
<ele>542</ele>
</trkpt>
<trkpt lat="39.842897029593587" lon="2.903934996575117">
<ele>541</ele>
</trkpt>
<trkpt lat="39.842866016551852" lon="2.903837012127042">
<ele>540</ele>
</trkpt>
<trkpt lat="39.8427530284971" lon="2.903712959960103">
<ele>538</ele>
</trkpt>
<trkpt lat="39.842701982706785" lon="2.90366099216044">
<ele>537</ele>
</trkpt>
<trkpt lat="39.842533003538847" lon="2.903556972742081">
<ele>536</ele>
</trkpt>
<trkpt lat="39.842516994103789" lon="2.903560996055603">
<ele>535</ele>
</trkpt>
<trkpt lat="39.842482963576913" lon="2.903569964691997">
<ele>534</ele>
</trkpt>
<trkpt lat="39.842381961643696" lon="2.903686976060271">
<ele>532</ele>
</trkpt>
<trkpt lat="39.842381039634347" lon="2.903736010193825">
<ele>531</ele>
</trkpt>
<trkpt lat="39.842272996902466" lon="2.903800969943404">
<ele>530</ele>
</trkpt>
<trkpt lat="39.842264028266072" lon="2.903797030448914">
<ele>529</ele>
</trkpt>
<trkpt lat="39.842076022177935" lon="2.903716983273625">
<ele>528</ele>
</trkpt>
<trkpt lat="39.841998992487788" lon="2.903712959960103">
<ele>527</ele>
</trkpt>
<trkpt lat="39.841785002499819" lon="2.903727041557431">
<ele>526</ele>
</trkpt>
<trkpt lat="39.841780979186296" lon="2.903723018243909">
<ele>525</ele>
</trkpt>
<trkpt lat="39.841662961989641" lon="2.90370399132371">
<ele>524</ele>
</trkpt>
<trkpt lat="39.841654999181628" lon="2.903648000210524">
<ele>523</ele>
</trkpt>
<trkpt lat="39.841686012223363" lon="2.90361799299717">
<ele>522</ele>
</trkpt>
<trkpt lat="39.841757006943226" lon="2.90353300049901">
<ele>521</ele>
</trkpt>
<trkpt lat="39.841783996671438" lon="2.903364021331072">
<ele>520</ele>
</trkpt>
<trkpt lat="39.841835964471102" lon="2.903249021619558">
<ele>519</ele>
</trkpt>
<trkpt lat="39.841848034411669" lon="2.903106026351452">
<ele>518</ele>
</trkpt>
<trkpt lat="39.841892039403319" lon="2.902923971414566">
<ele>517</ele>
</trkpt>
<trkpt lat="39.841897990554571" lon="2.902795979753137">
<ele>517</ele>
</trkpt>
<trkpt lat="39.841897990554571" lon="2.902795979753137">
<ele>516</ele>
</trkpt>
<trkpt lat="39.841911988332868" lon="2.902701012790203">
<ele>515</ele>
</trkpt>
<trkpt lat="39.841894051060081" lon="2.902672179043293">
<ele>514</ele>
</trkpt>
<trkpt lat="39.841834036633372" lon="2.902615014463663">
<ele>514</ele>
</trkpt>
<trkpt lat="39.841811992228031" lon="2.902599005028606">
<ele>514</ele>
</trkpt>
<trkpt lat="39.841721970587969" lon="2.902529016137123">
<ele>514</ele>
</trkpt>
<trkpt lat="39.841600013896823" lon="2.902438994497061">
<ele>514</ele>
</trkpt>
<trkpt lat="39.841581992805004" lon="2.90239398367703">
<ele>514</ele>
</trkpt>
<trkpt lat="39.841574029996991" lon="2.90224302560091">
<ele>513</ele>
</trkpt>
<trkpt lat="39.841617029160261" lon="2.902057031169534">
<ele>513</ele>
</trkpt>
<trkpt lat="39.841607976704836" lon="2.901885034516454">
<ele>513</ele>
</trkpt>
<trkpt lat="39.841604959219694" lon="2.901869025081396">
<ele>513</ele>
</trkpt>
<trkpt lat="39.841661034151912" lon="2.9016840364784">
<ele>513</ele>
</trkpt>
<trkpt lat="39.841671008616686" lon="2.901613041758537">
<ele>513</ele>
</trkpt>
<trkpt lat="39.841749966144562" lon="2.901499969884753">
<ele>513</ele>
</trkpt>
<trkpt lat="39.841791959479451" lon="2.9014060087502">
<ele>512</ele>
</trkpt>
<trkpt lat="39.841861026361585" lon="2.90132001042366">
<ele>512</ele>
</trkpt>
<trkpt lat="39.841933026909828" lon="2.901152037084103">
<ele>512</ele>
</trkpt>
<trkpt lat="39.842027993872762" lon="2.900971993803978">
<ele>512</ele>
</trkpt>
<trkpt lat="39.842082979157567" lon="2.900859005749226">
<ele>512</ele>
</trkpt>
<trkpt lat="39.842102006077766" lon="2.900807959958911">
<ele>511</ele>
</trkpt>
<trkpt lat="39.842154979705811" lon="2.900668988004327">
<ele>511</ele>
</trkpt>
<trkpt lat="39.84217400662601" lon="2.900495985522866">
<ele>511</ele>
</trkpt>
<trkpt lat="39.842152968049049" lon="2.900337986648083">
<ele>511</ele>
</trkpt>
<trkpt lat="39.842081973329186" lon="2.900143023580313">
<ele>511</ele>
</trkpt>
<trkpt lat="39.842050960287452" lon="2.900035986676812">
<ele>511</ele>
</trkpt>
<trkpt lat="39.84202497638762" lon="2.899918975308538">
<ele>511</ele>
</trkpt>
<trkpt lat="39.841963034123182" lon="2.899702973663807">
<ele>512</ele>
</trkpt>
<trkpt lat="39.841911988332868" lon="2.899524020031095">
<ele>512</ele>
</trkpt>
<trkpt lat="39.841904025524855" lon="2.899476997554302">
<ele>512</ele>
</trkpt>
<trkpt lat="39.841777961701155" lon="2.899170974269509">
<ele>512</ele>
</trkpt>
<trkpt lat="39.841699004173279" lon="2.898994032293558">
<ele>512</ele>
</trkpt>
<trkpt lat="39.841613005846739" lon="2.898851037025452">
<ele>512</ele>
</trkpt>
<trkpt lat="39.841550979763269" lon="2.898779036477208">
<ele>511</ele>
</trkpt>
<trkpt lat="39.841459030285478" lon="2.898688009008765">
<ele>511</ele>
</trkpt>
<trkpt lat="39.841441009193659" lon="2.898671999573708">
<ele>510</ele>
</trkpt>
<trkpt lat="39.841363979503512" lon="2.898448035120964">
<ele>509</ele>
</trkpt>
<trkpt lat="39.841191982850432" lon="2.898340998217464">
<ele>508</ele>
</trkpt>
<trkpt lat="39.841095004230738" lon="2.898338986560702">
<ele>508</ele>
</trkpt>
<trkpt lat="39.840944968163967" lon="2.898372011259198">
<ele>507</ele>
</trkpt>
<trkpt lat="39.840895012021065" lon="2.898368993774056">
<ele>506</ele>
</trkpt>
<trkpt lat="39.840728966519237" lon="2.898404030129314">
<ele>506</ele>
</trkpt>
<trkpt lat="39.840686973184347" lon="2.898372011259198">
<ele>505</ele>
</trkpt>
<trkpt lat="39.840572979301214" lon="2.898161960765719">
<ele>506</ele>
</trkpt>
<trkpt lat="39.840554958209395" lon="2.898114016279578">
<ele>507</ele>
</trkpt>
<trkpt lat="39.840459991246462" lon="2.897819979116321">
<ele>507</ele>
</trkpt>
<trkpt lat="39.840444987639785" lon="2.897765999659896">
<ele>508</ele>
</trkpt>
<trkpt lat="39.840409029275179" lon="2.897610012441874">
<ele>509</ele>
</trkpt>
<trkpt lat="39.840383967384696" lon="2.897574976086617">
<ele>510</ele>
</trkpt>
<trkpt lat="39.840210964903235" lon="2.897594003006816">
<ele>511</ele>
</trkpt>
<trkpt lat="39.840121027082205" lon="2.897640019655228">
<ele>511</ele>
</trkpt>
<trkpt lat="39.840100994333625" lon="2.897671032696962">
<ele>512</ele>
</trkpt>
<trkpt lat="39.840024970471859" lon="2.897782009094954">
<ele>513</ele>
</trkpt>
<trkpt lat="39.839920029044151" lon="2.897926010191441">
<ele>514</ele>
</trkpt>
<trkpt lat="39.839879963546991" lon="2.898015026003122">
<ele>515</ele>
</trkpt>
<trkpt lat="39.839803017675877" lon="2.898158021271229">
<ele>516</ele>
</trkpt>
<trkpt lat="39.839784996584058" lon="2.898194985464215">
<ele>517</ele>
</trkpt>
<trkpt lat="39.839676031842828" lon="2.898282995447516">
<ele>518</ele>
</trkpt>
<trkpt lat="39.83963898383081" lon="2.898314008489251">
<ele>520</ele>
</trkpt>
<trkpt lat="39.839554997161031" lon="2.898403024300933">
<ele>521</ele>
</trkpt>
<trkpt lat="39.83953102491796" lon="2.898344015702605">
<ele>522</ele>
</trkpt>
<trkpt lat="39.839485008269548" lon="2.898057019338012">
<ele>523</ele>
</trkpt>
<trkpt lat="39.839441003277898" lon="2.897913018241525">
<ele>524</ele>
</trkpt>
<trkpt lat="39.83942499384284" lon="2.897851997986436">
<ele>523</ele>
</trkpt>
<trkpt lat="39.839340001344681" lon="2.897701039910317">
<ele>522</ele>
</trkpt>
<trkpt lat="39.839330026879907" lon="2.897685030475259">
<ele>521</ele>
</trkpt>
<trkpt lat="39.839244028553367" lon="2.89760397747159">
<ele>520</ele>
</trkpt>
<trkpt lat="39.839154006913304" lon="2.897463999688625">
<ele>520</ele>
</trkpt>
<trkpt lat="39.839044036343694" lon="2.897332990542054">
<ele>519</ele>
</trkpt>
<trkpt lat="39.838987961411476" lon="2.897232994437218">
<ele>518</ele>
</trkpt>
<trkpt lat="39.838977986946702" lon="2.897213967517018">
<ele>517</ele>
</trkpt>
<trkpt lat="39.83882199972868" lon="2.897240035235882">
<ele>516</ele>
</trkpt>
<trkpt lat="39.838705994188786" lon="2.897303989157081">
<ele>515</ele>
</trkpt>
<trkpt lat="39.838666012510657" lon="2.897350005805492">
<ele>515</ele>
</trkpt>
<trkpt lat="39.838487980887294" lon="2.897436004132032">
<ele>516</ele>
</trkpt>
<trkpt lat="39.838407011702657" lon="2.897528037428856">
<ele>516</ele>
</trkpt>
<trkpt lat="39.838352026417851" lon="2.897729035466909">
<ele>517</ele>
</trkpt>
<trkpt lat="39.838256975635886" lon="2.897787038236857">
<ele>517</ele>
</trkpt>
<trkpt lat="39.838224034756422" lon="2.897798018530011">
<ele>517</ele>
</trkpt>
<trkpt lat="39.838083973154426" lon="2.897862978279591">
<ele>518</ele>
</trkpt>
<trkpt lat="39.838062012568116" lon="2.897869013249874">
<ele>518</ele>
</trkpt>
<trkpt lat="39.837994035333395" lon="2.897954005748034">
<ele>519</ele>
</trkpt>
<trkpt lat="39.837978025898337" lon="2.897976972162724">
<ele>519</ele>
</trkpt>
<trkpt lat="39.837860008701682" lon="2.898081997409463">
<ele>520</ele>
</trkpt>
<trkpt lat="39.83779102563858" lon="2.898146035149694">
<ele>520</ele>
</trkpt>
<trkpt lat="39.837706033140421" lon="2.898200014606118">
<ele>520</ele>
</trkpt>
<trkpt lat="39.837627997621894" lon="2.898266986012459">
<ele>521</ele>
</trkpt>
<trkpt lat="39.837516015395522" lon="2.898348961025477">
<ele>522</ele>
</trkpt>
<trkpt lat="39.837386012077332" lon="2.898408975452185">
<ele>522</ele>
</trkpt>
<trkpt lat="39.83731702901423" lon="2.898546019569039">
<ele>522</ele>
</trkpt>
<trkpt lat="39.837226001545787" lon="2.898602010682225">
<ele>523</ele>
</trkpt>
<trkpt lat="39.837107984349132" lon="2.89865599013865">
<ele>524</ele>
</trkpt>
<trkpt lat="39.83710203319788" lon="2.898658001795411">
<ele>524</ele>
</trkpt>
<trkpt lat="39.836945962160826" lon="2.898623971268535">
<ele>525</ele>
</trkpt>
<trkpt lat="39.836951997131109" lon="2.898602010682225">
<ele>526</ele>
</trkpt>
<trkpt lat="39.836984016001225" lon="2.898527998477221">
<ele>527</ele>
</trkpt>
<trkpt lat="39.836991978809237" lon="2.898403024300933">
<ele>528</ele>
</trkpt>
<trkpt lat="39.836934981867671" lon="2.898328006267548">
<ele>529</ele>
</trkpt>
<trkpt lat="39.83693297021091" lon="2.898325994610786">
<ele>530</ele>
</trkpt>
<trkpt lat="39.837006982415915" lon="2.89820303209126">
<ele>531</ele>
</trkpt>
<trkpt lat="39.837037995457649" lon="2.898100018501282">
<ele>532</ele>
</trkpt>
<trkpt lat="39.836969012394547" lon="2.898008991032839">
<ele>533</ele>
</trkpt>
<trkpt lat="39.836979992687702" lon="2.897977977991104">
<ele>534</ele>
</trkpt>
<trkpt lat="39.836920984089375" lon="2.897863984107971">
<ele>534</ele>
</trkpt>
<trkpt lat="39.836888965219259" lon="2.897830959409475">
<ele>535</ele>
</trkpt>
<trkpt lat="39.836757034063339" lon="2.897806987166405">
<ele>535</ele>
</trkpt>
<trkpt lat="39.836714034900069" lon="2.897764993831515">
<ele>535</ele>
</trkpt>
<trkpt lat="39.836727026849985" lon="2.897583022713661">
<ele>535</ele>
</trkpt>
<trkpt lat="39.836730966344476" lon="2.897534994408488">
<ele>536</ele>
</trkpt>
<trkpt lat="39.836637005209923" lon="2.897457964718342">
<ele>536</ele>
</trkpt>
<trkpt lat="39.836517982184887" lon="2.897304994985461">
<ele>536</ele>
</trkpt>
<trkpt lat="39.836507001891732" lon="2.897293008863926">
<ele>536</ele>
</trkpt>
<trkpt lat="39.836484035477042" lon="2.897244980558753">
<ele>537</ele>
</trkpt>
<trkpt lat="39.8364810179919" lon="2.897235006093979">
<ele>537</ele>
</trkpt>
<trkpt lat="39.8364810179919" lon="2.897234000265598">
<ele>537</ele>
</trkpt>
<trkpt lat="39.836482023820281" lon="2.897234000265598">
<ele>536</ele>
</trkpt>
<trkpt lat="39.836482023820281" lon="2.897234000265598">
<ele>536</ele>
</trkpt>
<trkpt lat="39.836355121806264" lon="2.897069631144404">
<ele>535</ele>
</trkpt>
<trkpt lat="39.836229309439659" lon="2.897020345553756">
<ele>535</ele>
</trkpt>
<trkpt lat="39.836094612255692" lon="2.896961672231555">
<ele>535</ele>
</trkpt>
<trkpt lat="39.835913144052029" lon="2.896898305043578">
<ele>534</ele>
</trkpt>
<trkpt lat="39.835832258686423" lon="2.896867794916034">
<ele>534</ele>
</trkpt>
<trkpt lat="39.835729831829667" lon="2.896834937855601">
<ele>533</ele>
</trkpt>
<trkpt lat="39.835659759119153" lon="2.896813815459609">
<ele>533</ele>
</trkpt>
<trkpt lat="39.835517853498459" lon="2.896750532090664">
<ele>534</ele>
</trkpt>
<trkpt lat="39.835433447733521" lon="2.896705940365791">
<ele>535</ele>
</trkpt>
<trkpt lat="39.835306042805314" lon="2.896567387506366">
<ele>536</ele>
</trkpt>
<trkpt lat="39.835156928747892" lon="2.896400755271316">
<ele>537</ele>
</trkpt>
<trkpt lat="39.834979064762592" lon="2.896213084459305">
<ele>538</ele>
</trkpt>
<trkpt lat="39.8348802421242" lon="2.896102778613567">
<ele>539</ele>
</trkpt>
<trkpt lat="39.834786783903837" lon="2.89601594209671">
<ele>540</ele>
</trkpt>
<trkpt lat="39.834718555212021" lon="2.895940840244293">
<ele>541</ele>
</trkpt>
<trkpt lat="39.834591234102845" lon="2.895877389237285">
<ele>542</ele>
</trkpt>
<trkpt lat="39.834492411464453" lon="2.89584687910974">
<ele>543</ele>
</trkpt>
<trkpt lat="39.834400797262788" lon="2.895853919908404">
<ele>543</ele>
</trkpt>
<trkpt lat="39.834305578842759" lon="2.89585861377418">
<ele>543</ele>
</trkpt>
<trkpt lat="39.834185214713216" lon="2.895863307639957">
<ele>543</ele>
</trkpt>
<trkpt lat="39.83404858969152" lon="2.895870348438621">
<ele>543</ele>
</trkpt>
<trkpt lat="39.833957059308887" lon="2.895882083103061">
<ele>543</ele>
</trkpt>
<trkpt lat="39.833743236958981" lon="2.895889123901725">
<ele>542</ele>
</trkpt>
<trkpt lat="39.833718091249466" lon="2.895839838311076">
<ele>542</ele>
</trkpt>
<trkpt lat="39.833462862297893" lon="2.895584106445313">
<ele>542</ele>
</trkpt>
<trkpt lat="39.833520362153649" lon="2.895440943539143">
<ele>542</ele>
</trkpt>
<trkpt lat="39.833583310246468" lon="2.895382270216942">
<ele>542</ele>
</trkpt>
<trkpt lat="39.833619855344296" lon="2.895368523895741">
<ele>542</ele>
</trkpt>
<trkpt lat="39.833625219762325" lon="2.8953567892313">
<ele>542</ele>
</trkpt>
<trkpt lat="39.833677355200052" lon="2.895293422043324">
<ele>542</ele>
</trkpt>
<trkpt lat="39.833721611648798" lon="2.895211027935147">
<ele>542</ele>
</trkpt>
<trkpt lat="39.833678025752306" lon="2.89508898742497">
<ele>542</ele>
</trkpt>
<trkpt lat="39.833641983568668" lon="2.895063003525138">
<ele>542</ele>
</trkpt>
<trkpt lat="39.833491025492549" lon="2.895070966333151">
<ele>541</ele>
</trkpt>
<trkpt lat="39.833393041044474" lon="2.89508898742497">
<ele>541</ele>
</trkpt>
<trkpt lat="39.833289021626115" lon="2.895014975219965">
<ele>541</ele>
</trkpt>
<trkpt lat="39.833262031897902" lon="2.894969964399934">
<ele>541</ele>
</trkpt>
<trkpt lat="39.833137979730964" lon="2.894778018817306">
<ele>541</ele>
</trkpt>
<trkpt lat="39.833177039399743" lon="2.894706018269062">
<ele>540</ele>
</trkpt>
<trkpt lat="39.833278963342309" lon="2.894716998562217">
<ele>539</ele>
</trkpt>
<trkpt lat="39.83332296833396" lon="2.894718004390597">
<ele>537</ele>
</trkpt>
<trkpt lat="39.833479039371014" lon="2.894655978307128">
<ele>536</ele>
</trkpt>
<trkpt lat="39.833552967756987" lon="2.894571991637349">
<ele>535</ele>
</trkpt>
<trkpt lat="39.833593033254147" lon="2.894500996917486">
<ele>534</ele>
</trkpt>
<trkpt lat="39.833663022145629" lon="2.894406029954553">
<ele>533</ele>
</trkpt>
<trkpt lat="39.833732005208731" lon="2.894303016364574">
<ele>531</ele>
</trkpt>
<trkpt lat="39.833737034350634" lon="2.894246019423008">
<ele>530</ele>
</trkpt>
<trkpt lat="39.833635026589036" lon="2.894162032753229">
<ele>529</ele>
</trkpt>
<trkpt lat="39.833547016605735" lon="2.894182987511158">
<ele>528</ele>
</trkpt>
<trkpt lat="39.83347199857235" lon="2.894197991117835">
<ele>527</ele>
</trkpt>
<trkpt lat="39.833346018567681" lon="2.894193967804313">
<ele>526</ele>
</trkpt>
<trkpt lat="39.833310982212424" lon="2.894181981682777">
<ele>525</ele>
</trkpt>
<trkpt lat="39.83323697000742" lon="2.894043009728193">
<ele>524</ele>
</trkpt>
<trkpt lat="39.833188019692898" lon="2.893921975046396">
<ele>522</ele>
</trkpt>
<trkpt lat="39.833123981952667" lon="2.893830025568605">
<ele>521</ele>
</trkpt>
<trkpt lat="39.833102021366358" lon="2.893718965351582">
<ele>520</ele>
</trkpt>
<trkpt lat="39.832996996119618" lon="2.893605977296829">
<ele>519</ele>
</trkpt>
<trkpt lat="39.832878978922963" lon="2.893530037254095">
<ele>518</ele>
</trkpt>
<trkpt lat="39.832852995023131" lon="2.893504975363612">
<ele>517</ele>
</trkpt>
<trkpt lat="39.832726009190083" lon="2.893270030617714">
<ele>516</ele>
</trkpt>
<trkpt lat="39.832640010863543" lon="2.893185038119555">
<ele>516</ele>
</trkpt>
<trkpt lat="39.832614026963711" lon="2.893181014806032">
<ele>515</ele>
</trkpt>
<trkpt lat="39.832481006160378" lon="2.893159976229072">
<ele>514</ele>
</trkpt>
<trkpt lat="39.832431972026825" lon="2.893153019249439">
<ele>513</ele>
</trkpt>
<trkpt lat="39.832260981202126" lon="2.893175985664129">
<ele>512</ele>
</trkpt>
<trkpt lat="39.832223011180758" lon="2.893172968178988">
<ele>512</ele>
</trkpt>
<trkpt lat="39.83218202367425" lon="2.893169028684497">
<ele>511</ele>
</trkpt>
<trkpt lat="39.832068029791117" lon="2.893115971237421">
<ele>510</ele>
</trkpt>
<trkpt lat="39.832146987318993" lon="2.892946992069483">
<ele>509</ele>
</trkpt>
<trkpt lat="39.832219993695617" lon="2.892878009006381">
<ele>508</ele>
</trkpt>
<trkpt lat="39.832284031435847" lon="2.892868034541607">
<ele>508</ele>
</trkpt>
<trkpt lat="39.832389978691936" lon="2.892840038985014">
<ele>507</ele>
</trkpt>
<trkpt lat="39.83235795982182" lon="2.892686985433102">
<ele>506</ele>
</trkpt>
<trkpt lat="39.832348991185427" lon="2.892667958512902">
<ele>505</ele>
</trkpt>
<trkpt lat="39.832245977595448" lon="2.892589000985026">
<ele>504</ele>
</trkpt>
<trkpt lat="39.832165008410811" lon="2.892497973516583">
<ele>504</ele>
</trkpt>
<trkpt lat="39.832151010632515" lon="2.89248900488019">
<ele>503</ele>
</trkpt>
<trkpt lat="39.83197096735239" lon="2.892298987135291">
<ele>502</ele>
</trkpt>
<trkpt lat="39.832001980394125" lon="2.892270991578698">
<ele>502</ele>
</trkpt>
<trkpt lat="39.832112034782767" lon="2.892216006293893">
<ele>501</ele>
</trkpt>
<trkpt lat="39.832124020904303" lon="2.892199996858835">
<ele>501</ele>
</trkpt>
<trkpt lat="39.832202978432178" lon="2.892049038782716">
<ele>500</ele>
</trkpt>
<trkpt lat="39.8322260286659" lon="2.892009979113936">
<ele>500</ele>
</trkpt>
<trkpt lat="39.832082027569413" lon="2.891885004937649">
<ele>500</ele>
</trkpt>
<trkpt lat="39.831973984837532" lon="2.891872012987733">
<ele>499</ele>
</trkpt>
<trkpt lat="39.831961998715997" lon="2.891867989674211">
<ele>499</ele>
</trkpt>
<trkpt lat="39.831757983192801" lon="2.89171501994133">
<ele>498</ele>
</trkpt>
<trkpt lat="39.831766029819846" lon="2.891670009121299">
<ele>498</ele>
</trkpt>
<trkpt lat="39.831724958494306" lon="2.891557021066546">
<ele>498</ele>
</trkpt>
<trkpt lat="39.831710960716009" lon="2.891537994146347">
<ele>498</ele>
</trkpt>
<trkpt lat="39.831624962389469" lon="2.891327021643519">
<ele>498</ele>
</trkpt>
<trkpt lat="39.831519015133381" lon="2.891230965033174">
<ele>498</ele>
</trkpt>
<trkpt lat="39.831501999869943" lon="2.891215961426497">
<ele>498</ele>
</trkpt>
<trkpt lat="39.831382976844907" lon="2.891095010563731">
<ele>499</ele>
</trkpt>
<trkpt lat="39.831255991011858" lon="2.890991996973753">
<ele>499</ele>
</trkpt>
<trkpt lat="39.831191031262279" lon="2.8909429628402">
<ele>499</ele>
</trkpt>
<trkpt lat="39.831033032387495" lon="2.890827963128686">
<ele>499</ele>
</trkpt>
<trkpt lat="39.831005036830902" lon="2.890806002542377">
<ele>499</ele>
</trkpt>
<trkpt lat="39.830889031291008" lon="2.890699971467257">
<ele>500</ele>
</trkpt>
<trkpt lat="39.830859024077654" lon="2.89068304002285">
<ele>500</ele>
</trkpt>
<trkpt lat="39.830719968304038" lon="2.89064297452569">
<ele>500</ele>
</trkpt>
<trkpt lat="39.830691972747445" lon="2.890622019767761">
<ele>501</ele>
</trkpt>
<trkpt lat="39.830564986914396" lon="2.890443988144398">
<ele>502</ele>
</trkpt>
<trkpt lat="39.8305509891361" lon="2.890438036993146">
<ele>502</ele>
</trkpt>
<trkpt lat="39.83035602606833" lon="2.890393026173115">
<ele>502</ele>
</trkpt>
<trkpt lat="39.830329958349466" lon="2.890321025624871">
<ele>503</ele>
</trkpt>
<trkpt lat="39.83018796890974" lon="2.890222035348415">
<ele>504</ele>
</trkpt>
<trkpt lat="39.830162990838289" lon="2.890171995386481">
<ele>504</ele>
</trkpt>
<trkpt lat="39.830119991675019" lon="2.890010979026556">
<ele>505</ele>
</trkpt>
<trkpt lat="39.829960986971855" lon="2.889930009841919">
<ele>506</ele>
</trkpt>
<trkpt lat="39.829913964495063" lon="2.88988801650703">
<ele>507</ele>
</trkpt>
<trkpt lat="39.829830983653665" lon="2.889733035117388">
<ele>508</ele>
</trkpt>
<trkpt lat="39.829719001427293" lon="2.889605965465307">
<ele>509</ele>
</trkpt>
<trkpt lat="39.82960500754416" lon="2.889489037916064">
<ele>510</ele>
</trkpt>
<trkpt lat="39.829510040581226" lon="2.889380995184183">
<ele>511</ele>
</trkpt>
<trkpt lat="39.829502999782562" lon="2.88937303237617">
<ele>512</ele>
</trkpt>
<trkpt lat="39.829411972314119" lon="2.889230037108064">
<ele>513</ele>
</trkpt>
<trkpt lat="39.829340977594256" lon="2.88909500464797">
<ele>514</ele>
</trkpt>
<trkpt lat="39.829251961782575" lon="2.88892200216651">
<ele>515</ele>
</trkpt>
<trkpt lat="39.829213991761208" lon="2.888812031596899">
<ele>517</ele>
</trkpt>
<trkpt lat="39.829158000648022" lon="2.888711029663682">
<ele>518</ele>
</trkpt>
<trkpt lat="39.829081976786256" lon="2.888592006638646">
<ele>520</ele>
</trkpt>
<trkpt lat="39.829022968187928" lon="2.888491004705429">
<ele>521</ele>
</trkpt>
<trkpt lat="39.829001007601619" lon="2.888462003320456">
<ele>522</ele>
</trkpt>
<trkpt lat="39.828907968476415" lon="2.888586977496743">
<ele>524</ele>
</trkpt>
<trkpt lat="39.828869998455048" lon="2.888525035232306">
<ele>525</ele>
</trkpt>
<trkpt lat="39.828808978199959" lon="2.888404000550509">
<ele>527</ele>
</trkpt>
<trkpt lat="39.828719040378928" lon="2.888294029980898">
<ele>528</ele>
</trkpt>
<trkpt lat="39.828609991818666" lon="2.88823502138257">
<ele>529</ele>
</trkpt>
<trkpt lat="39.828583002090454" lon="2.888242984190583">
<ele>530</ele>
</trkpt>
<trkpt lat="39.828461967408657" lon="2.888267962262034">
<ele>530</ele>
</trkpt>
<trkpt lat="39.828414022922516" lon="2.888301992788911">
<ele>531</ele>
</trkpt>
<trkpt lat="39.828419974073768" lon="2.888425039127469">
<ele>532</ele>
</trkpt>
<trkpt lat="39.828503038734198" lon="2.888588989153504">
<ele>533</ele>
</trkpt>
<trkpt lat="39.828576967120171" lon="2.888722009956837">
<ele>534</ele>
</trkpt>
<trkpt lat="39.828508989885449" lon="2.888731984421611">
<ele>534</ele>
</trkpt>
<trkpt lat="39.828392984345555" lon="2.888769032433629">
<ele>535</ele>
</trkpt>
<trkpt lat="39.828345039859414" lon="2.888776995241642">
<ele>536</ele>
</trkpt>
<trkpt lat="39.828131971880794" lon="2.888779006898403">
<ele>536</ele>
</trkpt>
<trkpt lat="39.828125014901161" lon="2.888783030211926">
<ele>536</ele>
</trkpt>
<trkpt lat="39.827986964955926" lon="2.888800967484713">
<ele>536</ele>
</trkpt>
<trkpt lat="39.827884035184979" lon="2.888802979141474">
<ele>536</ele>
</trkpt>
<trkpt lat="39.827686976641417" lon="2.888801973313093">
<ele>536</ele>
</trkpt>
<trkpt lat="39.827669039368629" lon="2.888799961656332">
<ele>537</ele>
</trkpt>
<trkpt lat="39.827560996636748" lon="2.888739025220275">
<ele>537</ele>
</trkpt>
<trkpt lat="39.827506011351943" lon="2.88870801217854">
<ele>537</ele>
</trkpt>
<trkpt lat="39.827356981113553" lon="2.888647997751832">
<ele>537</ele>
</trkpt>
<trkpt lat="39.827310964465141" lon="2.8886410407722">
<ele>537</ele>
</trkpt>
<trkpt lat="39.827200993895531" lon="2.888618996366859">
<ele>537</ele>
</trkpt>
<trkpt lat="39.826952973380685" lon="2.888655038550496">
<ele>537</ele>
</trkpt>
<trkpt lat="39.826864041388035" lon="2.888741036877036">
<ele>536</ele>
</trkpt>
<trkpt lat="39.826791035011411" lon="2.888821000233293">
<ele>536</ele>
</trkpt>
<trkpt lat="39.826766978949308" lon="2.888909010216594">
<ele>536</ele>
</trkpt>
<trkpt lat="39.826458021998405" lon="2.888960978016257">
<ele>536</ele>
</trkpt>
<trkpt lat="39.826369006186724" lon="2.888961983844638">
<ele>536</ele>
</trkpt>
<trkpt lat="39.826194997876883" lon="2.889046976342797">
<ele>535</ele>
</trkpt>
<trkpt lat="39.826132971793413" lon="2.889056028798223">
<ele>535</ele>
</trkpt>
<trkpt lat="39.825949994847178" lon="2.889078995212913">
<ele>535</ele>
</trkpt>
<trkpt lat="39.82592904008925" lon="2.889087041839957">
<ele>534</ele>
</trkpt>
<trkpt lat="39.825799958780408" lon="2.889167005196214">
<ele>533</ele>
</trkpt>
<trkpt lat="39.825708009302616" lon="2.889258032664657">
<ele>532</ele>
</trkpt>
<trkpt lat="39.825708009302616" lon="2.889258032664657">
<ele>531</ele>
</trkpt>
<trkpt lat="39.825564008206129" lon="2.889322992414236">
<ele>530</ele>
</trkpt>
<trkpt lat="39.825540035963058" lon="2.88932902738452">
<ele>530</ele>
</trkpt>
<trkpt lat="39.825356975197792" lon="2.889339001849294">
<ele>529</ele>
</trkpt>
<trkpt lat="39.825219009071589" lon="2.889374038204551">
<ele>528</ele>
</trkpt>
<trkpt lat="39.825210040435195" lon="2.889377977699041">
<ele>527</ele>
</trkpt>
<trkpt lat="39.825095040723681" lon="2.889451989904046">
<ele>526</ele>
</trkpt>
<trkpt lat="39.82496403157711" lon="2.889477973803878">
<ele>525</ele>
</trkpt>
<trkpt lat="39.824848026037216" lon="2.889462970197201">
<ele>524</ele>
</trkpt>
<trkpt lat="39.82474802993238" lon="2.88946095854044">
<ele>523</ele>
</trkpt>
<trkpt lat="39.82462196610868" lon="2.889487026259303">
<ele>522</ele>
</trkpt>
<trkpt lat="39.824523981660604" lon="2.889487026259303">
<ele>521</ele>
</trkpt>
<trkpt lat="39.824431026354432" lon="2.889520972967148">
<ele>520</ele>
</trkpt>
<trkpt lat="39.824326001107693" lon="2.889530025422573">
<ele>519</ele>
</trkpt>
<trkpt lat="39.824294988065958" lon="2.889522984623909">
<ele>518</ele>
</trkpt>
<trkpt lat="39.824236985296011" lon="2.889531031250954">
<ele>517</ele>
</trkpt>
<trkpt lat="39.824137995019555" lon="2.889533964917064">
<ele>516</ele>
</trkpt>
<trkpt lat="39.824132965877652" lon="2.889537988230586">
<ele>514</ele>
</trkpt>
<trkpt lat="39.824049985036254" lon="2.889810986816883">
<ele>513</ele>
</trkpt>
<trkpt lat="39.824025006964803" lon="2.889912994578481">
<ele>512</ele>
</trkpt>
<trkpt lat="39.823964992538095" lon="2.89001801982522">
<ele>510</ele>
</trkpt>
<trkpt lat="39.823962980881333" lon="2.890105023980141">
<ele>508</ele>
</trkpt>
<trkpt lat="39.823876982554793" lon="2.890205020084977">
<ele>507</ele>
</trkpt>
<trkpt lat="39.823776986449957" lon="2.890268974006176">
<ele>506</ele>
</trkpt>
<trkpt lat="39.823767011985183" lon="2.890444993972778">
<ele>504</ele>
</trkpt>
<trkpt lat="39.823710015043616" lon="2.890493022277951">
<ele>502</ele>
</trkpt>
<trkpt lat="39.823692999780178" lon="2.890523029491305">
<ele>501</ele>
</trkpt>
<trkpt lat="39.823694005608559" lon="2.890523029491305">
<ele>502</ele>
</trkpt>
<trkpt lat="39.823694005608559" lon="2.890523029491305">
<ele>503</ele>
</trkpt>
<trkpt lat="39.823694005608559" lon="2.890523029491305">
<ele>504</ele>
</trkpt>
<trkpt lat="39.82380598783493" lon="2.890435019508004">
<ele>505</ele>
</trkpt>
<trkpt lat="39.823811016976833" lon="2.890382967889309">
<ele>506</ele>
</trkpt>
<trkpt lat="39.823883017525077" lon="2.890247013419867">
<ele>506</ele>
</trkpt>
<trkpt lat="39.823964992538095" lon="2.890188004821539">
<ele>507</ele>
</trkpt>
<trkpt lat="39.823989970609546" lon="2.890085997059941">
<ele>508</ele>
</trkpt>
<trkpt lat="39.82406297698617" lon="2.889884999021888">
<ele>509</ele>
</trkpt>
<trkpt lat="39.824068006128073" lon="2.889841999858618">
<ele>510</ele>
</trkpt>
<trkpt lat="39.824002040550113" lon="2.889639995992184">
<ele>508</ele>
</trkpt>
<trkpt lat="39.823927022516727" lon="2.889620969071984">
<ele>506</ele>
</trkpt>
<trkpt lat="39.823813028633595" lon="2.889624992385507">
<ele>504</ele>
</trkpt>
<trkpt lat="39.823766006156802" lon="2.889627004042268">
<ele>502</ele>
</trkpt>
<trkpt lat="39.823660980910063" lon="2.889623986557126">
<ele>500</ele>
</trkpt>
<trkpt lat="39.82361102476716" lon="2.889616023749113">
<ele>499</ele>
</trkpt>
<trkpt lat="39.823442967608571" lon="2.889603031799197">
<ele>497</ele>
</trkpt>
<trkpt lat="39.823394017294049" lon="2.889585010707378">
<ele>495</ele>
</trkpt>
<trkpt lat="39.823195030912757" lon="2.889447966590524">
<ele>493</ele>
</trkpt>
<trkpt lat="39.823157982900739" lon="2.889429023489356">
<ele>491</ele>
</trkpt>
<trkpt lat="39.822992021217942" lon="2.889313017949462">
<ele>490</ele>
</trkpt>
<trkpt lat="39.822976011782885" lon="2.889303965494037">
<ele>488</ele>
</trkpt>
<trkpt lat="39.822855982929468" lon="2.88932902738452">
<ele>487</ele>
</trkpt>
<trkpt lat="39.822849025949836" lon="2.889322992414236">
<ele>485</ele>
</trkpt>
<trkpt lat="39.822707958519459" lon="2.889379989355803">
<ele>484</ele>
</trkpt>
<trkpt lat="39.822701001539826" lon="2.889389041811228">
<ele>483</ele>
</trkpt>
<trkpt lat="39.822608968243003" lon="2.889432040974498">
<ele>481</ele>
</trkpt>
<trkpt lat="39.822575021535158" lon="2.88941896520555">
<ele>480</ele>
</trkpt>
<trkpt lat="39.822553982958198" lon="2.889380995184183">
<ele>478</ele>
</trkpt>
<trkpt lat="39.822522969916463" lon="2.88926700130105">
<ele>477</ele>
</trkpt>
<trkpt lat="39.822467984631658" lon="2.889191983267665">
<ele>477</ele>
</trkpt>
<trkpt lat="39.822426997125149" lon="2.888986961916089">
<ele>476</ele>
</trkpt>
<trkpt lat="39.822410987690091" lon="2.888895012438297">
<ele>476</ele>
</trkpt>
<trkpt lat="39.822422973811626" lon="2.888768026605249">
<ele>476</ele>
</trkpt>
<trkpt lat="39.822388021275401" lon="2.888520006090403">
<ele>476</ele>
</trkpt>
<trkpt lat="39.822371006011963" lon="2.888412969186902">
<ele>475</ele>
</trkpt>
<trkpt lat="39.822366982698441" lon="2.888169977813959">
<ele>475</ele>
</trkpt>
<trkpt lat="39.822356002405286" lon="2.888100994750857">
<ele>475</ele>
</trkpt>
<trkpt lat="39.822345022112131" lon="2.887840988114476">
<ele>474</ele>
</trkpt>
<trkpt lat="39.82236597687006" lon="2.887737974524498">
<ele>474</ele>
</trkpt>
<trkpt lat="39.822391038760543" lon="2.887671003118157">
<ele>474</ele>
</trkpt>
<trkpt lat="39.822349967435002" lon="2.887510992586613">
<ele>474</ele>
</trkpt>
<trkpt lat="39.822334963828325" lon="2.887426000088453">
<ele>474</ele>
</trkpt>
<trkpt lat="39.822340998798609" lon="2.887221984565258">
<ele>474</ele>
</trkpt>
<trkpt lat="39.822426997125149" lon="2.887064991518855">
<ele>474</ele>
</trkpt>
<trkpt lat="39.822439989075065" lon="2.887048982083798">
<ele>473</ele>
</trkpt>
<trkpt lat="39.822506038472056" lon="2.886921996250749">
<ele>473</ele>
</trkpt>
<trkpt lat="39.822582984343171" lon="2.886585965752602">
<ele>473</ele>
</trkpt>
<trkpt lat="39.822583990171552" lon="2.886562999337912">
<ele>473</ele>
</trkpt>
<trkpt lat="39.822591030970216" lon="2.886371975764632">
<ele>473</ele>
</trkpt>
<trkpt lat="39.82262103818357" lon="2.886227974668145">
<ele>473</ele>
</trkpt>
<trkpt lat="39.822603017091751" lon="2.885950030758977">
<ele>473</ele>
</trkpt>
<trkpt lat="39.822592036798596" lon="2.885869983583689">
<ele>472</ele>
</trkpt>
<trkpt lat="39.822560017928481" lon="2.885682983323932">
<ele>472</ele>
</trkpt>
<trkpt lat="39.822527999058366" lon="2.885496988892555">
<ele>472</ele>
</trkpt>
<trkpt lat="39.822511989623308" lon="2.88546203635633">
<ele>472</ele>
</trkpt>
<trkpt lat="39.82249497435987" lon="2.885284004732966">
<ele>472</ele>
</trkpt>
<trkpt lat="39.822468990460038" lon="2.885049981996417">
<ele>471</ele>
</trkpt>
<trkpt lat="39.822450969368219" lon="2.884908998385072">
<ele>471</ele>
</trkpt>
<trkpt lat="39.822479970753193" lon="2.884718980640173">
<ele>471</ele>
</trkpt>
<trkpt lat="39.822461027652025" lon="2.884653015062213">
<ele>471</ele>
</trkpt>
<trkpt lat="39.822457004338503" lon="2.884642034769058">
<ele>472</ele>
</trkpt>
<trkpt lat="39.822256006300449" lon="2.884478000923991">
<ele>472</ele>
</trkpt>
<trkpt lat="39.822178976610303" lon="2.884522005915642">
<ele>472</ele>
</trkpt>
<trkpt lat="39.822013014927506" lon="2.884571962058544">
<ele>472</ele>
</trkpt>
<trkpt lat="39.822003962472081" lon="2.884572967886925">
<ele>473</ele>
</trkpt>
<trkpt lat="39.821851998567581" lon="2.884617978706956">
<ele>473</ele>
</trkpt>
<trkpt lat="39.821702968329191" lon="2.884661983698607">
<ele>473</ele>
</trkpt>
<trkpt lat="39.821695005521178" lon="2.884665001183748">
<ele>474</ele>
</trkpt>
<trkpt lat="39.821557039394975" lon="2.884706994518638">
<ele>474</ele>
</trkpt>
<trkpt lat="39.821537006646395" lon="2.884706994518638">
<ele>475</ele>
</trkpt>
<trkpt lat="39.821485038846731" lon="2.88475401699543">
<ele>475</ele>
</trkpt>
<trkpt lat="39.821401974186301" lon="2.884801039472222">
<ele>476</ele>
</trkpt>
<trkpt lat="39.821322010830045" lon="2.884772038087249">
<ele>476</ele>
</trkpt>
<trkpt lat="39.821160994470119" lon="2.884788969531655">
<ele>477</ele>
</trkpt>
<trkpt lat="39.821070972830057" lon="2.8847970161587">
<ele>477</ele>
</trkpt>
<trkpt lat="39.820944992825389" lon="2.884781006723642">
<ele>478</ele>
</trkpt>
<trkpt lat="39.820780958980322" lon="2.884692996740341">
<ele>478</ele>
</trkpt>
<trkpt lat="39.820639975368977" lon="2.884617978706956">
<ele>479</ele>
</trkpt>
<trkpt lat="39.820630000904202" lon="2.884614039212465">
<ele>479</ele>
</trkpt>
<trkpt lat="39.82053997926414" lon="2.884624013677239">
<ele>480</ele>
</trkpt>
</trkseg>
</trk>
</gpx>
