<?xml version="1.0" encoding="UTF-8"?>
<gpx version="1.1"
creator="Smartprofil-Office - http://www.rother.de"
xmlns:xsi="http://www.w3.org/2001/XMLSchema-instance"
xmlns="http://www.topografix.com/GPX/1/1"
xsi:schemaLocation="http://www.topografix.com/GPX/1/1 http://www.topografix.com/GPX/1/1/gpx.xsd">
<metadata>

<bounds minlat="39.77864102460444" minlon="2.798958867788315" maxlat="39.7941969987005" maxlon="2.841016994789243"/>
</metadata>
<wpt lat="39.787209257483482" lon="2.798958867788315">
<ele>740</ele>
<name>37_Font des Noguer (1)</name>
<cmt></cmt>
<desc></desc>
<sym>Crossing</sym>
</wpt>

<wpt lat="39.789603967219591" lon="2.824966991320252">
<ele>808</ele>
<name>37_Coll des Coloms (2)</name>
<cmt></cmt>
<desc></desc>
<sym>Crossing</sym>
</wpt>

<wpt lat="39.781517023220658" lon="2.841016994789243">
<ele>704</ele>
<name>37_Mirador Massa nella (3)</name>
<cmt></cmt>
<desc></desc>
<sym>Crossing</sym>
</wpt>

<trk>
<name>Mal_37_CanaletadeMassanella</name>
<trkseg>
<trkpt lat="39.787209257483482" lon="2.798958867788315">
<ele>740</ele>
</trkpt>
<trkpt lat="39.787239013239741" lon="2.799075040966272">
<ele>739</ele>
</trkpt>
<trkpt lat="39.787330962717533" lon="2.799195991829038">
<ele>739</ele>
</trkpt>
<trkpt lat="39.787395000457764" lon="2.799346027895808">
<ele>738</ele>
</trkpt>
<trkpt lat="39.787478987127542" lon="2.799475025385618">
<ele>738</ele>
</trkpt>
<trkpt lat="39.787459960207343" lon="2.799475025385618">
<ele>737</ele>
</trkpt>
<trkpt lat="39.787502037361264" lon="2.799604022875428">
<ele>736</ele>
</trkpt>
<trkpt lat="39.787566997110844" lon="2.799690021201968">
<ele>736</ele>
</trkpt>
<trkpt lat="39.787650983780622" lon="2.799819018691778">
<ele>735</ele>
</trkpt>
<trkpt lat="39.787758020684123" lon="2.799990009516478">
<ele>735</ele>
</trkpt>
<trkpt lat="39.787822980433702" lon="2.800076007843018">
<ele>734</ele>
</trkpt>
<trkpt lat="39.787888024002314" lon="2.800205005332828">
<ele>734</ele>
</trkpt>
<trkpt lat="39.787909984588623" lon="2.800248004496098">
<ele>734</ele>
</trkpt>
<trkpt lat="39.787975028157234" lon="2.800375996157527">
<ele>734</ele>
</trkpt>
<trkpt lat="39.788017021492124" lon="2.800441039726138">
<ele>734</ele>
</trkpt>
<trkpt lat="39.788123974576592" lon="2.800547992810607">
<ele>734</ele>
</trkpt>
<trkpt lat="39.788165967911482" lon="2.800719989463687">
<ele>733</ele>
</trkpt>
<trkpt lat="39.788211984559894" lon="2.800762988626957">
<ele>733</ele>
</trkpt>
<trkpt lat="39.788295971229672" lon="2.800827026367188">
<ele>733</ele>
</trkpt>
<trkpt lat="39.788445001468062" lon="2.801105976104736">
<ele>733</ele>
</trkpt>
<trkpt lat="39.788445001468062" lon="2.801127014681697">
<ele>733</ele>
</trkpt>
<trkpt lat="39.788681035861373" lon="2.801256012171507">
<ele>733</ele>
</trkpt>
<trkpt lat="39.788704002276063" lon="2.801299011334777">
<ele>733</ele>
</trkpt>
<trkpt lat="39.788897959515452" lon="2.801684997975826">
<ele>733</ele>
</trkpt>
<trkpt lat="39.789368016645312" lon="2.802199982106686">
<ele>733</ele>
</trkpt>
<trkpt lat="39.789432976394892" lon="2.802242981269956">
<ele>733</ele>
</trkpt>
<trkpt lat="39.789539007470012" lon="2.802500976249576">
<ele>733</ele>
</trkpt>
<trkpt lat="39.789539007470012" lon="2.802714966237545">
<ele>733</ele>
</trkpt>
<trkpt lat="39.789775963872671" lon="2.802757965400815">
<ele>733</ele>
</trkpt>
<trkpt lat="39.789883000776172" lon="2.802866008132696">
<ele>733</ele>
</trkpt>
<trkpt lat="39.789905967190862" lon="2.802972961217165">
<ele>733</ele>
</trkpt>
<trkpt lat="39.790011998265982" lon="2.803144035860896">
<ele>733</ele>
</trkpt>
<trkpt lat="39.790142001584172" lon="2.803337993100286">
<ele>734</ele>
</trkpt>
<trkpt lat="39.790225988253951" lon="2.803488029167056">
<ele>734</ele>
</trkpt>
<trkpt lat="39.790313998237252" lon="2.803617026656866">
<ele>734</ele>
</trkpt>
<trkpt lat="39.790421035140753" lon="2.803680980578065">
<ele>734</ele>
</trkpt>
<trkpt lat="39.790504015982151" lon="2.803723979741335">
<ele>735</ele>
</trkpt>
<trkpt lat="39.790676012635231" lon="2.803788017481566">
<ele>735</ele>
</trkpt>
<trkpt lat="39.790806015953422" lon="2.803831016644836">
<ele>735</ele>
</trkpt>
<trkpt lat="39.79091296903789" lon="2.803852977231145">
<ele>736</ele>
</trkpt>
<trkpt lat="39.790999973192811" lon="2.803937969729304">
<ele>736</ele>
</trkpt>
<trkpt lat="39.7910419665277" lon="2.804023968055844">
<ele>736</ele>
</trkpt>
<trkpt lat="39.791107010096312" lon="2.804195964708924">
<ele>736</ele>
</trkpt>
<trkpt lat="39.791107010096312" lon="2.804238963872194">
<ele>737</ele>
</trkpt>
<trkpt lat="39.79119099676609" lon="2.804431999102235">
<ele>737</ele>
</trkpt>
<trkpt lat="39.79121396318078" lon="2.804431999102235">
<ele>737</ele>
</trkpt>
<trkpt lat="39.791321000084281" lon="2.804560996592045">
<ele>737</ele>
</trkpt>
<trkpt lat="39.791321000084281" lon="2.804645989090204">
<ele>737</ele>
</trkpt>
<trkpt lat="39.791321000084281" lon="2.804925022646785">
<ele>738</ele>
</trkpt>
<trkpt lat="39.791279006749392" lon="2.805140018463135">
<ele>738</ele>
</trkpt>
<trkpt lat="39.790957979857922" lon="2.805355014279485">
<ele>738</ele>
</trkpt>
<trkpt lat="39.790848009288311" lon="2.805418968200684">
<ele>738</ele>
</trkpt>
<trkpt lat="39.790764022618532" lon="2.805504966527224">
<ele>738</ele>
</trkpt>
<trkpt lat="39.790698979049921" lon="2.805655002593994">
<ele>739</ele>
</trkpt>
<trkpt lat="39.790676012635231" lon="2.805655002593994">
<ele>739</ele>
</trkpt>
<trkpt lat="39.790656985715032" lon="2.805805038660765">
<ele>739</ele>
</trkpt>
<trkpt lat="39.790656985715032" lon="2.805934036150575">
<ele>739</ele>
</trkpt>
<trkpt lat="39.790676012635231" lon="2.806040989235044">
<ele>739</ele>
</trkpt>
<trkpt lat="39.790698979049921" lon="2.806255985051394">
<ele>740</ele>
</trkpt>
<trkpt lat="39.790698979049921" lon="2.806277023628354">
<ele>740</ele>
</trkpt>
<trkpt lat="39.790764022618532" lon="2.806492019444704">
<ele>740</ele>
</trkpt>
<trkpt lat="39.790806015953422" lon="2.806621016934514">
<ele>740</ele>
</trkpt>
<trkpt lat="39.790828982368112" lon="2.806706009432674">
<ele>740</ele>
</trkpt>
<trkpt lat="39.790870975703001" lon="2.806921005249023">
<ele>740</ele>
</trkpt>
<trkpt lat="39.790894025936723" lon="2.807007003575563">
<ele>740</ele>
</trkpt>
<trkpt lat="39.79091296903789" lon="2.807093001902103">
<ele>740</ele>
</trkpt>
<trkpt lat="39.790999973192811" lon="2.807286037132144">
<ele>741</ele>
</trkpt>
<trkpt lat="39.7910419665277" lon="2.807415034621954">
<ele>741</ele>
</trkpt>
<trkpt lat="39.791065016761422" lon="2.807521987706423">
<ele>741</ele>
</trkpt>
<trkpt lat="39.79101900011301" lon="2.807735977694392">
<ele>741</ele>
</trkpt>
<trkpt lat="39.7910419665277" lon="2.807844020426273">
<ele>741</ele>
</trkpt>
<trkpt lat="39.791065016761422" lon="2.807907974347472">
<ele>741</ele>
</trkpt>
<trkpt lat="39.79108395986259" lon="2.808036971837282">
<ele>741</ele>
</trkpt>
<trkpt lat="39.791129976511002" lon="2.808144008740783">
<ele>741</ele>
</trkpt>
<trkpt lat="39.79119099676609" lon="2.808293960988522">
<ele>741</ele>
</trkpt>
<trkpt lat="39.79121396318078" lon="2.808402003720403">
<ele>742</ele>
</trkpt>
<trkpt lat="39.791256040334702" lon="2.808509040623903">
<ele>742</ele>
</trkpt>
<trkpt lat="39.791301973164082" lon="2.808615993708372">
<ele>742</ele>
</trkpt>
<trkpt lat="39.791343966498971" lon="2.808701992034912">
<ele>742</ele>
</trkpt>
<trkpt lat="39.79136299341917" lon="2.808916987851262">
<ele>742</ele>
</trkpt>
<trkpt lat="39.79138595983386" lon="2.809044979512692">
<ele>742</ele>
</trkpt>
<trkpt lat="39.79138595983386" lon="2.809110023081303">
<ele>742</ele>
</trkpt>
<trkpt lat="39.79136299341917" lon="2.809302974492312">
<ele>743</ele>
</trkpt>
<trkpt lat="39.791343966498971" lon="2.809453010559082">
<ele>743</ele>
</trkpt>
<trkpt lat="39.791343966498971" lon="2.809559963643551">
<ele>744</ele>
</trkpt>
<trkpt lat="39.791343966498971" lon="2.809688961133361">
<ele>744</ele>
</trkpt>
<trkpt lat="39.79136299341917" lon="2.809817958623171">
<ele>744</ele>
</trkpt>
<trkpt lat="39.791343966498971" lon="2.809881996363401">
<ele>745</ele>
</trkpt>
<trkpt lat="39.79136299341917" lon="2.809989033266902">
<ele>745</ele>
</trkpt>
<trkpt lat="39.79138595983386" lon="2.810139991343021">
<ele>746</ele>
</trkpt>
<trkpt lat="39.791409010067582" lon="2.810267983004451">
<ele>746</ele>
</trkpt>
<trkpt lat="39.791428036987782" lon="2.810419024899602">
<ele>746</ele>
</trkpt>
<trkpt lat="39.791428036987782" lon="2.810547016561031">
<ele>746</ele>
</trkpt>
<trkpt lat="39.791451003402472" lon="2.810611976310611">
<ele>746</ele>
</trkpt>
<trkpt lat="39.791472963988781" lon="2.810805011540651">
<ele>746</ele>
</trkpt>
<trkpt lat="39.79149199090898" lon="2.81095496378839">
<ele>746</ele>
</trkpt>
<trkpt lat="39.791515041142702" lon="2.811019001528621">
<ele>745</ele>
</trkpt>
<trkpt lat="39.791557034477592" lon="2.811190998181701">
<ele>745</ele>
</trkpt>
<trkpt lat="39.791621994227171" lon="2.811298035085201">
<ele>745</ele>
</trkpt>
<trkpt lat="39.791599027812481" lon="2.811362994834781">
<ele>745</ele>
</trkpt>
<trkpt lat="39.791621994227171" lon="2.811405993998051">
<ele>745</ele>
</trkpt>
<trkpt lat="39.791644960641861" lon="2.811405993998051">
<ele>745</ele>
</trkpt>
<trkpt lat="39.791644960641861" lon="2.81161998398602">
<ele>745</ele>
</trkpt>
<trkpt lat="39.791644960641861" lon="2.811685027554631">
<ele>746</ele>
</trkpt>
<trkpt lat="39.791644960641861" lon="2.811728026717901">
<ele>746</ele>
</trkpt>
<trkpt lat="39.791599027812481" lon="2.811813019216061">
<ele>746</ele>
</trkpt>
<trkpt lat="39.791580000892282" lon="2.811942016705871">
<ele>746</ele>
</trkpt>
<trkpt lat="39.791599027812481" lon="2.81204896979034">
<ele>746</ele>
</trkpt>
<trkpt lat="39.791771024465561" lon="2.81217796728015">
<ele>747</ele>
</trkpt>
<trkpt lat="39.791923994198442" lon="2.812243010848761">
<ele>747</ele>
</trkpt>
<trkpt lat="39.792030025273561" lon="2.812243010848761">
<ele>747</ele>
</trkpt>
<trkpt lat="39.79213697835803" lon="2.81226396560669">
<ele>747</ele>
</trkpt>
<trkpt lat="39.792244015261531" lon="2.812349963933229">
<ele>747</ele>
</trkpt>
<trkpt lat="39.79230897501111" lon="2.812392963096499">
<ele>747</ele>
</trkpt>
<trkpt lat="39.792416011914611" lon="2.81254299916327">
<ele>747</ele>
</trkpt>
<trkpt lat="39.7924580052495" lon="2.812650036066771">
<ele>746</ele>
</trkpt>
<trkpt lat="39.792503016069531" lon="2.812779033556581">
<ele>746</ele>
</trkpt>
<trkpt lat="39.792545009404421" lon="2.812908031046391">
<ele>746</ele>
</trkpt>
<trkpt lat="39.79258700273931" lon="2.813014984130859">
<ele>746</ele>
</trkpt>
<trkpt lat="39.79265196248889" lon="2.813143981620669">
<ele>746</ele>
</trkpt>
<trkpt lat="39.792675012722611" lon="2.813271973282099">
<ele>746</ele>
</trkpt>
<trkpt lat="39.792717006057501" lon="2.81338001601398">
<ele>746</ele>
</trkpt>
<trkpt lat="39.79278196580708" lon="2.81346601434052">
<ele>747</ele>
</trkpt>
<trkpt lat="39.79282395914197" lon="2.813594006001949">
<ele>747</ele>
</trkpt>
<trkpt lat="39.792866036295891" lon="2.813723003491759">
<ele>747</ele>
</trkpt>
<trkpt lat="39.79290802963078" lon="2.813809001818299">
<ele>748</ele>
</trkpt>
<trkpt lat="39.79297298938036" lon="2.81400203704834">
<ele>748</ele>
</trkpt>
<trkpt lat="39.79297298938036" lon="2.81404503621161">
<ele>748</ele>
</trkpt>
<trkpt lat="39.793018000200391" lon="2.81417403370142">
<ele>748</ele>
</trkpt>
<trkpt lat="39.79305999353528" lon="2.81426003202796">
<ele>749</ele>
</trkpt>
<trkpt lat="39.79305999353528" lon="2.814345024526119">
<ele>749</ele>
</trkpt>
<trkpt lat="39.79310198687017" lon="2.814517021179199">
<ele>749</ele>
</trkpt>
<trkpt lat="39.793143980205059" lon="2.814646018669009">
<ele>749</ele>
</trkpt>
<trkpt lat="39.793167030438781" lon="2.814752971753478">
<ele>749</ele>
</trkpt>
<trkpt lat="39.793167030438781" lon="2.814903007820249">
<ele>749</ele>
</trkpt>
<trkpt lat="39.793167030438781" lon="2.815052960067987">
<ele>750</ele>
</trkpt>
<trkpt lat="39.793143980205059" lon="2.815225040540099">
<ele>750</ele>
</trkpt>
<trkpt lat="39.793143980205059" lon="2.815397037193179">
<ele>750</ele>
</trkpt>
<trkpt lat="39.793143980205059" lon="2.815568028017879">
<ele>750</ele>
</trkpt>
<trkpt lat="39.793143980205059" lon="2.815718986093998">
<ele>750</ele>
</trkpt>
<trkpt lat="39.793189996853471" lon="2.815869022160769">
<ele>750</ele>
</trkpt>
<trkpt lat="39.79327398352325" lon="2.816018974408507">
<ele>750</ele>
</trkpt>
<trkpt lat="39.793339027091861" lon="2.816147971898317">
<ele>750</ele>
</trkpt>
<trkpt lat="39.793361993506551" lon="2.816276969388127">
<ele>751</ele>
</trkpt>
<trkpt lat="39.793361993506551" lon="2.816318962723017">
<ele>751</ele>
</trkpt>
<trkpt lat="39.79327398352325" lon="2.816470004618168">
<ele>751</ele>
</trkpt>
<trkpt lat="39.79320902377367" lon="2.816597996279597">
<ele>751</ele>
</trkpt>
<trkpt lat="39.79310198687017" lon="2.816749038174748">
<ele>751</ele>
</trkpt>
<trkpt lat="39.79307902045548" lon="2.816877029836178">
<ele>752</ele>
</trkpt>
<trkpt lat="39.79303702712059" lon="2.817006027325988">
<ele>752</ele>
</trkpt>
<trkpt lat="39.79305999353528" lon="2.817155979573727">
<ele>752</ele>
</trkpt>
<trkpt lat="39.79307902045548" lon="2.817264022305608">
<ele>752</ele>
</trkpt>
<trkpt lat="39.793143980205059" lon="2.817392013967037">
<ele>752</ele>
</trkpt>
<trkpt lat="39.793297033756971" lon="2.817456973716617">
<ele>752</ele>
</trkpt>
<trkpt lat="39.79344598017633" lon="2.817499972879887">
<ele>752</ele>
</trkpt>
<trkpt lat="39.79355201125145" lon="2.817564010620117">
<ele>752</ele>
</trkpt>
<trkpt lat="39.793594004586339" lon="2.817650008946657">
<ele>752</ele>
</trkpt>
<trkpt lat="39.793640021234751" lon="2.817822005599737">
<ele>752</ele>
</trkpt>
<trkpt lat="39.79368201456964" lon="2.817863998934627">
<ele>752</ele>
</trkpt>
<trkpt lat="39.793766001239419" lon="2.817928958684206">
<ele>752</ele>
</trkpt>
<trkpt lat="39.79387697763741" lon="2.817992996424437">
<ele>752</ele>
</trkpt>
<trkpt lat="39.793937997892499" lon="2.818035995587707">
<ele>752</ele>
</trkpt>
<trkpt lat="39.79402500204742" lon="2.818121993914247">
<ele>752</ele>
</trkpt>
<trkpt lat="39.79413203895092" lon="2.818207992240787">
<ele>753</ele>
</trkpt>
<trkpt lat="39.7941969987005" lon="2.818272029981017">
<ele>753</ele>
</trkpt>
<trkpt lat="39.7941969987005" lon="2.818421982228756">
<ele>753</ele>
</trkpt>
<trkpt lat="39.79417403228581" lon="2.818550979718566">
<ele>753</ele>
</trkpt>
<trkpt lat="39.79413203895092" lon="2.818679977208376">
<ele>753</ele>
</trkpt>
<trkpt lat="39.794108988717198" lon="2.818722976371646">
<ele>754</ele>
</trkpt>
<trkpt lat="39.79402500204742" lon="2.818808974698186">
<ele>754</ele>
</trkpt>
<trkpt lat="39.793960964307189" lon="2.818936966359615">
<ele>754</ele>
</trkpt>
<trkpt lat="39.7939189709723" lon="2.818979965522885">
<ele>754</ele>
</trkpt>
<trkpt lat="39.79385401122272" lon="2.819088008254767">
<ele>754</ele>
</trkpt>
<trkpt lat="39.793788967654109" lon="2.819194961339235">
<ele>754</ele>
</trkpt>
<trkpt lat="39.79374697431922" lon="2.819344997406006">
<ele>754</ele>
</trkpt>
<trkpt lat="39.79370498098433" lon="2.819495033472776">
<ele>754</ele>
</trkpt>
<trkpt lat="39.79368201456964" lon="2.819644985720515">
<ele>755</ele>
</trkpt>
<trkpt lat="39.793658964335918" lon="2.819753028452396">
<ele>755</ele>
</trkpt>
<trkpt lat="39.793640021234751" lon="2.819881020113826">
<ele>755</ele>
</trkpt>
<trkpt lat="39.793640021234751" lon="2.820031978189945">
<ele>755</ele>
</trkpt>
<trkpt lat="39.793640021234751" lon="2.820074977353215">
<ele>755</ele>
</trkpt>
<trkpt lat="39.793616971001029" lon="2.820311011746526">
<ele>755</ele>
</trkpt>
<trkpt lat="39.793594004586339" lon="2.820460963994265">
<ele>755</ele>
</trkpt>
<trkpt lat="39.79357497766614" lon="2.820589961484075">
<ele>755</ele>
</trkpt>
<trkpt lat="39.79355201125145" lon="2.820696998387575">
<ele>755</ele>
</trkpt>
<trkpt lat="39.79351001791656" lon="2.820910988375545">
<ele>756</ele>
</trkpt>
<trkpt lat="39.793468024581671" lon="2.821082985028625">
<ele>756</ele>
</trkpt>
<trkpt lat="39.79338102042675" lon="2.821297980844975">
<ele>756</ele>
</trkpt>
<trkpt lat="39.793361993506551" lon="2.821425972506404">
<ele>756</ele>
</trkpt>
<trkpt lat="39.793339027091861" lon="2.821534015238285">
<ele>756</ele>
</trkpt>
<trkpt lat="39.793297033756971" lon="2.821662006899715">
<ele>756</ele>
</trkpt>
<trkpt lat="39.79325101710856" lon="2.821791004389525">
<ele>756</ele>
</trkpt>
<trkpt lat="39.79320902377367" lon="2.821898041293025">
<ele>756</ele>
</trkpt>
<trkpt lat="39.793143980205059" lon="2.822006000205874">
<ele>756</ele>
</trkpt>
<trkpt lat="39.79310198687017" lon="2.822113037109375">
<ele>756</ele>
</trkpt>
<trkpt lat="39.79307902045548" lon="2.822219990193844">
<ele>756</ele>
</trkpt>
<trkpt lat="39.793018000200391" lon="2.822348987683654">
<ele>757</ele>
</trkpt>
<trkpt lat="39.79297298938036" lon="2.822456024587154">
<ele>757</ele>
</trkpt>
<trkpt lat="39.79290802963078" lon="2.822585022076964">
<ele>757</ele>
</trkpt>
<trkpt lat="39.792889002710581" lon="2.822606982663274">
<ele>757</ele>
</trkpt>
<trkpt lat="39.79280099272728" lon="2.822714019566774">
<ele>757</ele>
</trkpt>
<trkpt lat="39.792717006057501" lon="2.822800017893314">
<ele>757</ele>
</trkpt>
<trkpt lat="39.7926289960742" lon="2.822906970977783">
<ele>757</ele>
</trkpt>
<trkpt lat="39.79256403632462" lon="2.823014007881284">
<ele>757</ele>
</trkpt>
<trkpt lat="39.792503016069531" lon="2.823100006207824">
<ele>757</ele>
</trkpt>
<trkpt lat="39.792438978329301" lon="2.823186004534364">
<ele>757</ele>
</trkpt>
<trkpt lat="39.792374018579721" lon="2.823315002024174">
<ele>757</ele>
</trkpt>
<trkpt lat="39.79228600859642" lon="2.823442993685603">
<ele>757</ele>
</trkpt>
<trkpt lat="39.792220965027809" lon="2.823551036417484">
<ele>757</ele>
</trkpt>
<trkpt lat="39.792160028591752" lon="2.823679028078914">
<ele>757</ele>
</trkpt>
<trkpt lat="39.79213697835803" lon="2.823765026405454">
<ele>757</ele>
</trkpt>
<trkpt lat="39.79200697503984" lon="2.823894023895264">
<ele>758</ele>
</trkpt>
<trkpt lat="39.791901027783751" lon="2.823980022221804">
<ele>759</ele>
</trkpt>
<trkpt lat="39.791817041113973" lon="2.824066020548344">
<ele>760</ele>
</trkpt>
<trkpt lat="39.791687037795782" lon="2.824086975306273">
<ele>761</ele>
</trkpt>
<trkpt lat="39.79153398424387" lon="2.824152018874884">
<ele>762</ele>
</trkpt>
<trkpt lat="39.791409010067582" lon="2.824194012209773">
<ele>763</ele>
</trkpt>
<trkpt lat="39.791301973164082" lon="2.824237011373043">
<ele>764</ele>
</trkpt>
<trkpt lat="39.79121396318078" lon="2.824280010536313">
<ele>765</ele>
</trkpt>
<trkpt lat="39.791107010096312" lon="2.824323009699583">
<ele>766</ele>
</trkpt>
<trkpt lat="39.790977006778121" lon="2.824366008862853">
<ele>767</ele>
</trkpt>
<trkpt lat="39.79091296903789" lon="2.824409008026123">
<ele>770</ele>
</trkpt>
<trkpt lat="39.790828982368112" lon="2.824581004679203">
<ele>774</ele>
</trkpt>
<trkpt lat="39.790698979049921" lon="2.824601959437132">
<ele>777</ele>
</trkpt>
<trkpt lat="39.790614992380142" lon="2.824601959437132">
<ele>781</ele>
</trkpt>
<trkpt lat="39.790504015982151" lon="2.824751995503902">
<ele>784</ele>
</trkpt>
<trkpt lat="39.790397984907031" lon="2.824817039072514">
<ele>788</ele>
</trkpt>
<trkpt lat="39.789863973855972" lon="2.825309978798032">
<ele>791</ele>
</trkpt>
<trkpt lat="39.789775963872671" lon="2.825138987973332">
<ele>794</ele>
</trkpt>
<trkpt lat="39.789733970537782" lon="2.825031029060483">
<ele>798</ele>
</trkpt>
<trkpt lat="39.789711004123092" lon="2.824923992156982">
<ele>801</ele>
</trkpt>
<trkpt lat="39.789645960554481" lon="2.824923992156982">
<ele>805</ele>
</trkpt>
<trkpt lat="39.789603967219591" lon="2.824966991320252">
<ele>808</ele>
</trkpt>
<trkpt lat="39.789539007470012" lon="2.824966991320252">
<ele>808</ele>
</trkpt>
<trkpt lat="39.789455020800233" lon="2.824945030733943">
<ele>809</ele>
</trkpt>
<trkpt lat="39.789390983060002" lon="2.825009990483522">
<ele>810</ele>
</trkpt>
<trkpt lat="39.789348989725113" lon="2.825052989646792">
<ele>810</ele>
</trkpt>
<trkpt lat="39.789242036640644" lon="2.825138987973332">
<ele>810</ele>
</trkpt>
<trkpt lat="39.789176993072033" lon="2.825180981308222">
<ele>811</ele>
</trkpt>
<trkpt lat="39.789070039987564" lon="2.825246024876833">
<ele>812</ele>
</trkpt>
<trkpt lat="39.788940036669374" lon="2.825375022366643">
<ele>812</ele>
</trkpt>
<trkpt lat="39.788811039179564" lon="2.825418021529913">
<ele>812</ele>
</trkpt>
<trkpt lat="39.788745995610952" lon="2.825418021529913">
<ele>813</ele>
</trkpt>
<trkpt lat="39.788681035861373" lon="2.825418021529913">
<ele>813</ele>
</trkpt>
<trkpt lat="39.788554972037673" lon="2.825418021529913">
<ele>813</ele>
</trkpt>
<trkpt lat="39.788509039208293" lon="2.825395977124572">
<ele>814</ele>
</trkpt>
<trkpt lat="39.788361014798284" lon="2.825460014864802">
<ele>814</ele>
</trkpt>
<trkpt lat="39.788231011480093" lon="2.825503014028072">
<ele>814</ele>
</trkpt>
<trkpt lat="39.788123974576592" lon="2.825503014028072">
<ele>814</ele>
</trkpt>
<trkpt lat="39.787993971258402" lon="2.825481975451112">
<ele>814</ele>
</trkpt>
<trkpt lat="39.787975028157234" lon="2.825524974614382">
<ele>815</ele>
</trkpt>
<trkpt lat="39.787993971258402" lon="2.825653972104192">
<ele>815</ele>
</trkpt>
<trkpt lat="39.787951977923512" lon="2.825847007334232">
<ele>815</ele>
</trkpt>
<trkpt lat="39.787951977923512" lon="2.825933005660772">
<ele>814</ele>
</trkpt>
<trkpt lat="39.787909984588623" lon="2.826146995648742">
<ele>813</ele>
</trkpt>
<trkpt lat="39.787888024002314" lon="2.826318992301822">
<ele>813</ele>
</trkpt>
<trkpt lat="39.787822980433702" lon="2.826469028368592">
<ele>812</ele>
</trkpt>
<trkpt lat="39.787758020684123" lon="2.826575981453061">
<ele>811</ele>
</trkpt>
<trkpt lat="39.787738993763924" lon="2.826618980616331">
<ele>810</ele>
</trkpt>
<trkpt lat="39.787716027349234" lon="2.826812015846372">
<ele>809</ele>
</trkpt>
<trkpt lat="39.787650983780622" lon="2.827004967257381">
<ele>809</ele>
</trkpt>
<trkpt lat="39.787650983780622" lon="2.827156009152532">
<ele>808</ele>
</trkpt>
<trkpt lat="39.787716027349234" lon="2.827219963073731">
<ele>807</ele>
</trkpt>
<trkpt lat="39.787804037332535" lon="2.827305961400271">
<ele>806</ele>
</trkpt>
<trkpt lat="39.787846030667424" lon="2.827305961400271">
<ele>804</ele>
</trkpt>
<trkpt lat="39.787846030667424" lon="2.827520035207272">
<ele>803</ele>
</trkpt>
<trkpt lat="39.787846030667424" lon="2.827649032697082">
<ele>802</ele>
</trkpt>
<trkpt lat="39.787822980433702" lon="2.82775598578155">
<ele>800</ele>
</trkpt>
<trkpt lat="39.787780987098813" lon="2.82788498327136">
<ele>799</ele>
</trkpt>
<trkpt lat="39.787697000429034" lon="2.827992020174861">
<ele>798</ele>
</trkpt>
<trkpt lat="39.787650983780622" lon="2.82805697992444">
<ele>797</ele>
</trkpt>
<trkpt lat="39.787586024031043" lon="2.82814297825098">
<ele>795</ele>
</trkpt>
<trkpt lat="39.787586024031043" lon="2.828164016827941">
<ele>794</ele>
</trkpt>
<trkpt lat="39.787566997110844" lon="2.82831396907568">
<ele>793</ele>
</trkpt>
<trkpt lat="39.787566997110844" lon="2.82839996740222">
<ele>791</ele>
</trkpt>
<trkpt lat="39.787586024031043" lon="2.82848596572876">
<ele>790</ele>
</trkpt>
<trkpt lat="39.787632040679455" lon="2.82850700430572">
<ele>788</ele>
</trkpt>
<trkpt lat="39.787632040679455" lon="2.828743038699031">
<ele>787</ele>
</trkpt>
<trkpt lat="39.787650983780622" lon="2.82889399677515">
<ele>786</ele>
</trkpt>
<trkpt lat="39.787650983780622" lon="2.82902198843658">
<ele>784</ele>
</trkpt>
<trkpt lat="39.787632040679455" lon="2.829044032841921">
<ele>783</ele>
</trkpt>
<trkpt lat="39.787544030696154" lon="2.82906498759985">
<ele>781</ele>
</trkpt>
<trkpt lat="39.787415033206344" lon="2.82915098592639">
<ele>780</ele>
</trkpt>
<trkpt lat="39.787395000457764" lon="2.82923698425293">
<ele>779</ele>
</trkpt>
<trkpt lat="39.787307996302843" lon="2.82934402115643">
<ele>777</ele>
</trkpt>
<trkpt lat="39.787243036553264" lon="2.82936598174274">
<ele>776</ele>
</trkpt>
<trkpt lat="39.787158966064453" lon="2.82947301864624">
<ele>774</ele>
</trkpt>
<trkpt lat="39.787135999649763" lon="2.829579971730709">
<ele>773</ele>
</trkpt>
<trkpt lat="39.787052012979984" lon="2.8299880027771">
<ele>772</ele>
</trkpt>
<trkpt lat="39.786986969411373" lon="2.83013803884387">
<ele>770</ele>
</trkpt>
<trkpt lat="39.786857971921563" lon="2.830287991091609">
<ele>769</ele>
</trkpt>
<trkpt lat="39.786773985251784" lon="2.830416988581419">
<ele>767</ele>
</trkpt>
<trkpt lat="39.786667032167315" lon="2.830502986907959">
<ele>766</ele>
</trkpt>
<trkpt lat="39.786555971950293" lon="2.830588985234499">
<ele>765</ele>
</trkpt>
<trkpt lat="39.786449018865824" lon="2.830674983561039">
<ele>764</ele>
</trkpt>
<trkpt lat="39.786366038024426" lon="2.830759976059198">
<ele>763</ele>
</trkpt>
<trkpt lat="39.786300994455814" lon="2.830845974385738">
<ele>762</ele>
</trkpt>
<trkpt lat="39.786300994455814" lon="2.830845974385738">
<ele>762</ele>
</trkpt>
<trkpt lat="39.786236034706235" lon="2.830931972712278">
<ele>761</ele>
</trkpt>
<trkpt lat="39.786170991137624" lon="2.831017971038818">
<ele>760</ele>
</trkpt>
<trkpt lat="39.786106031388044" lon="2.831082008779049">
<ele>759</ele>
</trkpt>
<trkpt lat="39.786064038053155" lon="2.831103969365358">
<ele>758</ele>
</trkpt>
<trkpt lat="39.785892041400075" lon="2.831125007942319">
<ele>757</ele>
</trkpt>
<trkpt lat="39.785850970074534" lon="2.831168007105589">
<ele>757</ele>
</trkpt>
<trkpt lat="39.785744016990066" lon="2.831340003758669">
<ele>757</ele>
</trkpt>
<trkpt lat="39.785762960091233" lon="2.831360958516598">
<ele>757</ele>
</trkpt>
<trkpt lat="39.785786010324955" lon="2.831383002921939">
<ele>757</ele>
</trkpt>
<trkpt lat="39.785678973421454" lon="2.83144704066217">
<ele>756</ele>
</trkpt>
<trkpt lat="39.785656007006764" lon="2.831469001248479">
<ele>756</ele>
</trkpt>
<trkpt lat="39.785572020336986" lon="2.831576038151979">
<ele>756</ele>
</trkpt>
<trkpt lat="39.785484010353684" lon="2.831639992073178">
<ele>756</ele>
</trkpt>
<trkpt lat="39.785271026194096" lon="2.831748034805059">
<ele>756</ele>
</trkpt>
<trkpt lat="39.785271026194096" lon="2.831768989562988">
<ele>756</ele>
</trkpt>
<trkpt lat="39.785099029541016" lon="2.831811988726258">
<ele>756</ele>
</trkpt>
<trkpt lat="39.784969026222825" lon="2.831854987889528">
<ele>757</ele>
</trkpt>
<trkpt lat="39.784927032887936" lon="2.831876026466489">
<ele>757</ele>
</trkpt>
<trkpt lat="39.784798035398126" lon="2.831897987052798">
<ele>758</ele>
</trkpt>
<trkpt lat="39.784779008477926" lon="2.831919025629759">
<ele>758</ele>
</trkpt>
<trkpt lat="39.784668032079935" lon="2.831940986216068">
<ele>758</ele>
</trkpt>
<trkpt lat="39.784583961591125" lon="2.832048023119569">
<ele>759</ele>
</trkpt>
<trkpt lat="39.784477008506656" lon="2.832068977877498">
<ele>759</ele>
</trkpt>
<trkpt lat="39.784306017681956" lon="2.832134021446109">
<ele>760</ele>
</trkpt>
<trkpt lat="39.784282967448235" lon="2.832305012270808">
<ele>760</ele>
</trkpt>
<trkpt lat="39.784264024347067" lon="2.832412971183658">
<ele>759</ele>
</trkpt>
<trkpt lat="39.784176014363766" lon="2.832498969510198">
<ele>759</ele>
</trkpt>
<trkpt lat="39.784092027693987" lon="2.832669960334897">
<ele>758</ele>
</trkpt>
<trkpt lat="39.784026984125376" lon="2.832735003903508">
<ele>757</ele>
</trkpt>
<trkpt lat="39.783854987472296" lon="2.832928039133549">
<ele>756</ele>
</trkpt>
<trkpt lat="39.783683996647596" lon="2.833056030794978">
<ele>756</ele>
</trkpt>
<trkpt lat="39.783661030232906" lon="2.833099029958248">
<ele>755</ele>
</trkpt>
<trkpt lat="39.783576959744096" lon="2.833163989707828">
<ele>754</ele>
</trkpt>
<trkpt lat="39.783511999994516" lon="2.833228027448058">
<ele>754</ele>
</trkpt>
<trkpt lat="39.783423990011215" lon="2.833334980532527">
<ele>753</ele>
</trkpt>
<trkpt lat="39.783404963091016" lon="2.833506977185607">
<ele>753</ele>
</trkpt>
<trkpt lat="39.783553993329406" lon="2.833849964663386">
<ele>753</ele>
</trkpt>
<trkpt lat="39.783683996647596" lon="2.834085999056697">
<ele>753</ele>
</trkpt>
<trkpt lat="39.783791033551097" lon="2.834322033450007">
<ele>753</ele>
</trkpt>
<trkpt lat="39.783833026885986" lon="2.834472991526127">
<ele>754</ele>
</trkpt>
<trkpt lat="39.783875020220876" lon="2.834686981514096">
<ele>754</ele>
</trkpt>
<trkpt lat="39.783896980807185" lon="2.834837017580867">
<ele>754</ele>
</trkpt>
<trkpt lat="39.783896980807185" lon="2.834901977330446">
<ele>754</ele>
</trkpt>
<trkpt lat="39.783938974142075" lon="2.835115967318416">
<ele>754</ele>
</trkpt>
<trkpt lat="39.783962024375796" lon="2.835224010050297">
<ele>754</ele>
</trkpt>
<trkpt lat="39.784004017710686" lon="2.835373962298036">
<ele>754</ele>
</trkpt>
<trkpt lat="39.784004017710686" lon="2.835523998364806">
<ele>754</ele>
</trkpt>
<trkpt lat="39.783980967476964" lon="2.835738994181156">
<ele>753</ele>
</trkpt>
<trkpt lat="39.783920031040907" lon="2.835846031084657">
<ele>753</ele>
</trkpt>
<trkpt lat="39.783809976652265" lon="2.836038982495666">
<ele>753</ele>
</trkpt>
<trkpt lat="39.783661030232906" lon="2.836124980822206">
<ele>753</ele>
</trkpt>
<trkpt lat="39.783511999994516" lon="2.836167979985476">
<ele>753</ele>
</trkpt>
<trkpt lat="39.783447040244937" lon="2.836167979985476">
<ele>752</ele>
</trkpt>
<trkpt lat="39.783360036090016" lon="2.836038982495666">
<ele>752</ele>
</trkpt>
<trkpt lat="39.783233972266316" lon="2.836018027737737">
<ele>752</ele>
</trkpt>
<trkpt lat="39.783211005851626" lon="2.835995983332396">
<ele>752</ele>
</trkpt>
<trkpt lat="39.783039009198546" lon="2.836038982495666">
<ele>751</ele>
</trkpt>
<trkpt lat="39.782844968140125" lon="2.836081981658936">
<ele>750</ele>
</trkpt>
<trkpt lat="39.782566018402576" lon="2.836146019399166">
<ele>750</ele>
</trkpt>
<trkpt lat="39.782436015084386" lon="2.836189018562436">
<ele>750</ele>
</trkpt>
<trkpt lat="39.782051034271717" lon="2.836232017725706">
<ele>749</ele>
</trkpt>
<trkpt lat="39.781966963782907" lon="2.836210979148746">
<ele>748</ele>
</trkpt>
<trkpt lat="39.781280988827348" lon="2.835846031084657">
<ele>748</ele>
</trkpt>
<trkpt lat="39.781108992174268" lon="2.835588036105037">
<ele>748</ele>
</trkpt>
<trkpt lat="39.781086025759578" lon="2.835566997528076">
<ele>747</ele>
</trkpt>
<trkpt lat="39.780890978872776" lon="2.835588036105037">
<ele>747</ele>
</trkpt>
<trkpt lat="39.780766004696488" lon="2.835416961461306">
<ele>747</ele>
</trkpt>
<trkpt lat="39.780636001378298" lon="2.835224010050297">
<ele>746</ele>
</trkpt>
<trkpt lat="39.780121017247438" lon="2.835158966481686">
<ele>746</ele>
</trkpt>
<trkpt lat="39.780079023912549" lon="2.835224010050297">
<ele>746</ele>
</trkpt>
<trkpt lat="39.779991013929248" lon="2.835310008376837">
<ele>746</ele>
</trkpt>
<trkpt lat="39.779971987009048" lon="2.835352001711726">
<ele>746</ele>
</trkpt>
<trkpt lat="39.779861010611057" lon="2.835502959787846">
<ele>745</ele>
</trkpt>
<trkpt lat="39.779861010611057" lon="2.835502959787846">
<ele>745</ele>
</trkpt>
<trkpt lat="39.779799990355968" lon="2.835674034431577">
<ele>745</ele>
</trkpt>
<trkpt lat="39.77973603643477" lon="2.835803031921387">
<ele>745</ele>
</trkpt>
<trkpt lat="39.779712986201048" lon="2.835803031921387">
<ele>744</ele>
</trkpt>
<trkpt lat="39.779582982882857" lon="2.835889030247927">
<ele>744</ele>
</trkpt>
<trkpt lat="39.779476029798388" lon="2.835889030247927">
<ele>743</ele>
</trkpt>
<trkpt lat="39.779410986229777" lon="2.835889030247927">
<ele>743</ele>
</trkpt>
<trkpt lat="39.779305038973689" lon="2.835889030247927">
<ele>743</ele>
</trkpt>
<trkpt lat="39.779220968484879" lon="2.835866985842586">
<ele>742</ele>
</trkpt>
<trkpt lat="39.779090965166688" lon="2.835909985005856">
<ele>742</ele>
</trkpt>
<trkpt lat="39.778960961848497" lon="2.835975028574467">
<ele>741</ele>
</trkpt>
<trkpt lat="39.778789971023798" lon="2.836018027737737">
<ele>741</ele>
</trkpt>
<trkpt lat="39.778659967705607" lon="2.836061026901007">
<ele>740</ele>
</trkpt>
<trkpt lat="39.77864102460444" lon="2.836081981658936">
<ele>739</ele>
</trkpt>
<trkpt lat="39.77864102460444" lon="2.836232017725706">
<ele>738</ele>
</trkpt>
<trkpt lat="39.77864102460444" lon="2.836210979148746">
<ele>737</ele>
</trkpt>
<trkpt lat="39.778659967705607" lon="2.836167979985476">
<ele>736</ele>
</trkpt>
<trkpt lat="39.778683017939329" lon="2.836146019399166">
<ele>736</ele>
</trkpt>
<trkpt lat="39.778683017939329" lon="2.836253978312016">
<ele>735</ele>
</trkpt>
<trkpt lat="39.778854008764029" lon="2.836232017725706">
<ele>734</ele>
</trkpt>
<trkpt lat="39.778918968513608" lon="2.836296977475286">
<ele>733</ele>
</trkpt>
<trkpt lat="39.778918968513608" lon="2.836296977475286">
<ele>732</ele>
</trkpt>
<trkpt lat="39.779003039002419" lon="2.836424969136715">
<ele>730</ele>
</trkpt>
<trkpt lat="39.779048971831799" lon="2.836533011868596">
<ele>727</ele>
</trkpt>
<trkpt lat="39.779090965166688" lon="2.836596965789795">
<ele>724</ele>
</trkpt>
<trkpt lat="39.779156008735299" lon="2.836704002693296">
<ele>722</ele>
</trkpt>
<trkpt lat="39.779198002070189" lon="2.836790001019836">
<ele>720</ele>
</trkpt>
<trkpt lat="39.779262961819768" lon="2.836961997672916">
<ele>717</ele>
</trkpt>
<trkpt lat="39.779434036463499" lon="2.837369022890925">
<ele>714</ele>
</trkpt>
<trkpt lat="39.779434036463499" lon="2.837433982640505">
<ele>712</ele>
</trkpt>
<trkpt lat="39.779457002878189" lon="2.837476981803775">
<ele>710</ele>
</trkpt>
<trkpt lat="39.779582982882857" lon="2.837604973465204">
<ele>707</ele>
</trkpt>
<trkpt lat="39.779648026451468" lon="2.837670017033815">
<ele>707</ele>
</trkpt>
<trkpt lat="39.779712986201048" lon="2.837776970118284">
<ele>707</ele>
</trkpt>
<trkpt lat="39.779907027259469" lon="2.837970005348325">
<ele>707</ele>
</trkpt>
<trkpt lat="39.779949020594358" lon="2.838077964261174">
<ele>707</ele>
</trkpt>
<trkpt lat="39.779949020594358" lon="2.838099002838135">
<ele>708</ele>
</trkpt>
<trkpt lat="39.779991013929248" lon="2.838206039741635">
<ele>708</ele>
</trkpt>
<trkpt lat="39.780055973678827" lon="2.838355991989374">
<ele>708</ele>
</trkpt>
<trkpt lat="39.780121017247438" lon="2.838484989479184">
<ele>708</ele>
</trkpt>
<trkpt lat="39.780205003917217" lon="2.838613986968994">
<ele>708</ele>
</trkpt>
<trkpt lat="39.780205003917217" lon="2.838656986132264">
<ele>708</ele>
</trkpt>
<trkpt lat="39.780269963666797" lon="2.838913975283504">
<ele>708</ele>
</trkpt>
<trkpt lat="39.780314974486828" lon="2.839065017178655">
<ele>707</ele>
</trkpt>
<trkpt lat="39.780375994741917" lon="2.839214969426394">
<ele>707</ele>
</trkpt>
<trkpt lat="39.780375994741917" lon="2.839214969426394">
<ele>707</ele>
</trkpt>
<trkpt lat="39.780486971139908" lon="2.839322006329894">
<ele>706</ele>
</trkpt>
<trkpt lat="39.780594008043408" lon="2.839428959414363">
<ele>706</ele>
</trkpt>
<trkpt lat="39.780677994713187" lon="2.839537002146244">
<ele>706</ele>
</trkpt>
<trkpt lat="39.780700961127877" lon="2.839601039886475">
<ele>706</ele>
</trkpt>
<trkpt lat="39.780785031616688" lon="2.839707992970944">
<ele>705</ele>
</trkpt>
<trkpt lat="39.780848985537887" lon="2.839836990460753">
<ele>705</ele>
</trkpt>
<trkpt lat="39.780956022441387" lon="2.839987026527524">
<ele>705</ele>
</trkpt>
<trkpt lat="39.781020982190967" lon="2.840073024854064">
<ele>705</ele>
</trkpt>
<trkpt lat="39.781062975525856" lon="2.840116024017334">
<ele>705</ele>
</trkpt>
<trkpt lat="39.781174035742879" lon="2.840288020670414">
<ele>705</ele>
</trkpt>
<trkpt lat="39.781174035742879" lon="2.840351974591613">
<ele>705</ele>
</trkpt>
<trkpt lat="39.781234972178936" lon="2.840374018996954">
<ele>704</ele>
</trkpt>
<trkpt lat="39.781280988827348" lon="2.840374018996954">
<ele>704</ele>
</trkpt>
<trkpt lat="39.781363969668746" lon="2.840523971244693">
<ele>704</ele>
</trkpt>
<trkpt lat="39.781429013237357" lon="2.840651962906122">
<ele>704</ele>
</trkpt>
<trkpt lat="39.781517023220658" lon="2.840846003964543">
<ele>704</ele>
</trkpt>
<trkpt lat="39.781517023220658" lon="2.840953040868044">
<ele>704</ele>
</trkpt>
<trkpt lat="39.781517023220658" lon="2.841016994789243">
<ele>704</ele>
</trkpt>
<trkpt lat="39.781517023220658" lon="2.840953040868044">
<ele>704</ele>
</trkpt>
<trkpt lat="39.781517023220658" lon="2.840846003964543">
<ele>704</ele>
</trkpt>
<trkpt lat="39.781429013237357" lon="2.840651962906122">
<ele>704</ele>
</trkpt>
<trkpt lat="39.781363969668746" lon="2.840523971244693">
<ele>704</ele>
</trkpt>
<trkpt lat="39.781280988827348" lon="2.840374018996954">
<ele>704</ele>
</trkpt>
<trkpt lat="39.781234972178936" lon="2.840374018996954">
<ele>705</ele>
</trkpt>
<trkpt lat="39.781174035742879" lon="2.840351974591613">
<ele>705</ele>
</trkpt>
<trkpt lat="39.781174035742879" lon="2.840288020670414">
<ele>705</ele>
</trkpt>
<trkpt lat="39.781062975525856" lon="2.840116024017334">
<ele>705</ele>
</trkpt>
<trkpt lat="39.781020982190967" lon="2.840073024854064">
<ele>705</ele>
</trkpt>
<trkpt lat="39.780956022441387" lon="2.839987026527524">
<ele>705</ele>
</trkpt>
<trkpt lat="39.780848985537887" lon="2.839836990460753">
<ele>705</ele>
</trkpt>
<trkpt lat="39.780785031616688" lon="2.839707992970944">
<ele>706</ele>
</trkpt>
<trkpt lat="39.780700961127877" lon="2.839601039886475">
<ele>706</ele>
</trkpt>
<trkpt lat="39.780677994713187" lon="2.839537002146244">
<ele>706</ele>
</trkpt>
<trkpt lat="39.780594008043408" lon="2.839428959414363">
<ele>706</ele>
</trkpt>
<trkpt lat="39.780486971139908" lon="2.839322006329894">
<ele>706</ele>
</trkpt>
<trkpt lat="39.780375994741917" lon="2.839214969426394">
<ele>707</ele>
</trkpt>
<trkpt lat="39.780375994741917" lon="2.839214969426394">
<ele>707</ele>
</trkpt>
<trkpt lat="39.780314974486828" lon="2.839065017178655">
<ele>707</ele>
</trkpt>
<trkpt lat="39.780269963666797" lon="2.838913975283504">
<ele>707</ele>
</trkpt>
<trkpt lat="39.780205003917217" lon="2.838656986132264">
<ele>707</ele>
</trkpt>
<trkpt lat="39.780205003917217" lon="2.838613986968994">
<ele>707</ele>
</trkpt>
<trkpt lat="39.780121017247438" lon="2.838484989479184">
<ele>707</ele>
</trkpt>
<trkpt lat="39.780055973678827" lon="2.838355991989374">
<ele>707</ele>
</trkpt>
<trkpt lat="39.779991013929248" lon="2.838206039741635">
<ele>707</ele>
</trkpt>
<trkpt lat="39.779949020594358" lon="2.838099002838135">
<ele>707</ele>
</trkpt>
<trkpt lat="39.779949020594358" lon="2.838077964261174">
<ele>707</ele>
</trkpt>
<trkpt lat="39.779907027259469" lon="2.837970005348325">
<ele>707</ele>
</trkpt>
<trkpt lat="39.779712986201048" lon="2.837776970118284">
<ele>707</ele>
</trkpt>
<trkpt lat="39.779648026451468" lon="2.837670017033815">
<ele>709</ele>
</trkpt>
<trkpt lat="39.779582982882857" lon="2.837604973465204">
<ele>711</ele>
</trkpt>
<trkpt lat="39.779457002878189" lon="2.837476981803775">
<ele>713</ele>
</trkpt>
<trkpt lat="39.779434036463499" lon="2.837433982640505">
<ele>715</ele>
</trkpt>
<trkpt lat="39.779434036463499" lon="2.837369022890925">
<ele>717</ele>
</trkpt>
<trkpt lat="39.779262961819768" lon="2.836961997672916">
<ele>719</ele>
</trkpt>
<trkpt lat="39.779198002070189" lon="2.836790001019836">
<ele>721</ele>
</trkpt>
<trkpt lat="39.779156008735299" lon="2.836704002693296">
<ele>723</ele>
</trkpt>
<trkpt lat="39.779090965166688" lon="2.836596965789795">
<ele>725</ele>
</trkpt>
<trkpt lat="39.779048971831799" lon="2.836533011868596">
<ele>727</ele>
</trkpt>
<trkpt lat="39.779003039002419" lon="2.836424969136715">
<ele>728</ele>
</trkpt>
<trkpt lat="39.778918968513608" lon="2.836296977475286">
<ele>729</ele>
</trkpt>
<trkpt lat="39.778918968513608" lon="2.836296977475286">
<ele>731</ele>
</trkpt>
<trkpt lat="39.778854008764029" lon="2.836232017725706">
<ele>732</ele>
</trkpt>
<trkpt lat="39.778683017939329" lon="2.836253978312016">
<ele>733</ele>
</trkpt>
<trkpt lat="39.778683017939329" lon="2.836146019399166">
<ele>734</ele>
</trkpt>
<trkpt lat="39.778659967705607" lon="2.836167979985476">
<ele>735</ele>
</trkpt>
<trkpt lat="39.77864102460444" lon="2.836210979148746">
<ele>737</ele>
</trkpt>
<trkpt lat="39.77864102460444" lon="2.836232017725706">
<ele>738</ele>
</trkpt>
<trkpt lat="39.77864102460444" lon="2.836081981658936">
<ele>739</ele>
</trkpt>
<trkpt lat="39.778659967705607" lon="2.836061026901007">
<ele>739</ele>
</trkpt>
<trkpt lat="39.778789971023798" lon="2.836018027737737">
<ele>740</ele>
</trkpt>
<trkpt lat="39.778960961848497" lon="2.835975028574467">
<ele>740</ele>
</trkpt>
<trkpt lat="39.779090965166688" lon="2.835909985005856">
<ele>741</ele>
</trkpt>
<trkpt lat="39.779220968484879" lon="2.835866985842586">
<ele>741</ele>
</trkpt>
<trkpt lat="39.779305038973689" lon="2.835889030247927">
<ele>741</ele>
</trkpt>
<trkpt lat="39.779410986229777" lon="2.835889030247927">
<ele>742</ele>
</trkpt>
<trkpt lat="39.779476029798388" lon="2.835889030247927">
<ele>742</ele>
</trkpt>
<trkpt lat="39.779582982882857" lon="2.835889030247927">
<ele>743</ele>
</trkpt>
<trkpt lat="39.779712986201048" lon="2.835803031921387">
<ele>743</ele>
</trkpt>
<trkpt lat="39.77973603643477" lon="2.835803031921387">
<ele>743</ele>
</trkpt>
<trkpt lat="39.779799990355968" lon="2.835674034431577">
<ele>744</ele>
</trkpt>
<trkpt lat="39.779861010611057" lon="2.835502959787846">
<ele>744</ele>
</trkpt>
<trkpt lat="39.779861010611057" lon="2.835502959787846">
<ele>745</ele>
</trkpt>
<trkpt lat="39.779971987009048" lon="2.835352001711726">
<ele>745</ele>
</trkpt>
<trkpt lat="39.779991013929248" lon="2.835310008376837">
<ele>745</ele>
</trkpt>
<trkpt lat="39.780079023912549" lon="2.835224010050297">
<ele>746</ele>
</trkpt>
<trkpt lat="39.780121017247438" lon="2.835158966481686">
<ele>746</ele>
</trkpt>
<trkpt lat="39.780636001378298" lon="2.835224010050297">
<ele>747</ele>
</trkpt>
<trkpt lat="39.780766004696488" lon="2.835416961461306">
<ele>747</ele>
</trkpt>
<trkpt lat="39.780890978872776" lon="2.835588036105037">
<ele>747</ele>
</trkpt>
<trkpt lat="39.781086025759578" lon="2.835566997528076">
<ele>748</ele>
</trkpt>
<trkpt lat="39.781108992174268" lon="2.835588036105037">
<ele>748</ele>
</trkpt>
<trkpt lat="39.781280988827348" lon="2.835846031084657">
<ele>749</ele>
</trkpt>
<trkpt lat="39.781966963782907" lon="2.836210979148746">
<ele>749</ele>
</trkpt>
<trkpt lat="39.782051034271717" lon="2.836232017725706">
<ele>749</ele>
</trkpt>
<trkpt lat="39.782436015084386" lon="2.836189018562436">
<ele>750</ele>
</trkpt>
<trkpt lat="39.782566018402576" lon="2.836146019399166">
<ele>750</ele>
</trkpt>
<trkpt lat="39.782844968140125" lon="2.836081981658936">
<ele>751</ele>
</trkpt>
<trkpt lat="39.783039009198546" lon="2.836038982495666">
<ele>751</ele>
</trkpt>
<trkpt lat="39.783211005851626" lon="2.835995983332396">
<ele>751</ele>
</trkpt>
<trkpt lat="39.783233972266316" lon="2.836018027737737">
<ele>752</ele>
</trkpt>
<trkpt lat="39.783360036090016" lon="2.836038982495666">
<ele>752</ele>
</trkpt>
<trkpt lat="39.783447040244937" lon="2.836167979985476">
<ele>752</ele>
</trkpt>
<trkpt lat="39.783511999994516" lon="2.836167979985476">
<ele>752</ele>
</trkpt>
<trkpt lat="39.783661030232906" lon="2.836124980822206">
<ele>753</ele>
</trkpt>
<trkpt lat="39.783809976652265" lon="2.836038982495666">
<ele>753</ele>
</trkpt>
<trkpt lat="39.783920031040907" lon="2.835846031084657">
<ele>753</ele>
</trkpt>
<trkpt lat="39.783980967476964" lon="2.835738994181156">
<ele>754</ele>
</trkpt>
<trkpt lat="39.784004017710686" lon="2.835523998364806">
<ele>754</ele>
</trkpt>
<trkpt lat="39.784004017710686" lon="2.835373962298036">
<ele>754</ele>
</trkpt>
<trkpt lat="39.783962024375796" lon="2.835224010050297">
<ele>754</ele>
</trkpt>
<trkpt lat="39.783938974142075" lon="2.835115967318416">
<ele>753</ele>
</trkpt>
<trkpt lat="39.783896980807185" lon="2.834901977330446">
<ele>753</ele>
</trkpt>
<trkpt lat="39.783896980807185" lon="2.834837017580867">
<ele>753</ele>
</trkpt>
<trkpt lat="39.783875020220876" lon="2.834686981514096">
<ele>753</ele>
</trkpt>
<trkpt lat="39.783833026885986" lon="2.834472991526127">
<ele>753</ele>
</trkpt>
<trkpt lat="39.783791033551097" lon="2.834322033450007">
<ele>752</ele>
</trkpt>
<trkpt lat="39.783683996647596" lon="2.834085999056697">
<ele>752</ele>
</trkpt>
<trkpt lat="39.783553993329406" lon="2.833849964663386">
<ele>752</ele>
</trkpt>
<trkpt lat="39.783404963091016" lon="2.833506977185607">
<ele>753</ele>
</trkpt>
<trkpt lat="39.783423990011215" lon="2.833334980532527">
<ele>753</ele>
</trkpt>
<trkpt lat="39.783511999994516" lon="2.833228027448058">
<ele>754</ele>
</trkpt>
<trkpt lat="39.783576959744096" lon="2.833163989707828">
<ele>755</ele>
</trkpt>
<trkpt lat="39.783661030232906" lon="2.833099029958248">
<ele>756</ele>
</trkpt>
<trkpt lat="39.783683996647596" lon="2.833056030794978">
<ele>756</ele>
</trkpt>
<trkpt lat="39.783854987472296" lon="2.832928039133549">
<ele>757</ele>
</trkpt>
<trkpt lat="39.784026984125376" lon="2.832735003903508">
<ele>758</ele>
</trkpt>
<trkpt lat="39.784092027693987" lon="2.832669960334897">
<ele>758</ele>
</trkpt>
<trkpt lat="39.784176014363766" lon="2.832498969510198">
<ele>759</ele>
</trkpt>
<trkpt lat="39.784264024347067" lon="2.832412971183658">
<ele>759</ele>
</trkpt>
<trkpt lat="39.784282967448235" lon="2.832305012270808">
<ele>759</ele>
</trkpt>
<trkpt lat="39.784306017681956" lon="2.832134021446109">
<ele>758</ele>
</trkpt>
<trkpt lat="39.784477008506656" lon="2.832068977877498">
<ele>758</ele>
</trkpt>
<trkpt lat="39.784583961591125" lon="2.832048023119569">
<ele>758</ele>
</trkpt>
<trkpt lat="39.784668032079935" lon="2.831940986216068">
<ele>758</ele>
</trkpt>
<trkpt lat="39.784779008477926" lon="2.831919025629759">
<ele>758</ele>
</trkpt>
<trkpt lat="39.784798035398126" lon="2.831897987052798">
<ele>757</ele>
</trkpt>
<trkpt lat="39.784927032887936" lon="2.831876026466489">
<ele>757</ele>
</trkpt>
<trkpt lat="39.784969026222825" lon="2.831854987889528">
<ele>757</ele>
</trkpt>
<trkpt lat="39.785099029541016" lon="2.831811988726258">
<ele>757</ele>
</trkpt>
<trkpt lat="39.785271026194096" lon="2.831768989562988">
<ele>757</ele>
</trkpt>
<trkpt lat="39.785271026194096" lon="2.831748034805059">
<ele>757</ele>
</trkpt>
<trkpt lat="39.785484010353684" lon="2.831639992073178">
<ele>757</ele>
</trkpt>
<trkpt lat="39.785572020336986" lon="2.831576038151979">
<ele>757</ele>
</trkpt>
<trkpt lat="39.785656007006764" lon="2.831469001248479">
<ele>757</ele>
</trkpt>
<trkpt lat="39.785678973421454" lon="2.83144704066217">
<ele>757</ele>
</trkpt>
<trkpt lat="39.785786010324955" lon="2.831383002921939">
<ele>757</ele>
</trkpt>
<trkpt lat="39.785762960091233" lon="2.831360958516598">
<ele>757</ele>
</trkpt>
<trkpt lat="39.785744016990066" lon="2.831340003758669">
<ele>757</ele>
</trkpt>
<trkpt lat="39.785850970074534" lon="2.831168007105589">
<ele>758</ele>
</trkpt>
<trkpt lat="39.785892041400075" lon="2.831125007942319">
<ele>758</ele>
</trkpt>
<trkpt lat="39.786064038053155" lon="2.831103969365358">
<ele>759</ele>
</trkpt>
<trkpt lat="39.786106031388044" lon="2.831082008779049">
<ele>759</ele>
</trkpt>
<trkpt lat="39.786170991137624" lon="2.831017971038818">
<ele>760</ele>
</trkpt>
<trkpt lat="39.786236034706235" lon="2.830931972712278">
<ele>761</ele>
</trkpt>
<trkpt lat="39.786300994455814" lon="2.830845974385738">
<ele>761</ele>
</trkpt>
<trkpt lat="39.786300994455814" lon="2.830845974385738">
<ele>762</ele>
</trkpt>
<trkpt lat="39.786366038024426" lon="2.830759976059198">
<ele>762</ele>
</trkpt>
<trkpt lat="39.786449018865824" lon="2.830674983561039">
<ele>763</ele>
</trkpt>
<trkpt lat="39.786555971950293" lon="2.830588985234499">
<ele>764</ele>
</trkpt>
<trkpt lat="39.786667032167315" lon="2.830502986907959">
<ele>766</ele>
</trkpt>
<trkpt lat="39.786773985251784" lon="2.830416988581419">
<ele>767</ele>
</trkpt>
<trkpt lat="39.786857971921563" lon="2.830287991091609">
<ele>769</ele>
</trkpt>
<trkpt lat="39.786986969411373" lon="2.83013803884387">
<ele>770</ele>
</trkpt>
<trkpt lat="39.787052012979984" lon="2.8299880027771">
<ele>771</ele>
</trkpt>
<trkpt lat="39.787135999649763" lon="2.829579971730709">
<ele>773</ele>
</trkpt>
<trkpt lat="39.787158966064453" lon="2.82947301864624">
<ele>774</ele>
</trkpt>
<trkpt lat="39.787243036553264" lon="2.82936598174274">
<ele>776</ele>
</trkpt>
<trkpt lat="39.787307996302843" lon="2.82934402115643">
<ele>777</ele>
</trkpt>
<trkpt lat="39.787395000457764" lon="2.82923698425293">
<ele>778</ele>
</trkpt>
<trkpt lat="39.787415033206344" lon="2.82915098592639">
<ele>780</ele>
</trkpt>
<trkpt lat="39.787544030696154" lon="2.82906498759985">
<ele>781</ele>
</trkpt>
<trkpt lat="39.787632040679455" lon="2.829044032841921">
<ele>783</ele>
</trkpt>
<trkpt lat="39.787650983780622" lon="2.82902198843658">
<ele>784</ele>
</trkpt>
<trkpt lat="39.787650983780622" lon="2.82889399677515">
<ele>785</ele>
</trkpt>
<trkpt lat="39.787632040679455" lon="2.828743038699031">
<ele>787</ele>
</trkpt>
<trkpt lat="39.787632040679455" lon="2.82850700430572">
<ele>788</ele>
</trkpt>
<trkpt lat="39.787586024031043" lon="2.82848596572876">
<ele>790</ele>
</trkpt>
<trkpt lat="39.787566997110844" lon="2.82839996740222">
<ele>791</ele>
</trkpt>
<trkpt lat="39.787566997110844" lon="2.82831396907568">
<ele>792</ele>
</trkpt>
<trkpt lat="39.787586024031043" lon="2.828164016827941">
<ele>794</ele>
</trkpt>
<trkpt lat="39.787586024031043" lon="2.82814297825098">
<ele>795</ele>
</trkpt>
<trkpt lat="39.787650983780622" lon="2.82805697992444">
<ele>797</ele>
</trkpt>
<trkpt lat="39.787697000429034" lon="2.827992020174861">
<ele>798</ele>
</trkpt>
<trkpt lat="39.787780987098813" lon="2.82788498327136">
<ele>799</ele>
</trkpt>
<trkpt lat="39.787822980433702" lon="2.82775598578155">
<ele>801</ele>
</trkpt>
<trkpt lat="39.787846030667424" lon="2.827649032697082">
<ele>802</ele>
</trkpt>
<trkpt lat="39.787846030667424" lon="2.827520035207272">
<ele>804</ele>
</trkpt>
<trkpt lat="39.787846030667424" lon="2.827305961400271">
<ele>805</ele>
</trkpt>
<trkpt lat="39.787804037332535" lon="2.827305961400271">
<ele>806</ele>
</trkpt>
<trkpt lat="39.787716027349234" lon="2.827219963073731">
<ele>807</ele>
</trkpt>
<trkpt lat="39.787650983780622" lon="2.827156009152532">
<ele>807</ele>
</trkpt>
<trkpt lat="39.787650983780622" lon="2.827004967257381">
<ele>808</ele>
</trkpt>
<trkpt lat="39.787716027349234" lon="2.826812015846372">
<ele>809</ele>
</trkpt>
<trkpt lat="39.787738993763924" lon="2.826618980616331">
<ele>810</ele>
</trkpt>
<trkpt lat="39.787758020684123" lon="2.826575981453061">
<ele>811</ele>
</trkpt>
<trkpt lat="39.787822980433702" lon="2.826469028368592">
<ele>811</ele>
</trkpt>
<trkpt lat="39.787888024002314" lon="2.826318992301822">
<ele>812</ele>
</trkpt>
<trkpt lat="39.787909984588623" lon="2.826146995648742">
<ele>813</ele>
</trkpt>
<trkpt lat="39.787951977923512" lon="2.825933005660772">
<ele>813</ele>
</trkpt>
<trkpt lat="39.787951977923512" lon="2.825847007334232">
<ele>813</ele>
</trkpt>
<trkpt lat="39.787993971258402" lon="2.825653972104192">
<ele>813</ele>
</trkpt>
<trkpt lat="39.787975028157234" lon="2.825524974614382">
<ele>813</ele>
</trkpt>
<trkpt lat="39.787993971258402" lon="2.825481975451112">
<ele>813</ele>
</trkpt>
<trkpt lat="39.788123974576592" lon="2.825503014028072">
<ele>813</ele>
</trkpt>
<trkpt lat="39.788231011480093" lon="2.825503014028072">
<ele>813</ele>
</trkpt>
<trkpt lat="39.788361014798284" lon="2.825460014864802">
<ele>813</ele>
</trkpt>
<trkpt lat="39.788509039208293" lon="2.825395977124572">
<ele>813</ele>
</trkpt>
<trkpt lat="39.788554972037673" lon="2.825418021529913">
<ele>813</ele>
</trkpt>
<trkpt lat="39.788681035861373" lon="2.825418021529913">
<ele>813</ele>
</trkpt>
<trkpt lat="39.788745995610952" lon="2.825418021529913">
<ele>812</ele>
</trkpt>
<trkpt lat="39.788811039179564" lon="2.825418021529913">
<ele>812</ele>
</trkpt>
<trkpt lat="39.788940036669374" lon="2.825375022366643">
<ele>811</ele>
</trkpt>
<trkpt lat="39.789070039987564" lon="2.825246024876833">
<ele>811</ele>
</trkpt>
<trkpt lat="39.789176993072033" lon="2.825180981308222">
<ele>810</ele>
</trkpt>
<trkpt lat="39.789242036640644" lon="2.825138987973332">
<ele>810</ele>
</trkpt>
<trkpt lat="39.789348989725113" lon="2.825052989646792">
<ele>810</ele>
</trkpt>
<trkpt lat="39.789390983060002" lon="2.825009990483522">
<ele>809</ele>
</trkpt>
<trkpt lat="39.789455020800233" lon="2.824945030733943">
<ele>809</ele>
</trkpt>
<trkpt lat="39.789539007470012" lon="2.824966991320252">
<ele>808</ele>
</trkpt>
<trkpt lat="39.789603967219591" lon="2.824966991320252">
<ele>808</ele>
</trkpt>
<trkpt lat="39.789645960554481" lon="2.824923992156982">
<ele>804</ele>
</trkpt>
<trkpt lat="39.789711004123092" lon="2.824923992156982">
<ele>801</ele>
</trkpt>
<trkpt lat="39.789733970537782" lon="2.825031029060483">
<ele>797</ele>
</trkpt>
<trkpt lat="39.789775963872671" lon="2.825138987973332">
<ele>794</ele>
</trkpt>
<trkpt lat="39.789863973855972" lon="2.825309978798032">
<ele>790</ele>
</trkpt>
<trkpt lat="39.790397984907031" lon="2.824817039072514">
<ele>786</ele>
</trkpt>
<trkpt lat="39.790504015982151" lon="2.824751995503902">
<ele>783</ele>
</trkpt>
<trkpt lat="39.790614992380142" lon="2.824601959437132">
<ele>779</ele>
</trkpt>
<trkpt lat="39.790698979049921" lon="2.824601959437132">
<ele>776</ele>
</trkpt>
<trkpt lat="39.790828982368112" lon="2.824581004679203">
<ele>772</ele>
</trkpt>
<trkpt lat="39.79091296903789" lon="2.824409008026123">
<ele>770</ele>
</trkpt>
<trkpt lat="39.790977006778121" lon="2.824366008862853">
<ele>769</ele>
</trkpt>
<trkpt lat="39.791107010096312" lon="2.824323009699583">
<ele>768</ele>
</trkpt>
<trkpt lat="39.79121396318078" lon="2.824280010536313">
<ele>766</ele>
</trkpt>
<trkpt lat="39.791301973164082" lon="2.824237011373043">
<ele>764</ele>
</trkpt>
<trkpt lat="39.791409010067582" lon="2.824194012209773">
<ele>763</ele>
</trkpt>
<trkpt lat="39.79153398424387" lon="2.824152018874884">
<ele>762</ele>
</trkpt>
<trkpt lat="39.791687037795782" lon="2.824086975306273">
<ele>760</ele>
</trkpt>
<trkpt lat="39.791817041113973" lon="2.824066020548344">
<ele>758</ele>
</trkpt>
<trkpt lat="39.791901027783751" lon="2.823980022221804">
<ele>757</ele>
</trkpt>
<trkpt lat="39.79200697503984" lon="2.823894023895264">
<ele>757</ele>
</trkpt>
<trkpt lat="39.79213697835803" lon="2.823765026405454">
<ele>757</ele>
</trkpt>
<trkpt lat="39.792160028591752" lon="2.823679028078914">
<ele>757</ele>
</trkpt>
<trkpt lat="39.792220965027809" lon="2.823551036417484">
<ele>757</ele>
</trkpt>
<trkpt lat="39.79228600859642" lon="2.823442993685603">
<ele>758</ele>
</trkpt>
<trkpt lat="39.792374018579721" lon="2.823315002024174">
<ele>758</ele>
</trkpt>
<trkpt lat="39.792438978329301" lon="2.823186004534364">
<ele>758</ele>
</trkpt>
<trkpt lat="39.792503016069531" lon="2.823100006207824">
<ele>758</ele>
</trkpt>
<trkpt lat="39.79256403632462" lon="2.823014007881284">
<ele>758</ele>
</trkpt>
<trkpt lat="39.7926289960742" lon="2.822906970977783">
<ele>758</ele>
</trkpt>
<trkpt lat="39.792717006057501" lon="2.822800017893314">
<ele>758</ele>
</trkpt>
<trkpt lat="39.79280099272728" lon="2.822714019566774">
<ele>758</ele>
</trkpt>
<trkpt lat="39.792889002710581" lon="2.822606982663274">
<ele>757</ele>
</trkpt>
<trkpt lat="39.79290802963078" lon="2.822585022076964">
<ele>757</ele>
</trkpt>
<trkpt lat="39.79297298938036" lon="2.822456024587154">
<ele>757</ele>
</trkpt>
<trkpt lat="39.793018000200391" lon="2.822348987683654">
<ele>757</ele>
</trkpt>
<trkpt lat="39.79307902045548" lon="2.822219990193844">
<ele>757</ele>
</trkpt>
<trkpt lat="39.79310198687017" lon="2.822113037109375">
<ele>756</ele>
</trkpt>
<trkpt lat="39.793143980205059" lon="2.822006000205874">
<ele>756</ele>
</trkpt>
<trkpt lat="39.79320902377367" lon="2.821898041293025">
<ele>756</ele>
</trkpt>
<trkpt lat="39.79325101710856" lon="2.821791004389525">
<ele>756</ele>
</trkpt>
<trkpt lat="39.793297033756971" lon="2.821662006899715">
<ele>756</ele>
</trkpt>
<trkpt lat="39.793339027091861" lon="2.821534015238285">
<ele>756</ele>
</trkpt>
<trkpt lat="39.793361993506551" lon="2.821425972506404">
<ele>756</ele>
</trkpt>
<trkpt lat="39.79338102042675" lon="2.821297980844975">
<ele>756</ele>
</trkpt>
<trkpt lat="39.793468024581671" lon="2.821082985028625">
<ele>755</ele>
</trkpt>
<trkpt lat="39.79351001791656" lon="2.820910988375545">
<ele>755</ele>
</trkpt>
<trkpt lat="39.79355201125145" lon="2.820696998387575">
<ele>755</ele>
</trkpt>
<trkpt lat="39.79357497766614" lon="2.820589961484075">
<ele>755</ele>
</trkpt>
<trkpt lat="39.793594004586339" lon="2.820460963994265">
<ele>755</ele>
</trkpt>
<trkpt lat="39.793616971001029" lon="2.820311011746526">
<ele>755</ele>
</trkpt>
<trkpt lat="39.793640021234751" lon="2.820074977353215">
<ele>755</ele>
</trkpt>
<trkpt lat="39.793640021234751" lon="2.820031978189945">
<ele>755</ele>
</trkpt>
<trkpt lat="39.793640021234751" lon="2.819881020113826">
<ele>755</ele>
</trkpt>
<trkpt lat="39.793658964335918" lon="2.819753028452396">
<ele>755</ele>
</trkpt>
<trkpt lat="39.79368201456964" lon="2.819644985720515">
<ele>755</ele>
</trkpt>
<trkpt lat="39.79370498098433" lon="2.819495033472776">
<ele>755</ele>
</trkpt>
<trkpt lat="39.79374697431922" lon="2.819344997406006">
<ele>755</ele>
</trkpt>
<trkpt lat="39.793788967654109" lon="2.819194961339235">
<ele>755</ele>
</trkpt>
<trkpt lat="39.79385401122272" lon="2.819088008254767">
<ele>755</ele>
</trkpt>
<trkpt lat="39.7939189709723" lon="2.818979965522885">
<ele>755</ele>
</trkpt>
<trkpt lat="39.793960964307189" lon="2.818936966359615">
<ele>755</ele>
</trkpt>
<trkpt lat="39.79402500204742" lon="2.818808974698186">
<ele>754</ele>
</trkpt>
<trkpt lat="39.794108988717198" lon="2.818722976371646">
<ele>754</ele>
</trkpt>
<trkpt lat="39.79413203895092" lon="2.818679977208376">
<ele>754</ele>
</trkpt>
<trkpt lat="39.79417403228581" lon="2.818550979718566">
<ele>754</ele>
</trkpt>
<trkpt lat="39.7941969987005" lon="2.818421982228756">
<ele>754</ele>
</trkpt>
<trkpt lat="39.7941969987005" lon="2.818272029981017">
<ele>753</ele>
</trkpt>
<trkpt lat="39.79413203895092" lon="2.818207992240787">
<ele>753</ele>
</trkpt>
<trkpt lat="39.79402500204742" lon="2.818121993914247">
<ele>753</ele>
</trkpt>
<trkpt lat="39.793937997892499" lon="2.818035995587707">
<ele>753</ele>
</trkpt>
<trkpt lat="39.79387697763741" lon="2.817992996424437">
<ele>753</ele>
</trkpt>
<trkpt lat="39.793766001239419" lon="2.817928958684206">
<ele>753</ele>
</trkpt>
<trkpt lat="39.79368201456964" lon="2.817863998934627">
<ele>753</ele>
</trkpt>
<trkpt lat="39.793640021234751" lon="2.817822005599737">
<ele>752</ele>
</trkpt>
<trkpt lat="39.793594004586339" lon="2.817650008946657">
<ele>752</ele>
</trkpt>
<trkpt lat="39.79355201125145" lon="2.817564010620117">
<ele>752</ele>
</trkpt>
<trkpt lat="39.79344598017633" lon="2.817499972879887">
<ele>752</ele>
</trkpt>
<trkpt lat="39.793297033756971" lon="2.817456973716617">
<ele>752</ele>
</trkpt>
<trkpt lat="39.793143980205059" lon="2.817392013967037">
<ele>752</ele>
</trkpt>
<trkpt lat="39.79307902045548" lon="2.817264022305608">
<ele>752</ele>
</trkpt>
<trkpt lat="39.79305999353528" lon="2.817155979573727">
<ele>752</ele>
</trkpt>
<trkpt lat="39.79303702712059" lon="2.817006027325988">
<ele>752</ele>
</trkpt>
<trkpt lat="39.79307902045548" lon="2.816877029836178">
<ele>752</ele>
</trkpt>
<trkpt lat="39.79310198687017" lon="2.816749038174748">
<ele>752</ele>
</trkpt>
<trkpt lat="39.79320902377367" lon="2.816597996279597">
<ele>751</ele>
</trkpt>
<trkpt lat="39.79327398352325" lon="2.816470004618168">
<ele>751</ele>
</trkpt>
<trkpt lat="39.793361993506551" lon="2.816318962723017">
<ele>751</ele>
</trkpt>
<trkpt lat="39.793361993506551" lon="2.816276969388127">
<ele>751</ele>
</trkpt>
<trkpt lat="39.793339027091861" lon="2.816147971898317">
<ele>751</ele>
</trkpt>
<trkpt lat="39.79327398352325" lon="2.816018974408507">
<ele>751</ele>
</trkpt>
<trkpt lat="39.793189996853471" lon="2.815869022160769">
<ele>751</ele>
</trkpt>
<trkpt lat="39.793143980205059" lon="2.815718986093998">
<ele>750</ele>
</trkpt>
<trkpt lat="39.793143980205059" lon="2.815568028017879">
<ele>750</ele>
</trkpt>
<trkpt lat="39.793143980205059" lon="2.815397037193179">
<ele>750</ele>
</trkpt>
<trkpt lat="39.793143980205059" lon="2.815225040540099">
<ele>750</ele>
</trkpt>
<trkpt lat="39.793167030438781" lon="2.815052960067987">
<ele>750</ele>
</trkpt>
<trkpt lat="39.793167030438781" lon="2.814903007820249">
<ele>749</ele>
</trkpt>
<trkpt lat="39.793167030438781" lon="2.814752971753478">
<ele>749</ele>
</trkpt>
<trkpt lat="39.793143980205059" lon="2.814646018669009">
<ele>749</ele>
</trkpt>
<trkpt lat="39.79310198687017" lon="2.814517021179199">
<ele>749</ele>
</trkpt>
<trkpt lat="39.79305999353528" lon="2.814345024526119">
<ele>749</ele>
</trkpt>
<trkpt lat="39.79305999353528" lon="2.81426003202796">
<ele>749</ele>
</trkpt>
<trkpt lat="39.793018000200391" lon="2.81417403370142">
<ele>749</ele>
</trkpt>
<trkpt lat="39.79297298938036" lon="2.81404503621161">
<ele>748</ele>
</trkpt>
<trkpt lat="39.79297298938036" lon="2.81400203704834">
<ele>748</ele>
</trkpt>
<trkpt lat="39.79290802963078" lon="2.813809001818299">
<ele>748</ele>
</trkpt>
<trkpt lat="39.792866036295891" lon="2.813723003491759">
<ele>748</ele>
</trkpt>
<trkpt lat="39.79282395914197" lon="2.813594006001949">
<ele>748</ele>
</trkpt>
<trkpt lat="39.79278196580708" lon="2.81346601434052">
<ele>748</ele>
</trkpt>
<trkpt lat="39.792717006057501" lon="2.81338001601398">
<ele>748</ele>
</trkpt>
<trkpt lat="39.792675012722611" lon="2.813271973282099">
<ele>748</ele>
</trkpt>
<trkpt lat="39.79265196248889" lon="2.813143981620669">
<ele>748</ele>
</trkpt>
<trkpt lat="39.79258700273931" lon="2.813014984130859">
<ele>748</ele>
</trkpt>
<trkpt lat="39.792545009404421" lon="2.812908031046391">
<ele>748</ele>
</trkpt>
<trkpt lat="39.792503016069531" lon="2.812779033556581">
<ele>747</ele>
</trkpt>
<trkpt lat="39.7924580052495" lon="2.812650036066771">
<ele>747</ele>
</trkpt>
<trkpt lat="39.792416011914611" lon="2.81254299916327">
<ele>747</ele>
</trkpt>
<trkpt lat="39.79230897501111" lon="2.812392963096499">
<ele>747</ele>
</trkpt>
<trkpt lat="39.792244015261531" lon="2.812349963933229">
<ele>747</ele>
</trkpt>
<trkpt lat="39.79213697835803" lon="2.81226396560669">
<ele>747</ele>
</trkpt>
<trkpt lat="39.792030025273561" lon="2.812243010848761">
<ele>747</ele>
</trkpt>
<trkpt lat="39.791923994198442" lon="2.812243010848761">
<ele>746</ele>
</trkpt>
<trkpt lat="39.791771024465561" lon="2.81217796728015">
<ele>746</ele>
</trkpt>
<trkpt lat="39.791599027812481" lon="2.81204896979034">
<ele>746</ele>
</trkpt>
<trkpt lat="39.791580000892282" lon="2.811942016705871">
<ele>746</ele>
</trkpt>
<trkpt lat="39.791599027812481" lon="2.811813019216061">
<ele>746</ele>
</trkpt>
<trkpt lat="39.791644960641861" lon="2.811728026717901">
<ele>745</ele>
</trkpt>
<trkpt lat="39.791644960641861" lon="2.811685027554631">
<ele>745</ele>
</trkpt>
<trkpt lat="39.791644960641861" lon="2.81161998398602">
<ele>745</ele>
</trkpt>
<trkpt lat="39.791644960641861" lon="2.811405993998051">
<ele>745</ele>
</trkpt>
<trkpt lat="39.791621994227171" lon="2.811405993998051">
<ele>745</ele>
</trkpt>
<trkpt lat="39.791599027812481" lon="2.811362994834781">
<ele>746</ele>
</trkpt>
<trkpt lat="39.791621994227171" lon="2.811298035085201">
<ele>746</ele>
</trkpt>
<trkpt lat="39.791557034477592" lon="2.811190998181701">
<ele>746</ele>
</trkpt>
<trkpt lat="39.791515041142702" lon="2.811019001528621">
<ele>746</ele>
</trkpt>
<trkpt lat="39.79149199090898" lon="2.81095496378839">
<ele>746</ele>
</trkpt>
<trkpt lat="39.791472963988781" lon="2.810805011540651">
<ele>747</ele>
</trkpt>
<trkpt lat="39.791451003402472" lon="2.810611976310611">
<ele>747</ele>
</trkpt>
<trkpt lat="39.791428036987782" lon="2.810547016561031">
<ele>747</ele>
</trkpt>
<trkpt lat="39.791428036987782" lon="2.810419024899602">
<ele>747</ele>
</trkpt>
<trkpt lat="39.791409010067582" lon="2.810267983004451">
<ele>746</ele>
</trkpt>
<trkpt lat="39.79138595983386" lon="2.810139991343021">
<ele>746</ele>
</trkpt>
<trkpt lat="39.79136299341917" lon="2.809989033266902">
<ele>745</ele>
</trkpt>
<trkpt lat="39.791343966498971" lon="2.809881996363401">
<ele>745</ele>
</trkpt>
<trkpt lat="39.79136299341917" lon="2.809817958623171">
<ele>745</ele>
</trkpt>
<trkpt lat="39.791343966498971" lon="2.809688961133361">
<ele>744</ele>
</trkpt>
<trkpt lat="39.791343966498971" lon="2.809559963643551">
<ele>744</ele>
</trkpt>
<trkpt lat="39.791343966498971" lon="2.809453010559082">
<ele>743</ele>
</trkpt>
<trkpt lat="39.79136299341917" lon="2.809302974492312">
<ele>743</ele>
</trkpt>
<trkpt lat="39.79138595983386" lon="2.809110023081303">
<ele>743</ele>
</trkpt>
<trkpt lat="39.79138595983386" lon="2.809044979512692">
<ele>743</ele>
</trkpt>
<trkpt lat="39.79136299341917" lon="2.808916987851262">
<ele>742</ele>
</trkpt>
<trkpt lat="39.791343966498971" lon="2.808701992034912">
<ele>742</ele>
</trkpt>
<trkpt lat="39.791301973164082" lon="2.808615993708372">
<ele>742</ele>
</trkpt>
<trkpt lat="39.791256040334702" lon="2.808509040623903">
<ele>742</ele>
</trkpt>
<trkpt lat="39.79121396318078" lon="2.808402003720403">
<ele>742</ele>
</trkpt>
<trkpt lat="39.79119099676609" lon="2.808293960988522">
<ele>741</ele>
</trkpt>
<trkpt lat="39.791129976511002" lon="2.808144008740783">
<ele>741</ele>
</trkpt>
<trkpt lat="39.79108395986259" lon="2.808036971837282">
<ele>741</ele>
</trkpt>
<trkpt lat="39.791065016761422" lon="2.807907974347472">
<ele>741</ele>
</trkpt>
<trkpt lat="39.7910419665277" lon="2.807844020426273">
<ele>741</ele>
</trkpt>
<trkpt lat="39.79101900011301" lon="2.807735977694392">
<ele>741</ele>
</trkpt>
<trkpt lat="39.791065016761422" lon="2.807521987706423">
<ele>741</ele>
</trkpt>
<trkpt lat="39.7910419665277" lon="2.807415034621954">
<ele>740</ele>
</trkpt>
<trkpt lat="39.790999973192811" lon="2.807286037132144">
<ele>740</ele>
</trkpt>
<trkpt lat="39.79091296903789" lon="2.807093001902103">
<ele>740</ele>
</trkpt>
<trkpt lat="39.790894025936723" lon="2.807007003575563">
<ele>740</ele>
</trkpt>
<trkpt lat="39.790870975703001" lon="2.806921005249023">
<ele>740</ele>
</trkpt>
<trkpt lat="39.790828982368112" lon="2.806706009432674">
<ele>740</ele>
</trkpt>
<trkpt lat="39.790806015953422" lon="2.806621016934514">
<ele>740</ele>
</trkpt>
<trkpt lat="39.790764022618532" lon="2.806492019444704">
<ele>740</ele>
</trkpt>
<trkpt lat="39.790698979049921" lon="2.806277023628354">
<ele>740</ele>
</trkpt>
<trkpt lat="39.790698979049921" lon="2.806255985051394">
<ele>740</ele>
</trkpt>
<trkpt lat="39.790676012635231" lon="2.806040989235044">
<ele>740</ele>
</trkpt>
<trkpt lat="39.790656985715032" lon="2.805934036150575">
<ele>739</ele>
</trkpt>
<trkpt lat="39.790656985715032" lon="2.805805038660765">
<ele>739</ele>
</trkpt>
<trkpt lat="39.790676012635231" lon="2.805655002593994">
<ele>739</ele>
</trkpt>
<trkpt lat="39.790698979049921" lon="2.805655002593994">
<ele>739</ele>
</trkpt>
<trkpt lat="39.790764022618532" lon="2.805504966527224">
<ele>739</ele>
</trkpt>
<trkpt lat="39.790848009288311" lon="2.805418968200684">
<ele>739</ele>
</trkpt>
<trkpt lat="39.790957979857922" lon="2.805355014279485">
<ele>739</ele>
</trkpt>
<trkpt lat="39.791279006749392" lon="2.805140018463135">
<ele>738</ele>
</trkpt>
<trkpt lat="39.791321000084281" lon="2.804925022646785">
<ele>738</ele>
</trkpt>
<trkpt lat="39.791321000084281" lon="2.804645989090204">
<ele>738</ele>
</trkpt>
<trkpt lat="39.791321000084281" lon="2.804560996592045">
<ele>738</ele>
</trkpt>
<trkpt lat="39.79121396318078" lon="2.804431999102235">
<ele>738</ele>
</trkpt>
<trkpt lat="39.79119099676609" lon="2.804431999102235">
<ele>737</ele>
</trkpt>
<trkpt lat="39.791107010096312" lon="2.804238963872194">
<ele>737</ele>
</trkpt>
<trkpt lat="39.791107010096312" lon="2.804195964708924">
<ele>737</ele>
</trkpt>
<trkpt lat="39.7910419665277" lon="2.804023968055844">
<ele>736</ele>
</trkpt>
<trkpt lat="39.790999973192811" lon="2.803937969729304">
<ele>736</ele>
</trkpt>
<trkpt lat="39.79091296903789" lon="2.803852977231145">
<ele>736</ele>
</trkpt>
<trkpt lat="39.790806015953422" lon="2.803831016644836">
<ele>735</ele>
</trkpt>
<trkpt lat="39.790676012635231" lon="2.803788017481566">
<ele>734</ele>
</trkpt>
<trkpt lat="39.790504015982151" lon="2.803723979741335">
<ele>734</ele>
</trkpt>
<trkpt lat="39.790421035140753" lon="2.803680980578065">
<ele>734</ele>
</trkpt>
<trkpt lat="39.790313998237252" lon="2.803617026656866">
<ele>733</ele>
</trkpt>
<trkpt lat="39.790225988253951" lon="2.803488029167056">
<ele>732</ele>
</trkpt>
<trkpt lat="39.790142001584172" lon="2.803337993100286">
<ele>732</ele>
</trkpt>
<trkpt lat="39.790011998265982" lon="2.803144035860896">
<ele>732</ele>
</trkpt>
<trkpt lat="39.789905967190862" lon="2.802972961217165">
<ele>732</ele>
</trkpt>
<trkpt lat="39.789883000776172" lon="2.802866008132696">
<ele>732</ele>
</trkpt>
<trkpt lat="39.789775963872671" lon="2.802757965400815">
<ele>732</ele>
</trkpt>
<trkpt lat="39.789539007470012" lon="2.802714966237545">
<ele>732</ele>
</trkpt>
<trkpt lat="39.789539007470012" lon="2.802500976249576">
<ele>733</ele>
</trkpt>
<trkpt lat="39.789432976394892" lon="2.802242981269956">
<ele>733</ele>
</trkpt>
<trkpt lat="39.789368016645312" lon="2.802199982106686">
<ele>733</ele>
</trkpt>
<trkpt lat="39.788897959515452" lon="2.801684997975826">
<ele>733</ele>
</trkpt>
<trkpt lat="39.788704002276063" lon="2.801299011334777">
<ele>733</ele>
</trkpt>
<trkpt lat="39.788681035861373" lon="2.801256012171507">
<ele>733</ele>
</trkpt>
<trkpt lat="39.788445001468062" lon="2.801127014681697">
<ele>733</ele>
</trkpt>
<trkpt lat="39.788445001468062" lon="2.801105976104736">
<ele>733</ele>
</trkpt>
<trkpt lat="39.788295971229672" lon="2.800827026367188">
<ele>733</ele>
</trkpt>
<trkpt lat="39.788211984559894" lon="2.800762988626957">
<ele>733</ele>
</trkpt>
<trkpt lat="39.788165967911482" lon="2.800719989463687">
<ele>733</ele>
</trkpt>
<trkpt lat="39.788123974576592" lon="2.800547992810607">
<ele>733</ele>
</trkpt>
<trkpt lat="39.788017021492124" lon="2.800441039726138">
<ele>733</ele>
</trkpt>
<trkpt lat="39.787975028157234" lon="2.800375996157527">
<ele>733</ele>
</trkpt>
<trkpt lat="39.787909984588623" lon="2.800248004496098">
<ele>733</ele>
</trkpt>
<trkpt lat="39.787888024002314" lon="2.800205005332828">
<ele>734</ele>
</trkpt>
<trkpt lat="39.787822980433702" lon="2.800076007843018">
<ele>734</ele>
</trkpt>
<trkpt lat="39.787758020684123" lon="2.799990009516478">
<ele>735</ele>
</trkpt>
<trkpt lat="39.787650983780622" lon="2.799819018691778">
<ele>735</ele>
</trkpt>
<trkpt lat="39.787566997110844" lon="2.799690021201968">
<ele>736</ele>
</trkpt>
<trkpt lat="39.787502037361264" lon="2.799604022875428">
<ele>736</ele>
</trkpt>
<trkpt lat="39.787459960207343" lon="2.799475025385618">
<ele>737</ele>
</trkpt>
<trkpt lat="39.787478987127542" lon="2.799475025385618">
<ele>738</ele>
</trkpt>
<trkpt lat="39.787395000457764" lon="2.799346027895808">
<ele>738</ele>
</trkpt>
<trkpt lat="39.787330962717533" lon="2.799195991829038">
<ele>739</ele>
</trkpt>
<trkpt lat="39.787239013239741" lon="2.799075040966272">
<ele>739</ele>
</trkpt>
<trkpt lat="39.787209257483482" lon="2.798958867788315">
<ele>740</ele>
</trkpt>
</trkseg>
</trk>
</gpx>
