<?xml version="1.0" encoding="UTF-8"?>
<gpx version="1.1"
creator="Smartprofil-Office - http://www.rother.de"
xmlns:xsi="http://www.w3.org/2001/XMLSchema-instance"
xmlns="http://www.topografix.com/GPX/1/1"
xsi:schemaLocation="http://www.topografix.com/GPX/1/1 http://www.topografix.com/GPX/1/1/gpx.xsd">
<metadata>

<bounds minlat="39.757940322160721" minlon="2.73077049292624" maxlat="39.77371908724308" maxlon="2.756913397461176"/>
</metadata>
<wpt lat="39.77371908724308" lon="2.730852048844099">
<ele>60</ele>
<name>31_Horta de Biniaraix (1)</name>
<cmt></cmt>
<desc></desc>
<sym>Crossing</sym>
</wpt>

<wpt lat="39.771254975348711" lon="2.73519697599113">
<ele>95</ele>
<name>31_Biniaraix (2)</name>
<cmt></cmt>
<desc></desc>
<sym>Crossing</sym>
</wpt>

<wpt lat="39.765721494331956" lon="2.747212098911405">
<ele>338</ele>
<name>31_Cova de ses Alfàbies (3)</name>
<cmt></cmt>
<desc></desc>
<sym>Crossing</sym>
</wpt>

<wpt lat="39.764774674549699" lon="2.748146764934063">
<ele>435</ele>
<name>31_Coll d’en Se (4)</name>
<cmt></cmt>
<desc></desc>
<sym>Crossing</sym>
</wpt>

<wpt lat="39.763771360740066" lon="2.75326986797154">
<ele>385</ele>
<name>31_Gorg de Can Cati (5)</name>
<cmt></cmt>
<desc></desc>
<sym>Crossing</sym>
</wpt>

<wpt lat="39.75979414768517" lon="2.747394740581513">
<ele>956</ele>
<name>31_Cornador Gran (7)</name>
<cmt></cmt>
<desc></desc>
<sym>Crossing</sym>
</wpt>

<wpt lat="39.75819731131196" lon="2.747450144961476">
<ele>915</ele>
<name>31_915 (6)</name>
<cmt></cmt>
<desc></desc>
<sym>Crossing</sym>
</wpt>

<wpt lat="39.766519283875823" lon="2.749095261096954">
<ele>305</ele>
<name>31_s’Estret (8)</name>
<cmt></cmt>
<desc></desc>
<sym>Crossing</sym>
</wpt>

<wpt lat="39.771254975348711" lon="2.73519697599113">
<ele>95</ele>
<name>31_Biniaraix (2)</name>
<cmt></cmt>
<desc></desc>
<sym>Crossing</sym>
</wpt>

<trk>
<name>Mal_31_Cornador Gran</name>
<trkseg>
<trkpt lat="39.77371908724308" lon="2.730852048844099">
<ele>60</ele>
</trkpt>
<trkpt lat="39.773706179112196" lon="2.73077049292624">
<ele>60</ele>
</trkpt>
<trkpt lat="39.773555221036077" lon="2.73096788674593">
<ele>61</ele>
</trkpt>
<trkpt lat="39.773355815559626" lon="2.731201490387321">
<ele>62</ele>
</trkpt>
<trkpt lat="39.77333159185946" lon="2.73141204379499">
<ele>62</ele>
</trkpt>
<trkpt lat="39.773272247985005" lon="2.73152394220233">
<ele>62</ele>
</trkpt>
<trkpt lat="39.773105196654797" lon="2.731714714318514">
<ele>63</ele>
</trkpt>
<trkpt lat="39.772929847240448" lon="2.731951838359237">
<ele>64</ele>
</trkpt>
<trkpt lat="39.772733123973012" lon="2.732264399528503">
<ele>64</ele>
</trkpt>
<trkpt lat="39.772555259987712" lon="2.73251443170011">
<ele>64</ele>
</trkpt>
<trkpt lat="39.772372031584382" lon="2.732787514105439">
<ele>65</ele>
</trkpt>
<trkpt lat="39.772312771528959" lon="2.733129663392901">
<ele>67</ele>
</trkpt>
<trkpt lat="39.772264240309596" lon="2.733491510152817">
<ele>69</ele>
</trkpt>
<trkpt lat="39.772264240309596" lon="2.73348824121058">
<ele>71</ele>
</trkpt>
<trkpt lat="39.772296594455838" lon="2.733833659440279">
<ele>73</ele>
</trkpt>
<trkpt lat="39.772296594455838" lon="2.733830390498042">
<ele>75</ele>
</trkpt>
<trkpt lat="39.772331630811095" lon="2.734060725197196">
<ele>77</ele>
</trkpt>
<trkpt lat="39.772275052964687" lon="2.734096851199865">
<ele>79</ele>
</trkpt>
<trkpt lat="39.772248063236475" lon="2.734225178137422">
<ele>81</ele>
</trkpt>
<trkpt lat="39.7720567882061" lon="2.734199361875653">
<ele>83</ele>
</trkpt>
<trkpt lat="39.771752273663878" lon="2.734340848401189">
<ele>85</ele>
</trkpt>
<trkpt lat="39.771630987524986" lon="2.734584342688322">
<ele>87</ele>
</trkpt>
<trkpt lat="39.77153392508626" lon="2.734630359336734">
<ele>89</ele>
</trkpt>
<trkpt lat="39.771348014473915" lon="2.734505385160446">
<ele>91</ele>
</trkpt>
<trkpt lat="39.771124301478267" lon="2.734771845862269">
<ele>93</ele>
</trkpt>
<trkpt lat="39.771254975348711" lon="2.73519697599113">
<ele>95</ele>
</trkpt>
<trkpt lat="39.771318342536688" lon="2.73538657464087">
<ele>96</ele>
</trkpt>
<trkpt lat="39.771391097456217" lon="2.735620178282261">
<ele>97</ele>
</trkpt>
<trkpt lat="39.771434180438519" lon="2.735820841044188">
<ele>98</ele>
</trkpt>
<trkpt lat="39.771480029448867" lon="2.736064335331321">
<ele>99</ele>
</trkpt>
<trkpt lat="39.771415321156383" lon="2.736136671155691">
<ele>100</ele>
</trkpt>
<trkpt lat="39.771237457171082" lon="2.736182771623135">
<ele>100</ele>
</trkpt>
<trkpt lat="39.771075770258904" lon="2.736376896500588">
<ele>101</ele>
</trkpt>
<trkpt lat="39.771003015339375" lon="2.736478820443153">
<ele>102</ele>
</trkpt>
<trkpt lat="39.771003015339375" lon="2.736482173204422">
<ele>103</ele>
</trkpt>
<trkpt lat="39.770924896001816" lon="2.736643357202411">
<ele>104</ele>
</trkpt>
<trkpt lat="39.770730854943395" lon="2.736715693026781">
<ele>104</ele>
</trkpt>
<trkpt lat="39.77055030874908" lon="2.736863801255822">
<ele>104</ele>
</trkpt>
<trkpt lat="39.770429357886314" lon="2.736939573660493">
<ele>104</ele>
</trkpt>
<trkpt lat="39.770429357886314" lon="2.736942926421762">
<ele>104</ele>
</trkpt>
<trkpt lat="39.770302623510361" lon="2.737173177301884">
<ele>104</ele>
</trkpt>
<trkpt lat="39.770197598263621" lon="2.73730150423944">
<ele>103</ele>
</trkpt>
<trkpt lat="39.769957708194852" lon="2.737410049885511">
<ele>103</ele>
</trkpt>
<trkpt lat="39.769733995199203" lon="2.737541645765305">
<ele>103</ele>
</trkpt>
<trkpt lat="39.769561579450965" lon="2.737669972702861">
<ele>103</ele>
</trkpt>
<trkpt lat="39.769448339939117" lon="2.73781799711287">
<ele>103</ele>
</trkpt>
<trkpt lat="39.769192356616259" lon="2.737841047346592">
<ele>104</ele>
</trkpt>
<trkpt lat="39.76896327920258" lon="2.737854206934571">
<ele>105</ele>
</trkpt>
<trkpt lat="39.768712660297751" lon="2.737864097580314">
<ele>106</ele>
</trkpt>
<trkpt lat="39.768619034439325" lon="2.737847669050098">
<ele>107</ele>
</trkpt>
<trkpt lat="39.768511243164539" lon="2.737998962402344">
<ele>108</ele>
</trkpt>
<trkpt lat="39.768511243164539" lon="2.738002231344581">
<ele>108</ele>
</trkpt>
<trkpt lat="39.768441170454025" lon="2.73819962516427">
<ele>109</ele>
</trkpt>
<trkpt lat="39.768438404425979" lon="2.73819962516427">
<ele>110</ele>
</trkpt>
<trkpt lat="39.76836564950645" lon="2.738370699808002">
<ele>111</ele>
</trkpt>
<trkpt lat="39.768279399722815" lon="2.73857144638896">
<ele>112</ele>
</trkpt>
<trkpt lat="39.768282165750861" lon="2.73857144638896">
<ele>115</ele>
</trkpt>
<trkpt lat="39.768228270113468" lon="2.738666832447052">
<ele>118</ele>
</trkpt>
<trkpt lat="39.768050406128168" lon="2.738673370331526">
<ele>121</ele>
</trkpt>
<trkpt lat="39.767880588769913" lon="2.738860957324505">
<ele>124</ele>
</trkpt>
<trkpt lat="39.767802469432354" lon="2.739045191556215">
<ele>126</ele>
</trkpt>
<trkpt lat="39.7676757350564" lon="2.739321542903781">
<ele>129</ele>
</trkpt>
<trkpt lat="39.767395528033376" lon="2.739439979195595">
<ele>132</ele>
</trkpt>
<trkpt lat="39.767365856096148" lon="2.739634104073048">
<ele>135</ele>
</trkpt>
<trkpt lat="39.767368538305163" lon="2.739634104073048">
<ele>138</ele>
</trkpt>
<trkpt lat="39.767398210242391" lon="2.739851195365191">
<ele>141</ele>
</trkpt>
<trkpt lat="39.767476329579949" lon="2.740097958594561">
<ele>142</ele>
</trkpt>
<trkpt lat="39.767602980136871" lon="2.740338100120425">
<ele>143</ele>
</trkpt>
<trkpt lat="39.767458476126194" lon="2.740601878613234">
<ele>144</ele>
</trkpt>
<trkpt lat="39.767339872196317" lon="2.740756524726749">
<ele>145</ele>
</trkpt>
<trkpt lat="39.767331825569272" lon="2.741072354838252">
<ele>146</ele>
</trkpt>
<trkpt lat="39.767404580488801" lon="2.741256589069963">
<ele>147</ele>
</trkpt>
<trkpt lat="39.767428804188967" lon="2.741411235183477">
<ele>148</ele>
</trkpt>
<trkpt lat="39.767450345680118" lon="2.741598738357425">
<ele>149</ele>
</trkpt>
<trkpt lat="39.767364095896482" lon="2.741523049771786">
<ele>150</ele>
</trkpt>
<trkpt lat="39.767258986830711" lon="2.741611897945404">
<ele>151</ele>
</trkpt>
<trkpt lat="39.76721053943038" lon="2.741368403658271">
<ele>155</ele>
</trkpt>
<trkpt lat="39.767140466719866" lon="2.741519780829549">
<ele>158</ele>
</trkpt>
<trkpt lat="39.767056899145246" lon="2.74139472283423">
<ele>162</ele>
</trkpt>
<trkpt lat="39.767003003507853" lon="2.741562528535724">
<ele>166</ele>
</trkpt>
<trkpt lat="39.766935613006353" lon="2.741407882422209">
<ele>170</ele>
</trkpt>
<trkpt lat="39.766755066812038" lon="2.741365134716034">
<ele>173</ele>
</trkpt>
<trkpt lat="39.766671499237418" lon="2.74139472283423">
<ele>177</ele>
</trkpt>
<trkpt lat="39.766668817028403" lon="2.74139472283423">
<ele>181</ele>
</trkpt>
<trkpt lat="39.766790103167295" lon="2.741648107767105">
<ele>184</ele>
</trkpt>
<trkpt lat="39.766558343544602" lon="2.741608629003167">
<ele>188</ele>
</trkpt>
<trkpt lat="39.766596062108874" lon="2.741829073056579">
<ele>190</ele>
</trkpt>
<trkpt lat="39.766458598896861" lon="2.74200014770031">
<ele>193</ele>
</trkpt>
<trkpt lat="39.76641015149653" lon="2.742223860695958">
<ele>196</ele>
</trkpt>
<trkpt lat="39.766372349113226" lon="2.742460733279586">
<ele>198</ele>
</trkpt>
<trkpt lat="39.766329266130924" lon="2.742733731865883">
<ele>200</ele>
</trkpt>
<trkpt lat="39.766294229775667" lon="2.742885109037161">
<ele>203</ele>
</trkpt>
<trkpt lat="39.766307892277837" lon="2.743079736828804">
<ele>206</ele>
</trkpt>
<trkpt lat="39.766307892277837" lon="2.743076467886567">
<ele>208</ele>
</trkpt>
<trkpt lat="39.766256678849459" lon="2.743319878354669">
<ele>210</ele>
</trkpt>
<trkpt lat="39.766224324703217" lon="2.743530431762338">
<ele>213</ele>
</trkpt>
<trkpt lat="39.766235053539276" lon="2.743596229702234">
<ele>217</ele>
</trkpt>
<trkpt lat="39.766132710501552" lon="2.743783816695213">
<ele>221</ele>
</trkpt>
<trkpt lat="39.766076132655144" lon="2.744040386751294">
<ele>224</ele>
</trkpt>
<trkpt lat="39.765981752425432" lon="2.744264099746943">
<ele>228</ele>
</trkpt>
<trkpt lat="39.765930538997054" lon="2.744343057274818">
<ele>232</ele>
</trkpt>
<trkpt lat="39.765847055241466" lon="2.744297040626407">
<ele>236</ele>
</trkpt>
<trkpt lat="39.765908997505903" lon="2.744609601795673">
<ele>240</ele>
</trkpt>
<trkpt lat="39.765790393576026" lon="2.744303578510881">
<ele>243</ele>
</trkpt>
<trkpt lat="39.765755357220769" lon="2.744504325091839">
<ele>247</ele>
</trkpt>
<trkpt lat="39.765653014183044" lon="2.744339788332582">
<ele>251</ele>
</trkpt>
<trkpt lat="39.76558294147253" lon="2.744570123031735">
<ele>256</ele>
</trkpt>
<trkpt lat="39.765502056106925" lon="2.744741197675467">
<ele>261</ele>
</trkpt>
<trkpt lat="39.765472384169698" lon="2.744876062497497">
<ele>265</ele>
</trkpt>
<trkpt lat="39.765607165172696" lon="2.744968179613352">
<ele>270</ele>
</trkpt>
<trkpt lat="39.765442796051502" lon="2.745027355849743">
<ele>275</ele>
</trkpt>
<trkpt lat="39.765442796051502" lon="2.745083346962929">
<ele>280</ele>
</trkpt>
<trkpt lat="39.765626024454832" lon="2.745129363611341">
<ele>285</ele>
</trkpt>
<trkpt lat="39.765650583431125" lon="2.745294235646725">
<ele>289</ele>
</trkpt>
<trkpt lat="39.765448411926627" lon="2.745412671938539">
<ele>294</ele>
</trkpt>
<trkpt lat="39.765335256233811" lon="2.745777871459723">
<ele>299</ele>
</trkpt>
<trkpt lat="39.765424188226461" lon="2.74613980203867">
<ele>302</ele>
</trkpt>
<trkpt lat="39.765588557347655" lon="2.746360246092081">
<ele>306</ele>
</trkpt>
<trkpt lat="39.765682853758335" lon="2.746485220268369">
<ele>309</ele>
</trkpt>
<trkpt lat="39.765761056914926" lon="2.746560908854008">
<ele>312</ele>
</trkpt>
<trkpt lat="39.765669442713261" lon="2.746616816148162">
<ele>315</ele>
</trkpt>
<trkpt lat="39.76573683321476" lon="2.746695773676038">
<ele>318</ele>
</trkpt>
<trkpt lat="39.765734067186713" lon="2.746695773676038">
<ele>322</ele>
</trkpt>
<trkpt lat="39.765728702768683" lon="2.746764840558171">
<ele>325</ele>
</trkpt>
<trkpt lat="39.765796093270183" lon="2.746896436437964">
<ele>328</ele>
</trkpt>
<trkpt lat="39.765804139897227" lon="2.74696558713913">
<ele>332</ele>
</trkpt>
<trkpt lat="39.765766421332955" lon="2.747074132785201">
<ele>335</ele>
</trkpt>
<trkpt lat="39.765721494331956" lon="2.747212098911405">
<ele>338</ele>
</trkpt>
<trkpt lat="39.765806822106242" lon="2.74696558713913">
<ele>338</ele>
</trkpt>
<trkpt lat="39.765790728852153" lon="2.746899789199233">
<ele>337</ele>
</trkpt>
<trkpt lat="39.765734067186713" lon="2.746771462261677">
<ele>337</ele>
</trkpt>
<trkpt lat="39.765731384977698" lon="2.746771462261677">
<ele>337</ele>
</trkpt>
<trkpt lat="39.765731384977698" lon="2.746699042618275">
<ele>336</ele>
</trkpt>
<trkpt lat="39.765663994476199" lon="2.746603656560183">
<ele>336</ele>
</trkpt>
<trkpt lat="39.765472719445825" lon="2.746531320735812">
<ele>336</ele>
</trkpt>
<trkpt lat="39.765389151871204" lon="2.746508270502091">
<ele>336</ele>
</trkpt>
<trkpt lat="39.765435000881553" lon="2.746639866381884">
<ele>335</ele>
</trkpt>
<trkpt lat="39.765249006450176" lon="2.746626706793904">
<ele>335</ele>
</trkpt>
<trkpt lat="39.765249006450176" lon="2.746629975736141">
<ele>339</ele>
</trkpt>
<trkpt lat="39.765084637328982" lon="2.746712202206254">
<ele>343</ele>
</trkpt>
<trkpt lat="39.765111543238163" lon="2.74676819331944">
<ele>346</ele>
</trkpt>
<trkpt lat="39.764982210472226" lon="2.746837260201573">
<ele>350</ele>
</trkpt>
<trkpt lat="39.765019929036498" lon="2.746883276849985">
<ele>354</ele>
</trkpt>
<trkpt lat="39.764898642897606" lon="2.746942536905408">
<ele>358</ele>
</trkpt>
<trkpt lat="39.764788169413805" lon="2.746873470023274">
<ele>362</ele>
</trkpt>
<trkpt lat="39.764769310131669" lon="2.74690305814147">
<ele>365</ele>
</trkpt>
<trkpt lat="39.764769310131669" lon="2.746906327083707">
<ele>369</ele>
</trkpt>
<trkpt lat="39.764734273776412" lon="2.746784621849656">
<ele>373</ele>
</trkpt>
<trkpt lat="39.764653388410807" lon="2.746932646259666">
<ele>376</ele>
</trkpt>
<trkpt lat="39.764634529128671" lon="2.746883276849985">
<ele>379</ele>
</trkpt>
<trkpt lat="39.764599492773414" lon="2.747126771137118">
<ele>382</ele>
</trkpt>
<trkpt lat="39.764634529128671" lon="2.747222157195211">
<ele>385</ele>
</trkpt>
<trkpt lat="39.764591446146369" lon="2.747268257662654">
<ele>388</ele>
</trkpt>
<trkpt lat="39.764639977365732" lon="2.747340593487024">
<ele>390</ele>
</trkpt>
<trkpt lat="39.764718096703291" lon="2.747343862429261">
<ele>393</ele>
</trkpt>
<trkpt lat="39.764683060348034" lon="2.747422819957137">
<ele>396</ele>
</trkpt>
<trkpt lat="39.764763945713639" lon="2.747399853542447">
<ele>399</ele>
</trkpt>
<trkpt lat="39.764766627922654" lon="2.747435979545116">
<ele>402</ele>
</trkpt>
<trkpt lat="39.764561774209142" lon="2.747587356716394">
<ele>407</ele>
</trkpt>
<trkpt lat="39.764270754531026" lon="2.747561288997531">
<ele>411</ele>
</trkpt>
<trkpt lat="39.76430855691433" lon="2.747768573462963">
<ele>416</ele>
</trkpt>
<trkpt lat="39.764181822538376" lon="2.747801430523396">
<ele>421</ele>
</trkpt>
<trkpt lat="39.764389358460903" lon="2.747916597872973">
<ele>426</ele>
</trkpt>
<trkpt lat="39.764610389247537" lon="2.748048193752766">
<ele>430</ele>
</trkpt>
<trkpt lat="39.764774674549699" lon="2.748146764934063">
<ele>435</ele>
</trkpt>
<trkpt lat="39.764777440577745" lon="2.748209377750754">
<ele>436</ele>
</trkpt>
<trkpt lat="39.764742404222488" lon="2.748367292806506">
<ele>437</ele>
</trkpt>
<trkpt lat="39.76460225880146" lon="2.748584467917681">
<ele>437</ele>
</trkpt>
<trkpt lat="39.764410899952054" lon="2.748798290267587">
<ele>438</ele>
</trkpt>
<trkpt lat="39.764230353757739" lon="2.748969364911318">
<ele>439</ele>
</trkpt>
<trkpt lat="39.763990547508001" lon="2.749153599143028">
<ele>440</ele>
</trkpt>
<trkpt lat="39.763939334079623" lon="2.749183271080256">
<ele>441</ele>
</trkpt>
<trkpt lat="39.76389080286026" lon="2.749390471726656">
<ele>441</ele>
</trkpt>
<trkpt lat="39.763871943578124" lon="2.749591218307614">
<ele>442</ele>
</trkpt>
<trkpt lat="39.763774964958429" lon="2.749778721481562">
<ele>443</ele>
</trkpt>
<trkpt lat="39.763756273314357" lon="2.750114668160677">
<ele>440</ele>
</trkpt>
<trkpt lat="39.763758955523372" lon="2.750351540744305">
<ele>436</ele>
</trkpt>
<trkpt lat="39.763767002150416" lon="2.750571900978684">
<ele>433</ele>
</trkpt>
<trkpt lat="39.763791309669614" lon="2.750729816034436">
<ele>430</ele>
</trkpt>
<trkpt lat="39.763829028233886" lon="2.750917403027415">
<ele>426</ele>
</trkpt>
<trkpt lat="39.763845205307007" lon="2.751088477671146">
<ele>423</ele>
</trkpt>
<trkpt lat="39.763912595808506" lon="2.751226611435413">
<ele>420</ele>
</trkpt>
<trkpt lat="39.763936819508672" lon="2.751496424898505">
<ele>417</ele>
</trkpt>
<trkpt lat="39.763936819508672" lon="2.751499693840742">
<ele>413</ele>
</trkpt>
<trkpt lat="39.763947632163763" lon="2.75173656642437">
<ele>410</ele>
</trkpt>
<trkpt lat="39.76398266851902" lon="2.751930691301823">
<ele>407</ele>
</trkpt>
<trkpt lat="39.764039246365428" lon="2.752085337415338">
<ele>404</ele>
</trkpt>
<trkpt lat="39.764017704874277" lon="2.752276109531522">
<ele>402</ele>
</trkpt>
<trkpt lat="39.76389373652637" lon="2.752476772293448">
<ele>399</ele>
</trkpt>
<trkpt lat="39.763783095404506" lon="2.752677602693439">
<ele>396</ele>
</trkpt>
<trkpt lat="39.763777647167444" lon="2.752680871635675">
<ele>393</ele>
</trkpt>
<trkpt lat="39.763713022693992" lon="2.75278614833951">
<ele>391</ele>
</trkpt>
<trkpt lat="39.763734564185143" lon="2.753009861335158">
<ele>388</ele>
</trkpt>
<trkpt lat="39.763771360740066" lon="2.75326986797154">
<ele>385</ele>
</trkpt>
<trkpt lat="39.763772282749414" lon="2.75327967479825">
<ele>387</ele>
</trkpt>
<trkpt lat="39.763901615515351" lon="2.753319153562188">
<ele>388</ele>
</trkpt>
<trkpt lat="39.763901615515351" lon="2.753322422504425">
<ele>390</ele>
</trkpt>
<trkpt lat="39.764103787019849" lon="2.753312615677714">
<ele>392</ele>
</trkpt>
<trkpt lat="39.76411996409297" lon="2.753440858796239">
<ele>394</ele>
</trkpt>
<trkpt lat="39.764314005151391" lon="2.753513278439641">
<ele>395</ele>
</trkpt>
<trkpt lat="39.764311322942376" lon="2.753519816324115">
<ele>397</ele>
</trkpt>
<trkpt lat="39.764435291290283" lon="2.753697512671351">
<ele>399</ele>
</trkpt>
<trkpt lat="39.764435291290283" lon="2.753704050555825">
<ele>400</ele>
</trkpt>
<trkpt lat="39.764567306265235" lon="2.753822486847639">
<ele>402</ele>
</trkpt>
<trkpt lat="39.76474248804152" lon="2.753766579553485">
<ele>405</ele>
</trkpt>
<trkpt lat="39.76492571644485" lon="2.753852158784866">
<ele>407</ele>
</trkpt>
<trkpt lat="39.765079356729984" lon="2.753990292549133">
<ele>410</ele>
</trkpt>
<trkpt lat="39.765246324241161" lon="2.754184920340776">
<ele>412</ele>
</trkpt>
<trkpt lat="39.765426870435476" lon="2.754352642223239">
<ele>415</ele>
</trkpt>
<trkpt lat="39.765324527397752" lon="2.754382314160466">
<ele>418</ele>
</trkpt>
<trkpt lat="39.765324527397752" lon="2.754385583102703">
<ele>420</ele>
</trkpt>
<trkpt lat="39.765289491042495" lon="2.754484238103032">
<ele>423</ele>
</trkpt>
<trkpt lat="39.765437683090568" lon="2.754632346332073">
<ele>425</ele>
</trkpt>
<trkpt lat="39.765435000881553" lon="2.754632346332073">
<ele>428</ele>
</trkpt>
<trkpt lat="39.765324527397752" lon="2.754675094038248">
<ele>436</ele>
</trkpt>
<trkpt lat="39.765087319537997" lon="2.754559926688671">
<ele>444</ele>
</trkpt>
<trkpt lat="39.765222100540996" lon="2.754744160920382">
<ele>452</ele>
</trkpt>
<trkpt lat="39.765359563753009" lon="2.754928395152092">
<ele>460</ele>
</trkpt>
<trkpt lat="39.765515802428126" lon="2.755115898326039">
<ele>468</ele>
</trkpt>
<trkpt lat="39.765416141599417" lon="2.755175158381462">
<ele>477</ele>
</trkpt>
<trkpt lat="39.765240959823132" lon="2.755158729851246">
<ele>485</ele>
</trkpt>
<trkpt lat="39.765351433306932" lon="2.75534950196743">
<ele>493</ele>
</trkpt>
<trkpt lat="39.765178933739662" lon="2.755369283258915">
<ele>501</ele>
</trkpt>
<trkpt lat="39.765098132193089" lon="2.755490988492966">
<ele>509</ele>
</trkpt>
<trkpt lat="39.765098132193089" lon="2.755494257435203">
<ele>509</ele>
</trkpt>
<trkpt lat="39.76531907916069" lon="2.755612693727016">
<ele>508</ele>
</trkpt>
<trkpt lat="39.765478083863854" lon="2.755688382312655">
<ele>508</ele>
</trkpt>
<trkpt lat="39.765699114650488" lon="2.755741020664573">
<ele>507</ele>
</trkpt>
<trkpt lat="39.765699114650488" lon="2.75574428960681">
<ele>507</ele>
</trkpt>
<trkpt lat="39.765876978635788" lon="2.755796927958727">
<ele>507</ele>
</trkpt>
<trkpt lat="39.765971275046468" lon="2.755859456956387">
<ele>506</ele>
</trkpt>
<trkpt lat="39.76608719676733" lon="2.755862725898624">
<ele>506</ele>
</trkpt>
<trkpt lat="39.765917379409075" lon="2.756020640954375">
<ele>505</ele>
</trkpt>
<trkpt lat="39.765634406358004" lon="2.756043691188097">
<ele>505</ele>
</trkpt>
<trkpt lat="39.765753010287881" lon="2.756142430007458">
<ele>508</ele>
</trkpt>
<trkpt lat="39.765591323375702" lon="2.756214765831828">
<ele>512</ele>
</trkpt>
<trkpt lat="39.765550838783383" lon="2.756280563771725">
<ele>516</ele>
</trkpt>
<trkpt lat="39.765572464093566" lon="2.756385840475559">
<ele>519</ele>
</trkpt>
<trkpt lat="39.765518568456173" lon="2.756461529061198">
<ele>522</ele>
</trkpt>
<trkpt lat="39.765461906790733" lon="2.756296992301941">
<ele>526</ele>
</trkpt>
<trkpt lat="39.765362245962024" lon="2.756185177713633">
<ele>530</ele>
</trkpt>
<trkpt lat="39.765302902087569" lon="2.756244353950024">
<ele>533</ele>
</trkpt>
<trkpt lat="39.765106178820133" lon="2.755918717011809">
<ele>536</ele>
</trkpt>
<trkpt lat="39.765108861029148" lon="2.755918717011809">
<ele>540</ele>
</trkpt>
<trkpt lat="39.764917585998774" lon="2.755777230486274">
<ele>544</ele>
</trkpt>
<trkpt lat="39.764631930738688" lon="2.755819978192449">
<ele>548</ele>
</trkpt>
<trkpt lat="39.764454066753387" lon="2.755767339840531">
<ele>552</ele>
</trkpt>
<trkpt lat="39.764349041506648" lon="2.755685113370419">
<ele>556</ele>
</trkpt>
<trkpt lat="39.764246614649892" lon="2.755540357902646">
<ele>560</ele>
</trkpt>
<trkpt lat="39.764246614649892" lon="2.755543626844883">
<ele>564</ele>
</trkpt>
<trkpt lat="39.764160364866257" lon="2.755576483905315">
<ele>568</ele>
</trkpt>
<trkpt lat="39.764009490609169" lon="2.755790390074253">
<ele>572</ele>
</trkpt>
<trkpt lat="39.763836991041899" lon="2.755882507190108">
<ele>576</ele>
</trkpt>
<trkpt lat="39.763888204470277" lon="2.755964733660221">
<ele>580</ele>
</trkpt>
<trkpt lat="39.763888204470277" lon="2.756000943481922">
<ele>582</ele>
</trkpt>
<trkpt lat="39.763694163411856" lon="2.755895666778088">
<ele>584</ele>
</trkpt>
<trkpt lat="39.763605231419206" lon="2.755790390074253">
<ele>586</ele>
</trkpt>
<trkpt lat="39.763570195063949" lon="2.755859456956387">
<ele>588</ele>
</trkpt>
<trkpt lat="39.76349744014442" lon="2.755625853314996">
<ele>590</ele>
</trkpt>
<trkpt lat="39.763473132625222" lon="2.755754180252552">
<ele>591</ele>
</trkpt>
<trkpt lat="39.763373471796513" lon="2.755639012902975">
<ele>593</ele>
</trkpt>
<trkpt lat="39.763292586430907" lon="2.755560055375099">
<ele>595</ele>
</trkpt>
<trkpt lat="39.763271044939756" lon="2.75565879419446">
<ele>597</ele>
</trkpt>
<trkpt lat="39.763103909790516" lon="2.755563324317336">
<ele>599</ele>
</trkpt>
<trkpt lat="39.762993436306715" lon="2.755431728437543">
<ele>600</ele>
</trkpt>
<trkpt lat="39.762861421331763" lon="2.755451509729028">
<ele>601</ele>
</trkpt>
<trkpt lat="39.76290718652308" lon="2.755556786432862">
<ele>602</ele>
</trkpt>
<trkpt lat="39.762837113812566" lon="2.755678491666913">
<ele>603</ele>
</trkpt>
<trkpt lat="39.762934176251292" lon="2.755741020664573">
<ele>604</ele>
</trkpt>
<trkpt lat="39.762934176251292" lon="2.755737751722336">
<ele>605</ele>
</trkpt>
<trkpt lat="39.762820936739445" lon="2.755810087546706">
<ele>606</ele>
</trkpt>
<trkpt lat="39.76272932253778" lon="2.755908826366067">
<ele>607</ele>
</trkpt>
<trkpt lat="39.762589177116752" lon="2.756007481366396">
<ele>608</ele>
</trkpt>
<trkpt lat="39.762454815208912" lon="2.755932044237852">
<ele>609</ele>
</trkpt>
<trkpt lat="39.762495215982199" lon="2.756047211587429">
<ele>614</ele>
</trkpt>
<trkpt lat="39.762613819912076" lon="2.756145866587758">
<ele>620</ele>
</trkpt>
<trkpt lat="39.762748517096043" lon="2.756198504939675">
<ele>625</ele>
</trkpt>
<trkpt lat="39.762643408030272" lon="2.756247874349356">
<ele>631</ele>
</trkpt>
<trkpt lat="39.762492533773184" lon="2.756241336464882">
<ele>636</ele>
</trkpt>
<trkpt lat="39.762395471334457" lon="2.756320293992758">
<ele>641</ele>
</trkpt>
<trkpt lat="39.762419778853655" lon="2.756458427757025">
<ele>647</ele>
</trkpt>
<trkpt lat="39.762508710846305" lon="2.7567118126899">
<ele>652</ele>
</trkpt>
<trkpt lat="39.762481721118093" lon="2.756817089393735">
<ele>658</ele>
</trkpt>
<trkpt lat="39.762406283989549" lon="2.756886156275868">
<ele>663</ele>
</trkpt>
<trkpt lat="39.762295810505748" lon="2.756902584806085">
<ele>662</ele>
</trkpt>
<trkpt lat="39.762109816074371" lon="2.75690920650959">
<ele>660</ele>
</trkpt>
<trkpt lat="39.762042425572872" lon="2.756856568157673">
<ele>658</ele>
</trkpt>
<trkpt lat="39.761972352862358" lon="2.756659174337983">
<ele>657</ele>
</trkpt>
<trkpt lat="39.761861879378557" lon="2.756418948993087">
<ele>656</ele>
</trkpt>
<trkpt lat="39.761719051748514" lon="2.756221555173397">
<ele>654</ele>
</trkpt>
<trkpt lat="39.761611260473728" lon="2.756126169115305">
<ele>652</ele>
</trkpt>
<trkpt lat="39.761489974334836" lon="2.756136059761047">
<ele>651</ele>
</trkpt>
<trkpt lat="39.761379500851035" lon="2.755997842177749">
<ele>650</ele>
</trkpt>
<trkpt lat="39.761215131729841" lon="2.755925506353378">
<ele>648</ele>
</trkpt>
<trkpt lat="39.761066855862737" lon="2.756047211587429">
<ele>651</ele>
</trkpt>
<trkpt lat="39.760875580832362" lon="2.756136059761047">
<ele>654</ele>
</trkpt>
<trkpt lat="39.760720767080784" lon="2.756147207692266">
<ele>656</ele>
</trkpt>
<trkpt lat="39.760532090440392" lon="2.756120888516307">
<ele>659</ele>
</trkpt>
<trkpt lat="39.760354226455092" lon="2.756035309284926">
<ele>662</ele>
</trkpt>
<trkpt lat="39.760162951424718" lon="2.755949813872576">
<ele>665</ele>
</trkpt>
<trkpt lat="39.760011993348598" lon="2.755903713405132">
<ele>668</ele>
</trkpt>
<trkpt lat="39.759858353063464" lon="2.755916872993112">
<ele>670</ele>
</trkpt>
<trkpt lat="39.759737150743604" lon="2.755969511345029">
<ele>673</ele>
</trkpt>
<trkpt lat="39.759567333385348" lon="2.755989292636514">
<ele>676</ele>
</trkpt>
<trkpt lat="39.759370610117912" lon="2.755989292636514">
<ele>678</ele>
</trkpt>
<trkpt lat="39.759260136634111" lon="2.756048301234841">
<ele>680</ele>
</trkpt>
<trkpt lat="39.759262902662158" lon="2.755735740065575">
<ele>682</ele>
</trkpt>
<trkpt lat="39.759330209344625" lon="2.755568018183112">
<ele>684</ele>
</trkpt>
<trkpt lat="39.759392235428095" lon="2.755505489185453">
<ele>686</ele>
</trkpt>
<trkpt lat="39.75947848521173" lon="2.755271885544062">
<ele>689</ele>
</trkpt>
<trkpt lat="39.759497344493866" lon="2.755137020722032">
<ele>691</ele>
</trkpt>
<trkpt lat="39.759540427476168" lon="2.754811299964786">
<ele>693</ele>
</trkpt>
<trkpt lat="39.759597005322576" lon="2.754663275554776">
<ele>695</ele>
</trkpt>
<trkpt lat="39.759715609252453" lon="2.754610637202859">
<ele>697</ele>
</trkpt>
<trkpt lat="39.759718291461468" lon="2.754610637202859">
<ele>699</ele>
</trkpt>
<trkpt lat="39.759823400527239" lon="2.75462044402957">
<ele>701</ele>
</trkpt>
<trkpt lat="39.759896155446768" lon="2.754686241969466">
<ele>702</ele>
</trkpt>
<trkpt lat="39.760006628930569" lon="2.754610637202859">
<ele>704</ele>
</trkpt>
<trkpt lat="39.760014759376645" lon="2.754508629441261">
<ele>706</ele>
</trkpt>
<trkpt lat="39.759952733293176" lon="2.754406621679664">
<ele>708</ele>
</trkpt>
<trkpt lat="39.760030936449766" lon="2.754317773506045">
<ele>710</ele>
</trkpt>
<trkpt lat="39.760001264512539" lon="2.754251975566149">
<ele>711</ele>
</trkpt>
<trkpt lat="39.75983421318233" lon="2.754136892035604">
<ele>713</ele>
</trkpt>
<trkpt lat="39.759699432179332" lon="2.754130270332098">
<ele>715</ele>
</trkpt>
<trkpt lat="39.759621312841773" lon="2.754192799329758">
<ele>717</ele>
</trkpt>
<trkpt lat="39.759545875713229" lon="2.7542026899755">
<ele>718</ele>
</trkpt>
<trkpt lat="39.759648218750954" lon="2.754048043861985">
<ele>720</ele>
</trkpt>
<trkpt lat="39.759774869307876" lon="2.753952657803893">
<ele>721</ele>
</trkpt>
<trkpt lat="39.759742598980665" lon="2.753860540688038">
<ele>723</ele>
</trkpt>
<trkpt lat="39.759551240131259" lon="2.753932876512408">
<ele>725</ele>
</trkpt>
<trkpt lat="39.759551240131259" lon="2.753936145454645">
<ele>726</ele>
</trkpt>
<trkpt lat="39.759473036974669" lon="2.753830868750811">
<ele>728</ele>
</trkpt>
<trkpt lat="39.759475803002715" lon="2.753656525164843">
<ele>729</ele>
</trkpt>
<trkpt lat="39.759529698640108" lon="2.753547979518771">
<ele>731</ele>
</trkpt>
<trkpt lat="39.759588958695531" lon="2.753541357815266">
<ele>734</ele>
</trkpt>
<trkpt lat="39.759470354765654" lon="2.753360476344824">
<ele>737</ele>
</trkpt>
<trkpt lat="39.759389972314239" lon="2.753116395324469">
<ele>740</ele>
</trkpt>
<trkpt lat="39.759268686175346" lon="2.752981530502439">
<ele>743</ele>
</trkpt>
<trkpt lat="39.759263321757317" lon="2.75289268232882">
<ele>746</ele>
</trkpt>
<trkpt lat="39.759177071973681" lon="2.752754464745522">
<ele>748</ele>
</trkpt>
<trkpt lat="39.759195931255817" lon="2.752622868865728">
<ele>751</ele>
</trkpt>
<trkpt lat="39.758977666497231" lon="2.75237618945539">
<ele>754</ele>
</trkpt>
<trkpt lat="39.759193249046803" lon="2.75220176205039">
<ele>757</ele>
</trkpt>
<trkpt lat="39.759282181039453" lon="2.752218274399638">
<ele>760</ele>
</trkpt>
<trkpt lat="39.759497763589025" lon="2.752353139221668">
<ele>764</ele>
</trkpt>
<trkpt lat="39.759648637846112" lon="2.752020796760917">
<ele>768</ele>
</trkpt>
<trkpt lat="39.759570518508554" lon="2.751823402941227">
<ele>772</ele>
</trkpt>
<trkpt lat="39.75943305529654" lon="2.751579992473126">
<ele>776</ele>
</trkpt>
<trkpt lat="39.759271368384361" lon="2.751402296125889">
<ele>780</ele>
</trkpt>
<trkpt lat="39.75934948772192" lon="2.751356279477477">
<ele>784</ele>
</trkpt>
<trkpt lat="39.759392654523253" lon="2.751283859834075">
<ele>788</ele>
</trkpt>
<trkpt lat="39.759125858545303" lon="2.751148995012045">
<ele>792</ele>
</trkpt>
<trkpt lat="39.758964171633124" lon="2.751070037484169">
<ele>796</ele>
</trkpt>
<trkpt lat="39.758850932121277" lon="2.750948332250118">
<ele>800</ele>
</trkpt>
<trkpt lat="39.758813213557005" lon="2.750849593430758">
<ele>803</ele>
</trkpt>
<trkpt lat="39.758735094219446" lon="2.75077398866415">
<ele>806</ele>
</trkpt>
<trkpt lat="39.758788989856839" lon="2.750668711960316">
<ele>808</ele>
</trkpt>
<trkpt lat="39.758788989856839" lon="2.750671980902553">
<ele>811</ele>
</trkpt>
<trkpt lat="39.75863266736269" lon="2.750619342550635">
<ele>814</ele>
</trkpt>
<trkpt lat="39.758532922714949" lon="2.750586401671171">
<ele>817</ele>
</trkpt>
<trkpt lat="39.758328404277563" lon="2.750395126640797">
<ele>820</ele>
</trkpt>
<trkpt lat="39.758153222501278" lon="2.750224051997066">
<ele>822</ele>
</trkpt>
<trkpt lat="39.758120868355036" lon="2.750102346763015">
<ele>825</ele>
</trkpt>
<trkpt lat="39.758104691281915" lon="2.749898415058851">
<ele>828</ele>
</trkpt>
<trkpt lat="39.758050795644522" lon="2.749733878299594">
<ele>831</ele>
</trkpt>
<trkpt lat="39.758031936362386" lon="2.749585853889585">
<ele>834</ele>
</trkpt>
<trkpt lat="39.758050795644522" lon="2.749493736773729">
<ele>837</ele>
</trkpt>
<trkpt lat="39.757940322160721" lon="2.749293074011803">
<ele>840</ele>
</trkpt>
<trkpt lat="39.757945686578751" lon="2.749270023778081">
<ele>842</ele>
</trkpt>
<trkpt lat="39.758031936362386" lon="2.749316040426493">
<ele>845</ele>
</trkpt>
<trkpt lat="39.757996900007129" lon="2.749174637719989">
<ele>848</ele>
</trkpt>
<trkpt lat="39.758040066808462" lon="2.749135158956051">
<ele>851</ele>
</trkpt>
<trkpt lat="39.758147858083248" lon="2.749299611896277">
<ele>854</ele>
</trkpt>
<trkpt lat="39.758384982123971" lon="2.749398350715637">
<ele>857</ele>
</trkpt>
<trkpt lat="39.758384982123971" lon="2.749253595247865">
<ele>860</ele>
</trkpt>
<trkpt lat="39.758455054834485" lon="2.749312771484256">
<ele>863</ele>
</trkpt>
<trkpt lat="39.758527809754014" lon="2.749260133132339">
<ele>867</ele>
</trkpt>
<trkpt lat="39.758473914116621" lon="2.749095596373081">
<ele>870</ele>
</trkpt>
<trkpt lat="39.758525127544999" lon="2.74909894913435">
<ele>873</ele>
</trkpt>
<trkpt lat="39.758495455607772" lon="2.748996941372752">
<ele>876</ele>
</trkpt>
<trkpt lat="39.758622106164694" lon="2.74904957972467">
<ele>879</ele>
</trkpt>
<trkpt lat="39.758632918819785" lon="2.749026529490948">
<ele>883</ele>
</trkpt>
<trkpt lat="39.758527809754014" lon="2.748792925849557">
<ele>886</ele>
</trkpt>
<trkpt lat="39.758393028751016" lon="2.748582372441888">
<ele>889</ele>
</trkpt>
<trkpt lat="39.758473914116621" lon="2.748546246439219">
<ele>892</ele>
</trkpt>
<trkpt lat="39.75845237262547" lon="2.748480448499322">
<ele>894</ele>
</trkpt>
<trkpt lat="39.758622106164694" lon="2.748559406027198">
<ele>896</ele>
</trkpt>
<trkpt lat="39.758670637384057" lon="2.748631741851568">
<ele>899</ele>
</trkpt>
<trkpt lat="39.758754204958677" lon="2.748648170381784">
<ele>902</ele>
</trkpt>
<trkpt lat="39.758759569376707" lon="2.748506767675281">
<ele>904</ele>
</trkpt>
<trkpt lat="39.758657142519951" lon="2.74834549985826">
<ele>906</ele>
</trkpt>
<trkpt lat="39.758530491963029" lon="2.748197475448251">
<ele>909</ele>
</trkpt>
<trkpt lat="39.758527809754014" lon="2.748194206506014">
<ele>912</ele>
</trkpt>
<trkpt lat="39.758406523615122" lon="2.748036291450262">
<ele>914</ele>
</trkpt>
<trkpt lat="39.758266378194094" lon="2.74789153598249">
<ele>918</ele>
</trkpt>
<trkpt lat="39.758174763992429" lon="2.747680982574821">
<ele>922</ele>
</trkpt>
<trkpt lat="39.758201586082578" lon="2.747450480237603">
<ele>925</ele>
</trkpt>
<trkpt lat="39.758473830297589" lon="2.747374791651964">
<ele>929</ele>
</trkpt>
<trkpt lat="39.758611209690571" lon="2.747509656473994">
<ele>933</ele>
</trkpt>
<trkpt lat="39.758745990693569" lon="2.74745374917984">
<ele>937</ele>
</trkpt>
<trkpt lat="39.758848417550325" lon="2.747476799413562">
<ele>941</ele>
</trkpt>
<trkpt lat="39.758886136114597" lon="2.747397841885686">
<ele>944</ele>
</trkpt>
<trkpt lat="39.759058635681868" lon="2.747397841885686">
<ele>948</ele>
</trkpt>
<trkpt lat="39.759109849110246" lon="2.747312262654305">
<ele>952</ele>
</trkpt>
<trkpt lat="39.759252676740289" lon="2.747243195772171">
<ele>953</ele>
</trkpt>
<trkpt lat="39.759352337568998" lon="2.747322153300047">
<ele>954</ele>
</trkpt>
<trkpt lat="39.759408915415406" lon="2.747276052832604">
<ele>954</ele>
</trkpt>
<trkpt lat="39.759616451337934" lon="2.747315531596541">
<ele>955</ele>
</trkpt>
<trkpt lat="39.75979414768517" lon="2.747394740581513">
<ele>956</ele>
</trkpt>
<trkpt lat="39.759853575378656" lon="2.747424161061645">
<ele>955</ele>
</trkpt>
<trkpt lat="39.759907471016049" lon="2.747322153300047">
<ele>954</ele>
</trkpt>
<trkpt lat="39.759996403008699" lon="2.747276052832604">
<ele>953</ele>
</trkpt>
<trkpt lat="39.760047532618046" lon="2.747180666774511">
<ele>952</ele>
</trkpt>
<trkpt lat="39.760124478489161" lon="2.747044041752815">
<ele>952</ele>
</trkpt>
<trkpt lat="39.760124478489161" lon="2.74704622104764">
<ele>951</ele>
</trkpt>
<trkpt lat="39.760118024423718" lon="2.746970029547811">
<ele>950</ele>
</trkpt>
<trkpt lat="39.760118024423718" lon="2.747042030096054">
<ele>949</ele>
</trkpt>
<trkpt lat="39.760046107694507" lon="2.747164154425263">
<ele>948</ele>
</trkpt>
<trkpt lat="39.759984165430069" lon="2.747312178835273">
<ele>947</ele>
</trkpt>
<trkpt lat="39.759908728301525" lon="2.747341766953468">
<ele>947</ele>
</trkpt>
<trkpt lat="39.759765900671482" lon="2.747377976775169">
<ele>946</ele>
</trkpt>
<trkpt lat="39.759617624804378" lon="2.747331876307726">
<ele>946</ele>
</trkpt>
<trkpt lat="39.759517963975668" lon="2.747285859659314">
<ele>945</ele>
</trkpt>
<trkpt lat="39.75940472446382" lon="2.747279237955809">
<ele>945</ele>
</trkpt>
<trkpt lat="39.759350828826427" lon="2.74731544777751">
<ele>945</ele>
</trkpt>
<trkpt lat="39.759240355342627" lon="2.747243111953139">
<ele>944</ele>
</trkpt>
<trkpt lat="39.759191824123263" lon="2.747275969013572">
<ele>944</ele>
</trkpt>
<trkpt lat="39.759146058931947" lon="2.747331876307726">
<ele>943</ele>
</trkpt>
<trkpt lat="39.759046314284205" lon="2.747391136363149">
<ele>943</ele>
</trkpt>
<trkpt lat="39.758946569636464" lon="2.747387867420912">
<ele>940</ele>
</trkpt>
<trkpt lat="39.75887649692595" lon="2.747401027008891">
<ele>937</ele>
</trkpt>
<trkpt lat="39.758857637643814" lon="2.747473362833262">
<ele>934</ele>
</trkpt>
<trkpt lat="39.758766023442149" lon="2.747460203245282">
<ele>931</ele>
</trkpt>
<trkpt lat="39.758655549958348" lon="2.747473362833262">
<ele>927</ele>
</trkpt>
<trkpt lat="39.758593523874879" lon="2.747509488835931">
<ele>924</ele>
</trkpt>
<trkpt lat="39.758464191108942" lon="2.747377892956138">
<ele>921</ele>
</trkpt>
<trkpt lat="39.75824324414134" lon="2.747447043657303">
<ele>918</ele>
</trkpt>
<trkpt lat="39.75819731131196" lon="2.747450144961476">
<ele>915</ele>
</trkpt>
<trkpt lat="39.758186582475901" lon="2.747558858245611">
<ele>913</ele>
</trkpt>
<trkpt lat="39.758175853639841" lon="2.747680563479662">
<ele>910</ele>
</trkpt>
<trkpt lat="39.758213572204113" lon="2.747795730829239">
<ele>908</ele>
</trkpt>
<trkpt lat="39.758315999060869" lon="2.747937217354775">
<ele>906</ele>
</trkpt>
<trkpt lat="39.758404931053519" lon="2.74802933447063">
<ele>904</ele>
</trkpt>
<trkpt lat="39.758499227464199" lon="2.74815103970468">
<ele>901</ele>
</trkpt>
<trkpt lat="39.758609700948" lon="2.7482760977">
<ele>899</ele>
</trkpt>
<trkpt lat="39.75868790410459" lon="2.748378105461597">
<ele>897</ele>
</trkpt>
<trkpt lat="39.758733669295907" lon="2.748453710228205">
<ele>894</ele>
</trkpt>
<trkpt lat="39.758790247142315" lon="2.748565608635545">
<ele>892</ele>
</trkpt>
<trkpt lat="39.758814554661512" lon="2.748585306107998">
<ele>890</ele>
</trkpt>
<trkpt lat="39.758658232167363" lon="2.748614978045225">
<ele>889</ele>
</trkpt>
<trkpt lat="39.758623195812106" lon="2.748565608635545">
<ele>887</ele>
</trkpt>
<trkpt lat="39.758496545255184" lon="2.748470222577453">
<ele>885</ele>
</trkpt>
<trkpt lat="39.758453378453851" lon="2.748476760461927">
<ele>884</ele>
</trkpt>
<trkpt lat="39.758453378453851" lon="2.748480029404163">
<ele>882</ele>
</trkpt>
<trkpt lat="39.758394118398428" lon="2.748585306107998">
<ele>880</ele>
</trkpt>
<trkpt lat="39.758526217192411" lon="2.748769540339708">
<ele>878</ele>
</trkpt>
<trkpt lat="39.758571982383728" lon="2.748871548101306">
<ele>877</ele>
</trkpt>
<trkpt lat="39.758571982383728" lon="2.748874817043543">
<ele>875</ele>
</trkpt>
<trkpt lat="39.758639372885227" lon="2.749013034626842">
<ele>872</ele>
</trkpt>
<trkpt lat="39.758625878021121" lon="2.749045891687274">
<ele>870</ele>
</trkpt>
<trkpt lat="39.758496545255184" lon="2.74898998439312">
<ele>867</ele>
</trkpt>
<trkpt lat="39.758518086746335" lon="2.749085370451212">
<ele>865</ele>
</trkpt>
<trkpt lat="39.758472321555018" lon="2.749095261096954">
<ele>862</ele>
</trkpt>
<trkpt lat="39.758528899401426" lon="2.749246638268232">
<ele>859</ele>
</trkpt>
<trkpt lat="39.758466873317957" lon="2.749302545562387">
<ele>857</ele>
</trkpt>
<trkpt lat="39.758388753980398" lon="2.749243285506964">
<ele>854</ele>
</trkpt>
<trkpt lat="39.758389005437493" lon="2.749365493655205">
<ele>852</ele>
</trkpt>
<trkpt lat="39.758415995165706" lon="2.749404972419143">
<ele>849</ele>
</trkpt>
<trkpt lat="39.758143750950694" lon="2.749299695715308">
<ele>846</ele>
</trkpt>
<trkpt lat="39.758033277466893" lon="2.749145049601793">
<ele>843</ele>
</trkpt>
<trkpt lat="39.757998241111636" lon="2.749177990481257">
<ele>841</ele>
</trkpt>
<trkpt lat="39.758027913048863" lon="2.749283267185092">
<ele>838</ele>
</trkpt>
<trkpt lat="39.757952392101288" lon="2.749256948009133">
<ele>835</ele>
</trkpt>
<trkpt lat="39.757944345474243" lon="2.749306317418814">
<ele>832</ele>
</trkpt>
<trkpt lat="39.758052136749029" lon="2.749493820592761">
<ele>829</ele>
</trkpt>
<trkpt lat="39.758022464811802" lon="2.749589206650853">
<ele>827</ele>
</trkpt>
<trkpt lat="39.758054818958044" lon="2.749763550236821">
<ele>824</ele>
</trkpt>
<trkpt lat="39.758111396804452" lon="2.749895146116614">
<ele>821</ele>
</trkpt>
<trkpt lat="39.758124891668558" lon="2.75008600205183">
<ele>818</ele>
</trkpt>
<trkpt lat="39.758154563605785" lon="2.750207707285881">
<ele>815</ele>
</trkpt>
<trkpt lat="39.75824617780745" lon="2.750322874635458">
<ele>813</ele>
</trkpt>
<trkpt lat="39.758413229137659" lon="2.750470899045467">
<ele>810</ele>
</trkpt>
<trkpt lat="39.75851833820343" lon="2.750589335337281">
<ele>807</ele>
</trkpt>
<trkpt lat="39.758639624342322" lon="2.75061565451324">
<ele>804</ele>
</trkpt>
<trkpt lat="39.758787900209427" lon="2.7506781835109">
<ele>801</ele>
</trkpt>
<trkpt lat="39.758731238543987" lon="2.750786729156971">
<ele>799</ele>
</trkpt>
<trkpt lat="39.758809441700578" lon="2.750845989212394">
<ele>796</ele>
</trkpt>
<trkpt lat="39.758852524682879" lon="2.750944644212723">
<ele>793</ele>
</trkpt>
<trkpt lat="39.758968278765678" lon="2.751076491549611">
<ele>790</ele>
</trkpt>
<trkpt lat="39.759175814688206" lon="2.751171877607703">
<ele>787</ele>
</trkpt>
<trkpt lat="39.759372537955642" lon="2.751277154311538">
<ele>783</ele>
</trkpt>
<trkpt lat="39.759345632046461" lon="2.751326523721218">
<ele>780</ele>
</trkpt>
<trkpt lat="39.759345632046461" lon="2.751329792663455">
<ele>777</ele>
</trkpt>
<trkpt lat="39.759267428889871" lon="2.751402212306857">
<ele>774</ele>
</trkpt>
<trkpt lat="39.759434564039111" lon="2.751563396304846">
<ele>771</ele>
</trkpt>
<trkpt lat="39.759523496031761" lon="2.751747630536556">
<ele>767</ele>
</trkpt>
<trkpt lat="39.759598933160305" lon="2.751879226416349">
<ele>764</ele>
</trkpt>
<trkpt lat="39.759647464379668" lon="2.75201409123838">
<ele>761</ele>
</trkpt>
<trkpt lat="39.759550401940942" lon="2.752254316583276">
<ele>758</ele>
</trkpt>
<trkpt lat="39.759499188512564" lon="2.752336543053389">
<ele>755</ele>
</trkpt>
<trkpt lat="39.759262064471841" lon="2.752224644646049">
<ele>753</ele>
</trkpt>
<trkpt lat="39.759181179106236" lon="2.752204947173595">
<ele>750</ele>
</trkpt>
<trkpt lat="39.758968278765678" lon="2.752369400113821">
<ele>747</ele>
</trkpt>
<trkpt lat="39.759200038388371" lon="2.752612894400954">
<ele>744</ele>
</trkpt>
<trkpt lat="39.759175814688206" lon="2.752747759222984">
<ele>741</ele>
</trkpt>
<trkpt lat="39.759267428889871" lon="2.752895783632994">
<ele>739</ele>
</trkpt>
<trkpt lat="39.759264746680856" lon="2.752984631806612">
<ele>736</ele>
</trkpt>
<trkpt lat="39.759386032819748" lon="2.753122849389911">
<ele>733</ele>
</trkpt>
<trkpt lat="39.759473539888859" lon="2.753365840762854">
<ele>731</ele>
</trkpt>
<trkpt lat="39.759589377790689" lon="2.75354353711009">
<ele>729</ele>
</trkpt>
<trkpt lat="39.759535482153296" lon="2.753540268167853">
<ele>727</ele>
</trkpt>
<trkpt lat="39.759532799944282" lon="2.753540268167853">
<ele>725</ele>
</trkpt>
<trkpt lat="39.759481586515903" lon="2.753658704459667">
<ele>724</ele>
</trkpt>
<trkpt lat="39.759470857679844" lon="2.753852745518088">
<ele>722</ele>
</trkpt>
<trkpt lat="39.759508576244116" lon="2.753931703045964">
<ele>720</ele>
</trkpt>
<trkpt lat="39.759554341435432" lon="2.753944862633944">
<ele>718</ele>
</trkpt>
<trkpt lat="39.759713346138597" lon="2.753842938691378">
<ele>716</ele>
</trkpt>
<trkpt lat="39.759772690013051" lon="2.753954753279686">
<ele>714</ele>
</trkpt>
<trkpt lat="39.759637909010053" lon="2.754043601453304">
<ele>712</ele>
</trkpt>
<trkpt lat="39.759551659226418" lon="2.754194894805551">
<ele>709</ele>
</trkpt>
<trkpt lat="39.759621731936932" lon="2.754188356921077">
<ele>707</ele>
</trkpt>
<trkpt lat="39.759694486856461" lon="2.754125827923417">
<ele>704</ele>
</trkpt>
<trkpt lat="39.759834632277489" lon="2.75412255898118">
<ele>702</ele>
</trkpt>
<trkpt lat="39.76001794449985" lon="2.754264045506716">
<ele>700</ele>
</trkpt>
<trkpt lat="39.76002867333591" lon="2.75431995280087">
<ele>697</ele>
</trkpt>
<trkpt lat="39.759947871789336" lon="2.754402179270983">
<ele>695</ele>
</trkpt>
<trkpt lat="39.759931694716215" lon="2.754494296386838">
<ele>692</ele>
</trkpt>
<trkpt lat="39.760001767426729" lon="2.754612732678652">
<ele>690</ele>
</trkpt>
<trkpt lat="39.759896658360958" lon="2.754691690206528">
<ele>688</ele>
</trkpt>
<trkpt lat="39.759788867086172" lon="2.754622623324394">
<ele>686</ele>
</trkpt>
<trkpt lat="39.759654086083174" lon="2.754635782912374">
<ele>685</ele>
</trkpt>
<trkpt lat="39.759597508236766" lon="2.754668723791838">
<ele>683</ele>
</trkpt>
<trkpt lat="39.759527435526252" lon="2.754823286086321">
<ele>681</ele>
</trkpt>
<trkpt lat="39.759497763589025" lon="2.755125956609845">
<ele>679</ele>
</trkpt>
<trkpt lat="39.759476222097874" lon="2.755283871665597">
<ele>677</ele>
</trkpt>
<trkpt lat="39.759389972314239" lon="2.75552736595273">
<ele>676</ele>
</trkpt>
<trkpt lat="39.759387290105224" lon="2.75552736595273">
<ele>674</ele>
</trkpt>
<trkpt lat="39.759266003966331" lon="2.755754347890616">
<ele>672</ele>
</trkpt>
<trkpt lat="39.759279498830438" lon="2.755862893536687">
<ele>671</ele>
</trkpt>
<trkpt lat="39.759274134412408" lon="2.756030699238181">
<ele>670</ele>
</trkpt>
<trkpt lat="39.759414279833436" lon="2.755981329828501">
<ele>668</ele>
</trkpt>
<trkpt lat="39.759629862383008" lon="2.755978060886264">
<ele>667</ele>
</trkpt>
<trkpt lat="39.7597511485219" lon="2.755968170240521">
<ele>666</ele>
</trkpt>
<trkpt lat="39.759888527914882" lon="2.75590899400413">
<ele>665</ele>
</trkpt>
<trkpt lat="39.760098746046424" lon="2.755925422534347">
<ele>664</ele>
</trkpt>
<trkpt lat="39.760263115167618" lon="2.755978060886264">
<ele>662</ele>
</trkpt>
<trkpt lat="39.760422119870782" lon="2.75604385882616">
<ele>661</ele>
</trkpt>
<trkpt lat="39.760571988299489" lon="2.756136981770396">
<ele>660</ele>
</trkpt>
<trkpt lat="39.760779524222016" lon="2.756163300946355">
<ele>658</ele>
</trkpt>
<trkpt lat="39.760941211134195" lon="2.756117200478911">
<ele>655</ele>
</trkpt>
<trkpt lat="39.76109485141933" lon="2.756034974008799">
<ele>652</ele>
</trkpt>
<trkpt lat="39.761224184185266" lon="2.755909916013479">
<ele>650</ele>
</trkpt>
<trkpt lat="39.761385871097445" lon="2.755985604599118">
<ele>648</ele>
</trkpt>
<trkpt lat="39.761493662372231" lon="2.756133629009128">
<ele>645</ele>
</trkpt>
<trkpt lat="39.761490980163217" lon="2.756136981770396">
<ele>642</ele>
</trkpt>
<trkpt lat="39.761614948511124" lon="2.756140250712633">
<ele>640</ele>
</trkpt>
<trkpt lat="39.761752411723137" lon="2.7562783844769">
<ele>638</ele>
</trkpt>
<trkpt lat="39.761879062280059" lon="2.756465971469879">
<ele>635</ele>
</trkpt>
<trkpt lat="39.761981405317783" lon="2.756663365289569">
<ele>635</ele>
</trkpt>
<trkpt lat="39.762046113610268" lon="2.756850868463516">
<ele>635</ele>
</trkpt>
<trkpt lat="39.762121550738811" lon="2.756913397461176">
<ele>635</ele>
</trkpt>
<trkpt lat="39.762124316766858" lon="2.756913397461176">
<ele>635</ele>
</trkpt>
<trkpt lat="39.762307545170188" lon="2.756903506815434">
<ele>635</ele>
</trkpt>
<trkpt lat="39.762415168806911" lon="2.75687693618238">
<ele>635</ele>
</trkpt>
<trkpt lat="39.762485241517425" lon="2.756807869300246">
<ele>635</ele>
</trkpt>
<trkpt lat="39.762504100799561" lon="2.756705861538649">
<ele>635</ele>
</trkpt>
<trkpt lat="39.762501418590546" lon="2.756705861538649">
<ele>635</ele>
</trkpt>
<trkpt lat="39.762444840744138" lon="2.756511820480228">
<ele>635</ele>
</trkpt>
<trkpt lat="39.762415168806911" lon="2.756317695602775">
<ele>633</ele>
</trkpt>
<trkpt lat="39.762501418590546" lon="2.756242007017136">
<ele>632</ele>
</trkpt>
<trkpt lat="39.762663105502725" lon="2.756242007017136">
<ele>630</ele>
</trkpt>
<trkpt lat="39.762663105502725" lon="2.756238738074899">
<ele>628</ele>
</trkpt>
<trkpt lat="39.76275471970439" lon="2.756205797195435">
<ele>626</ele>
</trkpt>
<trkpt lat="39.762614574283361" lon="2.756139999255538">
<ele>625</ele>
</trkpt>
<trkpt lat="39.762479877099395" lon="2.756034722551704">
<ele>623</ele>
</trkpt>
<trkpt lat="39.762463700026274" lon="2.755939336493611">
<ele>621</ele>
</trkpt>
<trkpt lat="39.762590350583196" lon="2.756008403375745">
<ele>620</ele>
</trkpt>
<trkpt lat="39.762741308659315" lon="2.7558933198452">
<ele>618</ele>
</trkpt>
<trkpt lat="39.762819427996874" lon="2.755814362317324">
<ele>615</ele>
</trkpt>
<trkpt lat="39.762943396344781" lon="2.755741942673922">
<ele>612</ele>
</trkpt>
<trkpt lat="39.762830240651965" lon="2.755682766437531">
<ele>610</ele>
</trkpt>
<trkpt lat="39.762894865125418" lon="2.755567599087954">
<ele>607</ele>
</trkpt>
<trkpt lat="39.762857146561146" lon="2.755459053441882">
<ele>604</ele>
</trkpt>
<trkpt lat="39.762989245355129" lon="2.755429381504655">
<ele>601</ele>
</trkpt>
<trkpt lat="39.762991927564144" lon="2.755432650446892">
<ele>598</ele>
</trkpt>
<trkpt lat="39.763126624748111" lon="2.755567599087954">
<ele>596</ele>
</trkpt>
<trkpt lat="39.763221004977822" lon="2.755643287673593">
<ele>593</ele>
</trkpt>
<trkpt lat="39.7632722184062" lon="2.755659716203809">
<ele>590</ele>
</trkpt>
<trkpt lat="39.763382691890001" lon="2.75564655661583">
<ele>589</ele>
</trkpt>
<trkpt lat="39.76346081122756" lon="2.755791312083602">
<ele>587</ele>
</trkpt>
<trkpt lat="39.763495847582817" lon="2.755626775324345">
<ele>586</ele>
</trkpt>
<trkpt lat="39.763498529791832" lon="2.755623506382108">
<ele>584</ele>
</trkpt>
<trkpt lat="39.763565920293331" lon="2.755860378965735">
<ele>583</ele>
</trkpt>
<trkpt lat="39.763565920293331" lon="2.755857110023499">
<ele>582</ele>
</trkpt>
<trkpt lat="39.763595592230558" lon="2.755801202729344">
<ele>580</ele>
</trkpt>
<trkpt lat="39.763746466487646" lon="2.755926176905632">
<ele>579</ele>
</trkpt>
<trkpt lat="39.763881247490644" lon="2.756005134433508">
<ele>577</ele>
</trkpt>
<trkpt lat="39.763889294117689" lon="2.755955765023828">
<ele>576</ele>
</trkpt>
<trkpt lat="39.763856939971447" lon="2.755853841081262">
<ele>572</ele>
</trkpt>
<trkpt lat="39.764007814228535" lon="2.75578536093235">
<ele>568</ele>
</trkpt>
<trkpt lat="39.764150641858578" lon="2.755578076466918">
<ele>564</ele>
</trkpt>
<trkpt lat="39.764234209433198" lon="2.755548488348723">
<ele>560</ele>
</trkpt>
<trkpt lat="39.764358177781105" lon="2.755693243816495">
<ele>556</ele>
</trkpt>
<trkpt lat="39.76444979198277" lon="2.755765579640865">
<ele>553</ele>
</trkpt>
<trkpt lat="39.764635786414146" lon="2.755818217992783">
<ele>549</ele>
</trkpt>
<trkpt lat="39.764824379235506" lon="2.755795167759061">
<ele>545</ele>
</trkpt>
<trkpt lat="39.764918759465218" lon="2.755778739228845">
<ele>541</ele>
</trkpt>
<trkpt lat="39.765110034495592" lon="2.755913604050875">
<ele>537</ele>
</trkpt>
<trkpt lat="39.76521790958941" lon="2.756101191043854">
<ele>534</ele>
</trkpt>
<trkpt lat="39.765290664508939" lon="2.756255837157369">
<ele>531</ele>
</trkpt>
<trkpt lat="39.765366101637483" lon="2.756186686456204">
<ele>528</ele>
</trkpt>
<trkpt lat="39.765471210703254" lon="2.756328172981739">
<ele>525</ele>
</trkpt>
<trkpt lat="39.765522424131632" lon="2.756463037803769">
<ele>522</ele>
</trkpt>
<trkpt lat="39.765557460486889" lon="2.756397239863873">
<ele>520</ele>
</trkpt>
<trkpt lat="39.765562824904919" lon="2.756262375041843">
<ele>517</ele>
</trkpt>
<trkpt lat="39.765562824904919" lon="2.756259106099606">
<ele>514</ele>
</trkpt>
<trkpt lat="39.765587048605084" lon="2.756206467747688">
<ele>511</ele>
</trkpt>
<trkpt lat="39.765727194026113" lon="2.75616698898375">
<ele>508</ele>
</trkpt>
<trkpt lat="39.765635579824448" lon="2.756048552691937">
<ele>508</ele>
</trkpt>
<trkpt lat="39.765937328338623" lon="2.755995746701956">
<ele>508</ele>
</trkpt>
<trkpt lat="39.765937328338623" lon="2.755999099463224">
<ele>507</ele>
</trkpt>
<trkpt lat="39.766077473759651" lon="2.755877310410142">
<ele>507</ele>
</trkpt>
<trkpt lat="39.765950823202729" lon="2.755860881879926">
<ele>507</ele>
</trkpt>
<trkpt lat="39.76588879711926" lon="2.755808243528009">
<ele>507</ele>
</trkpt>
<trkpt lat="39.765632813796401" lon="2.755726017057896">
<ele>507</ele>
</trkpt>
<trkpt lat="39.765425277873874" lon="2.755666757002473">
<ele>506</ele>
</trkpt>
<trkpt lat="39.765220424160361" lon="2.755561480298638">
<ele>506</ele>
</trkpt>
<trkpt lat="39.76510995067656" lon="2.755489144474268">
<ele>506</ele>
</trkpt>
<trkpt lat="39.765193518251181" lon="2.755364086478949">
<ele>498</ele>
</trkpt>
<trkpt lat="39.765341710299253" lon="2.755334498360753">
<ele>490</ele>
</trkpt>
<trkpt lat="39.765233919024467" lon="2.755137104541063">
<ele>481</ele>
</trkpt>
<trkpt lat="39.765422595664859" lon="2.755173314362764">
<ele>473</ele>
</trkpt>
<trkpt lat="39.765516892075539" lon="2.755114054307342">
<ele>465</ele>
</trkpt>
<trkpt lat="39.765344392508268" lon="2.754893694072962">
<ele>457</ele>
</trkpt>
<trkpt lat="39.765182705596089" lon="2.754692947492003">
<ele>449</ele>
</trkpt>
<trkpt lat="39.765091091394424" lon="2.754554813727737">
<ele>440</ele>
</trkpt>
<trkpt lat="39.765328215435147" lon="2.754669897258282">
<ele>432</ele>
</trkpt>
<trkpt lat="39.765430642291903" lon="2.754627149552107">
<ele>424</ele>
</trkpt>
<trkpt lat="39.765290496870875" lon="2.754479125142098">
<ele>421</ele>
</trkpt>
<trkpt lat="39.765371382236481" lon="2.754469234496355">
<ele>418</ele>
</trkpt>
<trkpt lat="39.765425277873874" lon="2.754357419908047">
<ele>415</ele>
</trkpt>
<trkpt lat="39.765268955379725" lon="2.754225824028254">
<ele>412</ele>
</trkpt>
<trkpt lat="39.765074914321303" lon="2.753979060798883">
<ele>409</ele>
</trkpt>
<trkpt lat="39.76490518078208" lon="2.753834305331111">
<ele>406</ele>
</trkpt>
<trkpt lat="39.764705272391438" lon="2.753765154629946">
<ele>403</ele>
</trkpt>
<trkpt lat="39.76456512697041" lon="2.753811171278358">
<ele>400</ele>
</trkpt>
<trkpt lat="39.764470830559731" lon="2.75370916351676">
<ele>397</ele>
</trkpt>
<trkpt lat="39.764306461438537" lon="2.753541441634297">
<ele>394</ele>
</trkpt>
<trkpt lat="39.764230940490961" lon="2.753462484106422">
<ele>391</ele>
</trkpt>
<trkpt lat="39.764123149216175" lon="2.753403224050999">
<ele>388</ele>
</trkpt>
<trkpt lat="39.763771360740066" lon="2.75326986797154">
<ele>385</ele>
</trkpt>
<trkpt lat="39.76420939899981" lon="2.753297947347164">
<ele>382</ele>
</trkpt>
<trkpt lat="39.76439262740314" lon="2.753324266523123">
<ele>380</ele>
</trkpt>
<trkpt lat="39.764586668461561" lon="2.753353854641318">
<ele>377</ele>
</trkpt>
<trkpt lat="39.764761850237846" lon="2.75331437587738">
<ele>375</ele>
</trkpt>
<trkpt lat="39.764901995658875" lon="2.753228880465031">
<ele>372</ele>
</trkpt>
<trkpt lat="39.765058318153024" lon="2.753090662881732">
<ele>369</ele>
</trkpt>
<trkpt lat="39.76526040583849" lon="2.75306761264801">
<ele>367</ele>
</trkpt>
<trkpt lat="39.765384374186397" lon="2.752886731177568">
<ele>364</ele>
</trkpt>
<trkpt lat="39.765656618401408" lon="2.752903159707785">
<ele>362</ele>
</trkpt>
<trkpt lat="39.765775138512254" lon="2.752857059240341">
<ele>359</ele>
</trkpt>
<trkpt lat="39.765915283933282" lon="2.752636699005961">
<ele>356</ele>
</trkpt>
<trkpt lat="39.76602072827518" lon="2.752422541379929">
<ele>354</ele>
</trkpt>
<trkpt lat="39.766193144023418" lon="2.752343583852053">
<ele>351</ele>
</trkpt>
<trkpt lat="39.766322560608387" lon="2.752040913328528">
<ele>349</ele>
</trkpt>
<trkpt lat="39.76631979458034" lon="2.751787612214685">
<ele>346</ele>
</trkpt>
<trkpt lat="39.76631979458034" lon="2.751790881156921">
<ele>343</ele>
</trkpt>
<trkpt lat="39.766212003305554" lon="2.751702116802335">
<ele>341</ele>
</trkpt>
<trkpt lat="39.76623086258769" lon="2.75160999968648">
<ele>338</ele>
</trkpt>
<trkpt lat="39.766276711598039" lon="2.751534311100841">
<ele>336</ele>
</trkpt>
<trkpt lat="39.766252487897873" lon="2.751307329162955">
<ele>333</ele>
</trkpt>
<trkpt lat="39.766400679945946" lon="2.751146061345935">
<ele>331</ele>
</trkpt>
<trkpt lat="39.766443762928247" lon="2.750955289229751">
<ele>329</ele>
</trkpt>
<trkpt lat="39.766333289444447" lon="2.750955289229751">
<ele>327</ele>
</trkpt>
<trkpt lat="39.766176966950297" lon="2.750754542648792">
<ele>325</ele>
</trkpt>
<trkpt lat="39.766074623912573" lon="2.750540720298886">
<ele>322</ele>
</trkpt>
<trkpt lat="39.766131201758981" lon="2.750386074185371">
<ele>320</ele>
</trkpt>
<trkpt lat="39.766128519549966" lon="2.75038942694664">
<ele>318</ele>
</trkpt>
<trkpt lat="39.766225498169661" lon="2.750287419185042">
<ele>316</ele>
</trkpt>
<trkpt lat="39.766247039660811" lon="2.750178873538971">
<ele>314</ele>
</trkpt>
<trkpt lat="39.766212003305554" lon="2.750116344541311">
<ele>312</ele>
</trkpt>
<trkpt lat="39.766290206462145" lon="2.749984748661518">
<ele>311</ele>
</trkpt>
<trkpt lat="39.766481565311551" lon="2.749807052314282">
<ele>310</ele>
</trkpt>
<trkpt lat="39.766532694920897" lon="2.749724825844169">
<ele>309</ele>
</trkpt>
<trkpt lat="39.766513668000698" lon="2.749543441459537">
<ele>308</ele>
</trkpt>
<trkpt lat="39.766467902809381" lon="2.749382257461548">
<ele>308</ele>
</trkpt>
<trkpt lat="39.766435548663139" lon="2.749316459521651">
<ele>307</ele>
</trkpt>
<trkpt lat="39.766443595290184" lon="2.749194670468569">
<ele>306</ele>
</trkpt>
<trkpt lat="39.766519283875823" lon="2.749095261096954">
<ele>305</ele>
</trkpt>
<trkpt lat="39.76654065772891" lon="2.748895352706313">
<ele>303</ele>
</trkpt>
<trkpt lat="39.76654065772891" lon="2.74889862164855">
<ele>301</ele>
</trkpt>
<trkpt lat="39.766637636348605" lon="2.748780185356736">
<ele>299</ele>
</trkpt>
<trkpt lat="39.766845172271132" lon="2.748773563653231">
<ele>297</ele>
</trkpt>
<trkpt lat="39.766842490062118" lon="2.74878672324121">
<ele>295</ele>
</trkpt>
<trkpt lat="39.767001494765282" lon="2.748882193118334">
<ele>293</ele>
</trkpt>
<trkpt lat="39.76714700460434" lon="2.748901890590787">
<ele>291</ele>
</trkpt>
<trkpt lat="39.767292514443398" lon="2.748776832595468">
<ele>289</ele>
</trkpt>
<trkpt lat="39.767327550798655" lon="2.748671555891633">
<ele>287</ele>
</trkpt>
<trkpt lat="39.767297962680459" lon="2.748385397717357">
<ele>285</ele>
</trkpt>
<trkpt lat="39.767254795879126" lon="2.748046517372131">
<ele>282</ele>
</trkpt>
<trkpt lat="39.767203582450747" lon="2.747835963964462">
<ele>278</ele>
</trkpt>
<trkpt lat="39.767190171405673" lon="2.747608982026577">
<ele>275</ele>
</trkpt>
<trkpt lat="39.767111968249083" lon="2.747546453028917">
<ele>272</ele>
</trkpt>
<trkpt lat="39.767190171405673" lon="2.747437907382846">
<ele>268</ele>
</trkpt>
<trkpt lat="39.767133509740233" lon="2.747312849387527">
<ele>265</ele>
</trkpt>
<trkpt lat="39.766991771757603" lon="2.747131800279021">
<ele>262</ele>
</trkpt>
<trkpt lat="39.766870485618711" lon="2.747029792517424">
<ele>259</ele>
</trkpt>
<trkpt lat="39.766792366281152" lon="2.746944297105074">
<ele>255</ele>
</trkpt>
<trkpt lat="39.766778871417046" lon="2.74677649140358">
<ele>252</ele>
</trkpt>
<trkpt lat="39.766738470643759" lon="2.746539618819952">
<ele>249</ele>
</trkpt>
<trkpt lat="39.766700668260455" lon="2.746299477294087">
<ele>246</ele>
</trkpt>
<trkpt lat="39.766625231131911" lon="2.746072495356202">
<ele>243</ele>
</trkpt>
<trkpt lat="39.766587512567639" lon="2.745904689654708">
<ele>240</ele>
</trkpt>
<trkpt lat="39.766652220860124" lon="2.745674354955554">
<ele>238</ele>
</trkpt>
<trkpt lat="39.766751881688833" lon="2.745559187605977">
<ele>235</ele>
</trkpt>
<trkpt lat="39.766929745674133" lon="2.745434213429689">
<ele>232</ele>
</trkpt>
<trkpt lat="39.767018677666783" lon="2.745338827371597">
<ele>229</ele>
</trkpt>
<trkpt lat="39.767072573304176" lon="2.745233550667763">
<ele>226</ele>
</trkpt>
<trkpt lat="39.766832767054439" lon="2.745401272550225">
<ele>223</ele>
</trkpt>
<trkpt lat="39.767029490321875" lon="2.745128273963928">
<ele>220</ele>
</trkpt>
<trkpt lat="39.766881298273802" lon="2.745210500434041">
<ele>217</ele>
</trkpt>
<trkpt lat="39.766865121200681" lon="2.745164399966598">
<ele>215</ele>
</trkpt>
<trkpt lat="39.766948604956269" lon="2.745062476024032">
<ele>212</ele>
</trkpt>
<trkpt lat="39.76702144369483" lon="2.744805822148919">
<ele>209</ele>
</trkpt>
<trkpt lat="39.76702144369483" lon="2.744802553206682">
<ele>206</ele>
</trkpt>
<trkpt lat="39.76693251170218" lon="2.744897939264774">
<ele>203</ele>
</trkpt>
<trkpt lat="39.766924381256104" lon="2.744871620088816">
<ele>201</ele>
</trkpt>
<trkpt lat="39.766994453966618" lon="2.74464463815093">
<ele>198</ele>
</trkpt>
<trkpt lat="39.76702680811286" lon="2.74446040391922">
<ele>195</ele>
</trkpt>
<trkpt lat="39.766975343227386" lon="2.744216825813055">
<ele>193</ele>
</trkpt>
<trkpt lat="39.766980707645416" lon="2.743937205523253">
<ele>191</ele>
</trkpt>
<trkpt lat="39.766983389854431" lon="2.743933852761984">
<ele>189</ele>
</trkpt>
<trkpt lat="39.767007697373629" lon="2.743733190000057">
<ele>187</ele>
</trkpt>
<trkpt lat="39.76713971234858" lon="2.743585165590048">
<ele>184</ele>
</trkpt>
<trkpt lat="39.767002249136567" lon="2.743611484766007">
<ele>182</ele>
</trkpt>
<trkpt lat="39.767174748703837" lon="2.743400931358337">
<ele>180</ele>
</trkpt>
<trkpt lat="39.767085816711187" lon="2.743391040712595">
<ele>178</ele>
</trkpt>
<trkpt lat="39.767026556655765" lon="2.743249554187059">
<ele>176</ele>
</trkpt>
<trkpt lat="39.767155889421701" lon="2.74290413595736">
<ele>174</ele>
</trkpt>
<trkpt lat="39.767155889421701" lon="2.742907404899597">
<ele>171</ele>
</trkpt>
<trkpt lat="39.767279857769608" lon="2.742631053552032">
<ele>168</ele>
</trkpt>
<trkpt lat="39.767349930480123" lon="2.742367861792445">
<ele>165</ele>
</trkpt>
<trkpt lat="39.767411956563592" lon="2.742098132148385">
<ele>162</ele>
</trkpt>
<trkpt lat="39.767457721754909" lon="2.741713151335716">
<ele>159</ele>
</trkpt>
<trkpt lat="39.767438778653741" lon="2.741476027294993">
<ele>156</ele>
</trkpt>
<trkpt lat="39.767398294061422" lon="2.741258852183819">
<ele>153</ele>
</trkpt>
<trkpt lat="39.767344398424029" lon="2.741084508597851">
<ele>150</ele>
</trkpt>
<trkpt lat="39.767325539141893" lon="2.740864064544439">
<ele>147</ele>
</trkpt>
<trkpt lat="39.76733366958797" lon="2.740758787840605">
<ele>144</ele>
</trkpt>
<trkpt lat="39.767476497218013" lon="2.740544965490699">
<ele>142</ele>
</trkpt>
<trkpt lat="39.767613876610994" lon="2.740373890846968">
<ele>141</ele>
</trkpt>
<trkpt lat="39.767508767545223" lon="2.740173228085041">
<ele>140</ele>
</trkpt>
<trkpt lat="39.767406424507499" lon="2.739893523976207">
<ele>138</ele>
</trkpt>
<trkpt lat="39.767374070361257" lon="2.739676432684064">
<ele>136</ele>
</trkpt>
<trkpt lat="39.767398294061422" lon="2.739442829042673">
<ele>135</ele>
</trkpt>
<trkpt lat="39.767398294061422" lon="2.739439560100436">
<ele>134</ele>
</trkpt>
<trkpt lat="39.767673220485449" lon="2.739331014454365">
<ele>132</ele>
</trkpt>
<trkpt lat="39.767845636233687" lon="2.738946033641696">
<ele>130</ele>
</trkpt>
<trkpt lat="39.767845636233687" lon="2.738949386402965">
<ele>129</ele>
</trkpt>
<trkpt lat="39.767977818846703" lon="2.738764816895127">
<ele>126</ele>
</trkpt>
<trkpt lat="39.768058704212308" lon="2.738682590425015">
<ele>123</ele>
</trkpt>
<trkpt lat="39.768058704212308" lon="2.738685859367251">
<ele>120</ele>
</trkpt>
<trkpt lat="39.768155682832003" lon="2.738669430837035">
<ele>117</ele>
</trkpt>
<trkpt lat="39.768241932615638" lon="2.73864964954555">
<ele>114</ele>
</trkpt>
<trkpt lat="39.768349723890424" lon="2.738422667607665">
<ele>112</ele>
</trkpt>
<trkpt lat="39.768495233729482" lon="2.738110106438398">
<ele>109</ele>
</trkpt>
<trkpt lat="39.768605791032314" lon="2.737830486148596">
<ele>106</ele>
</trkpt>
<trkpt lat="39.768708134070039" lon="2.737866695970297">
<ele>103</ele>
</trkpt>
<trkpt lat="39.768948024138808" lon="2.737863343209028">
<ele>100</ele>
</trkpt>
<trkpt lat="39.769155560061336" lon="2.73783702403307">
<ele>100</ele>
</trkpt>
<trkpt lat="39.769449261948466" lon="2.73782386444509">
<ele>101</ele>
</trkpt>
<trkpt lat="39.769570548087358" lon="2.737665949389339">
<ele>101</ele>
</trkpt>
<trkpt lat="39.769756374880672" lon="2.737527480348945">
<ele>101</ele>
</trkpt>
<trkpt lat="39.77001235820353" lon="2.737392531707883">
<ele>102</ele>
</trkpt>
<trkpt lat="39.770238753408194" lon="2.737287255004048">
<ele>102</ele>
</trkpt>
<trkpt lat="39.77034118026495" lon="2.737099751830101">
<ele>102</ele>
</trkpt>
<trkpt lat="39.77045701816678" lon="2.736925408244133">
<ele>102</ele>
</trkpt>
<trkpt lat="39.770634882152081" lon="2.736800350248814">
<ele>103</ele>
</trkpt>
<trkpt lat="39.770745439454913" lon="2.736714854836464">
<ele>103</ele>
</trkpt>
<trkpt lat="39.770936714485288" lon="2.736658863723278">
<ele>102</ele>
</trkpt>
<trkpt lat="39.771022964268923" lon="2.736461469903588">
<ele>102</ele>
</trkpt>
<trkpt lat="39.771157745271921" lon="2.736290395259857">
<ele>101</ele>
</trkpt>
<trkpt lat="39.771254723891616" lon="2.736168690025806">
<ele>100</ele>
</trkpt>
<trkpt lat="39.771373830735683" lon="2.736145555973053">
<ele>99</ele>
</trkpt>
<trkpt lat="39.771376512944698" lon="2.736145555973053">
<ele>99</ele>
</trkpt>
<trkpt lat="39.771478939801455" lon="2.73607648909092">
<ele>98</ele>
</trkpt>
<trkpt lat="39.771438455209136" lon="2.735912036150694">
<ele>97</ele>
</trkpt>
<trkpt lat="39.771392690017819" lon="2.73560936562717">
<ele>96</ele>
</trkpt>
<trkpt lat="39.771317169070244" lon="2.73538556881249">
<ele>96</ele>
</trkpt>
<trkpt lat="39.771254975348711" lon="2.73519697599113">
<ele>95</ele>
</trkpt>
<trkpt lat="39.771190518513322" lon="2.734954655170441">
<ele>93</ele>
</trkpt>
<trkpt lat="39.771131258457899" lon="2.734773689880967">
<ele>91</ele>
</trkpt>
<trkpt lat="39.771346841007471" lon="2.73452365770936">
<ele>88</ele>
</trkpt>
<trkpt lat="39.771538199856877" lon="2.734635472297669">
<ele>86</ele>
</trkpt>
<trkpt lat="39.771627131849527" lon="2.734579565003514">
<ele>84</ele>
</trkpt>
<trkpt lat="39.771751100197434" lon="2.734345961362124">
<ele>82</ele>
</trkpt>
<trkpt lat="39.772052932530642" lon="2.734211096540093">
<ele>80</ele>
</trkpt>
<trkpt lat="39.772174218669534" lon="2.734217718243599">
<ele>77</ele>
</trkpt>
<trkpt lat="39.772246973589063" lon="2.734220987185836">
<ele>75</ele>
</trkpt>
<trkpt lat="39.77228200994432" lon="2.734089391306043">
<ele>73</ele>
</trkpt>
<trkpt lat="39.772330541163683" lon="2.734066341072321">
<ele>72</ele>
</trkpt>
<trkpt lat="39.772300450131297" lon="2.733842376619577">
<ele>71</ele>
</trkpt>
<trkpt lat="39.772268095985055" lon="2.733500227332115">
<ele>70</ele>
</trkpt>
<trkpt lat="39.772311178967357" lon="2.733151540160179">
<ele>69</ele>
</trkpt>
<trkpt lat="39.772373205050826" lon="2.732786340638995">
<ele>68</ele>
</trkpt>
<trkpt lat="39.772551069036126" lon="2.732526417821646">
<ele>67</ele>
</trkpt>
<trkpt lat="39.772731615230441" lon="2.732263226062059">
<ele>66</ele>
</trkpt>
<trkpt lat="39.772931020706892" lon="2.731954017654061">
<ele>65</ele>
</trkpt>
<trkpt lat="39.773103520274162" lon="2.731720414012671">
<ele>64</ele>
</trkpt>
<trkpt lat="39.773276019841433" lon="2.731529558077455">
<ele>63</ele>
</trkpt>
<trkpt lat="39.773327233269811" lon="2.731414474546909">
<ele>62</ele>
</trkpt>
<trkpt lat="39.773356821388006" lon="2.73121708072722">
<ele>62</ele>
</trkpt>
<trkpt lat="39.7734728269279" lon="2.731081545352936">
<ele>62</ele>
</trkpt>
<trkpt lat="39.773607524111867" lon="2.730897311121225">
<ele>61</ele>
</trkpt>
<trkpt lat="39.773701904341578" lon="2.730782143771648">
<ele>60</ele>
</trkpt>
<trkpt lat="39.77371908724308" lon="2.730852048844099">
<ele>60</ele>
</trkpt>
</trkseg>
</trk>
</gpx>
