<?xml version="1.0" encoding="UTF-8"?>
<gpx version="1.1"
creator="Smartprofil-Office - http://www.rother.de"
xmlns:xsi="http://www.w3.org/2001/XMLSchema-instance"
xmlns="http://www.topografix.com/GPX/1/1"
xsi:schemaLocation="http://www.topografix.com/GPX/1/1 http://www.topografix.com/GPX/1/1/gpx.xsd">
<metadata>

<bounds minlat="39.728634003549814" minlon="2.775269011035562" maxlat="39.737930037081242" maxlon="2.794187972322106"/>
</metadata>
<wpt lat="39.736526990309358" lon="2.775269011035562">
<ele>489</ele>
<name>40_Coll d’Orient (1)</name>
<cmt></cmt>
<desc></desc>
<sym>Crossing</sym>
</wpt>

<wpt lat="39.734980026260018" lon="2.786857997998595">
<ele>682</ele>
<name>40_Pla des Pouet (2)</name>
<cmt></cmt>
<desc></desc>
<sym>Crossing</sym>
</wpt>

<wpt lat="39.733822988346219" lon="2.791684968397021">
<ele>754</ele>
<name>40_Castell d’Alaró (3)</name>
<cmt></cmt>
<desc></desc>
<sym>Crossing</sym>
</wpt>

<wpt lat="39.732597973197699" lon="2.793988985940814">
<ele>821</ele>
<name>40_Puig d’Alaró (4)</name>
<cmt></cmt>
<desc></desc>
<sym>Crossing</sym>
</wpt>

<wpt lat="39.729365995153785" lon="2.788354000076652">
<ele>565</ele>
<name>40_Es Verger (5)</name>
<cmt></cmt>
<desc></desc>
<sym>Crossing</sym>
</wpt>

<trk>
<name>Mal_40_CastelldAlaro</name>
<trkseg>
<trkpt lat="39.736526990309358" lon="2.775269011035562">
<ele>489</ele>
</trkpt>
<trkpt lat="39.736530007794499" lon="2.775272028520703">
<ele>489</ele>
</trkpt>
<trkpt lat="39.736537970602512" lon="2.775296000763774">
<ele>490</ele>
</trkpt>
<trkpt lat="39.736534031108022" lon="2.775294994935393">
<ele>490</ele>
</trkpt>
<trkpt lat="39.736535958945751" lon="2.775296000763774">
<ele>490</ele>
</trkpt>
<trkpt lat="39.736535958945751" lon="2.775296000763774">
<ele>491</ele>
</trkpt>
<trkpt lat="39.736392041668296" lon="2.775350986048579">
<ele>491</ele>
</trkpt>
<trkpt lat="39.736309982836246" lon="2.775390967726708">
<ele>491</ele>
</trkpt>
<trkpt lat="39.736261032521725" lon="2.775542009621859">
<ele>492</ele>
</trkpt>
<trkpt lat="39.736335966736078" lon="2.775769997388125">
<ele>492</ele>
</trkpt>
<trkpt lat="39.736355999484658" lon="2.775808973237872">
<ele>492</ele>
</trkpt>
<trkpt lat="39.736392963677645" lon="2.77595398016274">
<ele>493</ele>
</trkpt>
<trkpt lat="39.736407967284322" lon="2.776196971535683">
<ele>493</ele>
</trkpt>
<trkpt lat="39.736414002254605" lon="2.776252962648869">
<ele>493</ele>
</trkpt>
<trkpt lat="39.736435962840915" lon="2.776390006765723">
<ele>493</ele>
</trkpt>
<trkpt lat="39.736468987539411" lon="2.776603996753693">
<ele>494</ele>
</trkpt>
<trkpt lat="39.73646798171103" lon="2.776622017845511">
<ele>494</ele>
</trkpt>
<trkpt lat="39.736517015844584" lon="2.77679200284183">
<ele>494</ele>
</trkpt>
<trkpt lat="39.736566971987486" lon="2.77689702808857">
<ele>495</ele>
</trkpt>
<trkpt lat="39.736677026376128" lon="2.777086962014437">
<ele>495</ele>
</trkpt>
<trkpt lat="39.736774004995823" lon="2.777284020558">
<ele>495</ele>
</trkpt>
<trkpt lat="39.736838964745402" lon="2.777480995282531">
<ele>495</ele>
</trkpt>
<trkpt lat="39.73683200776577" lon="2.777577973902226">
<ele>495</ele>
</trkpt>
<trkpt lat="39.736863020807505" lon="2.777805039659143">
<ele>495</ele>
</trkpt>
<trkpt lat="39.736893028020859" lon="2.777900006622076">
<ele>495</ele>
</trkpt>
<trkpt lat="39.736893028020859" lon="2.778127994388342">
<ele>496</ele>
</trkpt>
<trkpt lat="39.736908031627536" lon="2.778325974941254">
<ele>496</ele>
</trkpt>
<trkpt lat="39.73685497418046" lon="2.778485985472798">
<ele>496</ele>
</trkpt>
<trkpt lat="39.736870983615518" lon="2.778668962419033">
<ele>496</ele>
</trkpt>
<trkpt lat="39.736896967515349" lon="2.778839031234384">
<ele>496</ele>
</trkpt>
<trkpt lat="39.73693803884089" lon="2.778998035937548">
<ele>496</ele>
</trkpt>
<trkpt lat="39.737035017460585" lon="2.779128039255738">
<ele>497</ele>
</trkpt>
<trkpt lat="39.737105006352067" lon="2.779238009825349">
<ele>497</ele>
</trkpt>
<trkpt lat="39.737111041322351" lon="2.779263993725181">
<ele>498</ele>
</trkpt>
<trkpt lat="39.737142976373434" lon="2.779445964843035">
<ele>498</ele>
</trkpt>
<trkpt lat="39.737119004130363" lon="2.779615027830005">
<ele>498</ele>
</trkpt>
<trkpt lat="39.737114980816841" lon="2.779746958985925">
<ele>499</ele>
</trkpt>
<trkpt lat="39.737135013565421" lon="2.779836980625987">
<ele>499</ele>
</trkpt>
<trkpt lat="39.737181030213833" lon="2.779903030022979">
<ele>500</ele>
</trkpt>
<trkpt lat="39.737248001620173" lon="2.780098998919129">
<ele>500</ele>
</trkpt>
<trkpt lat="39.737256970256567" lon="2.780235959216952">
<ele>501</ele>
</trkpt>
<trkpt lat="39.737250013276935" lon="2.780281975865364">
<ele>501</ele>
</trkpt>
<trkpt lat="39.737252024933696" lon="2.780307959765196">
<ele>501</ele>
</trkpt>
<trkpt lat="39.737269962206483" lon="2.780490014702082">
<ele>502</ele>
</trkpt>
<trkpt lat="39.737296029925346" lon="2.780684977769852">
<ele>503</ele>
</trkpt>
<trkpt lat="39.737266022711992" lon="2.780896034091711">
<ele>503</ele>
</trkpt>
<trkpt lat="39.737250013276935" lon="2.780925035476685">
<ele>503</ele>
</trkpt>
<trkpt lat="39.737252024933696" lon="2.781128967180848">
<ele>504</ele>
</trkpt>
<trkpt lat="39.737287983298302" lon="2.781276991590858">
<ele>505</ele>
</trkpt>
<trkpt lat="39.737318996340036" lon="2.781386040151119">
<ele>505</ele>
</trkpt>
<trkpt lat="39.737378004938364" lon="2.781701032072306">
<ele>506</ele>
</trkpt>
<trkpt lat="39.737389991059899" lon="2.781780995428562">
<ele>507</ele>
</trkpt>
<trkpt lat="39.737441036850214" lon="2.781910998746753">
<ele>507</ele>
</trkpt>
<trkpt lat="39.737451011314988" lon="2.782017029821873">
<ele>509</ele>
</trkpt>
<trkpt lat="39.73749803379178" lon="2.782200006768107">
<ele>509</ele>
</trkpt>
<trkpt lat="39.737507002428174" lon="2.782421037554741">
<ele>510</ele>
</trkpt>
<trkpt lat="39.737494010478258" lon="2.782658999785781">
<ele>510</ele>
</trkpt>
<trkpt lat="39.737484036013484" lon="2.78272002004087">
<ele>511</ele>
</trkpt>
<trkpt lat="39.737509014084935" lon="2.782887993380427">
<ele>512</ele>
</trkpt>
<trkpt lat="39.73752100020647" lon="2.782945996150374">
<ele>512</ele>
</trkpt>
<trkpt lat="39.737561987712979" lon="2.783063007518649">
<ele>513</ele>
</trkpt>
<trkpt lat="39.7376489918679" lon="2.78319301083684">
<ele>514</ele>
</trkpt>
<trkpt lat="39.737657038494945" lon="2.783224023878574">
<ele>515</ele>
</trkpt>
<trkpt lat="39.737665001302958" lon="2.783405994996429">
<ele>515</ele>
</trkpt>
<trkpt lat="39.737696014344692" lon="2.783500961959362">
<ele>516</ele>
</trkpt>
<trkpt lat="39.737677993252873" lon="2.783661978319287">
<ele>517</ele>
</trkpt>
<trkpt lat="39.737682016566396" lon="2.783696008846164">
<ele>517</ele>
</trkpt>
<trkpt lat="39.737682016566396" lon="2.783871022984386">
<ele>518</ele>
</trkpt>
<trkpt lat="39.737686961889267" lon="2.783950986340642">
<ele>519</ele>
</trkpt>
<trkpt lat="39.737663995474577" lon="2.7840740326792">
<ele>519</ele>
</trkpt>
<trkpt lat="39.737651003524661" lon="2.784256003797054">
<ele>520</ele>
</trkpt>
<trkpt lat="39.737647986039519" lon="2.784292967990041">
<ele>521</ele>
</trkpt>
<trkpt lat="39.737618984654546" lon="2.784613994881511">
<ele>521</ele>
</trkpt>
<trkpt lat="39.737630970776081" lon="2.784635033458471">
<ele>521</ele>
</trkpt>
<trkpt lat="39.737675981596112" lon="2.784680966287851">
<ele>522</ele>
</trkpt>
<trkpt lat="39.737704982981086" lon="2.784821027889848">
<ele>523</ele>
</trkpt>
<trkpt lat="39.737718980759382" lon="2.784824967384338">
<ele>523</ele>
</trkpt>
<trkpt lat="39.737739013507962" lon="2.784954970702529">
<ele>524</ele>
</trkpt>
<trkpt lat="39.737746976315975" lon="2.785028982907534">
<ele>526</ele>
</trkpt>
<trkpt lat="39.737782012671232" lon="2.785189999267459">
<ele>528</ele>
</trkpt>
<trkpt lat="39.737805984914303" lon="2.785355960950255">
<ele>530</ele>
</trkpt>
<trkpt lat="39.737862981855869" lon="2.785508008673787">
<ele>532</ele>
</trkpt>
<trkpt lat="39.737910004332662" lon="2.785639017820358">
<ele>534</ele>
</trkpt>
<trkpt lat="39.737926013767719" lon="2.785772038623691">
<ele>537</ele>
</trkpt>
<trkpt lat="39.737902963533998" lon="2.78583599254489">
<ele>539</ele>
</trkpt>
<trkpt lat="39.737882008776069" lon="2.785897012799978">
<ele>541</ele>
</trkpt>
<trkpt lat="39.737796010449529" lon="2.78583599254489">
<ele>543</ele>
</trkpt>
<trkpt lat="39.737729039043188" lon="2.786031039431691">
<ele>545</ele>
</trkpt>
<trkpt lat="39.73769199103117" lon="2.786101028323174">
<ele>548</ele>
</trkpt>
<trkpt lat="39.737561987712979" lon="2.786199012771249">
<ele>551</ele>
</trkpt>
<trkpt lat="39.737483030185103" lon="2.786257015541196">
<ele>553</ele>
</trkpt>
<trkpt lat="39.737448999658227" lon="2.786341002210975">
<ele>556</ele>
</trkpt>
<trkpt lat="39.737337017431855" lon="2.786460025236011">
<ele>559</ele>
</trkpt>
<trkpt lat="39.737280020490289" lon="2.786544011905789">
<ele>562</ele>
</trkpt>
<trkpt lat="39.737289994955063" lon="2.786500006914139">
<ele>565</ele>
</trkpt>
<trkpt lat="39.737313967198133" lon="2.786448961123824">
<ele>567</ele>
</trkpt>
<trkpt lat="39.737244984135032" lon="2.786332033574581">
<ele>570</ele>
</trkpt>
<trkpt lat="39.737143982201815" lon="2.786354999989271">
<ele>573</ele>
</trkpt>
<trkpt lat="39.737143982201815" lon="2.786354999989271">
<ele>576</ele>
</trkpt>
<trkpt lat="39.737156974151731" lon="2.786176968365908">
<ele>580</ele>
</trkpt>
<trkpt lat="39.737182036042213" lon="2.785934982821345">
<ele>582</ele>
</trkpt>
<trkpt lat="39.737162003293633" lon="2.785842027515173">
<ele>584</ele>
</trkpt>
<trkpt lat="39.737138031050563" lon="2.785752005875111">
<ele>587</ele>
</trkpt>
<trkpt lat="39.736991012468934" lon="2.785805985331535">
<ele>589</ele>
</trkpt>
<trkpt lat="39.736969973891973" lon="2.785801962018013">
<ele>591</ele>
</trkpt>
<trkpt lat="39.736957987770438" lon="2.785758962854743">
<ele>594</ele>
</trkpt>
<trkpt lat="39.736917000263929" lon="2.78581595979631">
<ele>596</ele>
</trkpt>
<trkpt lat="39.736866038292646" lon="2.785828029736877">
<ele>598</ele>
</trkpt>
<trkpt lat="39.736755983904004" lon="2.785960966721177">
<ele>601</ele>
</trkpt>
<trkpt lat="39.736723965033889" lon="2.785905981436372">
<ele>603</ele>
</trkpt>
<trkpt lat="39.736645007506013" lon="2.785841021686792">
<ele>605</ele>
</trkpt>
<trkpt lat="39.736607959493995" lon="2.785785030573607">
<ele>608</ele>
</trkpt>
<trkpt lat="39.736505029723048" lon="2.785762986168265">
<ele>610</ele>
</trkpt>
<trkpt lat="39.73644501529634" lon="2.785762986168265">
<ele>612</ele>
</trkpt>
<trkpt lat="39.736458007246256" lon="2.785933976992965">
<ele>614</ele>
</trkpt>
<trkpt lat="39.736463958397508" lon="2.78598896227777">
<ele>617</ele>
</trkpt>
<trkpt lat="39.736386006698012" lon="2.785877985879779">
<ele>619</ele>
</trkpt>
<trkpt lat="39.736303025856614" lon="2.785888966172934">
<ele>621</ele>
</trkpt>
<trkpt lat="39.736355999484658" lon="2.785987034440041">
<ele>623</ele>
</trkpt>
<trkpt lat="39.736401010304689" lon="2.786063980311155">
<ele>625</ele>
</trkpt>
<trkpt lat="39.736430011689663" lon="2.786198006942868">
<ele>627</ele>
</trkpt>
<trkpt lat="39.736431017518044" lon="2.786423983052373">
<ele>628</ele>
</trkpt>
<trkpt lat="39.736437974497676" lon="2.786338990554214">
<ele>630</ele>
</trkpt>
<trkpt lat="39.736403021961451" lon="2.786317029967904">
<ele>632</ele>
</trkpt>
<trkpt lat="39.736368991434574" lon="2.786347959190607">
<ele>634</ele>
</trkpt>
<trkpt lat="39.736352981999516" lon="2.786258021369577">
<ele>636</ele>
</trkpt>
<trkpt lat="39.736281987279654" lon="2.786215022206307">
<ele>638</ele>
</trkpt>
<trkpt lat="39.73618702031672" lon="2.78626699000597">
<ele>640</ele>
</trkpt>
<trkpt lat="39.736236976459622" lon="2.786407973617315">
<ele>643</ele>
</trkpt>
<trkpt lat="39.736237982288003" lon="2.786525990813971">
<ele>645</ele>
</trkpt>
<trkpt lat="39.736233958974481" lon="2.786649037152529">
<ele>648</ele>
</trkpt>
<trkpt lat="39.736200012266636" lon="2.78671701438725">
<ele>650</ele>
</trkpt>
<trkpt lat="39.736168999224901" lon="2.786877024918795">
<ele>652</ele>
</trkpt>
<trkpt lat="39.736132035031915" lon="2.786941984668374">
<ele>656</ele>
</trkpt>
<trkpt lat="39.735984010621905" lon="2.787012979388237">
<ele>660</ele>
</trkpt>
<trkpt lat="39.735893988981843" lon="2.787009039893746">
<ele>662</ele>
</trkpt>
<trkpt lat="39.735765997320414" lon="2.787052961066365">
<ele>664</ele>
</trkpt>
<trkpt lat="39.735721992328763" lon="2.786990012973547">
<ele>666</ele>
</trkpt>
<trkpt lat="39.735697014257312" lon="2.786974003538489">
<ele>667</ele>
</trkpt>
<trkpt lat="39.73558695986867" lon="2.786833019927144">
<ele>669</ele>
</trkpt>
<trkpt lat="39.735498027876019" lon="2.786766970530152">
<ele>671</ele>
</trkpt>
<trkpt lat="39.735443964600563" lon="2.786754984408617">
<ele>673</ele>
</trkpt>
<trkpt lat="39.735341034829617" lon="2.786749033257365">
<ele>675</ele>
</trkpt>
<trkpt lat="39.735227040946484" lon="2.786718020215631">
<ele>677</ele>
</trkpt>
<trkpt lat="39.735115980729461" lon="2.786731012165546">
<ele>678</ele>
</trkpt>
<trkpt lat="39.73500601015985" lon="2.786798989400268">
<ele>680</ele>
</trkpt>
<trkpt lat="39.734980026260018" lon="2.786857997998595">
<ele>682</ele>
</trkpt>
<trkpt lat="39.734980026260018" lon="2.786859003826976">
<ele>682</ele>
</trkpt>
<trkpt lat="39.734980026260018" lon="2.786859003826976">
<ele>683</ele>
</trkpt>
<trkpt lat="39.734980026260018" lon="2.786859003826976">
<ele>685</ele>
</trkpt>
<trkpt lat="39.735045991837978" lon="2.786978026852012">
<ele>686</ele>
</trkpt>
<trkpt lat="39.735138025134802" lon="2.787012979388237">
<ele>686</ele>
</trkpt>
<trkpt lat="39.735087985172868" lon="2.787052961066365">
<ele>687</ele>
</trkpt>
<trkpt lat="39.735062001273036" lon="2.78714700601995">
<ele>688</ele>
</trkpt>
<trkpt lat="39.735058983787894" lon="2.787311039865017">
<ele>689</ele>
</trkpt>
<trkpt lat="39.735050015151501" lon="2.78744800016284">
<ele>689</ele>
</trkpt>
<trkpt lat="39.735036017373204" lon="2.787555959075689">
<ele>690</ele>
</trkpt>
<trkpt lat="39.735020007938147" lon="2.787677999585867">
<ele>691</ele>
</trkpt>
<trkpt lat="39.73502897657454" lon="2.787802973762155">
<ele>692</ele>
</trkpt>
<trkpt lat="39.734987989068031" lon="2.787912022322416">
<ele>693</ele>
</trkpt>
<trkpt lat="39.734926968812943" lon="2.787979999557138">
<ele>694</ele>
</trkpt>
<trkpt lat="39.734738962724805" lon="2.788207987323403">
<ele>695</ele>
</trkpt>
<trkpt lat="39.734712978824973" lon="2.78824201785028">
<ele>695</ele>
</trkpt>
<trkpt lat="39.734666040167212" lon="2.788356011733413">
<ele>696</ele>
</trkpt>
<trkpt lat="39.734616000205278" lon="2.788431029766798">
<ele>696</ele>
</trkpt>
<trkpt lat="39.734520027413964" lon="2.788599003106356">
<ele>697</ele>
</trkpt>
<trkpt lat="39.734439980238676" lon="2.788610989227891">
<ele>697</ele>
</trkpt>
<trkpt lat="39.734241999685764" lon="2.788562960922718">
<ele>698</ele>
</trkpt>
<trkpt lat="39.734238982200623" lon="2.788570001721382">
<ele>698</ele>
</trkpt>
<trkpt lat="39.734164969995618" lon="2.788698999211192">
<ele>699</ele>
</trkpt>
<trkpt lat="39.7341020219028" lon="2.78880201280117">
<ele>699</ele>
</trkpt>
<trkpt lat="39.734091041609645" lon="2.788935033604503">
<ele>698</ele>
</trkpt>
<trkpt lat="39.734051981940866" lon="2.789068976417184">
<ele>697</ele>
</trkpt>
<trkpt lat="39.733992973342538" lon="2.789209960028529">
<ele>696</ele>
</trkpt>
<trkpt lat="39.733949974179268" lon="2.789291013032198">
<ele>695</ele>
</trkpt>
<trkpt lat="39.733884008601308" lon="2.789412969723344">
<ele>694</ele>
</trkpt>
<trkpt lat="39.733855007216334" lon="2.78942302800715">
<ele>694</ele>
</trkpt>
<trkpt lat="39.733735984191298" lon="2.78955596499145">
<ele>693</ele>
</trkpt>
<trkpt lat="39.733635988086462" lon="2.789614973589778">
<ele>692</ele>
</trkpt>
<trkpt lat="39.733555018901825" lon="2.78968496248126">
<ele>691</ele>
</trkpt>
<trkpt lat="39.733533980324864" lon="2.789711030200124">
<ele>690</ele>
</trkpt>
<trkpt lat="39.733458962291479" lon="2.78993901796639">
<ele>690</ele>
</trkpt>
<trkpt lat="39.733449993655086" lon="2.790072038769722">
<ele>689</ele>
</trkpt>
<trkpt lat="39.733405988663435" lon="2.790196007117629">
<ele>689</ele>
</trkpt>
<trkpt lat="39.733409006148577" lon="2.790231965482235">
<ele>688</ele>
</trkpt>
<trkpt lat="39.7333749756217" lon="2.790414020419121">
<ele>688</ele>
</trkpt>
<trkpt lat="39.73337396979332" lon="2.790502030402422">
<ele>688</ele>
</trkpt>
<trkpt lat="39.733428033068776" lon="2.790620969608426">
<ele>687</ele>
</trkpt>
<trkpt lat="39.733423003926873" lon="2.790718032047153">
<ele>687</ele>
</trkpt>
<trkpt lat="39.733411017805338" lon="2.790823979303241">
<ele>686</ele>
</trkpt>
<trkpt lat="39.733296018093824" lon="2.791093960404396">
<ele>687</ele>
</trkpt>
<trkpt lat="39.733280008658767" lon="2.79116302728653">
<ele>688</ele>
</trkpt>
<trkpt lat="39.733228040859103" lon="2.79133502393961">
<ele>688</ele>
</trkpt>
<trkpt lat="39.733186969533563" lon="2.791480030864477">
<ele>689</ele>
</trkpt>
<trkpt lat="39.733171965926886" lon="2.791527975350618">
<ele>690</ele>
</trkpt>
<trkpt lat="39.733074987307191" lon="2.79172302223742">
<ele>691</ele>
</trkpt>
<trkpt lat="39.733054032549262" lon="2.791729979217053">
<ele>692</ele>
</trkpt>
<trkpt lat="39.732931992039084" lon="2.791774990037084">
<ele>692</ele>
</trkpt>
<trkpt lat="39.732845993712544" lon="2.791822012513876">
<ele>693</ele>
</trkpt>
<trkpt lat="39.732833001762629" lon="2.791853025555611">
<ele>694</ele>
</trkpt>
<trkpt lat="39.73279201425612" lon="2.791987974196672">
<ele>695</ele>
</trkpt>
<trkpt lat="39.732781033962965" lon="2.792004989460111">
<ele>696</ele>
</trkpt>
<trkpt lat="39.732726970687509" lon="2.792106997221708">
<ele>697</ele>
</trkpt>
<trkpt lat="39.73268698900938" lon="2.792184026911855">
<ele>698</ele>
</trkpt>
<trkpt lat="39.732619011774659" lon="2.792320987209678">
<ele>698</ele>
</trkpt>
<trkpt lat="39.732630997896194" lon="2.792318975552917">
<ele>699</ele>
</trkpt>
<trkpt lat="39.732636027038097" lon="2.792320987209678">
<ele>700</ele>
</trkpt>
<trkpt lat="39.732665028423071" lon="2.792318975552917">
<ele>701</ele>
</trkpt>
<trkpt lat="39.73268698900938" lon="2.792311012744904">
<ele>704</ele>
</trkpt>
<trkpt lat="39.732777010649443" lon="2.792220991104841">
<ele>707</ele>
</trkpt>
<trkpt lat="39.73285898566246" lon="2.792202970013022">
<ele>708</ele>
</trkpt>
<trkpt lat="39.733001980930567" lon="2.792135998606682">
<ele>710</ele>
</trkpt>
<trkpt lat="39.732894022017717" lon="2.792328028008342">
<ele>711</ele>
</trkpt>
<trkpt lat="39.732887987047434" lon="2.792415032163262">
<ele>713</ele>
</trkpt>
<trkpt lat="39.733020002022386" lon="2.792340014129877">
<ele>714</ele>
</trkpt>
<trkpt lat="39.733068030327559" lon="2.792302966117859">
<ele>715</ele>
</trkpt>
<trkpt lat="39.733153022825718" lon="2.792283017188311">
<ele>718</ele>
</trkpt>
<trkpt lat="39.733252013102174" lon="2.792229037731886">
<ele>721</ele>
</trkpt>
<trkpt lat="39.7333749756217" lon="2.79219601303339">
<ele>723</ele>
</trkpt>
<trkpt lat="39.733424009755254" lon="2.79217497445643">
<ele>726</ele>
</trkpt>
<trkpt lat="39.733553007245064" lon="2.792071038857102">
<ele>729</ele>
</trkpt>
<trkpt lat="39.733671024441719" lon="2.791926031932235">
<ele>732</ele>
</trkpt>
<trkpt lat="39.733749981969595" lon="2.791843973100185">
<ele>734</ele>
</trkpt>
<trkpt lat="39.733745958656073" lon="2.791640041396022">
<ele>737</ele>
</trkpt>
<trkpt lat="39.733766997233033" lon="2.791578015312553">
<ele>740</ele>
</trkpt>
<trkpt lat="39.733784012496471" lon="2.791544990614057">
<ele>743</ele>
</trkpt>
<trkpt lat="39.733854001387954" lon="2.791426973417401">
<ele>746</ele>
</trkpt>
<trkpt lat="39.733877973631024" lon="2.791518000885844">
<ele>748</ele>
</trkpt>
<trkpt lat="39.733826005831361" lon="2.7916169911623">
<ele>751</ele>
</trkpt>
<trkpt lat="39.733822988346219" lon="2.791684968397021">
<ele>754</ele>
</trkpt>
<trkpt lat="39.733822988346219" lon="2.791684968397021">
<ele>754</ele>
</trkpt>
<trkpt lat="39.733822988346219" lon="2.791684968397021">
<ele>754</ele>
</trkpt>
<trkpt lat="39.733822988346219" lon="2.791684968397021">
<ele>755</ele>
</trkpt>
<trkpt lat="39.733794992789626" lon="2.791875991970301">
<ele>756</ele>
</trkpt>
<trkpt lat="39.733785018324852" lon="2.791909016668797">
<ele>756</ele>
</trkpt>
<trkpt lat="39.73380396142602" lon="2.792060980573297">
<ele>756</ele>
</trkpt>
<trkpt lat="39.73380203358829" lon="2.79208897612989">
<ele>757</ele>
</trkpt>
<trkpt lat="39.733808990567923" lon="2.792144967243075">
<ele>758</ele>
</trkpt>
<trkpt lat="39.733817959204316" lon="2.792164999991655">
<ele>760</ele>
</trkpt>
<trkpt lat="39.733692985028028" lon="2.792332973331213">
<ele>762</ele>
</trkpt>
<trkpt lat="39.733633976429701" lon="2.792399022728205">
<ele>764</ele>
</trkpt>
<trkpt lat="39.733516965061426" lon="2.792455013841391">
<ele>766</ele>
</trkpt>
<trkpt lat="39.733497016131878" lon="2.792465994134545">
<ele>769</ele>
</trkpt>
<trkpt lat="39.733519982546568" lon="2.792589962482452">
<ele>772</ele>
</trkpt>
<trkpt lat="39.733463991433382" lon="2.792650982737541">
<ele>775</ele>
</trkpt>
<trkpt lat="39.733404982835054" lon="2.792743016034365">
<ele>778</ele>
</trkpt>
<trkpt lat="39.733228962868452" lon="2.792688030749559">
<ele>780</ele>
</trkpt>
<trkpt lat="39.733127038925886" lon="2.792630027979612">
<ele>782</ele>
</trkpt>
<trkpt lat="39.733122009783983" lon="2.792624998837709">
<ele>784</ele>
</trkpt>
<trkpt lat="39.733139025047421" lon="2.792825996875763">
<ele>786</ele>
</trkpt>
<trkpt lat="39.733118992298841" lon="2.792811999097467">
<ele>789</ele>
</trkpt>
<trkpt lat="39.733057972043753" lon="2.792772017419338">
<ele>790</ele>
</trkpt>
<trkpt lat="39.732969040051103" lon="2.792742010205984">
<ele>793</ele>
</trkpt>
<trkpt lat="39.732882035896182" lon="2.792749973013997">
<ele>796</ele>
</trkpt>
<trkpt lat="39.732868038117886" lon="2.792744021862745">
<ele>798</ele>
</trkpt>
<trkpt lat="39.732753960415721" lon="2.792833037674427">
<ele>800</ele>
</trkpt>
<trkpt lat="39.732800982892513" lon="2.79288399964571">
<ele>802</ele>
</trkpt>
<trkpt lat="39.732796037569642" lon="2.792914006859064">
<ele>804</ele>
</trkpt>
<trkpt lat="39.732739040628076" lon="2.792952982708812">
<ele>804</ele>
</trkpt>
<trkpt lat="39.732628986239433" lon="2.792959017679095">
<ele>804</ele>
</trkpt>
<trkpt lat="39.73257802426815" lon="2.793018026277423">
<ele>807</ele>
</trkpt>
<trkpt lat="39.732456989586353" lon="2.793199997395277">
<ele>808</ele>
</trkpt>
<trkpt lat="39.732462018728256" lon="2.793277027085424">
<ele>809</ele>
</trkpt>
<trkpt lat="39.732522033154964" lon="2.793500991538167">
<ele>810</ele>
</trkpt>
<trkpt lat="39.732581041753292" lon="2.793682962656021">
<ele>812</ele>
</trkpt>
<trkpt lat="39.73260099068284" lon="2.793769966810942">
<ele>816</ele>
</trkpt>
<trkpt lat="39.732585987076163" lon="2.793887984007597">
<ele>817</ele>
</trkpt>
<trkpt lat="39.732582969591022" lon="2.793980017304421">
<ele>820</ele>
</trkpt>
<trkpt lat="39.732597973197699" lon="2.793988985940814">
<ele>821</ele>
</trkpt>
<trkpt lat="39.732597973197699" lon="2.793988985940814">
<ele>821</ele>
</trkpt>
<trkpt lat="39.732597973197699" lon="2.793988985940814">
<ele>821</ele>
</trkpt>
<trkpt lat="39.732597973197699" lon="2.793988985940814">
<ele>821</ele>
</trkpt>
<trkpt lat="39.732595961540937" lon="2.793986974284053">
<ele>823</ele>
</trkpt>
<trkpt lat="39.732596967369318" lon="2.793988985940814">
<ele>824</ele>
</trkpt>
<trkpt lat="39.732613982632756" lon="2.793802991509438">
<ele>824</ele>
</trkpt>
<trkpt lat="39.732576012611389" lon="2.793733002617955">
<ele>824</ele>
</trkpt>
<trkpt lat="39.732540976256132" lon="2.793561005964875">
<ele>825</ele>
</trkpt>
<trkpt lat="39.732553968206048" lon="2.793436031788588">
<ele>825</ele>
</trkpt>
<trkpt lat="39.732536030933261" lon="2.793370988219976">
<ele>824</ele>
</trkpt>
<trkpt lat="39.732474004849792" lon="2.793279960751534">
<ele>823</ele>
</trkpt>
<trkpt lat="39.732477022334933" lon="2.793221035972238">
<ele>823</ele>
</trkpt>
<trkpt lat="39.732496971264482" lon="2.793192034587264">
<ele>822</ele>
</trkpt>
<trkpt lat="39.732585987076163" lon="2.7930330298841">
<ele>821</ele>
</trkpt>
<trkpt lat="39.7327930200845" lon="2.792924987152219">
<ele>820</ele>
</trkpt>
<trkpt lat="39.732762007042766" lon="2.792848963290453">
<ele>819</ele>
</trkpt>
<trkpt lat="39.732862003147602" lon="2.792761959135532">
<ele>818</ele>
</trkpt>
<trkpt lat="39.732939032837749" lon="2.792815016582608">
<ele>817</ele>
</trkpt>
<trkpt lat="39.732955964282155" lon="2.792788026854396">
<ele>816</ele>
</trkpt>
<trkpt lat="39.732948001474142" lon="2.792768999934197">
<ele>814</ele>
</trkpt>
<trkpt lat="39.732950013130903" lon="2.792747039347887">
<ele>813</ele>
</trkpt>
<trkpt lat="39.732979014515877" lon="2.792747039347887">
<ele>811</ele>
</trkpt>
<trkpt lat="39.733103988692164" lon="2.792809987440705">
<ele>810</ele>
</trkpt>
<trkpt lat="39.73311698064208" lon="2.792665986344218">
<ele>808</ele>
</trkpt>
<trkpt lat="39.733129972591996" lon="2.792643019929528">
<ele>806</ele>
</trkpt>
<trkpt lat="39.733208008110523" lon="2.792704040184617">
<ele>805</ele>
</trkpt>
<trkpt lat="39.733241032809019" lon="2.792735975235701">
<ele>803</ele>
</trkpt>
<trkpt lat="39.733402971178293" lon="2.792715020477772">
<ele>802</ele>
</trkpt>
<trkpt lat="39.733415963128209" lon="2.792700016871095">
<ele>798</ele>
</trkpt>
<trkpt lat="39.733525011688471" lon="2.792607983574271">
<ele>796</ele>
</trkpt>
<trkpt lat="39.733452005311847" lon="2.792527014389634">
<ele>795</ele>
</trkpt>
<trkpt lat="39.73345703445375" lon="2.79251997359097">
<ele>793</ele>
</trkpt>
<trkpt lat="39.733489975333214" lon="2.79249700717628">
<ele>792</ele>
</trkpt>
<trkpt lat="39.733582008630037" lon="2.792436992749572">
<ele>791</ele>
</trkpt>
<trkpt lat="39.733669012784958" lon="2.792338002473116">
<ele>789</ele>
</trkpt>
<trkpt lat="39.733677981421351" lon="2.792316963896155">
<ele>788</ele>
</trkpt>
<trkpt lat="39.733770014718175" lon="2.792200036346912">
<ele>786</ele>
</trkpt>
<trkpt lat="39.733811002224684" lon="2.792133986949921">
<ele>785</ele>
</trkpt>
<trkpt lat="39.733815025538206" lon="2.791985040530562">
<ele>784</ele>
</trkpt>
<trkpt lat="39.733809996396303" lon="2.791957966983318">
<ele>781</ele>
</trkpt>
<trkpt lat="39.733838997781277" lon="2.791786976158619">
<ele>780</ele>
</trkpt>
<trkpt lat="39.733848972246051" lon="2.79174498282373">
<ele>778</ele>
</trkpt>
<trkpt lat="39.733842015266418" lon="2.791559994220734">
<ele>777</ele>
</trkpt>
<trkpt lat="39.73382500000298" lon="2.791451029479504">
<ele>774</ele>
</trkpt>
<trkpt lat="39.73373799584806" lon="2.791505008935928">
<ele>771</ele>
</trkpt>
<trkpt lat="39.733693990856409" lon="2.791608022525907">
<ele>770</ele>
</trkpt>
<trkpt lat="39.733584020286798" lon="2.791827041655779">
<ele>767</ele>
</trkpt>
<trkpt lat="39.733519982546568" lon="2.79189401306212">
<ele>765</ele>
</trkpt>
<trkpt lat="39.733454016968608" lon="2.791997026652098">
<ele>763</ele>
</trkpt>
<trkpt lat="39.733386039733887" lon="2.792071960866451">
<ele>760</ele>
</trkpt>
<trkpt lat="39.733358966186643" lon="2.792100962251425">
<ele>756</ele>
</trkpt>
<trkpt lat="39.733254024758935" lon="2.792157959192991">
<ele>754</ele>
</trkpt>
<trkpt lat="39.733169032260776" lon="2.792214034125209">
<ele>752</ele>
</trkpt>
<trkpt lat="39.733166014775634" lon="2.792219985276461">
<ele>749</ele>
</trkpt>
<trkpt lat="39.733028970658779" lon="2.79228100553155">
<ele>746</ele>
</trkpt>
<trkpt lat="39.732949007302523" lon="2.792328028008342">
<ele>742</ele>
</trkpt>
<trkpt lat="39.733055960386992" lon="2.792180003598332">
<ele>740</ele>
</trkpt>
<trkpt lat="39.733017990365624" lon="2.792171034961939">
<ele>739</ele>
</trkpt>
<trkpt lat="39.732998041436076" lon="2.792172962799668">
<ele>738</ele>
</trkpt>
<trkpt lat="39.732894022017717" lon="2.792186038568616">
<ele>736</ele>
</trkpt>
<trkpt lat="39.732822021469474" lon="2.792233983054757">
<ele>734</ele>
</trkpt>
<trkpt lat="39.732676008716226" lon="2.792460964992642">
<ele>731</ele>
</trkpt>
<trkpt lat="39.732640972360969" lon="2.792500024661422">
<ele>730</ele>
</trkpt>
<trkpt lat="39.732480039820075" lon="2.792576970532537">
<ele>728</ele>
</trkpt>
<trkpt lat="39.732422959059477" lon="2.792589040473104">
<ele>725</ele>
</trkpt>
<trkpt lat="39.732547011226416" lon="2.79243104159832">
<ele>723</ele>
</trkpt>
<trkpt lat="39.732575006783009" lon="2.792348982766271">
<ele>721</ele>
</trkpt>
<trkpt lat="39.732641978189349" lon="2.792133986949921">
<ele>719</ele>
</trkpt>
<trkpt lat="39.732652036473155" lon="2.792050000280142">
<ele>717</ele>
</trkpt>
<trkpt lat="39.732561009004712" lon="2.792022004723549">
<ele>714</ele>
</trkpt>
<trkpt lat="39.732497977092862" lon="2.792061986401677">
<ele>712</ele>
</trkpt>
<trkpt lat="39.732404015958309" lon="2.792124012485147">
<ele>711</ele>
</trkpt>
<trkpt lat="39.73232002928853" lon="2.79217497445643">
<ele>709</ele>
</trkpt>
<trkpt lat="39.732287004590034" lon="2.792190983891487">
<ele>707</ele>
</trkpt>
<trkpt lat="39.732132023200393" lon="2.792331967502832">
<ele>705</ele>
</trkpt>
<trkpt lat="39.732103021815419" lon="2.792352000251412">
<ele>704</ele>
</trkpt>
<trkpt lat="39.732141997665167" lon="2.792232977226377">
<ele>703</ele>
</trkpt>
<trkpt lat="39.732203017920256" lon="2.792133986949921">
<ele>701</ele>
</trkpt>
<trkpt lat="39.732275018468499" lon="2.792026028037071">
<ele>700</ele>
</trkpt>
<trkpt lat="39.732348024845123" lon="2.791925026103854">
<ele>698</ele>
</trkpt>
<trkpt lat="39.732446009293199" lon="2.791785970330238">
<ele>697</ele>
</trkpt>
<trkpt lat="39.732484985142946" lon="2.791624031960964">
<ele>696</ele>
</trkpt>
<trkpt lat="39.732536030933261" lon="2.791481958702207">
<ele>694</ele>
</trkpt>
<trkpt lat="39.732497977092862" lon="2.791447006165981">
<ele>693</ele>
</trkpt>
<trkpt lat="39.732475010678172" lon="2.791462009772658">
<ele>690</ele>
</trkpt>
<trkpt lat="39.732447015121579" lon="2.791477013379335">
<ele>689</ele>
</trkpt>
<trkpt lat="39.732369985431433" lon="2.791564017534256">
<ele>688</ele>
</trkpt>
<trkpt lat="39.732281975448132" lon="2.791665019467473">
<ele>686</ele>
</trkpt>
<trkpt lat="39.732242999598384" lon="2.791686980053783">
<ele>685</ele>
</trkpt>
<trkpt lat="39.73212699405849" lon="2.791768033057451">
<ele>683</ele>
</trkpt>
<trkpt lat="39.732081983238459" lon="2.791806003078818">
<ele>682</ele>
</trkpt>
<trkpt lat="39.732015011832118" lon="2.791885966435075">
<ele>680</ele>
</trkpt>
<trkpt lat="39.731981987133622" lon="2.791910022497177">
<ele>678</ele>
</trkpt>
<trkpt lat="39.731830023229122" lon="2.792057963088155">
<ele>677</ele>
</trkpt>
<trkpt lat="39.731734972447157" lon="2.792171034961939">
<ele>675</ele>
</trkpt>
<trkpt lat="39.731664983555675" lon="2.792287040501833">
<ele>672</ele>
</trkpt>
<trkpt lat="39.731658026576042" lon="2.792300032451749">
<ele>670</ele>
</trkpt>
<trkpt lat="39.731531040742993" lon="2.792533971369267">
<ele>668</ele>
</trkpt>
<trkpt lat="39.731520982459188" lon="2.792549980804324">
<ele>667</ele>
</trkpt>
<trkpt lat="39.73135401494801" lon="2.792761959135532">
<ele>665</ele>
</trkpt>
<trkpt lat="39.731319984421134" lon="2.79282096773386">
<ele>663</ele>
</trkpt>
<trkpt lat="39.731162991374731" lon="2.792962035164237">
<ele>661</ele>
</trkpt>
<trkpt lat="39.731116974726319" lon="2.792980978265405">
<ele>660</ele>
</trkpt>
<trkpt lat="39.730997029691935" lon="2.793044010177255">
<ele>658</ele>
</trkpt>
<trkpt lat="39.730917988345027" lon="2.793261017650366">
<ele>656</ele>
</trkpt>
<trkpt lat="39.730887981131673" lon="2.793305022642016">
<ele>654</ele>
</trkpt>
<trkpt lat="39.730765018612146" lon="2.793426979333162">
<ele>652</ele>
</trkpt>
<trkpt lat="39.730702992528677" lon="2.793468972668052">
<ele>650</ele>
</trkpt>
<trkpt lat="39.730610959231853" lon="2.793541979044676">
<ele>648</ele>
</trkpt>
<trkpt lat="39.730547005310655" lon="2.793573997914791">
<ele>646</ele>
</trkpt>
<trkpt lat="39.730400992557406" lon="2.793692015111446">
<ele>643</ele>
</trkpt>
<trkpt lat="39.730372997000813" lon="2.793727973476052">
<ele>641</ele>
</trkpt>
<trkpt lat="39.73027803003788" lon="2.793801985681057">
<ele>639</ele>
</trkpt>
<trkpt lat="39.730146015062928" lon="2.793906005099416">
<ele>637</ele>
</trkpt>
<trkpt lat="39.730066973716021" lon="2.793978005647659">
<ele>635</ele>
</trkpt>
<trkpt lat="39.729971000924706" lon="2.794049000367522">
<ele>632</ele>
</trkpt>
<trkpt lat="39.729883996769786" lon="2.794084958732128">
<ele>630</ele>
</trkpt>
<trkpt lat="39.729768997058272" lon="2.794142961502075">
<ele>628</ele>
</trkpt>
<trkpt lat="39.729663971811533" lon="2.794187972322106">
<ele>625</ele>
</trkpt>
<trkpt lat="39.729631030932069" lon="2.794153019785881">
<ele>623</ele>
</trkpt>
<trkpt lat="39.729675035923719" lon="2.794099040329456">
<ele>621</ele>
</trkpt>
<trkpt lat="39.729722980409861" lon="2.794072972610593">
<ele>619</ele>
</trkpt>
<trkpt lat="39.729804033413529" lon="2.793922014534473">
<ele>616</ele>
</trkpt>
<trkpt lat="39.729804033413529" lon="2.793774995952845">
<ele>614</ele>
</trkpt>
<trkpt lat="39.729866981506348" lon="2.793625965714455">
<ele>612</ele>
</trkpt>
<trkpt lat="39.729921966791153" lon="2.793455980718136">
<ele>610</ele>
</trkpt>
<trkpt lat="39.729996984824538" lon="2.79327099211514">
<ele>608</ele>
</trkpt>
<trkpt lat="39.730031015351415" lon="2.79316496104002">
<ele>605</ele>
</trkpt>
<trkpt lat="39.730055993422866" lon="2.793045016005635">
<ele>603</ele>
</trkpt>
<trkpt lat="39.730116007849574" lon="2.792854998260737">
<ele>600</ele>
</trkpt>
<trkpt lat="39.730154983699322" lon="2.792744021862745">
<ele>599</ele>
</trkpt>
<trkpt lat="39.730233019217849" lon="2.792570013552904">
<ele>597</ele>
</trkpt>
<trkpt lat="39.730286998674273" lon="2.792458031326532">
<ele>595</ele>
</trkpt>
<trkpt lat="39.73032396286726" lon="2.792344037443399">
<ele>594</ele>
</trkpt>
<trkpt lat="39.730384983122349" lon="2.792114038020372">
<ele>593</ele>
</trkpt>
<trkpt lat="39.730437034741044" lon="2.792014963924885">
<ele>591</ele>
</trkpt>
<trkpt lat="39.730460001155734" lon="2.791857970878482">
<ele>589</ele>
</trkpt>
<trkpt lat="39.730460001155734" lon="2.791813965886831">
<ele>588</ele>
</trkpt>
<trkpt lat="39.730483973398805" lon="2.791631994768977">
<ele>587</ele>
</trkpt>
<trkpt lat="39.730544993653893" lon="2.791539039462805">
<ele>585</ele>
</trkpt>
<trkpt lat="39.730607019737363" lon="2.791347010061145">
<ele>582</ele>
</trkpt>
<trkpt lat="39.730648007243872" lon="2.79116403311491">
<ele>580</ele>
</trkpt>
<trkpt lat="39.730677008628845" lon="2.79105699621141">
<ele>578</ele>
</trkpt>
<trkpt lat="39.730741968378425" lon="2.790824985131621">
<ele>576</ele>
</trkpt>
<trkpt lat="39.730729982256889" lon="2.79081903398037">
<ele>574</ele>
</trkpt>
<trkpt lat="39.730642978101969" lon="2.790824985131621">
<ele>572</ele>
</trkpt>
<trkpt lat="39.730541976168752" lon="2.790838982909918">
<ele>570</ele>
</trkpt>
<trkpt lat="39.730501994490623" lon="2.790887011215091">
<ele>566</ele>
</trkpt>
<trkpt lat="39.730400992557406" lon="2.790896985679865">
<ele>562</ele>
</trkpt>
<trkpt lat="39.730283981189132" lon="2.790931016206741">
<ele>559</ele>
</trkpt>
<trkpt lat="39.730253973975778" lon="2.790964040905237">
<ele>556</ele>
</trkpt>
<trkpt lat="39.730245005339384" lon="2.790829008445144">
<ele>552</ele>
</trkpt>
<trkpt lat="39.730182979255915" lon="2.790879970416427">
<ele>549</ele>
</trkpt>
<trkpt lat="39.730072002857924" lon="2.790979966521263">
<ele>547</ele>
</trkpt>
<trkpt lat="39.729959014803171" lon="2.791071999818087">
<ele>545</ele>
</trkpt>
<trkpt lat="39.729922972619534" lon="2.791098989546299">
<ele>542</ele>
</trkpt>
<trkpt lat="39.72980797290802" lon="2.791168978437781">
<ele>540</ele>
</trkpt>
<trkpt lat="39.729729015380144" lon="2.791255982592702">
<ele>539</ele>
</trkpt>
<trkpt lat="39.729633964598179" lon="2.791361007839441">
<ele>537</ele>
</trkpt>
<trkpt lat="39.729584008455276" lon="2.791408030316234">
<ele>535</ele>
</trkpt>
<trkpt lat="39.729466997087002" lon="2.791537027806044">
<ele>534</ele>
</trkpt>
<trkpt lat="39.729474959895015" lon="2.791454968973994">
<ele>533</ele>
</trkpt>
<trkpt lat="39.729499015957117" lon="2.791407024487853">
<ele>531</ele>
</trkpt>
<trkpt lat="39.729562969878316" lon="2.79122899286449">
<ele>528</ele>
</trkpt>
<trkpt lat="39.729566993191838" lon="2.791117010638118">
<ele>526</ele>
</trkpt>
<trkpt lat="39.729632958769798" lon="2.790889022871852">
<ele>524</ele>
</trkpt>
<trkpt lat="39.729705965146422" lon="2.790829008445144">
<ele>525</ele>
</trkpt>
<trkpt lat="39.729847032576799" lon="2.790508987382054">
<ele>526</ele>
</trkpt>
<trkpt lat="39.729909980669618" lon="2.790398010984063">
<ele>526</ele>
</trkpt>
<trkpt lat="39.729938982054591" lon="2.790356017649174">
<ele>527</ele>
</trkpt>
<trkpt lat="39.730035038664937" lon="2.790255015715957">
<ele>528</ele>
</trkpt>
<trkpt lat="39.730098992586136" lon="2.790159964933991">
<ele>528</ele>
</trkpt>
<trkpt lat="39.730109972879291" lon="2.790130963549018">
<ele>529</ele>
</trkpt>
<trkpt lat="39.730169987305999" lon="2.790020992979407">
<ele>529</ele>
</trkpt>
<trkpt lat="39.730227990075946" lon="2.789883026853204">
<ele>529</ele>
</trkpt>
<trkpt lat="39.730231007561088" lon="2.789772972464562">
<ele>530</ele>
</trkpt>
<trkpt lat="39.730222038924694" lon="2.78964196331799">
<ele>531</ele>
</trkpt>
<trkpt lat="39.730221033096313" lon="2.78959896415472">
<ele>532</ele>
</trkpt>
<trkpt lat="39.730216003954411" lon="2.789477007463574">
<ele>533</ele>
</trkpt>
<trkpt lat="39.730209968984127" lon="2.78942596167326">
<ele>533</ele>
</trkpt>
<trkpt lat="39.730154983699322" lon="2.789281038567424">
<ele>534</ele>
</trkpt>
<trkpt lat="39.729967983439565" lon="2.78927399776876">
<ele>535</ele>
</trkpt>
<trkpt lat="39.729885002598166" lon="2.789325965568423">
<ele>536</ele>
</trkpt>
<trkpt lat="39.729858012869954" lon="2.789326971396804">
<ele>537</ele>
</trkpt>
<trkpt lat="39.729687022045255" lon="2.789341975003481">
<ele>538</ele>
</trkpt>
<trkpt lat="39.729664977639914" lon="2.789348009973764">
<ele>538</ele>
</trkpt>
<trkpt lat="39.729528017342091" lon="2.789328983053565">
<ele>538</ele>
</trkpt>
<trkpt lat="39.729508990421891" lon="2.78933702968061">
<ele>539</ele>
</trkpt>
<trkpt lat="39.729483006522059" lon="2.789351027458906">
<ele>540</ele>
</trkpt>
<trkpt lat="39.729345962405205" lon="2.789332000538707">
<ele>541</ele>
</trkpt>
<trkpt lat="39.729240015149117" lon="2.789257988333702">
<ele>541</ele>
</trkpt>
<trkpt lat="39.729138007387519" lon="2.7892080321908">
<ele>542</ele>
</trkpt>
<trkpt lat="39.729014039039612" lon="2.789181964471936">
<ele>542</ele>
</trkpt>
<trkpt lat="39.7288609854877" lon="2.789183976128697">
<ele>543</ele>
</trkpt>
<trkpt lat="39.728810023516417" lon="2.789172995835543">
<ele>544</ele>
</trkpt>
<trkpt lat="39.728740034624934" lon="2.789132008329034">
<ele>545</ele>
</trkpt>
<trkpt lat="39.728638026863337" lon="2.789011979475617">
<ele>546</ele>
</trkpt>
<trkpt lat="39.728634003549814" lon="2.788999993354082">
<ele>546</ele>
</trkpt>
<trkpt lat="39.728824021294713" lon="2.78908297419548">
<ele>547</ele>
</trkpt>
<trkpt lat="39.728845981881022" lon="2.789080962538719">
<ele>549</ele>
</trkpt>
<trkpt lat="39.72901102155447" lon="2.789069982245565">
<ele>550</ele>
</trkpt>
<trkpt lat="39.729166002944112" lon="2.789062019437552">
<ele>551</ele>
</trkpt>
<trkpt lat="39.729186035692692" lon="2.789051039144397">
<ele>552</ele>
</trkpt>
<trkpt lat="39.729127027094364" lon="2.788945008069277">
<ele>553</ele>
</trkpt>
<trkpt lat="39.729047985747457" lon="2.788906032219529">
<ele>554</ele>
</trkpt>
<trkpt lat="39.728869032114744" lon="2.788757001981139">
<ele>555</ele>
</trkpt>
<trkpt lat="39.728768030181527" lon="2.7886519767344">
<ele>556</ele>
</trkpt>
<trkpt lat="39.728754032403231" lon="2.788592968136072">
<ele>557</ele>
</trkpt>
<trkpt lat="39.728841036558151" lon="2.788463970646262">
<ele>557</ele>
</trkpt>
<trkpt lat="39.7288609854877" lon="2.78845801949501">
<ele>558</ele>
</trkpt>
<trkpt lat="39.729000041261315" lon="2.788505963981152">
<ele>560</ele>
</trkpt>
<trkpt lat="39.729062989354134" lon="2.788542006164789">
<ele>562</ele>
</trkpt>
<trkpt lat="39.729243032634258" lon="2.788463970646262">
<ele>563</ele>
</trkpt>
<trkpt lat="39.729340011253953" lon="2.788418959826231">
<ele>564</ele>
</trkpt>
<trkpt lat="39.729365995153785" lon="2.788354000076652">
<ele>565</ele>
</trkpt>
<trkpt lat="39.729365995153785" lon="2.788354000076652">
<ele>565</ele>
</trkpt>
<trkpt lat="39.729365995153785" lon="2.788354000076652">
<ele>565</ele>
</trkpt>
<trkpt lat="39.729365995153785" lon="2.788354000076652">
<ele>565</ele>
</trkpt>
<trkpt lat="39.729236997663975" lon="2.788180997595191">
<ele>565</ele>
</trkpt>
<trkpt lat="39.729172037914395" lon="2.788079995661974">
<ele>565</ele>
</trkpt>
<trkpt lat="39.729118980467319" lon="2.787979999557138">
<ele>566</ele>
</trkpt>
<trkpt lat="39.729106994345784" lon="2.787935994565487">
<ele>567</ele>
</trkpt>
<trkpt lat="39.729028036817908" lon="2.787803979590535">
<ele>568</ele>
</trkpt>
<trkpt lat="39.728951007127762" lon="2.787623014301062">
<ele>569</ele>
</trkpt>
<trkpt lat="39.728880012407899" lon="2.787501979619265">
<ele>570</ele>
</trkpt>
<trkpt lat="39.728819997981191" lon="2.787392009049654">
<ele>570</ele>
</trkpt>
<trkpt lat="39.728746991604567" lon="2.787262005731463">
<ele>571</ele>
</trkpt>
<trkpt lat="39.72871002741158" lon="2.787180030718446">
<ele>572</ele>
</trkpt>
<trkpt lat="39.728825027123094" lon="2.78716703876853">
<ele>573</ele>
</trkpt>
<trkpt lat="39.728865008801222" lon="2.787208026275039">
<ele>574</ele>
</trkpt>
<trkpt lat="39.728980008512735" lon="2.787303999066353">
<ele>575</ele>
</trkpt>
<trkpt lat="39.72905402071774" lon="2.787403995171189">
<ele>576</ele>
</trkpt>
<trkpt lat="39.729157034307718" lon="2.787495022639632">
<ele>577</ele>
</trkpt>
<trkpt lat="39.729217970743775" lon="2.78753399848938">
<ele>578</ele>
</trkpt>
<trkpt lat="39.729407988488674" lon="2.787488987669349">
<ele>579</ele>
</trkpt>
<trkpt lat="39.7295499779284" lon="2.787409024313092">
<ele>580</ele>
</trkpt>
<trkpt lat="39.729631030932069" lon="2.787333000451326">
<ele>581</ele>
</trkpt>
<trkpt lat="39.729723986238241" lon="2.787243984639645">
<ele>581</ele>
</trkpt>
<trkpt lat="39.729826999828219" lon="2.787205008789897">
<ele>582</ele>
</trkpt>
<trkpt lat="39.729857007041574" lon="2.787199979647994">
<ele>583</ele>
</trkpt>
<trkpt lat="39.729941999539733" lon="2.78712697327137">
<ele>585</ele>
</trkpt>
<trkpt lat="39.73006596788764" lon="2.787068970501423">
<ele>586</ele>
</trkpt>
<trkpt lat="39.730101004242897" lon="2.787052961066365">
<ele>588</ele>
</trkpt>
<trkpt lat="39.730261014774442" lon="2.786962017416954">
<ele>589</ele>
</trkpt>
<trkpt lat="39.730346007272601" lon="2.786893034353852">
<ele>591</ele>
</trkpt>
<trkpt lat="39.730427982285619" lon="2.786804018542171">
<ele>593</ele>
</trkpt>
<trkpt lat="39.730466036126018" lon="2.786775017157197">
<ele>594</ele>
</trkpt>
<trkpt lat="39.730520015582442" lon="2.786648031324148">
<ele>596</ele>
</trkpt>
<trkpt lat="39.730438040569425" lon="2.786640990525484">
<ele>597</ele>
</trkpt>
<trkpt lat="39.730371991172433" lon="2.786511993035674">
<ele>599</ele>
</trkpt>
<trkpt lat="39.730470981448889" lon="2.786397999152541">
<ele>601</ele>
</trkpt>
<trkpt lat="39.730533007532358" lon="2.786288028582931">
<ele>603</ele>
</trkpt>
<trkpt lat="39.730513980612159" lon="2.786203036084771">
<ele>604</ele>
</trkpt>
<trkpt lat="39.730510041117668" lon="2.786120977252722">
<ele>607</ele>
</trkpt>
<trkpt lat="39.730642978101969" lon="2.785970019176602">
<ele>610</ele>
</trkpt>
<trkpt lat="39.730758983641863" lon="2.785873040556908">
<ele>612</ele>
</trkpt>
<trkpt lat="39.730753032490611" lon="2.785788970068097">
<ele>613</ele>
</trkpt>
<trkpt lat="39.730887981131673" lon="2.785591995343566">
<ele>615</ele>
</trkpt>
<trkpt lat="39.730812041088939" lon="2.785560982301831">
<ele>617</ele>
</trkpt>
<trkpt lat="39.730728976428509" lon="2.785537010058761">
<ele>619</ele>
</trkpt>
<trkpt lat="39.73070802167058" lon="2.785411030054092">
<ele>621</ele>
</trkpt>
<trkpt lat="39.730734005570412" lon="2.785332994535565">
<ele>623</ele>
</trkpt>
<trkpt lat="39.730827966704965" lon="2.785220006480813">
<ele>625</ele>
</trkpt>
<trkpt lat="39.730840958654881" lon="2.785180024802685">
<ele>627</ele>
</trkpt>
<trkpt lat="39.73094598390162" lon="2.785007022321224">
<ele>630</ele>
</trkpt>
<trkpt lat="39.731007004156709" lon="2.784961005672813">
<ele>633</ele>
</trkpt>
<trkpt lat="39.731088979169726" lon="2.784834019839764">
<ele>635</ele>
</trkpt>
<trkpt lat="39.731143964454532" lon="2.784812981262803">
<ele>637</ele>
</trkpt>
<trkpt lat="39.731241026893258" lon="2.784779034554958">
<ele>639</ele>
</trkpt>
<trkpt lat="39.73137304186821" lon="2.784732012078166">
<ele>640</ele>
</trkpt>
<trkpt lat="39.731499021872878" lon="2.784745004028082">
<ele>641</ele>
</trkpt>
<trkpt lat="39.7315479721874" lon="2.784737963229418">
<ele>642</ele>
</trkpt>
<trkpt lat="39.731563981622458" lon="2.784669985994697">
<ele>643</ele>
</trkpt>
<trkpt lat="39.731566999107599" lon="2.784662023186684">
<ele>644</ele>
</trkpt>
<trkpt lat="39.731732038781047" lon="2.784644002094865">
<ele>646</ele>
</trkpt>
<trkpt lat="39.73184603266418" lon="2.784673003479838">
<ele>647</ele>
</trkpt>
<trkpt lat="39.731933958828449" lon="2.784730000421405">
<ele>648</ele>
</trkpt>
<trkpt lat="39.731959020718932" lon="2.784763025119901">
<ele>649</ele>
</trkpt>
<trkpt lat="39.732098998501897" lon="2.784904008731246">
<ele>650</ele>
</trkpt>
<trkpt lat="39.732145015150309" lon="2.785002999007702">
<ele>652</ele>
</trkpt>
<trkpt lat="39.732239982113242" lon="2.785111041739583">
<ele>653</ele>
</trkpt>
<trkpt lat="39.732304019853473" lon="2.785147000104189">
<ele>655</ele>
</trkpt>
<trkpt lat="39.732543993741274" lon="2.785225035622716">
<ele>657</ele>
</trkpt>
<trkpt lat="39.732617000117898" lon="2.785268034785986">
<ele>658</ele>
</trkpt>
<trkpt lat="39.732737028971314" lon="2.785238027572632">
<ele>660</ele>
</trkpt>
<trkpt lat="39.732826966792345" lon="2.785207014530897">
<ele>662</ele>
</trkpt>
<trkpt lat="39.732929980382323" lon="2.785153035074472">
<ele>664</ele>
</trkpt>
<trkpt lat="39.732967028394341" lon="2.785130990669131">
<ele>666</ele>
</trkpt>
<trkpt lat="39.733205996453762" lon="2.785101989284158">
<ele>668</ele>
</trkpt>
<trkpt lat="39.733298029750586" lon="2.785126967355609">
<ele>670</ele>
</trkpt>
<trkpt lat="39.733359972015023" lon="2.7851050067693">
<ele>671</ele>
</trkpt>
<trkpt lat="39.73339500837028" lon="2.785109030082822">
<ele>672</ele>
</trkpt>
<trkpt lat="39.733441025018692" lon="2.785145994275808">
<ele>674</ele>
</trkpt>
<trkpt lat="39.733635988086462" lon="2.785225035622716">
<ele>675</ele>
</trkpt>
<trkpt lat="39.733732966706157" lon="2.785269962623715">
<ele>676</ele>
</trkpt>
<trkpt lat="39.733809996396303" lon="2.78534104116261">
<ele>677</ele>
</trkpt>
<trkpt lat="39.733852995559573" lon="2.785415975376964">
<ele>679</ele>
</trkpt>
<trkpt lat="39.733917033299804" lon="2.785531980916858">
<ele>680</ele>
</trkpt>
<trkpt lat="39.733958020806313" lon="2.785632982850075">
<ele>682</ele>
</trkpt>
<trkpt lat="39.733977969735861" lon="2.785768015310168">
<ele>682</ele>
</trkpt>
<trkpt lat="39.734065979719162" lon="2.785964990034699">
<ele>683</ele>
</trkpt>
<trkpt lat="39.734089029952884" lon="2.786002038046718">
<ele>683</ele>
</trkpt>
<trkpt lat="39.734150972217321" lon="2.786213010549545">
<ele>684</ele>
</trkpt>
<trkpt lat="39.734194977208972" lon="2.786381989717484">
<ele>685</ele>
</trkpt>
<trkpt lat="39.734202018007636" lon="2.786402022466064">
<ele>685</ele>
</trkpt>
<trkpt lat="39.734306959435344" lon="2.786563960835338">
<ele>686</ele>
</trkpt>
<trkpt lat="39.734390024095774" lon="2.786737969145179">
<ele>686</ele>
</trkpt>
<trkpt lat="39.734407039359212" lon="2.786778034642339">
<ele>687</ele>
</trkpt>
<trkpt lat="39.734581969678402" lon="2.786894962191582">
<ele>687</ele>
</trkpt>
<trkpt lat="39.734645001590252" lon="2.786864032968879">
<ele>686</ele>
</trkpt>
<trkpt lat="39.734686994925141" lon="2.786841988563538">
<ele>686</ele>
</trkpt>
<trkpt lat="39.734829990193248" lon="2.786692036315799">
<ele>686</ele>
</trkpt>
<trkpt lat="39.734853962436318" lon="2.786697987467051">
<ele>686</ele>
</trkpt>
<trkpt lat="39.734958987683058" lon="2.786783985793591">
<ele>685</ele>
</trkpt>
<trkpt lat="39.734980026260018" lon="2.786857997998595">
<ele>685</ele>
</trkpt>
<trkpt lat="39.735083961859345" lon="2.786833019927144">
<ele>683</ele>
</trkpt>
<trkpt lat="39.73513500764966" lon="2.78680301271379">
<ele>681</ele>
</trkpt>
<trkpt lat="39.735184041783214" lon="2.786787003278732">
<ele>679</ele>
</trkpt>
<trkpt lat="39.735276997089386" lon="2.78682597912848">
<ele>677</ele>
</trkpt>
<trkpt lat="39.735353020951152" lon="2.786817010492086">
<ele>675</ele>
</trkpt>
<trkpt lat="39.735485035926104" lon="2.78684601187706">
<ele>674</ele>
</trkpt>
<trkpt lat="39.735562987625599" lon="2.786948019638658">
<ele>672</ele>
</trkpt>
<trkpt lat="39.735611015930772" lon="2.787006022408605">
<ele>670</ele>
</trkpt>
<trkpt lat="39.735735990107059" lon="2.787081962451339">
<ele>668</ele>
</trkpt>
<trkpt lat="39.735830035060644" lon="2.787064025178552">
<ele>666</ele>
</trkpt>
<trkpt lat="39.735885020345449" lon="2.787055978551507">
<ele>663</ele>
</trkpt>
<trkpt lat="39.736061962321401" lon="2.787093026563525">
<ele>659</ele>
</trkpt>
<trkpt lat="39.736136980354786" lon="2.787000993266702">
<ele>657</ele>
</trkpt>
<trkpt lat="39.736189031973481" lon="2.786951959133148">
<ele>653</ele>
</trkpt>
<trkpt lat="39.736257009208202" lon="2.786718020215631">
<ele>650</ele>
</trkpt>
<trkpt lat="39.736249968409538" lon="2.786509981378913">
<ele>648</ele>
</trkpt>
<trkpt lat="39.736224990338087" lon="2.786387018859386">
<ele>645</ele>
</trkpt>
<trkpt lat="39.736220967024565" lon="2.786338990554214">
<ele>643</ele>
</trkpt>
<trkpt lat="39.736198000609875" lon="2.786188032478094">
<ele>641</ele>
</trkpt>
<trkpt lat="39.736246028915048" lon="2.786218961700797">
<ele>638</ele>
</trkpt>
<trkpt lat="39.736320041120052" lon="2.786325998604298">
<ele>636</ele>
</trkpt>
<trkpt lat="39.736326998099685" lon="2.786349970847368">
<ele>633</ele>
</trkpt>
<trkpt lat="39.736422970890999" lon="2.786421971395612">
<ele>631</ele>
</trkpt>
<trkpt lat="39.736451972275972" lon="2.786290962249041">
<ele>628</ele>
</trkpt>
<trkpt lat="39.736428000032902" lon="2.786172023043037">
<ele>625</ele>
</trkpt>
<trkpt lat="39.736358011141419" lon="2.786060962826014">
<ele>623</ele>
</trkpt>
<trkpt lat="39.736337978392839" lon="2.785973958671093">
<ele>619</ele>
</trkpt>
<trkpt lat="39.736493965610862" lon="2.785970019176602">
<ele>616</ele>
</trkpt>
<trkpt lat="39.736477034166455" lon="2.785887038335204">
<ele>613</ele>
</trkpt>
<trkpt lat="39.736505029723048" lon="2.785772038623691">
<ele>611</ele>
</trkpt>
<trkpt lat="39.736549034714699" lon="2.785795005038381">
<ele>607</ele>
</trkpt>
<trkpt lat="39.736696975305676" lon="2.785912016406655">
<ele>604</ele>
</trkpt>
<trkpt lat="39.736794037744403" lon="2.785940011963248">
<ele>601</ele>
</trkpt>
<trkpt lat="39.736814992502332" lon="2.785917967557907">
<ele>599</ele>
</trkpt>
<trkpt lat="39.736895961686969" lon="2.78583599254489">
<ele>596</ele>
</trkpt>
<trkpt lat="39.736928986385465" lon="2.785811014473438">
<ele>594</ele>
</trkpt>
<trkpt lat="39.7370670363307" lon="2.785743037238717">
<ele>591</ele>
</trkpt>
<trkpt lat="39.737083967775106" lon="2.785801040008664">
<ele>589</ele>
</trkpt>
<trkpt lat="39.737108023837209" lon="2.785915033891797">
<ele>586</ele>
</trkpt>
<trkpt lat="39.737151023000479" lon="2.786004971712828">
<ele>583</ele>
</trkpt>
<trkpt lat="39.737174995243549" lon="2.786250980570912">
<ele>580</ele>
</trkpt>
<trkpt lat="39.737134007737041" lon="2.786354999989271">
<ele>578</ele>
</trkpt>
<trkpt lat="39.737207014113665" lon="2.786415014415979">
<ele>575</ele>
</trkpt>
<trkpt lat="39.73724196664989" lon="2.786385007202625">
<ele>572</ele>
</trkpt>
<trkpt lat="39.737291000783443" lon="2.786341002210975">
<ele>570</ele>
</trkpt>
<trkpt lat="39.7373709641397" lon="2.786535965278745">
<ele>567</ele>
</trkpt>
<trkpt lat="39.737376999109983" lon="2.786573013290763">
<ele>564</ele>
</trkpt>
<trkpt lat="39.73745503462851" lon="2.786516016349196">
<ele>561</ele>
</trkpt>
<trkpt lat="39.73751999437809" lon="2.786392970010638">
<ele>558</ele>
</trkpt>
<trkpt lat="39.737663995474577" lon="2.786241006106138">
<ele>555</ele>
</trkpt>
<trkpt lat="39.737666007131338" lon="2.786181997507811">
<ele>550</ele>
</trkpt>
<trkpt lat="39.737763991579413" lon="2.785976976156235">
<ele>546</ele>
</trkpt>
<trkpt lat="39.737785030156374" lon="2.785913022235036">
<ele>540</ele>
</trkpt>
<trkpt lat="39.737930037081242" lon="2.785734990611672">
<ele>535</ele>
</trkpt>
<trkpt lat="39.737915033474565" lon="2.785606998950243">
<ele>533</ele>
</trkpt>
<trkpt lat="39.73788402043283" lon="2.785446988418698">
<ele>531</ele>
</trkpt>
<trkpt lat="39.737850995734334" lon="2.785353027284145">
<ele>529</ele>
</trkpt>
<trkpt lat="39.73777798935771" lon="2.785194022580981">
<ele>527</ele>
</trkpt>
<trkpt lat="39.737749993801117" lon="2.785069970414043">
<ele>525</ele>
</trkpt>
<trkpt lat="39.737737001851201" lon="2.784866038709879">
<ele>523</ele>
</trkpt>
<trkpt lat="39.737703977152705" lon="2.784742992371321">
<ele>521</ele>
</trkpt>
<trkpt lat="39.737687967717648" lon="2.784647019580007">
<ele>519</ele>
</trkpt>
<trkpt lat="39.737646980211139" lon="2.784415008500218">
<ele>517</ele>
</trkpt>
<trkpt lat="39.737639017403126" lon="2.784352982416749">
<ele>517</ele>
</trkpt>
<trkpt lat="39.73767003044486" lon="2.784221973270178">
<ele>516</ele>
</trkpt>
<trkpt lat="39.737676987424493" lon="2.784050982445478">
<ele>516</ele>
</trkpt>
<trkpt lat="39.737701965495944" lon="2.783979987725616">
<ele>515</ele>
</trkpt>
<trkpt lat="39.737689979374409" lon="2.783850990235806">
<ele>515</ele>
</trkpt>
<trkpt lat="39.737677993252873" lon="2.783841015771031">
<ele>515</ele>
</trkpt>
<trkpt lat="39.737668018788099" lon="2.783604981377721">
<ele>514</ele>
</trkpt>
<trkpt lat="39.737659972161055" lon="2.783442037180066">
<ele>513</ele>
</trkpt>
<trkpt lat="39.737657960504293" lon="2.783398032188416">
<ele>513</ele>
</trkpt>
<trkpt lat="39.737665001302958" lon="2.783269034698606">
<ele>513</ele>
</trkpt>
<trkpt lat="39.737643040716648" lon="2.783155962824822">
<ele>513</ele>
</trkpt>
<trkpt lat="39.737543966621161" lon="2.783069964498282">
<ele>513</ele>
</trkpt>
<trkpt lat="39.737528041005135" lon="2.783056972548366">
<ele>512</ele>
</trkpt>
<trkpt lat="39.737496022135019" lon="2.782878018915653">
<ele>512</ele>
</trkpt>
<trkpt lat="39.737490992993116" lon="2.782722031697631">
<ele>512</ele>
</trkpt>
<trkpt lat="39.73749803379178" lon="2.782655982300639">
<ele>512</ele>
</trkpt>
<trkpt lat="39.737501973286271" lon="2.782564032822847">
<ele>512</ele>
</trkpt>
<trkpt lat="39.737496022135019" lon="2.782378038391471">
<ele>511</ele>
</trkpt>
<trkpt lat="39.7374970279634" lon="2.782358005642891">
<ele>511</ele>
</trkpt>
<trkpt lat="39.73749803379178" lon="2.782311988994479">
<ele>511</ele>
</trkpt>
<trkpt lat="39.737487975507975" lon="2.782153990119696">
<ele>510</ele>
</trkpt>
<trkpt lat="39.737468026578426" lon="2.782116020098329">
<ele>509</ele>
</trkpt>
<trkpt lat="39.737441958859563" lon="2.781987022608519">
<ele>509</ele>
</trkpt>
<trkpt lat="39.737407006323338" lon="2.781822988763452">
<ele>508</ele>
</trkpt>
<trkpt lat="39.737381022423506" lon="2.781759034842253">
<ele>507</ele>
</trkpt>
<trkpt lat="39.737375993281603" lon="2.781632971018553">
<ele>506</ele>
</trkpt>
<trkpt lat="39.73736803047359" lon="2.781512020155788">
<ele>505</ele>
</trkpt>
<trkpt lat="39.73734799772501" lon="2.781462986022234">
<ele>505</ele>
</trkpt>
<trkpt lat="39.737320002168417" lon="2.781336000189185">
<ele>504</ele>
</trkpt>
<trkpt lat="39.737298963591456" lon="2.781295012682676">
<ele>503</ele>
</trkpt>
<trkpt lat="39.737298041582108" lon="2.781156040728092">
<ele>503</ele>
</trkpt>
<trkpt lat="39.73728203214705" lon="2.781057972460985">
<ele>503</ele>
</trkpt>
<trkpt lat="39.737295024096966" lon="2.780837025493383">
<ele>502</ele>
</trkpt>
<trkpt lat="39.737314973026514" lon="2.780743986368179">
<ele>502</ele>
</trkpt>
<trkpt lat="39.737281026318669" lon="2.780461013317108">
<ele>502</ele>
</trkpt>
<trkpt lat="39.737278008833528" lon="2.780316006392241">
<ele>502</ele>
</trkpt>
<trkpt lat="39.737286977469921" lon="2.780167981982231">
<ele>501</ele>
</trkpt>
<trkpt lat="39.737277003005147" lon="2.780096987262368">
<ele>501</ele>
</trkpt>
<trkpt lat="39.737263005226851" lon="2.780018029734492">
<ele>501</ele>
</trkpt>
<trkpt lat="39.737210031598806" lon="2.779837986454368">
<ele>500</ele>
</trkpt>
<trkpt lat="39.737180024385452" lon="2.779790963977575">
<ele>500</ele>
</trkpt>
<trkpt lat="39.737149011343718" lon="2.779612010344863">
<ele>500</ele>
</trkpt>
<trkpt lat="39.737170971930027" lon="2.779429033398628">
<ele>499</ele>
</trkpt>
<trkpt lat="39.737171977758408" lon="2.779344040900469">
<ele>498</ele>
</trkpt>
<trkpt lat="39.737148005515337" lon="2.779183024540544">
<ele>498</ele>
</trkpt>
<trkpt lat="39.737128978595138" lon="2.77915402315557">
<ele>498</ele>
</trkpt>
<trkpt lat="39.737035017460585" lon="2.779042962938547">
<ele>497</ele>
</trkpt>
<trkpt lat="39.736997969448566" lon="2.779021002352238">
<ele>496</ele>
</trkpt>
<trkpt lat="39.736920017749071" lon="2.778775999322534">
<ele>496</ele>
</trkpt>
<trkpt lat="39.736919011920691" lon="2.778741968795657">
<ele>496</ele>
</trkpt>
<trkpt lat="39.736878024414182" lon="2.778538959100843">
<ele>496</ele>
</trkpt>
<trkpt lat="39.736927980557084" lon="2.778376014903188">
<ele>495</ele>
</trkpt>
<trkpt lat="39.736938960850239" lon="2.778234025463462">
<ele>495</ele>
</trkpt>
<trkpt lat="39.736926974728703" lon="2.778023974969983">
<ele>495</ele>
</trkpt>
<trkpt lat="39.73691800609231" lon="2.777977036312223">
<ele>494</ele>
</trkpt>
<trkpt lat="39.73689797334373" lon="2.777840998023748">
<ele>494</ele>
</trkpt>
<trkpt lat="39.736894033849239" lon="2.777770003303886">
<ele>493</ele>
</trkpt>
<trkpt lat="39.736871989443898" lon="2.777644023299217">
<ele>493</ele>
</trkpt>
<trkpt lat="39.736841982230544" lon="2.777378987520933">
<ele>493</ele>
</trkpt>
<trkpt lat="39.736836031079292" lon="2.777357026934624">
<ele>493</ele>
</trkpt>
<trkpt lat="39.736751960590482" lon="2.777175977826119">
<ele>492</ele>
</trkpt>
<trkpt lat="39.736662022769451" lon="2.777044968679547">
<ele>492</ele>
</trkpt>
<trkpt lat="39.736603014171124" lon="2.776944972574711">
<ele>492</ele>
</trkpt>
<trkpt lat="39.736536964774132" lon="2.776732994243503">
<ele>491</ele>
</trkpt>
<trkpt lat="39.736496983096004" lon="2.77659603394568">
<ele>491</ele>
</trkpt>
<trkpt lat="39.736463958397508" lon="2.776531996205449">
<ele>491</ele>
</trkpt>
<trkpt lat="39.736454989761114" lon="2.7764050103724">
<ele>491</ele>
</trkpt>
<trkpt lat="39.736452978104353" lon="2.776378020644188">
<ele>490</ele>
</trkpt>
<trkpt lat="39.736432023346424" lon="2.776229996234179">
<ele>490</ele>
</trkpt>
<trkpt lat="39.73642498254776" lon="2.776154978200793">
<ele>490</ele>
</trkpt>
<trkpt lat="39.736453983932734" lon="2.776021035388112">
<ele>490</ele>
</trkpt>
<trkpt lat="39.736416013911366" lon="2.775850966572762">
<ele>490</ele>
</trkpt>
<trkpt lat="39.736416013911366" lon="2.775850966572762">
<ele>490</ele>
</trkpt>
<trkpt lat="39.736291961744428" lon="2.775565981864929">
<ele>489</ele>
</trkpt>
<trkpt lat="39.736310988664627" lon="2.775412006303668">
<ele>489</ele>
</trkpt>
<trkpt lat="39.736470999196172" lon="2.775347968563438">
<ele>489</ele>
</trkpt>
<trkpt lat="39.736491031944752" lon="2.775348974391818">
<ele>489</ele>
</trkpt>
<trkpt lat="39.736507041379809" lon="2.77535299770534">
<ele>489</ele>
</trkpt>
<trkpt lat="39.736526990309358" lon="2.775269011035562">
<ele>489</ele>
</trkpt>
</trkseg>
</trk>
</gpx>
