<?xml version='1.0' encoding='UTF-8'?>
<gpx version="1.1" creator="https://www.komoot.de" xmlns="http://www.topografix.com/GPX/1/1" xmlns:xsi="http://www.w3.org/2001/XMLSchema-instance" xsi:schemaLocation="http://www.topografix.com/GPX/1/1 http://www.topografix.com/GPX/1/1/gpx.xsd">
  <metadata>
    <name>Blick auf den Wörthersee – Gerlitzen Runde von Annenheim</name>
    <author>
      <link href="https://www.komoot.de">
        <text>komoot</text>
        <type>text/html</type>
      </link>
    </author>
  </metadata>
  <trk>
    <name>Blick auf den Wörthersee – Gerlitzen Runde von Annenheim</name>
    <trkseg>
      <trkpt lat="46.675351" lon="13.896822">
        <ele>1464.773116</ele>
        <time>2023-08-02T06:43:05.185Z</time>
      </trkpt>
      <trkpt lat="46.675368" lon="13.897045">
        <ele>1464.773116</ele>
        <time>2023-08-02T06:43:20.714Z</time>
      </trkpt>
      <trkpt lat="46.675534" lon="13.897030">
        <ele>1464.773116</ele>
        <time>2023-08-02T06:43:37.938Z</time>
      </trkpt>
      <trkpt lat="46.675718" lon="13.897002">
        <ele>1464.773116</ele>
        <time>2023-08-02T06:43:57.106Z</time>
      </trkpt>
      <trkpt lat="46.676488" lon="13.897294">
        <ele>1463.455118</ele>
        <time>2023-08-02T06:45:21.225Z</time>
      </trkpt>
      <trkpt lat="46.677174" lon="13.897602">
        <ele>1461.099261</ele>
        <time>2023-08-02T06:46:38.231Z</time>
      </trkpt>
      <trkpt lat="46.677366" lon="13.897735">
        <ele>1460.401568</ele>
        <time>2023-08-02T06:47:01.289Z</time>
      </trkpt>
      <trkpt lat="46.677991" lon="13.898195">
        <ele>1458.139524</ele>
        <time>2023-08-02T06:48:16.643Z</time>
      </trkpt>
      <trkpt lat="46.679378" lon="13.899504">
        <ele>1452.918635</ele>
        <time>2023-08-02T06:51:11.068Z</time>
      </trkpt>
      <trkpt lat="46.679675" lon="13.899690">
        <ele>1451.715233</ele>
        <time>2023-08-02T06:51:46.633Z</time>
      </trkpt>
      <trkpt lat="46.680143" lon="13.899867">
        <ele>1449.915280</ele>
        <time>2023-08-02T06:52:40.746Z</time>
      </trkpt>
      <trkpt lat="46.680197" lon="13.899748">
        <ele>1449.550876</ele>
        <time>2023-08-02T06:52:51.888Z</time>
      </trkpt>
      <trkpt lat="46.680400" lon="13.899642">
        <ele>1448.748123</ele>
        <time>2023-08-02T06:53:15.618Z</time>
      </trkpt>
      <trkpt lat="46.680458" lon="13.899546">
        <ele>1448.421412</ele>
        <time>2023-08-02T06:53:25.048Z</time>
      </trkpt>
      <trkpt lat="46.680813" lon="13.899557">
        <ele>1447.099529</ele>
        <time>2023-08-02T06:54:02.643Z</time>
      </trkpt>
      <trkpt lat="46.680901" lon="13.899506">
        <ele>1446.746980</ele>
        <time>2023-08-02T06:54:12.649Z</time>
      </trkpt>
      <trkpt lat="46.681165" lon="13.899355">
        <ele>1448.010415</ele>
        <time>2023-08-02T06:54:41.127Z</time>
      </trkpt>
      <trkpt lat="46.681291" lon="13.899326">
        <ele>1448.821818</ele>
        <time>2023-08-02T06:54:53.993Z</time>
      </trkpt>
      <trkpt lat="46.681426" lon="13.899338">
        <ele>1449.682134</ele>
        <time>2023-08-02T06:55:08.386Z</time>
      </trkpt>
      <trkpt lat="46.681415" lon="13.899403">
        <ele>1449.974291</ele>
        <time>2023-08-02T06:55:13.657Z</time>
      </trkpt>
      <trkpt lat="46.681413" lon="13.899440">
        <ele>1450.136257</ele>
        <time>2023-08-02T06:55:16.373Z</time>
      </trkpt>
      <trkpt lat="46.681585" lon="13.899498">
        <ele>1451.259227</ele>
        <time>2023-08-02T06:55:35.438Z</time>
      </trkpt>
      <trkpt lat="46.681574" lon="13.899644">
        <ele>1451.900187</ele>
        <time>2023-08-02T06:55:47.024Z</time>
      </trkpt>
      <trkpt lat="46.681533" lon="13.899677">
        <ele>1452.198103</ele>
        <time>2023-08-02T06:55:52.713Z</time>
      </trkpt>
      <trkpt lat="46.681457" lon="13.899728">
        <ele>1452.730301</ele>
        <time>2023-08-02T06:56:02.805Z</time>
      </trkpt>
      <trkpt lat="46.681445" lon="13.899813">
        <ele>1453.109007</ele>
        <time>2023-08-02T06:56:10.008Z</time>
      </trkpt>
      <trkpt lat="46.681421" lon="13.899961">
        <ele>1453.772664</ele>
        <time>2023-08-02T06:56:23.178Z</time>
      </trkpt>
      <trkpt lat="46.681467" lon="13.900010">
        <ele>1454.135072</ele>
        <time>2023-08-02T06:56:30.328Z</time>
      </trkpt>
      <trkpt lat="46.681480" lon="13.900253">
        <ele>1455.198722</ele>
        <time>2023-08-02T06:56:52.664Z</time>
      </trkpt>
      <trkpt lat="46.681591" lon="13.901243">
        <ele>1462.062947</ele>
        <time>2023-08-02T06:58:40.581Z</time>
      </trkpt>
      <trkpt lat="46.681618" lon="13.901781">
        <ele>1468.103441</ele>
        <time>2023-08-02T06:59:48.231Z</time>
      </trkpt>
      <trkpt lat="46.681599" lon="13.902238">
        <ele>1473.230206</ele>
        <time>2023-08-02T07:00:47.338Z</time>
      </trkpt>
      <trkpt lat="46.681352" lon="13.903136">
        <ele>1484.063891</ele>
        <time>2023-08-02T07:02:50.207Z</time>
      </trkpt>
      <trkpt lat="46.681332" lon="13.903422">
        <ele>1487.283062</ele>
        <time>2023-08-02T07:03:22.748Z</time>
      </trkpt>
      <trkpt lat="46.681345" lon="13.903483">
        <ele>1487.819357</ele>
        <time>2023-08-02T07:03:29.989Z</time>
      </trkpt>
      <trkpt lat="46.681248" lon="13.903680">
        <ele>1489.789796</ele>
        <time>2023-08-02T07:03:55.151Z</time>
      </trkpt>
      <trkpt lat="46.681242" lon="13.903698">
        <ele>1489.952415</ele>
        <time>2023-08-02T07:03:57.079Z</time>
      </trkpt>
      <trkpt lat="46.681188" lon="13.903876">
        <ele>1491.533947</ele>
        <time>2023-08-02T07:04:16.240Z</time>
      </trkpt>
      <trkpt lat="46.681153" lon="13.904090">
        <ele>1493.321643</ele>
        <time>2023-08-02T07:04:38.058Z</time>
      </trkpt>
      <trkpt lat="46.681125" lon="13.904187">
        <ele>1494.176794</ele>
        <time>2023-08-02T07:04:47.823Z</time>
      </trkpt>
      <trkpt lat="46.681070" lon="13.904397">
        <ele>1496.003376</ele>
        <time>2023-08-02T07:05:08.875Z</time>
      </trkpt>
      <trkpt lat="46.680619" lon="13.904614">
        <ele>1501.628760</ele>
        <time>2023-08-02T07:06:13.661Z</time>
      </trkpt>
      <trkpt lat="46.680977" lon="13.905263">
        <ele>1508.395849</ele>
        <time>2023-08-02T07:07:30.384Z</time>
      </trkpt>
      <trkpt lat="46.681159" lon="13.905288">
        <ele>1510.162652</ele>
        <time>2023-08-02T07:07:55.532Z</time>
      </trkpt>
      <trkpt lat="46.681370" lon="13.905231">
        <ele>1512.174484</ele>
        <time>2023-08-02T07:08:24.340Z</time>
      </trkpt>
      <trkpt lat="46.681403" lon="13.905182">
        <ele>1512.616118</ele>
        <time>2023-08-02T07:08:31.038Z</time>
      </trkpt>
      <trkpt lat="46.681451" lon="13.905347">
        <ele>1513.768836</ele>
        <time>2023-08-02T07:08:47.639Z</time>
      </trkpt>
      <trkpt lat="46.681533" lon="13.905508">
        <ele>1515.058524</ele>
        <time>2023-08-02T07:09:06.112Z</time>
      </trkpt>
      <trkpt lat="46.681696" lon="13.905642">
        <ele>1516.812953</ele>
        <time>2023-08-02T07:09:32.100Z</time>
      </trkpt>
      <trkpt lat="46.681936" lon="13.905963">
        <ele>1519.866670</ele>
        <time>2023-08-02T07:10:13.161Z</time>
      </trkpt>
      <trkpt lat="46.682525" lon="13.906591">
        <ele>1526.647237</ele>
        <time>2023-08-02T07:11:45.333Z</time>
      </trkpt>
      <trkpt lat="46.682935" lon="13.906909">
        <ele>1530.779388</ele>
        <time>2023-08-02T07:12:47.390Z</time>
      </trkpt>
      <trkpt lat="46.682908" lon="13.906962">
        <ele>1531.182332</ele>
        <time>2023-08-02T07:12:53.359Z</time>
      </trkpt>
      <trkpt lat="46.682912" lon="13.907064">
        <ele>1531.805941</ele>
        <time>2023-08-02T07:13:02.744Z</time>
      </trkpt>
      <trkpt lat="46.683073" lon="13.907833">
        <ele>1536.713509</ele>
        <time>2023-08-02T07:14:15.862Z</time>
      </trkpt>
      <trkpt lat="46.683068" lon="13.907890">
        <ele>1537.064260</ele>
        <time>2023-08-02T07:14:20.919Z</time>
      </trkpt>
      <trkpt lat="46.683440" lon="13.908378">
        <ele>1541.517458</ele>
        <time>2023-08-02T07:15:25.403Z</time>
      </trkpt>
      <trkpt lat="46.683539" lon="13.908544">
        <ele>1543.227019</ele>
        <time>2023-08-02T07:15:43.939Z</time>
      </trkpt>
      <trkpt lat="46.683557" lon="13.908707">
        <ele>1544.510203</ele>
        <time>2023-08-02T07:15:57.917Z</time>
      </trkpt>
      <trkpt lat="46.683692" lon="13.909262">
        <ele>1549.086917</ele>
        <time>2023-08-02T07:16:48.190Z</time>
      </trkpt>
      <trkpt lat="46.683850" lon="13.909793">
        <ele>1553.585442</ele>
        <time>2023-08-02T07:17:45.627Z</time>
      </trkpt>
      <trkpt lat="46.683871" lon="13.909864">
        <ele>1554.186371</ele>
        <time>2023-08-02T07:17:54.291Z</time>
      </trkpt>
      <trkpt lat="46.683913" lon="13.909873">
        <ele>1554.667318</ele>
        <time>2023-08-02T07:18:01.157Z</time>
      </trkpt>
      <trkpt lat="46.683935" lon="13.909812">
        <ele>1555.202946</ele>
        <time>2023-08-02T07:18:08.760Z</time>
      </trkpt>
      <trkpt lat="46.683878" lon="13.909543">
        <ele>1557.391126</ele>
        <time>2023-08-02T07:18:43.516Z</time>
      </trkpt>
      <trkpt lat="46.683955" lon="13.908813">
        <ele>1563.069736</ele>
        <time>2023-08-02T07:20:03.281Z</time>
      </trkpt>
      <trkpt lat="46.684071" lon="13.908528">
        <ele>1565.516897</ele>
        <time>2023-08-02T07:20:36.844Z</time>
      </trkpt>
      <trkpt lat="46.684142" lon="13.908437">
        <ele>1566.534589</ele>
        <time>2023-08-02T07:20:50.197Z</time>
      </trkpt>
      <trkpt lat="46.684277" lon="13.908180">
        <ele>1568.924899</ele>
        <time>2023-08-02T07:21:19.971Z</time>
      </trkpt>
      <trkpt lat="46.684467" lon="13.907926">
        <ele>1571.700000</ele>
        <time>2023-08-02T07:21:54.326Z</time>
      </trkpt>
      <trkpt lat="46.684627" lon="13.907712">
        <ele>1574.037449</ele>
        <time>2023-08-02T07:22:24.070Z</time>
      </trkpt>
      <trkpt lat="46.684648" lon="13.908183">
        <ele>1577.522904</ele>
        <time>2023-08-02T07:23:06.743Z</time>
      </trkpt>
      <trkpt lat="46.684463" lon="13.909183">
        <ele>1584.063205</ele>
        <time>2023-08-02T07:24:40.269Z</time>
      </trkpt>
      <trkpt lat="46.684459" lon="13.909408">
        <ele>1585.255116</ele>
        <time>2023-08-02T07:24:59.049Z</time>
      </trkpt>
      <trkpt lat="46.684921" lon="13.910999">
        <ele>1594.404101</ele>
        <time>2023-08-02T07:27:24.490Z</time>
      </trkpt>
      <trkpt lat="46.684968" lon="13.911308">
        <ele>1596.394030</ele>
        <time>2023-08-02T07:27:53.187Z</time>
      </trkpt>
      <trkpt lat="46.685118" lon="13.911671">
        <ele>1599.386178</ele>
        <time>2023-08-02T07:28:31.287Z</time>
      </trkpt>
      <trkpt lat="46.685200" lon="13.911698">
        <ele>1600.251434</ele>
        <time>2023-08-02T07:28:42.719Z</time>
      </trkpt>
      <trkpt lat="46.685315" lon="13.911876">
        <ele>1601.977882</ele>
        <time>2023-08-02T07:29:04.681Z</time>
      </trkpt>
      <trkpt lat="46.685754" lon="13.912384">
        <ele>1607.746936</ele>
        <time>2023-08-02T07:30:19.012Z</time>
      </trkpt>
      <trkpt lat="46.685845" lon="13.912443">
        <ele>1608.772026</ele>
        <time>2023-08-02T07:30:32.845Z</time>
      </trkpt>
      <trkpt lat="46.685998" lon="13.912646">
        <ele>1610.901417</ele>
        <time>2023-08-02T07:31:01.010Z</time>
      </trkpt>
      <trkpt lat="46.686061" lon="13.912784">
        <ele>1612.071832</ele>
        <time>2023-08-02T07:31:18.520Z</time>
      </trkpt>
      <trkpt lat="46.686129" lon="13.913175">
        <ele>1614.927537</ele>
        <time>2023-08-02T07:32:00.786Z</time>
      </trkpt>
      <trkpt lat="46.686145" lon="13.913579">
        <ele>1617.802014</ele>
        <time>2023-08-02T07:32:44.426Z</time>
      </trkpt>
      <trkpt lat="46.686263" lon="13.914056">
        <ele>1621.403820</ele>
        <time>2023-08-02T07:33:35.454Z</time>
      </trkpt>
      <trkpt lat="46.686428" lon="13.914359">
        <ele>1624.151777</ele>
        <time>2023-08-02T07:34:11.218Z</time>
      </trkpt>
      <trkpt lat="46.686665" lon="13.914661">
        <ele>1627.411229</ele>
        <time>2023-08-02T07:34:51.092Z</time>
      </trkpt>
      <trkpt lat="46.686813" lon="13.915006">
        <ele>1630.301533</ele>
        <time>2023-08-02T07:35:25.318Z</time>
      </trkpt>
      <trkpt lat="46.686933" lon="13.915449">
        <ele>1633.032761</ele>
        <time>2023-08-02T07:36:07.375Z</time>
      </trkpt>
      <trkpt lat="46.686914" lon="13.915854">
        <ele>1634.582186</ele>
        <time>2023-08-02T07:36:44.316Z</time>
      </trkpt>
      <trkpt lat="46.686764" lon="13.916842">
        <ele>1638.444467</ele>
        <time>2023-08-02T07:38:13.816Z</time>
      </trkpt>
      <trkpt lat="46.686778" lon="13.917062">
        <ele>1639.287776</ele>
        <time>2023-08-02T07:38:31.615Z</time>
      </trkpt>
      <trkpt lat="46.686981" lon="13.917998">
        <ele>1642.190463</ele>
        <time>2023-08-02T07:39:39.996Z</time>
      </trkpt>
      <trkpt lat="46.687021" lon="13.918162">
        <ele>1642.108384</ele>
        <time>2023-08-02T07:39:51.909Z</time>
      </trkpt>
      <trkpt lat="46.686912" lon="13.918584">
        <ele>1641.895746</ele>
        <time>2023-08-02T07:40:24.102Z</time>
      </trkpt>
      <trkpt lat="46.686870" lon="13.919250">
        <ele>1641.580361</ele>
        <time>2023-08-02T07:41:10.657Z</time>
      </trkpt>
      <trkpt lat="46.686834" lon="13.920140">
        <ele>1641.159941</ele>
        <time>2023-08-02T07:42:13.100Z</time>
      </trkpt>
      <trkpt lat="46.686885" lon="13.920377">
        <ele>1641.061539</ele>
        <time>2023-08-02T07:42:30.992Z</time>
      </trkpt>
      <trkpt lat="46.686975" lon="13.920499">
        <ele>1641.367935</ele>
        <time>2023-08-02T07:42:43.843Z</time>
      </trkpt>
      <trkpt lat="46.687423" lon="13.920871">
        <ele>1642.653320</ele>
        <time>2023-08-02T07:43:36.042Z</time>
      </trkpt>
      <trkpt lat="46.687667" lon="13.920955">
        <ele>1643.278365</ele>
        <time>2023-08-02T07:44:02.120Z</time>
      </trkpt>
      <trkpt lat="46.687866" lon="13.920978">
        <ele>1643.776045</ele>
        <time>2023-08-02T07:44:24.087Z</time>
      </trkpt>
      <trkpt lat="46.688184" lon="13.921322">
        <ele>1644.763280</ele>
        <time>2023-08-02T07:45:09.876Z</time>
      </trkpt>
      <trkpt lat="46.688455" lon="13.921506">
        <ele>1645.508590</ele>
        <time>2023-08-02T07:45:46.721Z</time>
      </trkpt>
      <trkpt lat="46.687842" lon="13.922253">
        <ele>1651.523534</ele>
        <time>2023-08-02T07:47:27.549Z</time>
      </trkpt>
      <trkpt lat="46.687527" lon="13.922753">
        <ele>1655.056150</ele>
        <time>2023-08-02T07:48:26.971Z</time>
      </trkpt>
      <trkpt lat="46.687360" lon="13.923069">
        <ele>1657.131913</ele>
        <time>2023-08-02T07:49:01.221Z</time>
      </trkpt>
      <trkpt lat="46.687343" lon="13.923103">
        <ele>1657.350849</ele>
        <time>2023-08-02T07:49:04.762Z</time>
      </trkpt>
      <trkpt lat="46.687257" lon="13.923371">
        <ele>1658.890487</ele>
        <time>2023-08-02T07:49:30.326Z</time>
      </trkpt>
      <trkpt lat="46.687202" lon="13.923664">
        <ele>1661.057602</ele>
        <time>2023-08-02T07:49:56.274Z</time>
      </trkpt>
      <trkpt lat="46.687206" lon="13.923966">
        <ele>1663.340550</ele>
        <time>2023-08-02T07:50:22.832Z</time>
      </trkpt>
      <trkpt lat="46.687266" lon="13.923973">
        <ele>1664.003734</ele>
        <time>2023-08-02T07:50:30.610Z</time>
      </trkpt>
      <trkpt lat="46.687331" lon="13.923791">
        <ele>1665.554554</ele>
        <time>2023-08-02T07:50:49.300Z</time>
      </trkpt>
      <trkpt lat="46.687653" lon="13.923246">
        <ele>1670.990862</ele>
        <time>2023-08-02T07:51:56.876Z</time>
      </trkpt>
      <trkpt lat="46.687769" lon="13.923107">
        <ele>1672.645288</ele>
        <time>2023-08-02T07:52:18.413Z</time>
      </trkpt>
      <trkpt lat="46.687840" lon="13.923068">
        <ele>1673.481244</ele>
        <time>2023-08-02T07:52:30.222Z</time>
      </trkpt>
      <trkpt lat="46.687905" lon="13.923072">
        <ele>1674.198041</ele>
        <time>2023-08-02T07:52:40.623Z</time>
      </trkpt>
      <trkpt lat="46.688171" lon="13.922892">
        <ele>1677.429141</ele>
        <time>2023-08-02T07:53:25.495Z</time>
      </trkpt>
      <trkpt lat="46.688332" lon="13.922818">
        <ele>1679.352907</ele>
        <time>2023-08-02T07:53:51.364Z</time>
      </trkpt>
      <trkpt lat="46.688529" lon="13.922769">
        <ele>1682.028257</ele>
        <time>2023-08-02T07:54:22.443Z</time>
      </trkpt>
      <trkpt lat="46.688668" lon="13.922760">
        <ele>1683.890885</ele>
        <time>2023-08-02T07:54:43.763Z</time>
      </trkpt>
      <trkpt lat="46.688793" lon="13.922900">
        <ele>1686.001095</ele>
        <time>2023-08-02T07:55:07.456Z</time>
      </trkpt>
      <trkpt lat="46.688967" lon="13.922941">
        <ele>1688.360665</ele>
        <time>2023-08-02T07:55:34.878Z</time>
      </trkpt>
      <trkpt lat="46.689303" lon="13.922940">
        <ele>1692.858706</ele>
        <time>2023-08-02T07:56:27.111Z</time>
      </trkpt>
      <trkpt lat="46.689407" lon="13.922866">
        <ele>1694.407937</ele>
        <time>2023-08-02T07:56:44.775Z</time>
      </trkpt>
      <trkpt lat="46.689524" lon="13.922729">
        <ele>1696.416897</ele>
        <time>2023-08-02T07:57:07.826Z</time>
      </trkpt>
      <trkpt lat="46.689756" lon="13.922285">
        <ele>1701.542245</ele>
        <time>2023-08-02T07:58:07.157Z</time>
      </trkpt>
      <trkpt lat="46.689975" lon="13.921799">
        <ele>1706.037572</ele>
        <time>2023-08-02T07:59:08.045Z</time>
      </trkpt>
      <trkpt lat="46.690525" lon="13.920415">
        <ele>1717.471266</ele>
        <time>2023-08-02T08:01:36.695Z</time>
      </trkpt>
      <trkpt lat="46.690592" lon="13.920285">
        <ele>1718.633621</ele>
        <time>2023-08-02T08:01:51.007Z</time>
      </trkpt>
      <trkpt lat="46.690666" lon="13.920206">
        <ele>1719.589448</ele>
        <time>2023-08-02T08:02:02.912Z</time>
      </trkpt>
      <trkpt lat="46.690711" lon="13.920265">
        <ele>1720.220153</ele>
        <time>2023-08-02T08:02:11.624Z</time>
      </trkpt>
      <trkpt lat="46.690710" lon="13.920332">
        <ele>1720.699201</ele>
        <time>2023-08-02T08:02:17.626Z</time>
      </trkpt>
      <trkpt lat="46.690539" lon="13.921366">
        <ele>1724.086440</ele>
        <time>2023-08-02T08:03:46.917Z</time>
      </trkpt>
      <trkpt lat="46.690484" lon="13.922900">
        <ele>1727.931345</ele>
        <time>2023-08-02T08:05:38.992Z</time>
      </trkpt>
      <trkpt lat="46.690510" lon="13.923059">
        <ele>1728.340480</ele>
        <time>2023-08-02T08:05:50.768Z</time>
      </trkpt>
      <trkpt lat="46.690522" lon="13.923266">
        <ele>1728.830526</ele>
        <time>2023-08-02T08:06:05.272Z</time>
      </trkpt>
      <trkpt lat="46.690545" lon="13.923335">
        <ele>1729.010633</ele>
        <time>2023-08-02T08:06:10.632Z</time>
      </trkpt>
      <trkpt lat="46.690588" lon="13.923386">
        <ele>1729.200359</ele>
        <time>2023-08-02T08:06:16.545Z</time>
      </trkpt>
      <trkpt lat="46.690728" lon="13.923401">
        <ele>1729.680818</ele>
        <time>2023-08-02T08:06:30.744Z</time>
      </trkpt>
      <trkpt lat="46.690918" lon="13.923573">
        <ele>1730.446289</ele>
        <time>2023-08-02T08:06:54.159Z</time>
      </trkpt>
      <trkpt lat="46.690992" lon="13.923591">
        <ele>1730.703065</ele>
        <time>2023-08-02T08:07:01.894Z</time>
      </trkpt>
      <trkpt lat="46.691469" lon="13.923344">
        <ele>1732.435581</ele>
        <time>2023-08-02T08:07:54.851Z</time>
      </trkpt>
      <trkpt lat="46.692027" lon="13.923277">
        <ele>1734.351872</ele>
        <time>2023-08-02T08:08:59.477Z</time>
      </trkpt>
      <trkpt lat="46.692145" lon="13.923338">
        <ele>1735.301744</ele>
        <time>2023-08-02T08:09:15.954Z</time>
      </trkpt>
      <trkpt lat="46.692216" lon="13.923240">
        <ele>1736.345166</ele>
        <time>2023-08-02T08:09:31.149Z</time>
      </trkpt>
      <trkpt lat="46.692380" lon="13.923217">
        <ele>1738.103438</ele>
        <time>2023-08-02T08:09:54.533Z</time>
      </trkpt>
      <trkpt lat="46.692872" lon="13.923272">
        <ele>1743.369429</ele>
        <time>2023-08-02T08:11:10.874Z</time>
      </trkpt>
      <trkpt lat="46.693148" lon="13.923214">
        <ele>1746.345316</ele>
        <time>2023-08-02T08:11:49.288Z</time>
      </trkpt>
      <trkpt lat="46.693253" lon="13.923137">
        <ele>1747.599635</ele>
        <time>2023-08-02T08:12:06.080Z</time>
      </trkpt>
      <trkpt lat="46.693466" lon="13.922804">
        <ele>1750.932588</ele>
        <time>2023-08-02T08:12:47.046Z</time>
      </trkpt>
      <trkpt lat="46.693611" lon="13.922641">
        <ele>1752.886586</ele>
        <time>2023-08-02T08:13:11.736Z</time>
      </trkpt>
      <trkpt lat="46.693853" lon="13.922492">
        <ele>1755.626866</ele>
        <time>2023-08-02T08:13:47.360Z</time>
      </trkpt>
      <trkpt lat="46.693587" lon="13.922389">
        <ele>1758.469379</ele>
        <time>2023-08-02T08:14:24.423Z</time>
      </trkpt>
      <trkpt lat="46.693329" lon="13.922357">
        <ele>1761.143648</ele>
        <time>2023-08-02T08:14:59.460Z</time>
      </trkpt>
      <trkpt lat="46.692885" lon="13.922448">
        <ele>1765.774405</ele>
        <time>2023-08-02T08:16:00.388Z</time>
      </trkpt>
      <trkpt lat="46.692611" lon="13.922433">
        <ele>1768.606292</ele>
        <time>2023-08-02T08:16:36.368Z</time>
      </trkpt>
      <trkpt lat="46.692342" lon="13.922107">
        <ele>1772.219075</ele>
        <time>2023-08-02T08:17:21.536Z</time>
      </trkpt>
      <trkpt lat="46.692242" lon="13.922063">
        <ele>1773.768440</ele>
        <time>2023-08-02T08:17:35.433Z</time>
      </trkpt>
      <trkpt lat="46.692310" lon="13.922056">
        <ele>1774.806397</ele>
        <time>2023-08-02T08:17:44.616Z</time>
      </trkpt>
      <trkpt lat="46.692736" lon="13.922012">
        <ele>1781.309000</ele>
        <time>2023-08-02T08:18:46.307Z</time>
      </trkpt>
      <trkpt lat="46.692841" lon="13.921916">
        <ele>1783.196116</ele>
        <time>2023-08-02T08:19:06.465Z</time>
      </trkpt>
      <trkpt lat="46.693122" lon="13.921820">
        <ele>1787.590569</ele>
        <time>2023-08-02T08:19:56.775Z</time>
      </trkpt>
      <trkpt lat="46.693520" lon="13.921567">
        <ele>1794.201564</ele>
        <time>2023-08-02T08:21:17.548Z</time>
      </trkpt>
      <trkpt lat="46.693613" lon="13.921439">
        <ele>1796.148906</ele>
        <time>2023-08-02T08:21:41.107Z</time>
      </trkpt>
      <trkpt lat="46.693796" lon="13.921001">
        <ele>1801.919222</ele>
        <time>2023-08-02T08:22:44.990Z</time>
      </trkpt>
      <trkpt lat="46.694019" lon="13.920562">
        <ele>1808.927794</ele>
        <time>2023-08-02T08:23:55.470Z</time>
      </trkpt>
      <trkpt lat="46.694054" lon="13.920533">
        <ele>1809.680799</ele>
        <time>2023-08-02T08:24:02.911Z</time>
      </trkpt>
      <trkpt lat="46.694322" lon="13.920313">
        <ele>1815.433669</ele>
        <time>2023-08-02T08:25:01.896Z</time>
      </trkpt>
      <trkpt lat="46.694477" lon="13.920087">
        <ele>1819.533968</ele>
        <time>2023-08-02T08:25:42.890Z</time>
      </trkpt>
      <trkpt lat="46.694583" lon="13.919896">
        <ele>1822.686060</ele>
        <time>2023-08-02T08:26:16.264Z</time>
      </trkpt>
      <trkpt lat="46.695024" lon="13.919355">
        <ele>1833.466619</ele>
        <time>2023-08-02T08:28:03.879Z</time>
      </trkpt>
      <trkpt lat="46.695272" lon="13.919070">
        <ele>1839.382341</ele>
        <time>2023-08-02T08:29:02.136Z</time>
      </trkpt>
      <trkpt lat="46.695470" lon="13.918901">
        <ele>1843.680530</ele>
        <time>2023-08-02T08:29:44.851Z</time>
      </trkpt>
      <trkpt lat="46.695616" lon="13.918633">
        <ele>1848.078160</ele>
        <time>2023-08-02T08:30:28.902Z</time>
      </trkpt>
      <trkpt lat="46.695704" lon="13.918345">
        <ele>1852.129306</ele>
        <time>2023-08-02T08:31:11.158Z</time>
      </trkpt>
      <trkpt lat="46.695861" lon="13.918040">
        <ele>1857.029207</ele>
        <time>2023-08-02T08:32:01.786Z</time>
      </trkpt>
      <trkpt lat="46.696008" lon="13.917568">
        <ele>1863.689903</ele>
        <time>2023-08-02T08:33:09.777Z</time>
      </trkpt>
      <trkpt lat="46.696205" lon="13.917151">
        <ele>1869.323130</ele>
        <time>2023-08-02T08:34:14.094Z</time>
      </trkpt>
      <trkpt lat="46.696052" lon="13.916433">
        <ele>1876.319494</ele>
        <time>2023-08-02T08:35:44.715Z</time>
      </trkpt>
      <trkpt lat="46.695915" lon="13.916185">
        <ele>1879.282714</ele>
        <time>2023-08-02T08:36:20.208Z</time>
      </trkpt>
      <trkpt lat="46.695751" lon="13.915990">
        <ele>1882.153877</ele>
        <time>2023-08-02T08:36:53.908Z</time>
      </trkpt>
      <trkpt lat="46.695238" lon="13.915166">
        <ele>1891.434574</ele>
        <time>2023-08-02T08:38:37.237Z</time>
      </trkpt>
      <trkpt lat="46.695214" lon="13.915135">
        <ele>1891.434804</ele>
        <time>2023-08-02T08:38:41.131Z</time>
      </trkpt>
      <trkpt lat="46.694999" lon="13.914852">
        <ele>1891.436882</ele>
        <time>2023-08-02T08:39:15.353Z</time>
      </trkpt>
      <trkpt lat="46.694954" lon="13.914479">
        <ele>1891.438746</ele>
        <time>2023-08-02T08:39:43.474Z</time>
      </trkpt>
      <trkpt lat="46.695082" lon="13.914337">
        <ele>1891.439901</ele>
        <time>2023-08-02T08:40:00.168Z</time>
      </trkpt>
      <trkpt lat="46.695116" lon="13.914144">
        <ele>1891.440881</ele>
        <time>2023-08-02T08:40:13.892Z</time>
      </trkpt>
      <trkpt lat="46.695156" lon="13.913922">
        <ele>1891.442011</ele>
        <time>2023-08-02T08:40:30.120Z</time>
      </trkpt>
      <trkpt lat="46.695136" lon="13.913664">
        <ele>1891.443289</ele>
        <time>2023-08-02T08:40:48.809Z</time>
      </trkpt>
      <trkpt lat="46.695190" lon="13.913541">
        <ele>1891.444008</ele>
        <time>2023-08-02T08:40:59.714Z</time>
      </trkpt>
      <trkpt lat="46.695724" lon="13.912330">
        <ele>1886.936588</ele>
        <time>2023-08-02T08:42:53.591Z</time>
      </trkpt>
      <trkpt lat="46.695942" lon="13.911900">
        <ele>1884.098027</ele>
        <time>2023-08-02T08:43:37.462Z</time>
      </trkpt>
      <trkpt lat="46.696088" lon="13.911431">
        <ele>1881.363901</ele>
        <time>2023-08-02T08:44:19.325Z</time>
      </trkpt>
      <trkpt lat="46.696164" lon="13.911268">
        <ele>1880.317612</ele>
        <time>2023-08-02T08:44:35.256Z</time>
      </trkpt>
      <trkpt lat="46.696346" lon="13.910881">
        <ele>1877.826680</ele>
        <time>2023-08-02T08:45:11.689Z</time>
      </trkpt>
      <trkpt lat="46.696332" lon="13.910825">
        <ele>1877.518305</ele>
        <time>2023-08-02T08:45:16.266Z</time>
      </trkpt>
      <trkpt lat="46.696312" lon="13.910746">
        <ele>1877.302958</ele>
        <time>2023-08-02T08:45:22.600Z</time>
      </trkpt>
      <trkpt lat="46.696412" lon="13.910494">
        <ele>1876.558442</ele>
        <time>2023-08-02T08:45:45.047Z</time>
      </trkpt>
      <trkpt lat="46.696366" lon="13.910369">
        <ele>1876.195680</ele>
        <time>2023-08-02T08:45:55.716Z</time>
      </trkpt>
      <trkpt lat="46.696249" lon="13.910365">
        <ele>1875.759324</ele>
        <time>2023-08-02T08:46:07.995Z</time>
      </trkpt>
      <trkpt lat="46.695926" lon="13.910496">
        <ele>1874.509289</ele>
        <time>2023-08-02T08:46:44.010Z</time>
      </trkpt>
      <trkpt lat="46.695331" lon="13.910994">
        <ele>1871.951271</ele>
        <time>2023-08-02T08:47:54.985Z</time>
      </trkpt>
      <trkpt lat="46.695287" lon="13.911060">
        <ele>1871.715896</ele>
        <time>2023-08-02T08:48:01.367Z</time>
      </trkpt>
      <trkpt lat="46.695155" lon="13.910985">
        <ele>1871.187681</ele>
        <time>2023-08-02T08:48:16.476Z</time>
      </trkpt>
      <trkpt lat="46.695032" lon="13.911063">
        <ele>1870.496116</ele>
        <time>2023-08-02T08:48:30.563Z</time>
      </trkpt>
      <trkpt lat="46.694983" lon="13.911295">
        <ele>1868.974481</ele>
        <time>2023-08-02T08:48:48.387Z</time>
      </trkpt>
      <trkpt lat="46.694513" lon="13.911408">
        <ele>1864.621117</ele>
        <time>2023-08-02T08:49:42.822Z</time>
      </trkpt>
      <trkpt lat="46.694060" lon="13.911361">
        <ele>1860.470659</ele>
        <time>2023-08-02T08:50:37.666Z</time>
      </trkpt>
      <trkpt lat="46.693907" lon="13.911312">
        <ele>1859.039046</ele>
        <time>2023-08-02T08:50:57.020Z</time>
      </trkpt>
      <trkpt lat="46.693521" lon="13.911242">
        <ele>1855.484188</ele>
        <time>2023-08-02T08:51:45.265Z</time>
      </trkpt>
      <trkpt lat="46.692913" lon="13.911246">
        <ele>1847.312676</ele>
        <time>2023-08-02T08:53:01.184Z</time>
      </trkpt>
      <trkpt lat="46.692845" lon="13.911209">
        <ele>1846.259918</ele>
        <time>2023-08-02T08:53:10.312Z</time>
      </trkpt>
      <trkpt lat="46.692879" lon="13.911127">
        <ele>1845.306647</ele>
        <time>2023-08-02T08:53:18.804Z</time>
      </trkpt>
      <trkpt lat="46.693357" lon="13.910658">
        <ele>1836.949642</ele>
        <time>2023-08-02T08:54:33.370Z</time>
      </trkpt>
      <trkpt lat="46.693568" lon="13.910524">
        <ele>1833.611448</ele>
        <time>2023-08-02T08:55:03.309Z</time>
      </trkpt>
      <trkpt lat="46.693696" lon="13.910442">
        <ele>1831.583548</ele>
        <time>2023-08-02T08:55:21.404Z</time>
      </trkpt>
      <trkpt lat="46.693979" lon="13.910144">
        <ele>1826.361465</ele>
        <time>2023-08-02T08:56:06.575Z</time>
      </trkpt>
      <trkpt lat="46.694183" lon="13.909872">
        <ele>1821.993024</ele>
        <time>2023-08-02T08:56:42.184Z</time>
      </trkpt>
      <trkpt lat="46.694203" lon="13.909733">
        <ele>1820.453665</ele>
        <time>2023-08-02T08:56:54.611Z</time>
      </trkpt>
      <trkpt lat="46.694146" lon="13.909676">
        <ele>1819.361426</ele>
        <time>2023-08-02T08:57:03.583Z</time>
      </trkpt>
      <trkpt lat="46.693966" lon="13.909726">
        <ele>1816.465862</ele>
        <time>2023-08-02T08:57:27.536Z</time>
      </trkpt>
      <trkpt lat="46.693356" lon="13.909647">
        <ele>1806.788558</ele>
        <time>2023-08-02T08:58:49.064Z</time>
      </trkpt>
      <trkpt lat="46.692877" lon="13.909670">
        <ele>1799.451169</ele>
        <time>2023-08-02T08:59:51.927Z</time>
      </trkpt>
      <trkpt lat="46.692340" lon="13.909481">
        <ele>1793.864219</ele>
        <time>2023-08-02T09:01:01.595Z</time>
      </trkpt>
      <trkpt lat="46.691864" lon="13.909220">
        <ele>1788.720984</ele>
        <time>2023-08-02T09:02:02.527Z</time>
      </trkpt>
      <trkpt lat="46.691510" lon="13.909058">
        <ele>1784.968577</ele>
        <time>2023-08-02T09:02:44.717Z</time>
      </trkpt>
      <trkpt lat="46.691302" lon="13.909019">
        <ele>1782.847648</ele>
        <time>2023-08-02T09:03:07.816Z</time>
      </trkpt>
      <trkpt lat="46.690287" lon="13.908398">
        <ele>1773.709603</ele>
        <time>2023-08-02T09:05:11.187Z</time>
      </trkpt>
      <trkpt lat="46.689850" lon="13.908287">
        <ele>1770.121324</ele>
        <time>2023-08-02T09:06:03.760Z</time>
      </trkpt>
      <trkpt lat="46.689393" lon="13.908230">
        <ele>1766.107798</ele>
        <time>2023-08-02T09:06:59.929Z</time>
      </trkpt>
      <trkpt lat="46.688958" lon="13.908243">
        <ele>1761.104753</ele>
        <time>2023-08-02T09:07:53.651Z</time>
      </trkpt>
      <trkpt lat="46.688685" lon="13.908302">
        <ele>1757.931262</ele>
        <time>2023-08-02T09:08:27.801Z</time>
      </trkpt>
      <trkpt lat="46.688426" lon="13.908434">
        <ele>1754.776307</ele>
        <time>2023-08-02T09:09:01.474Z</time>
      </trkpt>
      <trkpt lat="46.688344" lon="13.908563">
        <ele>1753.389068</ele>
        <time>2023-08-02T09:09:16.259Z</time>
      </trkpt>
      <trkpt lat="46.688296" lon="13.908710">
        <ele>1752.104893</ele>
        <time>2023-08-02T09:09:30.016Z</time>
      </trkpt>
      <trkpt lat="46.688225" lon="13.908717">
        <ele>1751.286610</ele>
        <time>2023-08-02T09:09:38.706Z</time>
      </trkpt>
      <trkpt lat="46.688222" lon="13.908563">
        <ele>1750.071394</ele>
        <time>2023-08-02T09:09:51.552Z</time>
      </trkpt>
      <trkpt lat="46.688285" lon="13.908347">
        <ele>1748.220008</ele>
        <time>2023-08-02T09:10:11.003Z</time>
      </trkpt>
      <trkpt lat="46.688382" lon="13.908112">
        <ele>1745.984137</ele>
        <time>2023-08-02T09:10:33.769Z</time>
      </trkpt>
      <trkpt lat="46.688528" lon="13.907871">
        <ele>1742.978043</ele>
        <time>2023-08-02T09:11:00.773Z</time>
      </trkpt>
      <trkpt lat="46.688968" lon="13.907370">
        <ele>1735.368606</ele>
        <time>2023-08-02T09:12:09.778Z</time>
      </trkpt>
      <trkpt lat="46.689368" lon="13.907076">
        <ele>1729.263095</ele>
        <time>2023-08-02T09:13:06.641Z</time>
      </trkpt>
      <trkpt lat="46.689429" lon="13.906984">
        <ele>1728.066835</ele>
        <time>2023-08-02T09:13:17.877Z</time>
      </trkpt>
      <trkpt lat="46.689375" lon="13.906882">
        <ele>1726.862231</ele>
        <time>2023-08-02T09:13:29.267Z</time>
      </trkpt>
      <trkpt lat="46.688833" lon="13.906414">
        <ele>1716.768469</ele>
        <time>2023-08-02T09:14:51.376Z</time>
      </trkpt>
      <trkpt lat="46.688395" lon="13.906427">
        <ele>1708.335308</ele>
        <time>2023-08-02T09:15:52.795Z</time>
      </trkpt>
      <trkpt lat="46.688283" lon="13.906475">
        <ele>1706.088093</ele>
        <time>2023-08-02T09:16:10.045Z</time>
      </trkpt>
      <trkpt lat="46.687780" lon="13.906691">
        <ele>1695.994087</ele>
        <time>2023-08-02T09:17:29.682Z</time>
      </trkpt>
      <trkpt lat="46.687426" lon="13.906748">
        <ele>1689.138215</ele>
        <time>2023-08-02T09:18:25.237Z</time>
      </trkpt>
      <trkpt lat="46.686959" lon="13.906958">
        <ele>1682.267521</ele>
        <time>2023-08-02T09:19:34.313Z</time>
      </trkpt>
      <trkpt lat="46.686637" lon="13.907139">
        <ele>1677.847848</ele>
        <time>2023-08-02T09:20:16.880Z</time>
      </trkpt>
      <trkpt lat="46.686592" lon="13.907094">
        <ele>1677.148988</ele>
        <time>2023-08-02T09:20:23.832Z</time>
      </trkpt>
      <trkpt lat="46.686574" lon="13.907026">
        <ele>1676.508664</ele>
        <time>2023-08-02T09:20:29.837Z</time>
      </trkpt>
      <trkpt lat="46.686592" lon="13.906856">
        <ele>1674.997499</ele>
        <time>2023-08-02T09:20:43.114Z</time>
      </trkpt>
      <trkpt lat="46.686516" lon="13.906811">
        <ele>1673.946975</ele>
        <time>2023-08-02T09:20:53.221Z</time>
      </trkpt>
      <trkpt lat="46.686490" lon="13.906733">
        <ele>1673.185115</ele>
        <time>2023-08-02T09:21:00.816Z</time>
      </trkpt>
      <trkpt lat="46.686455" lon="13.906726">
        <ele>1672.732686</ele>
        <time>2023-08-02T09:21:05.335Z</time>
      </trkpt>
      <trkpt lat="46.686445" lon="13.906692">
        <ele>1672.407693</ele>
        <time>2023-08-02T09:21:08.412Z</time>
      </trkpt>
      <trkpt lat="46.686362" lon="13.906772">
        <ele>1671.133407</ele>
        <time>2023-08-02T09:21:19.607Z</time>
      </trkpt>
      <trkpt lat="46.686280" lon="13.906986">
        <ele>1668.979961</ele>
        <time>2023-08-02T09:21:39.481Z</time>
      </trkpt>
      <trkpt lat="46.686362" lon="13.906772">
        <ele>1666.826516</ele>
        <time>2023-08-02T09:21:59.532Z</time>
      </trkpt>
      <trkpt lat="46.686445" lon="13.906692">
        <ele>1665.552230</ele>
        <time>2023-08-02T09:22:10.286Z</time>
      </trkpt>
      <trkpt lat="46.686509" lon="13.906630">
        <ele>1664.568128</ele>
        <time>2023-08-02T09:22:19.753Z</time>
      </trkpt>
      <trkpt lat="46.686445" lon="13.906692">
        <ele>1663.619431</ele>
        <time>2023-08-02T09:22:29.405Z</time>
      </trkpt>
      <trkpt lat="46.686455" lon="13.906726">
        <ele>1663.311079</ele>
        <time>2023-08-02T09:22:32.421Z</time>
      </trkpt>
      <trkpt lat="46.686490" lon="13.906733">
        <ele>1662.881815</ele>
        <time>2023-08-02T09:22:36.671Z</time>
      </trkpt>
      <trkpt lat="46.686516" lon="13.906811">
        <ele>1662.158965</ele>
        <time>2023-08-02T09:22:43.603Z</time>
      </trkpt>
      <trkpt lat="46.686592" lon="13.906856">
        <ele>1661.162231</ele>
        <time>2023-08-02T09:22:52.820Z</time>
      </trkpt>
      <trkpt lat="46.686684" lon="13.906724">
        <ele>1659.593718</ele>
        <time>2023-08-02T09:23:09.277Z</time>
      </trkpt>
      <trkpt lat="46.686863" lon="13.906479">
        <ele>1656.610260</ele>
        <time>2023-08-02T09:23:38.543Z</time>
      </trkpt>
      <trkpt lat="46.687147" lon="13.906164">
        <ele>1652.274116</ele>
        <time>2023-08-02T09:24:22.241Z</time>
      </trkpt>
      <trkpt lat="46.687391" lon="13.905878">
        <ele>1648.469782</ele>
        <time>2023-08-02T09:25:00.872Z</time>
      </trkpt>
      <trkpt lat="46.687567" lon="13.905696">
        <ele>1645.847817</ele>
        <time>2023-08-02T09:25:28.053Z</time>
      </trkpt>
      <trkpt lat="46.687339" lon="13.905516">
        <ele>1642.697246</ele>
        <time>2023-08-02T09:26:09.163Z</time>
      </trkpt>
      <trkpt lat="46.687300" lon="13.905355">
        <ele>1640.881460</ele>
        <time>2023-08-02T09:26:28.543Z</time>
      </trkpt>
      <trkpt lat="46.687087" lon="13.905162">
        <ele>1636.790503</ele>
        <time>2023-08-02T09:27:11.417Z</time>
      </trkpt>
      <trkpt lat="46.686558" lon="13.904765">
        <ele>1627.085052</ele>
        <time>2023-08-02T09:28:54.292Z</time>
      </trkpt>
      <trkpt lat="46.686132" lon="13.904739">
        <ele>1620.130022</ele>
        <time>2023-08-02T09:29:52.073Z</time>
      </trkpt>
      <trkpt lat="46.686019" lon="13.904768">
        <ele>1618.258411</ele>
        <time>2023-08-02T09:30:07.143Z</time>
      </trkpt>
      <trkpt lat="46.685975" lon="13.904780">
        <ele>1617.528226</ele>
        <time>2023-08-02T09:30:13.111Z</time>
      </trkpt>
      <trkpt lat="46.685952" lon="13.904692">
        <ele>1616.474454</ele>
        <time>2023-08-02T09:30:21.501Z</time>
      </trkpt>
      <trkpt lat="46.686014" lon="13.904601">
        <ele>1615.039273</ele>
        <time>2023-08-02T09:30:32.903Z</time>
      </trkpt>
      <trkpt lat="46.686343" lon="13.904482">
        <ele>1610.882814</ele>
        <time>2023-08-02T09:31:15.591Z</time>
      </trkpt>
      <trkpt lat="46.686679" lon="13.904362">
        <ele>1607.409417</ele>
        <time>2023-08-02T09:31:57.801Z</time>
      </trkpt>
      <trkpt lat="46.686996" lon="13.904003">
        <ele>1603.378948</ele>
        <time>2023-08-02T09:32:45.055Z</time>
      </trkpt>
      <trkpt lat="46.687340" lon="13.903732">
        <ele>1599.452911</ele>
        <time>2023-08-02T09:33:30.524Z</time>
      </trkpt>
      <trkpt lat="46.687814" lon="13.903258">
        <ele>1593.994235</ele>
        <time>2023-08-02T09:34:37.096Z</time>
      </trkpt>
      <trkpt lat="46.688019" lon="13.903004">
        <ele>1591.923265</ele>
        <time>2023-08-02T09:35:08.616Z</time>
      </trkpt>
      <trkpt lat="46.688740" lon="13.902376">
        <ele>1585.458134</ele>
        <time>2023-08-02T09:36:46.254Z</time>
      </trkpt>
      <trkpt lat="46.689226" lon="13.902012">
        <ele>1581.252265</ele>
        <time>2023-08-02T09:37:48.896Z</time>
      </trkpt>
      <trkpt lat="46.689445" lon="13.901883">
        <ele>1579.924542</ele>
        <time>2023-08-02T09:38:15.468Z</time>
      </trkpt>
      <trkpt lat="46.689745" lon="13.901913">
        <ele>1578.261457</ele>
        <time>2023-08-02T09:38:49.141Z</time>
      </trkpt>
      <trkpt lat="46.689842" lon="13.901838">
        <ele>1577.654204</ele>
        <time>2023-08-02T09:39:01.521Z</time>
      </trkpt>
      <trkpt lat="46.689774" lon="13.901717">
        <ele>1577.060777</ele>
        <time>2023-08-02T09:39:13.429Z</time>
      </trkpt>
      <trkpt lat="46.689678" lon="13.901666">
        <ele>1576.495683</ele>
        <time>2023-08-02T09:39:24.592Z</time>
      </trkpt>
      <trkpt lat="46.689341" lon="13.901689">
        <ele>1574.629824</ele>
        <time>2023-08-02T09:40:01.797Z</time>
      </trkpt>
      <trkpt lat="46.689091" lon="13.901594">
        <ele>1573.200968</ele>
        <time>2023-08-02T09:40:30.169Z</time>
      </trkpt>
      <trkpt lat="46.688915" lon="13.901587">
        <ele>1572.227217</ele>
        <time>2023-08-02T09:40:49.213Z</time>
      </trkpt>
      <trkpt lat="46.688586" lon="13.901670">
        <ele>1569.925432</ele>
        <time>2023-08-02T09:41:25.220Z</time>
      </trkpt>
      <trkpt lat="46.688326" lon="13.901774">
        <ele>1567.634060</ele>
        <time>2023-08-02T09:41:55.407Z</time>
      </trkpt>
      <trkpt lat="46.687095" lon="13.901839">
        <ele>1557.165116</ele>
        <time>2023-08-02T09:44:20.775Z</time>
      </trkpt>
      <trkpt lat="46.687068" lon="13.901829">
        <ele>1556.928357</ele>
        <time>2023-08-02T09:44:24.219Z</time>
      </trkpt>
      <trkpt lat="46.686929" lon="13.901775">
        <ele>1555.553869</ele>
        <time>2023-08-02T09:44:41.947Z</time>
      </trkpt>
      <trkpt lat="46.686661" lon="13.901718">
        <ele>1551.773565</ele>
        <time>2023-08-02T09:45:15.601Z</time>
      </trkpt>
      <trkpt lat="46.686390" lon="13.901726">
        <ele>1547.990217</ele>
        <time>2023-08-02T09:45:49.530Z</time>
      </trkpt>
      <trkpt lat="46.686133" lon="13.901616">
        <ele>1544.251625</ele>
        <time>2023-08-02T09:46:23.772Z</time>
      </trkpt>
      <trkpt lat="46.685890" lon="13.901461">
        <ele>1540.549379</ele>
        <time>2023-08-02T09:46:58.024Z</time>
      </trkpt>
      <trkpt lat="46.684137" lon="13.901196">
        <ele>1515.626520</ele>
        <time>2023-08-02T09:50:45.889Z</time>
      </trkpt>
      <trkpt lat="46.683724" lon="13.901279">
        <ele>1509.680933</ele>
        <time>2023-08-02T09:51:38.340Z</time>
      </trkpt>
      <trkpt lat="46.683416" lon="13.901443">
        <ele>1505.106390</ele>
        <time>2023-08-02T09:52:19.523Z</time>
      </trkpt>
      <trkpt lat="46.683323" lon="13.901576">
        <ele>1504.289010</ele>
        <time>2023-08-02T09:52:36.202Z</time>
      </trkpt>
      <trkpt lat="46.683237" lon="13.901787">
        <ele>1503.232676</ele>
        <time>2023-08-02T09:52:56.327Z</time>
      </trkpt>
      <trkpt lat="46.683115" lon="13.902011">
        <ele>1502.001687</ele>
        <time>2023-08-02T09:53:20.651Z</time>
      </trkpt>
      <trkpt lat="46.682959" lon="13.902197">
        <ele>1500.737266</ele>
        <time>2023-08-02T09:53:44.043Z</time>
      </trkpt>
      <trkpt lat="46.682589" lon="13.902354">
        <ele>1498.319607</ele>
        <time>2023-08-02T09:54:28.528Z</time>
      </trkpt>
      <trkpt lat="46.682556" lon="13.902368">
        <ele>1498.103981</ele>
        <time>2023-08-02T09:54:32.460Z</time>
      </trkpt>
      <trkpt lat="46.682308" lon="13.902589">
        <ele>1496.280354</ele>
        <time>2023-08-02T09:55:03.107Z</time>
      </trkpt>
      <trkpt lat="46.682248" lon="13.902598">
        <ele>1495.901938</ele>
        <time>2023-08-02T09:55:09.533Z</time>
      </trkpt>
      <trkpt lat="46.682186" lon="13.902558">
        <ele>1495.476565</ele>
        <time>2023-08-02T09:55:16.886Z</time>
      </trkpt>
      <trkpt lat="46.681381" lon="13.903439">
        <ele>1495.570476</ele>
        <time>2023-08-02T09:57:06.183Z</time>
      </trkpt>
      <trkpt lat="46.681345" lon="13.903483">
        <ele>1495.674206</ele>
        <time>2023-08-02T09:57:10.987Z</time>
      </trkpt>
      <trkpt lat="46.681248" lon="13.903680">
        <ele>1496.041513</ele>
        <time>2023-08-02T09:57:30.242Z</time>
      </trkpt>
      <trkpt lat="46.681188" lon="13.903876">
        <ele>1496.366619</ele>
        <time>2023-08-02T09:57:46.466Z</time>
      </trkpt>
      <trkpt lat="46.681153" lon="13.904090">
        <ele>1496.699861</ele>
        <time>2023-08-02T09:58:02.974Z</time>
      </trkpt>
      <trkpt lat="46.681125" lon="13.904187">
        <ele>1496.859268</ele>
        <time>2023-08-02T09:58:11.032Z</time>
      </trkpt>
      <trkpt lat="46.681070" lon="13.904397">
        <ele>1497.199759</ele>
        <time>2023-08-02T09:58:27.852Z</time>
      </trkpt>
      <trkpt lat="46.680619" lon="13.904614">
        <ele>1497.649982</ele>
        <time>2023-08-02T09:59:19.715Z</time>
      </trkpt>
      <trkpt lat="46.680558" lon="13.905384">
        <ele>1496.951102</ele>
        <time>2023-08-02T10:00:30.342Z</time>
      </trkpt>
      <trkpt lat="46.680462" lon="13.905496">
        <ele>1496.789498</ele>
        <time>2023-08-02T10:00:42.610Z</time>
      </trkpt>
      <trkpt lat="46.680221" lon="13.905544">
        <ele>1496.469827</ele>
        <time>2023-08-02T10:01:07.455Z</time>
      </trkpt>
      <trkpt lat="46.680127" lon="13.905513">
        <ele>1496.343167</ele>
        <time>2023-08-02T10:01:17.870Z</time>
      </trkpt>
      <trkpt lat="46.680042" lon="13.905421">
        <ele>1496.204026</ele>
        <time>2023-08-02T10:01:29.040Z</time>
      </trkpt>
      <trkpt lat="46.679958" lon="13.905329">
        <ele>1496.065939</ele>
        <time>2023-08-02T10:01:40.647Z</time>
      </trkpt>
      <trkpt lat="46.679907" lon="13.905315">
        <ele>1495.997735</ele>
        <time>2023-08-02T10:01:46.627Z</time>
      </trkpt>
      <trkpt lat="46.679479" lon="13.904527">
        <ele>1494.628178</ele>
        <time>2023-08-02T10:03:03.926Z</time>
      </trkpt>
      <trkpt lat="46.679357" lon="13.904398">
        <ele>1494.210478</ele>
        <time>2023-08-02T10:03:20.795Z</time>
      </trkpt>
      <trkpt lat="46.679175" lon="13.904285">
        <ele>1493.662240</ele>
        <time>2023-08-02T10:03:41.171Z</time>
      </trkpt>
      <trkpt lat="46.678903" lon="13.903905">
        <ele>1492.618086</ele>
        <time>2023-08-02T10:04:19.392Z</time>
      </trkpt>
      <trkpt lat="46.678804" lon="13.903742">
        <ele>1492.204168</ele>
        <time>2023-08-02T10:04:34.490Z</time>
      </trkpt>
      <trkpt lat="46.678773" lon="13.903520">
        <ele>1491.773408</ele>
        <time>2023-08-02T10:04:50.721Z</time>
      </trkpt>
      <trkpt lat="46.678658" lon="13.903380">
        <ele>1491.358160</ele>
        <time>2023-08-02T10:05:05.952Z</time>
      </trkpt>
      <trkpt lat="46.678558" lon="13.903185">
        <ele>1490.895263</ele>
        <time>2023-08-02T10:05:23.301Z</time>
      </trkpt>
      <trkpt lat="46.678388" lon="13.903012">
        <ele>1489.926401</ele>
        <time>2023-08-02T10:05:45.277Z</time>
      </trkpt>
      <trkpt lat="46.678255" lon="13.902792">
        <ele>1488.292028</ele>
        <time>2023-08-02T10:06:07.262Z</time>
      </trkpt>
      <trkpt lat="46.678151" lon="13.902514">
        <ele>1486.527111</ele>
        <time>2023-08-02T10:06:31.566Z</time>
      </trkpt>
      <trkpt lat="46.677483" lon="13.902533">
        <ele>1481.099201</ele>
        <time>2023-08-02T10:07:47.849Z</time>
      </trkpt>
      <trkpt lat="46.676806" lon="13.902479">
        <ele>1475.436283</ele>
        <time>2023-08-02T10:09:10.683Z</time>
      </trkpt>
      <trkpt lat="46.676407" lon="13.902231">
        <ele>1470.216804</ele>
        <time>2023-08-02T10:10:07.611Z</time>
      </trkpt>
      <trkpt lat="46.676105" lon="13.902083">
        <ele>1466.382943</ele>
        <time>2023-08-02T10:10:49.757Z</time>
      </trkpt>
      <trkpt lat="46.675927" lon="13.901940">
        <ele>1463.937254</ele>
        <time>2023-08-02T10:11:16.281Z</time>
      </trkpt>
      <trkpt lat="46.675725" lon="13.901607">
        <ele>1460.267576</ele>
        <time>2023-08-02T10:11:54.325Z</time>
      </trkpt>
      <trkpt lat="46.675612" lon="13.901518">
        <ele>1458.722018</ele>
        <time>2023-08-02T10:12:10.120Z</time>
      </trkpt>
      <trkpt lat="46.675039" lon="13.901257">
        <ele>1454.482471</ele>
        <time>2023-08-02T10:13:17.717Z</time>
      </trkpt>
      <trkpt lat="46.674933" lon="13.901184">
        <ele>1454.590825</ele>
        <time>2023-08-02T10:13:30.269Z</time>
      </trkpt>
      <trkpt lat="46.674659" lon="13.900376">
        <ele>1455.162375</ele>
        <time>2023-08-02T10:14:32.560Z</time>
      </trkpt>
      <trkpt lat="46.674642" lon="13.900213">
        <ele>1455.266928</ele>
        <time>2023-08-02T10:14:44.676Z</time>
      </trkpt>
      <trkpt lat="46.674675" lon="13.899976">
        <ele>1455.420284</ele>
        <time>2023-08-02T10:15:03.383Z</time>
      </trkpt>
      <trkpt lat="46.674772" lon="13.899752">
        <ele>1455.588256</ele>
        <time>2023-08-02T10:15:24.614Z</time>
      </trkpt>
      <trkpt lat="46.674857" lon="13.899110">
        <ele>1455.931954</ele>
        <time>2023-08-02T10:16:20.512Z</time>
      </trkpt>
      <trkpt lat="46.675056" lon="13.898400">
        <ele>1455.931954</ele>
        <time>2023-08-02T10:17:28.019Z</time>
      </trkpt>
      <trkpt lat="46.675105" lon="13.898057">
        <ele>1455.931954</ele>
        <time>2023-08-02T10:17:56.248Z</time>
      </trkpt>
      <trkpt lat="46.675135" lon="13.897018">
        <ele>1455.931954</ele>
        <time>2023-08-02T10:19:16.142Z</time>
      </trkpt>
      <trkpt lat="46.675235" lon="13.897048">
        <ele>1455.931954</ele>
        <time>2023-08-02T10:19:27.325Z</time>
      </trkpt>
      <trkpt lat="46.675368" lon="13.897045">
        <ele>1455.931954</ele>
        <time>2023-08-02T10:19:41.976Z</time>
      </trkpt>
      <trkpt lat="46.675351" lon="13.896822">
        <ele>1455.931954</ele>
        <time>2023-08-02T10:19:58.047Z</time>
      </trkpt>
    </trkseg>
  </trk>
</gpx>