<?xml version="1.0" encoding="UTF-8"?>
<gpx xmlns="http://www.topografix.com/GPX/1/1" xmlns:xsi="http://www.w3.org/2001/XMLSchema-instance" xsi:schemaLocation="http://www.topografix.com/GPX/1/1 http://www.topografix.com/GPX/1/1/gpx.xsd" version="1.1" creator="Bruckmann Verlag">
  <metadata>
    <name>5205 Pabst VergPf FS Tour 13 neuer Track</name>
    <author>
      <name>Bruckmann Verlag</name>
      <link href="https://www.freytagberndt.com/de/verlage/bruckmann-verlag">
        <text>Bruckmann Verlag</text>
        <type>text/html</type>
      </link>
    </author>
    <copyright author="Bruckmann Verlag">
      <year>2022</year>
    </copyright>
  </metadata>
  <trk>
    <name>5205 Pabst VergPf FS Tour 13 neuer Track</name>
    <trkseg>
      <trkpt lat="49.75818783044815" lon="11.444076430052519">
      </trkpt>
      <trkpt lat="49.75817550905049" lon="11.444320678710938">
      </trkpt>
      <trkpt lat="49.75792597979307" lon="11.444578170776367">
      </trkpt>
      <trkpt lat="49.75825865752995" lon="11.444578170776367">
      </trkpt>
      <trkpt lat="49.75833158008754" lon="11.444835746660829">
      </trkpt>
      <trkpt lat="49.75849326699972" lon="11.445437483489513">
      </trkpt>
      <trkpt lat="49.7586549539119" lon="11.446426045149565">
      </trkpt>
      <trkpt lat="49.758780766278505" lon="11.447242693975568">
      </trkpt>
      <trkpt lat="49.75886156782508" lon="11.447729766368866">
      </trkpt>
      <trkpt lat="49.758840864524245" lon="11.448183059692383">
      </trkpt>
      <trkpt lat="49.758619079366326" lon="11.448912620544434">
      </trkpt>
      <trkpt lat="49.75839729420841" lon="11.44925594329834">
      </trkpt>
      <trkpt lat="49.75817886181176" lon="11.449721222743392">
      </trkpt>
      <trkpt lat="49.758852599188685" lon="11.450222628191113">
      </trkpt>
      <trkpt lat="49.759670086205006" lon="11.450437540188432">
      </trkpt>
      <trkpt lat="49.75991257466376" lon="11.450351541861892">
      </trkpt>
      <trkpt lat="49.76011918857694" lon="11.450193962082267">
      </trkpt>
      <trkpt lat="49.76019110530615" lon="11.450466206297278">
      </trkpt>
      <trkpt lat="49.76028246805072" lon="11.451058387756348">
      </trkpt>
      <trkpt lat="49.760531997308135" lon="11.451787948608398">
      </trkpt>
      <trkpt lat="49.76080918684602" lon="11.452045440673828">
      </trkpt>
      <trkpt lat="49.761141864582896" lon="11.452217102050781">
      </trkpt>
      <trkpt lat="49.76133590564132" lon="11.452560424804688">
      </trkpt>
      <trkpt lat="49.76128050126135" lon="11.453075408935547">
      </trkpt>
      <trkpt lat="49.761363649740815" lon="11.453633308410645">
      </trkpt>
      <trkpt lat="49.76161317899823" lon="11.454706192016602">
      </trkpt>
      <trkpt lat="49.761779475957155" lon="11.45500659942627">
      </trkpt>
      <trkpt lat="49.761973517015576" lon="11.45500659942627">
      </trkpt>
      <trkpt lat="49.762001261115074" lon="11.454405784606934">
      </trkpt>
      <trkpt lat="49.76227845065296" lon="11.45423412322998">
      </trkpt>
      <trkpt lat="49.762527979910374" lon="11.454706192016602">
      </trkpt>
      <trkpt lat="49.762527979910374" lon="11.45547866821289">
      </trkpt>
      <trkpt lat="49.76225079037249" lon="11.45547866821289">
      </trkpt>
      <trkpt lat="49.76222304627299" lon="11.45625114440918">
      </trkpt>
      <trkpt lat="49.76202900521457" lon="11.456809043884277">
      </trkpt>
      <trkpt lat="49.761696327477694" lon="11.45723819732666">
      </trkpt>
      <trkpt lat="49.7616408392787" lon="11.457924842834473">
      </trkpt>
      <trkpt lat="49.76161317899823" lon="11.458568572998047">
      </trkpt>
      <trkpt lat="49.761696327477694" lon="11.459126472473145">
      </trkpt>
      <trkpt lat="49.762001261115074" lon="11.459641456604004">
      </trkpt>
      <trkpt lat="49.762084409594536" lon="11.460199356079102">
      </trkpt>
      <trkpt lat="49.76213989779353" lon="11.4607572555542">
      </trkpt>
      <trkpt lat="49.76175173185766" lon="11.460800170898438">
      </trkpt>
      <trkpt lat="49.76144679822028" lon="11.461100578308105">
      </trkpt>
      <trkpt lat="49.76175173185766" lon="11.46122932434082">
      </trkpt>
      <trkpt lat="49.762084409594536" lon="11.461443901062012">
      </trkpt>
      <trkpt lat="49.762722020968795" lon="11.461443901062012">
      </trkpt>
      <trkpt lat="49.76280516944826" lon="11.461057662963867">
      </trkpt>
      <trkpt lat="49.76297146640718" lon="11.460671424865723">
      </trkpt>
      <trkpt lat="49.76297146640718" lon="11.460199356079102">
      </trkpt>
      <trkpt lat="49.762916062027216" lon="11.459598541259766">
      </trkpt>
      <trkpt lat="49.762832913547754" lon="11.459126472473145">
      </trkpt>
      <trkpt lat="49.763026954606175" lon="11.45848274230957">
      </trkpt>
      <trkpt lat="49.763359632343054" lon="11.45775318145752">
      </trkpt>
      <trkpt lat="49.76363682188094" lon="11.457281112670898">
      </trkpt>
      <trkpt lat="49.76402490399778" lon="11.456809043884277">
      </trkpt>
      <trkpt lat="49.76413487456739" lon="11.45642657764256">
      </trkpt>
      <trkpt lat="49.76432355120778" lon="11.455710176378489">
      </trkpt>
      <trkpt lat="49.764781622216105" lon="11.45593942143023">
      </trkpt>
      <trkpt lat="49.76489846594632" lon="11.455237437039614">
      </trkpt>
      <trkpt lat="49.765078257769346" lon="11.4552640914917">
      </trkpt>
      <trkpt lat="49.76538319140673" lon="11.455607414245605">
      </trkpt>
      <trkpt lat="49.76527229882777" lon="11.45500659942627">
      </trkpt>
      <trkpt lat="49.76496736519039" lon="11.45449161529541">
      </trkpt>
      <trkpt lat="49.76455162279308" lon="11.454191207885742">
      </trkpt>
      <trkpt lat="49.764773324131966" lon="11.45376205444336">
      </trkpt>
      <trkpt lat="49.764995109289885" lon="11.453075408935547">
      </trkpt>
      <trkpt lat="49.76505051366985" lon="11.452388763427734">
      </trkpt>
      <trkpt lat="49.764995109289885" lon="11.451787948608398">
      </trkpt>
      <trkpt lat="49.76480106823146" lon="11.451101303100586">
      </trkpt>
      <trkpt lat="49.76480106823146" lon="11.450672149658203">
      </trkpt>
      <trkpt lat="49.76491196081042" lon="11.44998550415039">
      </trkpt>
      <trkpt lat="49.76491196081042" lon="11.449384689331055">
      </trkpt>
      <trkpt lat="49.764884216710925" lon="11.448655128479004">
      </trkpt>
      <trkpt lat="49.764884216710925" lon="11.447539329528809">
      </trkpt>
      <trkpt lat="49.764995109289885" lon="11.446938514709473">
      </trkpt>
      <trkpt lat="49.76527229882777" lon="11.446423530578613">
      </trkpt>
      <trkpt lat="49.76554948836565" lon="11.44599437713623">
      </trkpt>
      <trkpt lat="49.765909826382995" lon="11.445608139038086">
      </trkpt>
      <trkpt lat="49.766214760020375" lon="11.445136070251465">
      </trkpt>
      <trkpt lat="49.7663810569793" lon="11.44474983215332">
      </trkpt>
      <trkpt lat="49.76635339669883" lon="11.444106101989746">
      </trkpt>
      <trkpt lat="49.76627024821937" lon="11.44350528717041">
      </trkpt>
      <trkpt lat="49.766325652599335" lon="11.443033218383789">
      </trkpt>
      <trkpt lat="49.766547437757254" lon="11.44251823425293">
      </trkpt>
      <trkpt lat="49.76671373471618" lon="11.44153118133545">
      </trkpt>
      <trkpt lat="49.766935519874096" lon="11.44050121307373">
      </trkpt>
      <trkpt lat="49.766935519874096" lon="11.440072059631348">
      </trkpt>
      <trkpt lat="49.76679688319564" lon="11.439642906188965">
      </trkpt>
      <trkpt lat="49.766547437757254" lon="11.439085006713867">
      </trkpt>
      <trkpt lat="49.76629790849984" lon="11.43852710723877">
      </trkpt>
      <trkpt lat="49.76635339669883" lon="11.438226699829102">
      </trkpt>
      <trkpt lat="49.76649194955826" lon="11.437840461730957">
      </trkpt>
      <trkpt lat="49.76682462729514" lon="11.437540054321289">
      </trkpt>
      <trkpt lat="49.76710181683302" lon="11.43728256225586">
      </trkpt>
      <trkpt lat="49.7673790063709" lon="11.436982154846191">
      </trkpt>
      <trkpt lat="49.76768385618925" lon="11.436896324157715">
      </trkpt>
      <trkpt lat="49.767850236967206" lon="11.436424255371094">
      </trkpt>
      <trkpt lat="49.768044194206595" lon="11.435909271240234">
      </trkpt>
      <trkpt lat="49.76832138374448" lon="11.43552303314209">
      </trkpt>
      <trkpt lat="49.76879261434078" lon="11.434922218322754">
      </trkpt>
      <trkpt lat="49.76904205977917" lon="11.434493064880371">
      </trkpt>
      <trkpt lat="49.769263844937086" lon="11.434149742126465">
      </trkpt>
      <trkpt lat="49.76948554627597" lon="11.433548927307129">
      </trkpt>
      <trkpt lat="49.76970733143389" lon="11.432862281799316">
      </trkpt>
      <trkpt lat="49.76992903277278" lon="11.432218551635742">
      </trkpt>
      <trkpt lat="49.76998443715274" lon="11.433248519897461">
      </trkpt>
      <trkpt lat="49.77001218125224" lon="11.433806419372559">
      </trkpt>
      <trkpt lat="49.76995677687228" lon="11.432948112487793">
      </trkpt>
      <trkpt lat="49.76995677687228" lon="11.43200397491455">
      </trkpt>
      <trkpt lat="49.770178478211164" lon="11.431617736816406">
      </trkpt>
      <trkpt lat="49.770372519269586" lon="11.431145668029785">
      </trkpt>
      <trkpt lat="49.77040026336908" lon="11.430416107177734">
      </trkpt>
      <trkpt lat="49.77040026336908" lon="11.429986953735352">
      </trkpt>
      <trkpt lat="49.77031711488962" lon="11.429429054260254">
      </trkpt>
      <trkpt lat="49.77020622231066" lon="11.428742408752441">
      </trkpt>
      <trkpt lat="49.7700953297317" lon="11.428098678588867">
      </trkpt>
      <trkpt lat="49.77001218125224" lon="11.427626609802246">
      </trkpt>
      <trkpt lat="49.76995677687228" lon="11.426982879638672">
      </trkpt>
      <trkpt lat="49.76995677687228" lon="11.426382064819336">
      </trkpt>
      <trkpt lat="49.76995677687228" lon="11.426682472229004">
      </trkpt>
      <trkpt lat="49.76998443715274" lon="11.427326202392578">
      </trkpt>
      <trkpt lat="49.76992903277278" lon="11.427884101867676">
      </trkpt>
      <trkpt lat="49.769679587334394" lon="11.427927017211914">
      </trkpt>
      <trkpt lat="49.76940239779651" lon="11.427412033081055">
      </trkpt>
      <trkpt lat="49.76923610083759" lon="11.427755355834961">
      </trkpt>
      <trkpt lat="49.76904205977917" lon="11.427969932556152">
      </trkpt>
      <trkpt lat="49.768848018720746" lon="11.42827033996582">
      </trkpt>
      <trkpt lat="49.76857082918286" lon="11.42827033996582">
      </trkpt>
      <trkpt lat="49.76816799491644" lon="11.428388692438602">
      </trkpt>
      <trkpt lat="49.76731454953551" lon="11.428589271381497">
      </trkpt>
      <trkpt lat="49.76627251133323" lon="11.428130781278014">
      </trkpt>
      <trkpt lat="49.766012001782656" lon="11.42805919982493">
      </trkpt>
      <trkpt lat="49.7655987739563" lon="11.427715374156833">
      </trkpt>
      <trkpt lat="49.76541018113494" lon="11.427400130778551">
      </trkpt>
      <trkpt lat="49.76541018113494" lon="11.426712479442358">
      </trkpt>
      <trkpt lat="49.76557186804712" lon="11.425981828942895">
      </trkpt>
      <trkpt lat="49.76582667790353" lon="11.424922943115234">
      </trkpt>
      <trkpt lat="49.76599305868149" lon="11.424365043640137">
      </trkpt>
      <trkpt lat="49.7662288416177" lon="11.424003867432475">
      </trkpt>
      <trkpt lat="49.76644626818597" lon="11.423648558557034">
      </trkpt>
      <trkpt lat="49.76662589237094" lon="11.423304732888937">
      </trkpt>
      <trkpt lat="49.76649102754891" lon="11.42353205010295">
        <ele>495.29</ele>
        <time>2022-03-24T13:51:48Z</time>
      </trkpt>
      <trkpt lat="49.766593454405665" lon="11.423355862498283">
        <ele>466.87</ele>
        <time>2022-03-24T13:52:55Z</time>
      </trkpt>
      <trkpt lat="49.76662849076092" lon="11.423304313793778">
        <ele>467.93</ele>
        <time>2022-03-24T13:53:06Z</time>
      </trkpt>
      <trkpt lat="49.76660963147879" lon="11.423222590237856">
        <ele>468.29</ele>
        <time>2022-03-24T13:53:10Z</time>
      </trkpt>
      <trkpt lat="49.7665692307055" lon="11.423102309927344">
        <ele>469.01</ele>
        <time>2022-03-24T13:53:29Z</time>
      </trkpt>
      <trkpt lat="49.766481975093484" lon="11.422853283584118">
        <ele>469.21</ele>
        <time>2022-03-24T13:53:34Z</time>
      </trkpt>
      <trkpt lat="49.76645356044173" lon="11.422644574195147">
        <ele>469.87</ele>
        <time>2022-03-24T13:53:45Z</time>
      </trkpt>
      <trkpt lat="49.76643696427345" lon="11.422572489827871">
        <ele>470.99</ele>
        <time>2022-03-24T13:53:52Z</time>
      </trkpt>
      <trkpt lat="49.76641860790551" lon="11.422490682452917">
        <ele>471.94</ele>
        <time>2022-03-24T13:54:01Z</time>
      </trkpt>
      <trkpt lat="49.766377033665776" lon="11.422361182048917">
        <ele>472.12</ele>
        <time>2022-03-24T13:54:09Z</time>
      </trkpt>
      <trkpt lat="49.76633277721703" lon="11.42228071577847">
        <ele>473.71</ele>
        <time>2022-03-24T13:54:19Z</time>
      </trkpt>
      <trkpt lat="49.76626681163907" lon="11.422116430476308">
        <ele>474.57</ele>
        <time>2022-03-24T13:54:29Z</time>
      </trkpt>
      <trkpt lat="49.76624669507146" lon="11.42207745462656">
        <ele>475.88</ele>
        <time>2022-03-24T13:54:36Z</time>
      </trkpt>
      <trkpt lat="49.76624149829149" lon="11.422063373029232">
        <ele>476.03</ele>
        <time>2022-03-24T13:54:37Z</time>
      </trkpt>
      <trkpt lat="49.76621551439166" lon="11.421917108818889">
        <ele>477.84</ele>
        <time>2022-03-24T13:54:46Z</time>
      </trkpt>
      <trkpt lat="49.766212245449424" lon="11.421899423003197">
        <ele>479.61</ele>
        <time>2022-03-24T13:54:52Z</time>
      </trkpt>
      <trkpt lat="49.76617947220802" lon="11.421770257875323">
        <ele>480.52</ele>
        <time>2022-03-24T13:55:00Z</time>
      </trkpt>
      <trkpt lat="49.766155667603016" lon="11.421676464378834">
        <ele>480.65</ele>
        <time>2022-03-24T13:55:09Z</time>
      </trkpt>
      <trkpt lat="49.766135048121214" lon="11.42155853100121">
        <ele>480.3</ele>
        <time>2022-03-24T13:55:16Z</time>
      </trkpt>
      <trkpt lat="49.7661064658314" lon="11.421358622610569">
        <ele>480.63</ele>
        <time>2022-03-24T13:55:24Z</time>
      </trkpt>
      <trkpt lat="49.766086181625724" lon="11.421140525490046">
        <ele>481.61</ele>
        <time>2022-03-24T13:55:33Z</time>
      </trkpt>
      <trkpt lat="49.766052989289165" lon="11.420864006504416">
        <ele>482.63</ele>
        <time>2022-03-24T13:55:45Z</time>
      </trkpt>
      <trkpt lat="49.76602700538933" lon="11.420642556622624">
        <ele>483.64</ele>
        <time>2022-03-24T13:55:55Z</time>
      </trkpt>
      <trkpt lat="49.766026670113206" lon="11.420527892187238">
        <ele>483.78</ele>
        <time>2022-03-24T13:56:04Z</time>
      </trkpt>
      <trkpt lat="49.76601971313357" lon="11.4205402135849">
        <ele>483.58</ele>
        <time>2022-03-24T13:56:18Z</time>
      </trkpt>
      <trkpt lat="49.76601359434426" lon="11.420535519719124">
        <ele>483.49</ele>
        <time>2022-03-24T13:56:19Z</time>
      </trkpt>
      <trkpt lat="49.76601703092456" lon="11.420461842790246">
        <ele>483.55</ele>
        <time>2022-03-24T13:56:23Z</time>
      </trkpt>
      <trkpt lat="49.76601032540202" lon="11.420228909701109">
        <ele>483.92</ele>
        <time>2022-03-24T13:56:34Z</time>
      </trkpt>
      <trkpt lat="49.76601627655327" lon="11.42021139152348">
        <ele>483.74</ele>
        <time>2022-03-24T13:56:41Z</time>
      </trkpt>
      <trkpt lat="49.7660131752491" lon="11.42015179619193">
        <ele>483.43</ele>
        <time>2022-03-24T13:56:47Z</time>
      </trkpt>
      <trkpt lat="49.76599674671888" lon="11.41992506571114">
        <ele>482.48</ele>
        <time>2022-03-24T13:56:57Z</time>
      </trkpt>
      <trkpt lat="49.76600831374526" lon="11.419729515910149">
        <ele>482.16</ele>
        <time>2022-03-24T13:57:06Z</time>
      </trkpt>
      <trkpt lat="49.766020299866796" lon="11.419455679133534">
        <ele>481.58</ele>
        <time>2022-03-24T13:57:19Z</time>
      </trkpt>
      <trkpt lat="49.76603463292122" lon="11.419140519574285">
        <ele>480.91</ele>
        <time>2022-03-24T13:57:33Z</time>
      </trkpt>
      <trkpt lat="49.7660097386688" lon="11.418886967003345">
        <ele>480.11</ele>
        <time>2022-03-24T13:57:44Z</time>
      </trkpt>
      <trkpt lat="49.765978222712874" lon="11.41875914297998">
        <ele>480.02</ele>
        <time>2022-03-24T13:57:53Z</time>
      </trkpt>
      <trkpt lat="49.76597746834159" lon="11.418746067211032">
        <ele>480.24</ele>
        <time>2022-03-24T13:57:59Z</time>
      </trkpt>
      <trkpt lat="49.76598174311221" lon="11.418626373633742">
        <ele>479.77</ele>
        <time>2022-03-24T13:58:06Z</time>
      </trkpt>
      <trkpt lat="49.765993896871805" lon="11.41842495650053">
        <ele>480.01</ele>
        <time>2022-03-24T13:58:16Z</time>
      </trkpt>
      <trkpt lat="49.766075452789664" lon="11.418216079473495">
        <ele>480.29</ele>
        <time>2022-03-24T13:58:28Z</time>
      </trkpt>
      <trkpt lat="49.76609858684242" lon="11.418152209371328">
        <ele>480.43</ele>
        <time>2022-03-24T13:58:36Z</time>
      </trkpt>
      <trkpt lat="49.76613714359701" lon="11.418134272098541">
        <ele>480.28</ele>
        <time>2022-03-24T13:58:43Z</time>
      </trkpt>
      <trkpt lat="49.766143932938576" lon="11.418137289583683">
        <ele>480.45</ele>
        <time>2022-03-24T13:58:56Z</time>
      </trkpt>
      <trkpt lat="49.7661479562521" lon="11.418139887973666">
        <ele>480.55</ele>
        <time>2022-03-24T13:59:10Z</time>
      </trkpt>
      <trkpt lat="49.7661426756531" lon="11.418144246563315">
        <ele>481.11</ele>
        <time>2022-03-24T13:59:57Z</time>
      </trkpt>
      <trkpt lat="49.76613915525377" lon="11.41815916635096">
        <ele>481.39</ele>
        <time>2022-03-24T14:00:31Z</time>
      </trkpt>
      <trkpt lat="49.766137059777975" lon="11.4181709010154">
        <ele>481.34</ele>
        <time>2022-03-24T14:01:01Z</time>
      </trkpt>
      <trkpt lat="49.76613010279834" lon="11.418176852166653">
        <ele>481.39</ele>
        <time>2022-03-24T14:01:16Z</time>
      </trkpt>
      <trkpt lat="49.76613781414926" lon="11.418166626244783">
        <ele>481.34</ele>
        <time>2022-03-24T14:01:25Z</time>
      </trkpt>
      <trkpt lat="49.76612909696996" lon="11.418156567960978">
        <ele>481.92</ele>
        <time>2022-03-24T14:01:30Z</time>
      </trkpt>
      <trkpt lat="49.76612457074225" lon="11.418123710900545">
        <ele>481.84</ele>
        <time>2022-03-24T14:01:32Z</time>
      </trkpt>
      <trkpt lat="49.7661601100117" lon="11.4179084636271">
        <ele>482.41</ele>
        <time>2022-03-24T14:01:42Z</time>
      </trkpt>
      <trkpt lat="49.76616304367781" lon="11.417893711477518">
        <ele>482.31</ele>
        <time>2022-03-24T14:01:49Z</time>
      </trkpt>
      <trkpt lat="49.766173688694835" lon="11.417827075347304">
        <ele>482.19</ele>
        <time>2022-03-24T14:02:05Z</time>
      </trkpt>
      <trkpt lat="49.76618123240769" lon="11.417777286842465">
        <ele>482.28</ele>
        <time>2022-03-24T14:02:11Z</time>
      </trkpt>
      <trkpt lat="49.76621987298131" lon="11.417533289641142">
        <ele>482.38</ele>
        <time>2022-03-24T14:02:23Z</time>
      </trkpt>
      <trkpt lat="49.766246946528554" lon="11.417420553043485">
        <ele>482.37</ele>
        <time>2022-03-24T14:02:29Z</time>
      </trkpt>
      <trkpt lat="49.76626723073423" lon="11.417333632707596">
        <ele>481.8</ele>
        <time>2022-03-24T14:02:37Z</time>
      </trkpt>
      <trkpt lat="49.76627184078097" lon="11.417329357936978">
        <ele>481.47</ele>
        <time>2022-03-24T14:02:44Z</time>
      </trkpt>
      <trkpt lat="49.76626924239099" lon="11.417300943285227">
        <ele>481.38</ele>
        <time>2022-03-24T14:02:46Z</time>
      </trkpt>
      <trkpt lat="49.766303692013025" lon="11.417112182825804">
        <ele>480.71</ele>
        <time>2022-03-24T14:02:56Z</time>
      </trkpt>
      <trkpt lat="49.76632045581937" lon="11.417061053216457">
        <ele>480.41</ele>
        <time>2022-03-24T14:03:04Z</time>
      </trkpt>
      <trkpt lat="49.766324730589986" lon="11.41704948619008">
        <ele>480.67</ele>
        <time>2022-03-24T14:03:09Z</time>
      </trkpt>
      <trkpt lat="49.766312912106514" lon="11.416984358802438">
        <ele>480.76</ele>
        <time>2022-03-24T14:03:13Z</time>
      </trkpt>
      <trkpt lat="49.76631760597229" lon="11.41673868522048">
        <ele>478.68</ele>
        <time>2022-03-24T14:03:24Z</time>
      </trkpt>
      <trkpt lat="49.766357000917196" lon="11.416519582271576">
        <ele>478.21</ele>
        <time>2022-03-24T14:03:34Z</time>
      </trkpt>
      <trkpt lat="49.76639589294791" lon="11.416312465444207">
        <ele>477.32</ele>
        <time>2022-03-24T14:03:44Z</time>
      </trkpt>
      <trkpt lat="49.76644895039499" lon="11.416127644479275">
        <ele>476.49</ele>
        <time>2022-03-24T14:03:54Z</time>
      </trkpt>
      <trkpt lat="49.76650728844106" lon="11.415953887626529">
        <ele>475.73</ele>
        <time>2022-03-24T14:04:04Z</time>
      </trkpt>
      <trkpt lat="49.76652237586677" lon="11.415754482150078">
        <ele>473.97</ele>
        <time>2022-03-24T14:04:14Z</time>
      </trkpt>
      <trkpt lat="49.76651885546744" lon="11.415640823543072">
        <ele>472.38</ele>
        <time>2022-03-24T14:04:20Z</time>
      </trkpt>
      <trkpt lat="49.766541570425034" lon="11.41557234339416">
        <ele>472.2</ele>
        <time>2022-03-24T14:04:24Z</time>
      </trkpt>
      <trkpt lat="49.766594879329205" lon="11.41538567841053">
        <ele>470.65</ele>
        <time>2022-03-24T14:04:35Z</time>
      </trkpt>
      <trkpt lat="49.76661030203104" lon="11.415348127484322">
        <ele>470.15</ele>
        <time>2022-03-24T14:04:42Z</time>
      </trkpt>
      <trkpt lat="49.76661080494523" lon="11.415341589599848">
        <ele>470.16</ele>
        <time>2022-03-24T14:04:51Z</time>
      </trkpt>
      <trkpt lat="49.766667718067765" lon="11.415245784446597">
        <ele>469.48</ele>
        <time>2022-03-24T14:04:58Z</time>
      </trkpt>
      <trkpt lat="49.76678556762636" lon="11.415104046463966">
        <ele>467.82</ele>
        <time>2022-03-24T14:05:09Z</time>
      </trkpt>
      <trkpt lat="49.76686134003103" lon="11.415025005117059">
        <ele>465.78</ele>
        <time>2022-03-24T14:05:17Z</time>
      </trkpt>
      <trkpt lat="49.76696946658194" lon="11.414974881336093">
        <ele>464.33</ele>
        <time>2022-03-24T14:05:25Z</time>
      </trkpt>
      <trkpt lat="49.7670750785619" lon="11.414852421730757">
        <ele>463.65</ele>
        <time>2022-03-24T14:05:35Z</time>
      </trkpt>
      <trkpt lat="49.767156802117825" lon="11.414670115336776">
        <ele>462.02</ele>
        <time>2022-03-24T14:05:46Z</time>
      </trkpt>
      <trkpt lat="49.76721924729645" lon="11.414538016542792">
        <ele>461.31</ele>
        <time>2022-03-24T14:05:55Z</time>
      </trkpt>
      <trkpt lat="49.76722595281899" lon="11.414542375132442">
        <ele>461.67</ele>
        <time>2022-03-24T14:06:04Z</time>
      </trkpt>
      <trkpt lat="49.767238860949874" lon="11.41452913172543">
        <ele>461.66</ele>
        <time>2022-03-24T14:06:11Z</time>
      </trkpt>
      <trkpt lat="49.76724196225405" lon="11.414524018764496">
        <ele>462.22</ele>
        <time>2022-03-24T14:06:20Z</time>
      </trkpt>
      <trkpt lat="49.76724883541465" lon="11.414519743993878">
        <ele>461.69</ele>
        <time>2022-03-24T14:06:36Z</time>
      </trkpt>
      <trkpt lat="49.76731496863067" lon="11.414511697366834">
        <ele>461.28</ele>
        <time>2022-03-24T14:06:44Z</time>
      </trkpt>
      <trkpt lat="49.76731698028743" lon="11.414517313241959">
        <ele>461.22</ele>
        <time>2022-03-24T14:06:49Z</time>
      </trkpt>
      <trkpt lat="49.767390908673406" lon="11.414489317685366">
        <ele>459.61</ele>
        <time>2022-03-24T14:06:57Z</time>
      </trkpt>
      <trkpt lat="49.767402559518814" lon="11.414486551657319">
        <ele>459.39</ele>
        <time>2022-03-24T14:06:58Z</time>
      </trkpt>
      <trkpt lat="49.7675259411335" lon="11.414511110633612">
        <ele>457.18</ele>
        <time>2022-03-24T14:07:09Z</time>
      </trkpt>
      <trkpt lat="49.76764362305403" lon="11.414545057341456">
        <ele>455.97</ele>
        <time>2022-03-24T14:07:18Z</time>
      </trkpt>
      <trkpt lat="49.767742697149515" lon="11.414593253284693">
        <ele>457.13</ele>
        <time>2022-03-24T14:07:27Z</time>
      </trkpt>
      <trkpt lat="49.767803298309445" lon="11.414614040404558">
        <ele>458.47</ele>
        <time>2022-03-24T14:07:35Z</time>
      </trkpt>
      <trkpt lat="49.76782123558223" lon="11.414620410650969">
        <ele>458.69</ele>
        <time>2022-03-24T14:07:42Z</time>
      </trkpt>
      <trkpt lat="49.767832132056355" lon="11.414625942707062">
        <ele>459.12</ele>
        <time>2022-03-24T14:07:50Z</time>
      </trkpt>
      <trkpt lat="49.7679300326854" lon="11.414658715948462">
        <ele>460.86</ele>
        <time>2022-03-24T14:07:59Z</time>
      </trkpt>
      <trkpt lat="49.76794118061662" lon="11.414659637957811">
        <ele>460.88</ele>
        <time>2022-03-24T14:08:05Z</time>
      </trkpt>
      <trkpt lat="49.767989460378885" lon="11.414662823081017">
        <ele>462.45</ele>
        <time>2022-03-24T14:08:13Z</time>
      </trkpt>
      <trkpt lat="49.76801376789808" lon="11.41466693021357">
        <ele>462.84</ele>
        <time>2022-03-24T14:08:21Z</time>
      </trkpt>
      <trkpt lat="49.76802038960159" lon="11.414666594937444">
        <ele>462.96</ele>
        <time>2022-03-24T14:08:22Z</time>
      </trkpt>
      <trkpt lat="49.76814167574048" lon="11.414648909121752">
        <ele>464.28</ele>
        <time>2022-03-24T14:08:33Z</time>
      </trkpt>
      <trkpt lat="49.76826463826001" lon="11.41462636180222">
        <ele>466.45</ele>
        <time>2022-03-24T14:08:44Z</time>
      </trkpt>
      <trkpt lat="49.768310990184546" lon="11.414603143930435">
        <ele>466.08</ele>
        <time>2022-03-24T14:08:53Z</time>
      </trkpt>
      <trkpt lat="49.768310906365514" lon="11.414604652673006">
        <ele>465.37</ele>
        <time>2022-03-24T14:09:03Z</time>
      </trkpt>
      <trkpt lat="49.76839321665466" lon="11.414467440918088">
        <ele>461.54</ele>
        <time>2022-03-24T14:09:14Z</time>
      </trkpt>
      <trkpt lat="49.76846798323095" lon="11.414373898878694">
        <ele>461.47</ele>
        <time>2022-03-24T14:09:22Z</time>
      </trkpt>
      <trkpt lat="49.76854627020657" lon="11.41422176733613">
        <ele>462.76</ele>
        <time>2022-03-24T14:09:31Z</time>
      </trkpt>
      <trkpt lat="49.76858499459922" lon="11.414076508954167">
        <ele>460.68</ele>
        <time>2022-03-24T14:09:39Z</time>
      </trkpt>
      <trkpt lat="49.76865045726299" lon="11.413944326341152">
        <ele>463.25</ele>
        <time>2022-03-24T14:09:47Z</time>
      </trkpt>
      <trkpt lat="49.76870552636683" lon="11.41385237686336">
        <ele>463.86</ele>
        <time>2022-03-24T14:09:55Z</time>
      </trkpt>
      <trkpt lat="49.768712064251304" lon="11.41384793445468">
        <ele>464.35</ele>
        <time>2022-03-24T14:09:56Z</time>
      </trkpt>
      <trkpt lat="49.768816167488694" lon="11.413906272500753">
        <ele>465.59</ele>
        <time>2022-03-24T14:10:05Z</time>
      </trkpt>
      <trkpt lat="49.76892312057316" lon="11.414078520610929">
        <ele>466.44</ele>
        <time>2022-03-24T14:10:16Z</time>
      </trkpt>
      <trkpt lat="49.76900266483426" lon="11.41422419808805">
        <ele>467.25</ele>
        <time>2022-03-24T14:10:26Z</time>
      </trkpt>
      <trkpt lat="49.76904356852174" lon="11.414287816733122">
        <ele>467.02</ele>
        <time>2022-03-24T14:10:34Z</time>
      </trkpt>
      <trkpt lat="49.76913493126631" lon="11.414409689605236">
        <ele>467.42</ele>
        <time>2022-03-24T14:10:43Z</time>
      </trkpt>
      <trkpt lat="49.76926116272807" lon="11.414438858628273">
        <ele>466.57</ele>
        <time>2022-03-24T14:10:53Z</time>
      </trkpt>
      <trkpt lat="49.76929418742657" lon="11.414417400956154">
        <ele>465.94</ele>
        <time>2022-03-24T14:10:59Z</time>
      </trkpt>
      <trkpt lat="49.769424023106694" lon="11.414305251091719">
        <ele>465.9</ele>
        <time>2022-03-24T14:11:10Z</time>
      </trkpt>
      <trkpt lat="49.76949702948332" lon="11.414219588041306">
        <ele>465.37</ele>
        <time>2022-03-24T14:11:19Z</time>
      </trkpt>
      <trkpt lat="49.76952016353607" lon="11.41417189501226">
        <ele>464.98</ele>
        <time>2022-03-24T14:11:25Z</time>
      </trkpt>
      <trkpt lat="49.769530138000846" lon="11.414166865870357">
        <ele>465.32</ele>
        <time>2022-03-24T14:11:32Z</time>
      </trkpt>
      <trkpt lat="49.76953701116145" lon="11.414175750687718">
        <ele>465.43</ele>
        <time>2022-03-24T14:11:33Z</time>
      </trkpt>
      <trkpt lat="49.76955184713006" lon="11.414197124540806">
        <ele>465.76</ele>
        <time>2022-03-24T14:11:35Z</time>
      </trkpt>
      <trkpt lat="49.769675899297" lon="11.414398793131113">
        <ele>466.13</ele>
        <time>2022-03-24T14:11:37Z</time>
      </trkpt>
      <trkpt lat="49.76964354515076" lon="11.414746977388859">
        <ele>467.91</ele>
        <time>2022-03-24T14:11:46Z</time>
      </trkpt>
      <trkpt lat="49.769772877916694" lon="11.414523432031274">
        <ele>467.98</ele>
        <time>2022-03-24T14:11:56Z</time>
      </trkpt>
      <trkpt lat="49.769638096913695" lon="11.414734069257975">
        <ele>467.85</ele>
        <time>2022-03-24T14:12:09Z</time>
      </trkpt>
      <trkpt lat="49.769683945924044" lon="11.414433242753148">
        <ele>467.69</ele>
        <time>2022-03-24T14:12:12Z</time>
      </trkpt>
      <trkpt lat="49.76963541470468" lon="11.414351519197226">
        <ele>468.39</ele>
        <time>2022-03-24T14:12:19Z</time>
      </trkpt>
      <trkpt lat="49.76952217519283" lon="11.414180025458336">
        <ele>468.35</ele>
        <time>2022-03-24T14:12:22Z</time>
      </trkpt>
      <trkpt lat="49.769569197669625" lon="11.414086231961846">
        <ele>468.32</ele>
        <time>2022-03-24T14:12:30Z</time>
      </trkpt>
      <trkpt lat="49.769597025588155" lon="11.41404147259891">
        <ele>467.31</ele>
        <time>2022-03-24T14:12:36Z</time>
      </trkpt>
      <trkpt lat="49.7696169745177" lon="11.413986822590232">
        <ele>467.78</ele>
        <time>2022-03-24T14:12:43Z</time>
      </trkpt>
      <trkpt lat="49.76962518878281" lon="11.413842486217618">
        <ele>468.11</ele>
        <time>2022-03-24T14:12:51Z</time>
      </trkpt>
      <trkpt lat="49.769656118005514" lon="11.413651965558529">
        <ele>469.36</ele>
        <time>2022-03-24T14:13:01Z</time>
      </trkpt>
      <trkpt lat="49.76968822069466" lon="11.413504024967551">
        <ele>469.36</ele>
        <time>2022-03-24T14:13:09Z</time>
      </trkpt>
      <trkpt lat="49.76971487514675" lon="11.41337594948709">
        <ele>469.59</ele>
        <time>2022-03-24T14:13:16Z</time>
      </trkpt>
      <trkpt lat="49.76973591372371" lon="11.413331106305122">
        <ele>470.84</ele>
        <time>2022-03-24T14:13:25Z</time>
      </trkpt>
      <trkpt lat="49.76974052377045" lon="11.41322541050613">
        <ele>470.23</ele>
        <time>2022-03-24T14:13:33Z</time>
      </trkpt>
      <trkpt lat="49.76975133642554" lon="11.413191044703126">
        <ele>471.43</ele>
        <time>2022-03-24T14:13:35Z</time>
      </trkpt>
      <trkpt lat="49.76975670084357" lon="11.413032039999962">
        <ele>472.13</ele>
        <time>2022-03-24T14:13:42Z</time>
      </trkpt>
      <trkpt lat="49.76975158788264" lon="11.412869933992624">
        <ele>471.86</ele>
        <time>2022-03-24T14:13:51Z</time>
      </trkpt>
      <trkpt lat="49.76976474747062" lon="11.412702966481447">
        <ele>471.14</ele>
        <time>2022-03-24T14:13:59Z</time>
      </trkpt>
      <trkpt lat="49.76977413520217" lon="11.412506746128201">
        <ele>468.67</ele>
        <time>2022-03-24T14:14:08Z</time>
      </trkpt>
      <trkpt lat="49.76978285238147" lon="11.412407169118524">
        <ele>469.47</ele>
        <time>2022-03-24T14:14:16Z</time>
      </trkpt>
      <trkpt lat="49.769785618409514" lon="11.412304490804672">
        <ele>468.86</ele>
        <time>2022-03-24T14:14:22Z</time>
      </trkpt>
      <trkpt lat="49.76979676634073" lon="11.412060325965285">
        <ele>467.07</ele>
        <time>2022-03-24T14:14:34Z</time>
      </trkpt>
      <trkpt lat="49.76980062201619" lon="11.41191397793591">
        <ele>464.96</ele>
        <time>2022-03-24T14:15:12Z</time>
      </trkpt>
      <trkpt lat="49.769827611744404" lon="11.4118299074471">
        <ele>463.05</ele>
        <time>2022-03-24T14:15:27Z</time>
      </trkpt>
      <trkpt lat="49.76984018459916" lon="11.41181867569685">
        <ele>462.84</ele>
        <time>2022-03-24T14:15:43Z</time>
      </trkpt>
      <trkpt lat="49.76983037777245" lon="11.411805599927902">
        <ele>461.98</ele>
        <time>2022-03-24T14:15:50Z</time>
      </trkpt>
      <trkpt lat="49.769888799637556" lon="11.411691019311547">
        <ele>461.48</ele>
        <time>2022-03-24T14:16:15Z</time>
      </trkpt>
      <trkpt lat="49.76991034112871" lon="11.41166528686881">
        <ele>461.85</ele>
        <time>2022-03-24T14:16:33Z</time>
      </trkpt>
      <trkpt lat="49.76992651820183" lon="11.411660928279161">
        <ele>462.02</ele>
        <time>2022-03-24T14:16:47Z</time>
      </trkpt>
      <trkpt lat="49.769939593970776" lon="11.41164617612958">
        <ele>462.68</ele>
        <time>2022-03-24T14:16:54Z</time>
      </trkpt>
      <trkpt lat="49.76995493285358" lon="11.41164273954928">
        <ele>462.37</ele>
        <time>2022-03-24T14:17:18Z</time>
      </trkpt>
      <trkpt lat="49.76995828561485" lon="11.411641985177994">
        <ele>462.17</ele>
        <time>2022-03-24T14:17:32Z</time>
      </trkpt>
      <trkpt lat="49.76995836943388" lon="11.411644583567977">
        <ele>461.55</ele>
        <time>2022-03-24T14:17:47Z</time>
      </trkpt>
      <trkpt lat="49.76994227617979" lon="11.41164961270988">
        <ele>461.47</ele>
        <time>2022-03-24T14:17:54Z</time>
      </trkpt>
      <trkpt lat="49.76993439719081" lon="11.411652797833085">
        <ele>461.11</ele>
        <time>2022-03-24T14:18:05Z</time>
      </trkpt>
      <trkpt lat="49.76993112824857" lon="11.411647433415055">
        <ele>460.85</ele>
        <time>2022-03-24T14:18:13Z</time>
      </trkpt>
      <trkpt lat="49.76994437165558" lon="11.411648439243436">
        <ele>461.27</ele>
        <time>2022-03-24T14:18:23Z</time>
      </trkpt>
      <trkpt lat="49.769954178482294" lon="11.41164617612958">
        <ele>460.94</ele>
        <time>2022-03-24T14:18:37Z</time>
      </trkpt>
      <trkpt lat="49.76995057426393" lon="11.411644332110882">
        <ele>461.02</ele>
        <time>2022-03-24T14:18:57Z</time>
      </trkpt>
      <trkpt lat="49.76995484903455" lon="11.411642404273152">
        <ele>461.16</ele>
        <time>2022-03-24T14:19:15Z</time>
      </trkpt>
      <trkpt lat="49.769941521808505" lon="11.411660006269813">
        <ele>461.01</ele>
        <time>2022-03-24T14:19:27Z</time>
      </trkpt>
      <trkpt lat="49.76993917487562" lon="11.411647517234087">
        <ele>460.53</ele>
        <time>2022-03-24T14:19:41Z</time>
      </trkpt>
      <trkpt lat="49.7699193097651" lon="11.411669310182333">
        <ele>459.35</ele>
        <time>2022-03-24T14:20:11Z</time>
      </trkpt>
      <trkpt lat="49.76986851543188" lon="11.411734689027071">
        <ele>458.62</ele>
        <time>2022-03-24T14:20:28Z</time>
      </trkpt>
      <trkpt lat="49.76986147463322" lon="11.411730162799358">
        <ele>458.48</ele>
        <time>2022-03-24T14:20:42Z</time>
      </trkpt>
      <trkpt lat="49.76985577493906" lon="11.411747764796019">
        <ele>458.83</ele>
        <time>2022-03-24T14:21:04Z</time>
      </trkpt>
      <trkpt lat="49.76986315101385" lon="11.411770898848772">
        <ele>458.66</ele>
        <time>2022-03-24T14:21:13Z</time>
      </trkpt>
      <trkpt lat="49.76984202861786" lon="11.411815155297518">
        <ele>457.45</ele>
        <time>2022-03-24T14:21:20Z</time>
      </trkpt>
      <trkpt lat="49.769778745248914" lon="11.41197550110519">
        <ele>460.45</ele>
        <time>2022-03-24T14:23:57Z</time>
      </trkpt>
      <trkpt lat="49.769818391650915" lon="11.412075161933899">
        <ele>461.83</ele>
        <time>2022-03-24T14:33:31Z</time>
      </trkpt>
      <trkpt lat="49.769813949242234" lon="11.412147749215364">
        <ele>462.04</ele>
        <time>2022-03-24T14:33:39Z</time>
      </trkpt>
      <trkpt lat="49.76981713436544" lon="11.412199381738901">
        <ele>462.66</ele>
        <time>2022-03-24T14:33:46Z</time>
      </trkpt>
      <trkpt lat="49.76981948129833" lon="11.412193849682808">
        <ele>463.26</ele>
        <time>2022-03-24T14:33:57Z</time>
      </trkpt>
      <trkpt lat="49.769832976162434" lon="11.41229803673923">
        <ele>464.93</ele>
        <time>2022-03-24T14:34:05Z</time>
      </trkpt>
      <trkpt lat="49.76985275745392" lon="11.412415634840727">
        <ele>467.39</ele>
        <time>2022-03-24T14:34:14Z</time>
      </trkpt>
      <trkpt lat="49.76986390538514" lon="11.412519067525864">
        <ele>468.44</ele>
        <time>2022-03-24T14:34:27Z</time>
      </trkpt>
      <trkpt lat="49.7698640730232" lon="11.412538513541222">
        <ele>469.57</ele>
        <time>2022-03-24T14:34:40Z</time>
      </trkpt>
      <trkpt lat="49.76987672969699" lon="11.412598947063088">
        <ele>469.9</ele>
        <time>2022-03-24T14:34:49Z</time>
      </trkpt>
      <trkpt lat="49.76989475078881" lon="11.412627529352903">
        <ele>470.3</ele>
        <time>2022-03-24T14:35:00Z</time>
      </trkpt>
      <trkpt lat="49.76997027173638" lon="11.412708330899477">
        <ele>471.39</ele>
        <time>2022-03-24T14:35:13Z</time>
      </trkpt>
      <trkpt lat="49.77000564336777" lon="11.412820061668754">
        <ele>472.3</ele>
        <time>2022-03-24T14:35:22Z</time>
      </trkpt>
      <trkpt lat="49.77001704275608" lon="11.412869514897466">
        <ele>469.14</ele>
        <time>2022-03-24T14:35:35Z</time>
      </trkpt>
      <trkpt lat="49.77008485235274" lon="11.41292785294354">
        <ele>464.72</ele>
        <time>2022-03-24T14:35:47Z</time>
      </trkpt>
      <trkpt lat="49.77012600749731" lon="11.41296699643135">
        <ele>462.6</ele>
        <time>2022-03-24T14:35:59Z</time>
      </trkpt>
      <trkpt lat="49.770183842629194" lon="11.41299189068377">
        <ele>460.99</ele>
        <time>2022-03-24T14:36:10Z</time>
      </trkpt>
      <trkpt lat="49.77021058090031" lon="11.41299138776958">
        <ele>459.55</ele>
        <time>2022-03-24T14:36:30Z</time>
      </trkpt>
      <trkpt lat="49.770252825692296" lon="11.413043020293117">
        <ele>456.96</ele>
        <time>2022-03-24T14:36:46Z</time>
      </trkpt>
      <trkpt lat="49.77031594142318" lon="11.413060873746872">
        <ele>456.55</ele>
        <time>2022-03-24T14:36:57Z</time>
      </trkpt>
      <trkpt lat="49.77033597417176" lon="11.413067998364568">
        <ele>456.23</ele>
        <time>2022-03-24T14:37:00Z</time>
      </trkpt>
      <trkpt lat="49.770405208691955" lon="11.413046037778258">
        <ele>454.77</ele>
        <time>2022-03-24T14:37:09Z</time>
      </trkpt>
      <trkpt lat="49.77042247541249" lon="11.41304511576891">
        <ele>454.87</ele>
        <time>2022-03-24T14:37:30Z</time>
      </trkpt>
      <trkpt lat="49.77048458531499" lon="11.413041092455387">
        <ele>456.12</ele>
        <time>2022-03-24T14:37:36Z</time>
      </trkpt>
      <trkpt lat="49.7705047018826" lon="11.413019131869078">
        <ele>453.52</ele>
        <time>2022-03-24T14:37:43Z</time>
      </trkpt>
      <trkpt lat="49.77050822228193" lon="11.413036566227674">
        <ele>453.01</ele>
        <time>2022-03-24T14:37:52Z</time>
      </trkpt>
      <trkpt lat="49.77051886729896" lon="11.413024747744203">
        <ele>452.16</ele>
        <time>2022-03-24T14:38:00Z</time>
      </trkpt>
      <trkpt lat="49.77051886729896" lon="11.413017204031348">
        <ele>451.16</ele>
        <time>2022-03-24T14:38:25Z</time>
      </trkpt>
      <trkpt lat="49.77050696499646" lon="11.412998009473085">
        <ele>452.13</ele>
        <time>2022-03-24T14:38:37Z</time>
      </trkpt>
      <trkpt lat="49.770518532022834" lon="11.41300261951983">
        <ele>452.54</ele>
        <time>2022-03-24T14:38:48Z</time>
      </trkpt>
      <trkpt lat="49.77052615955472" lon="11.412982000038028">
        <ele>451.76</ele>
        <time>2022-03-24T14:38:56Z</time>
      </trkpt>
      <trkpt lat="49.770525908097625" lon="11.41296599060297">
        <ele>450.4</ele>
        <time>2022-03-24T14:39:17Z</time>
      </trkpt>
      <trkpt lat="49.770519621670246" lon="11.412967666983604">
        <ele>448.92</ele>
        <time>2022-03-24T14:39:33Z</time>
      </trkpt>
      <trkpt lat="49.77051006630063" lon="11.412979234009981">
        <ele>448.85</ele>
        <time>2022-03-24T14:39:41Z</time>
      </trkpt>
      <trkpt lat="49.77050721645355" lon="11.412988537922502">
        <ele>448.68</ele>
        <time>2022-03-24T14:39:48Z</time>
      </trkpt>
      <trkpt lat="49.77049145847559" lon="11.412963895127177">
        <ele>448.58</ele>
        <time>2022-03-24T14:40:05Z</time>
      </trkpt>
      <trkpt lat="49.770520040765405" lon="11.412944197654724">
        <ele>448.57</ele>
        <time>2022-03-24T14:40:13Z</time>
      </trkpt>
      <trkpt lat="49.770539067685604" lon="11.412944868206978">
        <ele>448.06</ele>
        <time>2022-03-24T14:40:20Z</time>
      </trkpt>
      <trkpt lat="49.77053789421916" lon="11.412955094128847">
        <ele>447.03</ele>
        <time>2022-03-24T14:40:33Z</time>
      </trkpt>
      <trkpt lat="49.7705218847841" lon="11.412960710003972">
        <ele>446.38</ele>
        <time>2022-03-24T14:40:42Z</time>
      </trkpt>
      <trkpt lat="49.77051945403218" lon="11.41296942718327">
        <ele>446.19</ele>
        <time>2022-03-24T14:40:45Z</time>
      </trkpt>
      <trkpt lat="49.77050210349262" lon="11.412972193211317">
        <ele>445.75</ele>
        <time>2022-03-24T14:40:51Z</time>
      </trkpt>
      <trkpt lat="49.770500008016825" lon="11.412987699732184">
        <ele>445.4</ele>
        <time>2022-03-24T14:41:09Z</time>
      </trkpt>
      <trkpt lat="49.770444855093956" lon="11.41294352710247">
        <ele>445.9</ele>
        <time>2022-03-24T14:41:16Z</time>
      </trkpt>
      <trkpt lat="49.770403699949384" lon="11.412919219583273">
        <ele>444.32</ele>
        <time>2022-03-24T14:41:22Z</time>
      </trkpt>
      <trkpt lat="49.77037402801216" lon="11.412901114672422">
        <ele>443.6</ele>
        <time>2022-03-24T14:41:31Z</time>
      </trkpt>
      <trkpt lat="49.770335303619504" lon="11.412890888750553">
        <ele>447.88</ele>
        <time>2022-03-24T14:42:14Z</time>
      </trkpt>
      <trkpt lat="49.77030638605356" lon="11.412831461057067">
        <ele>448.18</ele>
        <time>2022-03-24T14:42:22Z</time>
      </trkpt>
      <trkpt lat="49.77029213681817" lon="11.412755521014333">
        <ele>449.9</ele>
        <time>2022-03-24T14:42:32Z</time>
      </trkpt>
      <trkpt lat="49.77026246488094" lon="11.412647059187293">
        <ele>450.9</ele>
        <time>2022-03-24T14:42:42Z</time>
      </trkpt>
      <trkpt lat="49.77025953121483" lon="11.412632139399648">
        <ele>451.49</ele>
        <time>2022-03-24T14:42:43Z</time>
      </trkpt>
      <trkpt lat="49.77024209685624" lon="11.412485456094146">
        <ele>452.7</ele>
        <time>2022-03-24T14:42:51Z</time>
      </trkpt>
      <trkpt lat="49.77024469524622" lon="11.41238453797996">
        <ele>453.54</ele>
        <time>2022-03-24T14:42:58Z</time>
      </trkpt>
      <trkpt lat="49.770237654447556" lon="11.412240620702505">
        <ele>454.56</ele>
        <time>2022-03-24T14:43:07Z</time>
      </trkpt>
      <trkpt lat="49.7702250815928" lon="11.412199130281806">
        <ele>452.86</ele>
        <time>2022-03-24T14:43:15Z</time>
      </trkpt>
      <trkpt lat="49.77021116763353" lon="11.4121856354177">
        <ele>447.45</ele>
        <time>2022-03-24T14:43:32Z</time>
      </trkpt>
      <trkpt lat="49.77019540965557" lon="11.41218077391386">
        <ele>445.35</ele>
        <time>2022-03-24T14:43:46Z</time>
      </trkpt>
      <trkpt lat="49.77020479738712" lon="11.412142384797335">
        <ele>446.93</ele>
        <time>2022-03-24T14:43:56Z</time>
      </trkpt>
      <trkpt lat="49.770227428525686" lon="11.412087483331561">
        <ele>446.31</ele>
        <time>2022-03-24T14:44:08Z</time>
      </trkpt>
      <trkpt lat="49.77025710046291" lon="11.412075832486153">
        <ele>444.75</ele>
        <time>2022-03-24T14:44:19Z</time>
      </trkpt>
      <trkpt lat="49.77029121480882" lon="11.41207373701036">
        <ele>444.48</ele>
        <time>2022-03-24T14:44:37Z</time>
      </trkpt>
      <trkpt lat="49.77028769440949" lon="11.412068456411362">
        <ele>441.49</ele>
        <time>2022-03-24T14:44:59Z</time>
      </trkpt>
      <trkpt lat="49.770334800705314" lon="11.41202931292355">
        <ele>438.46</ele>
        <time>2022-03-24T14:45:08Z</time>
      </trkpt>
      <trkpt lat="49.77034209296107" lon="11.411993186920881">
        <ele>436.49</ele>
        <time>2022-03-24T14:45:20Z</time>
      </trkpt>
      <trkpt lat="49.77035567164421" lon="11.411935100331903">
        <ele>435.6</ele>
        <time>2022-03-24T14:45:32Z</time>
      </trkpt>
      <trkpt lat="49.770321641117334" lon="11.411830997094512">
        <ele>432.95</ele>
        <time>2022-03-24T14:45:44Z</time>
      </trkpt>
      <trkpt lat="49.77031015790999" lon="11.411732425913215">
        <ele>430.32</ele>
        <time>2022-03-24T14:45:59Z</time>
      </trkpt>
      <trkpt lat="49.770307475700974" lon="11.411710381507874">
        <ele>425.48</ele>
        <time>2022-03-24T14:46:14Z</time>
      </trkpt>
      <trkpt lat="49.77031175047159" lon="11.41164081171155">
        <ele>420.3</ele>
        <time>2022-03-24T14:46:38Z</time>
      </trkpt>
      <trkpt lat="49.77030881680548" lon="11.411578869447112">
        <ele>418.82</ele>
        <time>2022-03-24T14:46:48Z</time>
      </trkpt>
      <trkpt lat="49.770318791270256" lon="11.411508210003376">
        <ele>419.09</ele>
        <time>2022-03-24T14:47:29Z</time>
      </trkpt>
      <trkpt lat="49.77032097056508" lon="11.411455823108554">
        <ele>417.4</ele>
        <time>2022-03-24T14:47:37Z</time>
      </trkpt>
      <trkpt lat="49.77033278904855" lon="11.411339733749628">
        <ele>414.83</ele>
        <time>2022-03-24T14:47:48Z</time>
      </trkpt>
      <trkpt lat="49.77035818621516" lon="11.411245856434107">
        <ele>412.19</ele>
        <time>2022-03-24T14:47:59Z</time>
      </trkpt>
      <trkpt lat="49.77038442157209" lon="11.411120714619756">
        <ele>410.11</ele>
        <time>2022-03-24T14:48:11Z</time>
      </trkpt>
      <trkpt lat="49.7703976649791" lon="11.411018120124936">
        <ele>408.1</ele>
        <time>2022-03-24T14:48:22Z</time>
      </trkpt>
      <trkpt lat="49.77040654979646" lon="11.411026082932949">
        <ele>409.06</ele>
        <time>2022-03-24T14:48:29Z</time>
      </trkpt>
      <trkpt lat="49.77040386758745" lon="11.411030776798725">
        <ele>408.05</ele>
        <time>2022-03-24T14:48:50Z</time>
      </trkpt>
      <trkpt lat="49.77040604688227" lon="11.41106178984046">
        <ele>405.58</ele>
        <time>2022-03-24T14:49:17Z</time>
      </trkpt>
      <trkpt lat="49.770428175106645" lon="11.411157343536615">
        <ele>402.95</ele>
        <time>2022-03-24T14:49:28Z</time>
      </trkpt>
      <trkpt lat="49.770447285845876" lon="11.411153068765998">
        <ele>402.17</ele>
        <time>2022-03-24T14:49:35Z</time>
      </trkpt>
      <trkpt lat="49.770479053258896" lon="11.411083163693547">
        <ele>400.8</ele>
        <time>2022-03-24T14:49:48Z</time>
      </trkpt>
      <trkpt lat="49.77049875073135" lon="11.411028178408742">
        <ele>399.54</ele>
        <time>2022-03-24T14:49:56Z</time>
      </trkpt>
      <trkpt lat="49.77051920257509" lon="11.41099775210023">
        <ele>401.2</ele>
        <time>2022-03-24T14:50:04Z</time>
      </trkpt>
      <trkpt lat="49.77052699774504" lon="11.411003703251481">
        <ele>400.72</ele>
        <time>2022-03-24T14:50:18Z</time>
      </trkpt>
      <trkpt lat="49.770545940846205" lon="11.410959446802735">
        <ele>399.96</ele>
        <time>2022-03-24T14:50:28Z</time>
      </trkpt>
      <trkpt lat="49.770562034100294" lon="11.410984843969345">
        <ele>398.72</ele>
        <time>2022-03-24T14:50:35Z</time>
      </trkpt>
      <trkpt lat="49.77057795971632" lon="11.410954417660832">
        <ele>398.02</ele>
        <time>2022-03-24T14:50:41Z</time>
      </trkpt>
      <trkpt lat="49.770582066848874" lon="11.410915525630116">
        <ele>397.78</ele>
        <time>2022-03-24T14:50:49Z</time>
      </trkpt>
      <trkpt lat="49.77060100995004" lon="11.410920303314924">
        <ele>397.12</ele>
        <time>2022-03-24T14:51:16Z</time>
      </trkpt>
      <trkpt lat="49.77059757336974" lon="11.410863641649485">
        <ele>395.88</ele>
        <time>2022-03-24T14:51:24Z</time>
      </trkpt>
      <trkpt lat="49.77060587145388" lon="11.410819049924612">
        <ele>393.65</ele>
        <time>2022-03-24T14:51:35Z</time>
      </trkpt>
      <trkpt lat="49.77059648372233" lon="11.41071486286819">
        <ele>392.29</ele>
        <time>2022-03-24T14:51:44Z</time>
      </trkpt>
      <trkpt lat="49.7705945558846" lon="11.41068996861577">
        <ele>390.58</ele>
        <time>2022-03-24T14:51:52Z</time>
      </trkpt>
      <trkpt lat="49.77058785036206" lon="11.41069089062512">
        <ele>389.5</ele>
        <time>2022-03-24T14:52:01Z</time>
      </trkpt>
      <trkpt lat="49.77057703770697" lon="11.41068653203547">
        <ele>388.4</ele>
        <time>2022-03-24T14:52:19Z</time>
      </trkpt>
      <trkpt lat="49.77056622505188" lon="11.410687202587724">
        <ele>386.52</ele>
        <time>2022-03-24T14:52:40Z</time>
      </trkpt>
      <trkpt lat="49.770555747672915" lon="11.41071972437203">
        <ele>387.49</ele>
        <time>2022-03-24T14:53:09Z</time>
      </trkpt>
      <trkpt lat="49.770639734342694" lon="11.410781247541308">
      </trkpt>
      <trkpt lat="49.77041342295706" lon="11.410269783809781">
      </trkpt>
      <trkpt lat="49.770205887034535" lon="11.409888658672571">
      </trkpt>
      <trkpt lat="49.76995434612036" lon="11.409658072516322">
      </trkpt>
      <trkpt lat="49.76995677687228" lon="11.409130096435547">
      </trkpt>
      <trkpt lat="49.76995677687228" lon="11.40955924987793">
      </trkpt>
      <trkpt lat="49.769790479913354" lon="11.410245895385742">
      </trkpt>
      <trkpt lat="49.76942578330636" lon="11.411224398761988">
      </trkpt>
      <trkpt lat="49.76919217966497" lon="11.411983715370297">
      </trkpt>
      <trkpt lat="49.7689866553992" lon="11.412434577941895">
      </trkpt>
      <trkpt lat="49.76840453222394" lon="11.4127779006958">
      </trkpt>
      <trkpt lat="49.76804696023464" lon="11.413224404677749">
      </trkpt>
      <trkpt lat="49.76785836741328" lon="11.41368574462831">
      </trkpt>
      <trkpt lat="49.767545303329825" lon="11.413893699645996">
      </trkpt>
      <trkpt lat="49.76721270941198" lon="11.41406536102295">
      </trkpt>
      <trkpt lat="49.76697198115289" lon="11.414437685161829">
      </trkpt>
      <trkpt lat="49.76665833033621" lon="11.414623260498047">
      </trkpt>
      <trkpt lat="49.76640603505075" lon="11.414939174428582">
      </trkpt>
      <trkpt lat="49.7661289293319" lon="11.416153376922011">
      </trkpt>
      <trkpt lat="49.766075033694506" lon="11.41672644764185">
      </trkpt>
      <trkpt lat="49.76599423214793" lon="11.417514430359006">
      </trkpt>
      <trkpt lat="49.76599305868149" lon="11.418313980102539">
      </trkpt>
      <trkpt lat="49.76587780751288" lon="11.419492224231362">
      </trkpt>
      <trkpt lat="49.76577127352357" lon="11.42080307006836">
      </trkpt>
      <trkpt lat="49.765300042927265" lon="11.421575546264648">
      </trkpt>
      <trkpt lat="49.76491196081042" lon="11.422348022460938">
      </trkpt>
      <trkpt lat="49.76460702717304" lon="11.422991752624512">
      </trkpt>
      <trkpt lat="49.76438524201512" lon="11.423721313476562">
      </trkpt>
      <trkpt lat="49.764163540676236" lon="11.424322128295898">
      </trkpt>
      <trkpt lat="49.76377537474036" lon="11.42505168914795">
      </trkpt>
      <trkpt lat="49.76363162510097" lon="11.425737999379635">
      </trkpt>
      <trkpt lat="49.763452000916004" lon="11.426397068426013">
      </trkpt>
      <trkpt lat="49.76327640004456" lon="11.42702579498291">
      </trkpt>
      <trkpt lat="49.76281447336078" lon="11.427728701382875">
      </trkpt>
      <trkpt lat="49.762500235810876" lon="11.428098678588867">
      </trkpt>
      <trkpt lat="49.762084409594536" lon="11.428871154785156">
      </trkpt>
      <trkpt lat="49.76183496415615" lon="11.429600715637207">
      </trkpt>
      <trkpt lat="49.7616408392787" lon="11.43054485321045">
      </trkpt>
      <trkpt lat="49.76141905412078" lon="11.4312744140625">
      </trkpt>
      <trkpt lat="49.76128050126135" lon="11.431961059570312">
      </trkpt>
      <trkpt lat="49.76105343550444" lon="11.432857923209667">
      </trkpt>
      <trkpt lat="49.76078395731747" lon="11.432986836880445">
      </trkpt>
      <trkpt lat="49.76044884882867" lon="11.433119773864746">
      </trkpt>
      <trkpt lat="49.7600884269923" lon="11.43350601196289">
      </trkpt>
      <trkpt lat="49.75982272066176" lon="11.433860817924142">
      </trkpt>
      <trkpt lat="49.75967260077596" lon="11.434621810913086">
      </trkpt>
      <trkpt lat="49.759589368477464" lon="11.435179710388184">
      </trkpt>
      <trkpt lat="49.75961610674858" lon="11.436053272336721">
      </trkpt>
      <trkpt lat="49.759625159204006" lon="11.43666934221983">
      </trkpt>
      <trkpt lat="49.75958023220301" lon="11.437256745994091">
      </trkpt>
      <trkpt lat="49.75942307151854" lon="11.437711715698242">
      </trkpt>
      <trkpt lat="49.759173542261124" lon="11.438484191894531">
      </trkpt>
      <trkpt lat="49.758951757103205" lon="11.43925666809082">
      </trkpt>
      <trkpt lat="49.758729971945286" lon="11.4402437210083">
      </trkpt>
      <trkpt lat="49.758535930886865" lon="11.44101619720459">
      </trkpt>
      <trkpt lat="49.758385475724936" lon="11.441769730299711">
      </trkpt>
      <trkpt lat="49.75828665308654" lon="11.442371467128396">
      </trkpt>
      <trkpt lat="49.75821473635733" lon="11.442901538684964">
      </trkpt>
      <trkpt lat="49.75822378881276" lon="11.443517608568072">
      </trkpt>
      <trkpt lat="49.75821473635733" lon="11.443804102018476">
      </trkpt>
    </trkseg>
  </trk>
</gpx>