<?xml version="1.0" encoding="utf-8"?><gpx creator="eSuchWas local" version="1.1" xsi:schemaLocation="http://www.topografix.com/GPX/1/1 http://www.topografix.com/GPX/1/1/gpx.xsd" xmlns="http://www.topografix.com/GPX/1/1" xmlns:xsi="http://www.w3.org/2001/XMLSchema-instance"><metadata><link href="http://www.et4.de"><text>eSuchWas local</text></link><time>2016-11-25T14:16:26.991398+01:00</time></metadata><trk><name>Höhlenwelten und Waldeinsamkeit</name><desc></desc><type>Wandern</type><trkseg><trkpt lat="49.664905728434853" lon="11.499166488647461" /><trkpt lat="49.66526683132404" lon="11.499552726745605" /><trkpt lat="49.665850145713947" lon="11.500325202941895" /><trkpt lat="49.666127912012854" lon="11.500711441040039" /><trkpt lat="49.6664056767258" lon="11.501355171203613" /><trkpt lat="49.6667112160783" lon="11.502213478088379" /><trkpt lat="49.667044529546963" lon="11.502900123596191" /><trkpt lat="49.667350064887074" lon="11.503114700317383" /><trkpt lat="49.6678222520927" lon="11.503114700317383" /><trkpt lat="49.668155557948957" lon="11.503157615661621" /><trkpt lat="49.668405535842439" lon="11.502943038940428" /><trkpt lat="49.668683287550792" lon="11.502728462219238" /><trkpt lat="49.668988812598272" lon="11.502299308776855" /><trkpt lat="49.669211011427478" lon="11.501827239990234" /><trkpt lat="49.669377659883338" lon="11.50144100189209" /><trkpt lat="49.669572082360233" lon="11.50118350982666" /><trkpt lat="49.669905376226971" lon="11.501054763793944" /><trkpt lat="49.670294216185134" lon="11.501054763793944" /><trkpt lat="49.670571957109338" lon="11.501054763793944" /><trkpt lat="49.670933017939866" lon="11.501140594482422" /><trkpt lat="49.67126630248152" lon="11.50118350982666" /><trkpt lat="49.671710678318" lon="11.501097679138182" /><trkpt lat="49.672127276977513" lon="11.500883102416992" /><trkpt lat="49.672654963490494" lon="11.5006685256958" /><trkpt lat="49.672877145572684" lon="11.500496864318848" /><trkpt lat="49.673071554062012" lon="11.500368118286133" /><trkpt lat="49.673265961774263" lon="11.500325202941895" /><trkpt lat="49.6734881410653" lon="11.500067710876463" /><trkpt lat="49.673654774867529" lon="11.499896049499512" /><trkpt lat="49.673849180248538" lon="11.499724388122559" /><trkpt lat="49.674154672848715" lon="11.499381065368652" /><trkpt lat="49.674210216751668" lon="11.498780250549316" /><trkpt lat="49.674321304367275" lon="11.498308181762695" /><trkpt lat="49.674599022296206" lon="11.497964859008789" /><trkpt lat="49.675209996157641" lon="11.497750282287598" /><trkpt lat="49.675237767514417" lon="11.498479843139648" /><trkpt lat="49.675293310180393" lon="11.49895191192627" /><trkpt lat="49.675265538855342" lon="11.498737335205078" /><trkpt lat="49.675237767514417" lon="11.498265266418457" /><trkpt lat="49.675432166567852" lon="11.498394012451172" /><trkpt lat="49.675904275319631" lon="11.498351097106934" /><trkpt lat="49.675987588153006" lon="11.497836112976074" /><trkpt lat="49.676181984209187" lon="11.497793197631836" /><trkpt lat="49.676431920853886" lon="11.498394012451172" /><trkpt lat="49.676459691512896" lon="11.499080657958983" /><trkpt lat="49.676154213391605" lon="11.499080657958983" /><trkpt lat="49.676015359065751" lon="11.499981880187988" /><trkpt lat="49.675793191319777" lon="11.500496864318848" /><trkpt lat="49.675598793709469" lon="11.500883102416992" /><trkpt lat="49.675654335963117" lon="11.501612663269043" /><trkpt lat="49.675987588153006" lon="11.502513885498047" /><trkpt lat="49.675987588153006" lon="11.503157615661621" /><trkpt lat="49.675737649224672" lon="11.504058837890625" /><trkpt lat="49.675793191319777" lon="11.5047025680542" /><trkpt lat="49.675820962343508" lon="11.505861282348631" /><trkpt lat="49.675793191319777" lon="11.506934165954588" /><trkpt lat="49.675376624060448" lon="11.507019996643066" /><trkpt lat="49.675626564844215" lon="11.507792472839354" /><trkpt lat="49.675820962343508" lon="11.508393287658691" /><trkpt lat="49.676070900843662" lon="11.509079933166504" /><trkpt lat="49.674987824732476" lon="11.510238647460938" /><trkpt lat="49.674571250574679" lon="11.51066780090332" /><trkpt lat="49.674154672848715" lon="11.511054039001465" /><trkpt lat="49.673765863751825" lon="11.511011123657227" /><trkpt lat="49.672877145572684" lon="11.510968208312988" /><trkpt lat="49.672071730695734" lon="11.510796546936033" /><trkpt lat="49.671460717409538" lon="11.510753631591795" /><trkpt lat="49.671071886776431" lon="11.51092529296875" /><trkpt lat="49.670710826976709" lon="11.511139869689941" /><trkpt lat="49.6701275708694" lon="11.5116548538208" /><trkpt lat="49.669710955082216" lon="11.511998176574707" /><trkpt lat="49.66923878620976" lon="11.512255668640137" /><trkpt lat="49.668766612754055" lon="11.512341499328613" /><trkpt lat="49.668405535842439" lon="11.512298583984375" /><trkpt lat="49.668044456250612" lon="11.512084007263184" /><trkpt lat="49.667405616560913" lon="11.5116548538208" /><trkpt lat="49.6669612013939" lon="11.511354446411133" /><trkpt lat="49.666516782166923" lon="11.511096954345703" /><trkpt lat="49.665989029061649" lon="11.51066780090332" /><trkpt lat="49.665600154688967" lon="11.510109901428223" /><trkpt lat="49.665211277207867" lon="11.509809494018553" /><trkpt lat="49.664905728434853" lon="11.50968074798584" /><trkpt lat="49.6646835099401" lon="11.509723663330078" /><trkpt lat="49.664489067924563" lon="11.510109901428223" /><trkpt lat="49.664211292268575" lon="11.510410308837891" /><trkpt lat="49.663794625810958" lon="11.510539054870605" /><trkpt lat="49.6633501776563" lon="11.510539054870605" /><trkpt lat="49.663044617194821" lon="11.510367393493652" /><trkpt lat="49.662766833291855" lon="11.511526107788086" /><trkpt lat="49.662072366595787" lon="11.511096954345703" /><trkpt lat="49.661739019060832" lon="11.511955261230469" /><trkpt lat="49.661294552128304" lon="11.512041091918945" /><trkpt lat="49.661016758233686" lon="11.512255668640137" /><trkpt lat="49.66082230156379" lon="11.512641906738281" /><trkpt lat="49.660766742372495" lon="11.513071060180664" /><trkpt lat="49.660572284703449" lon="11.513628959655762" /><trkpt lat="49.660266706796222" lon="11.513800621032715" /><trkpt lat="49.659988907033451" lon="11.513714790344237" /><trkpt lat="49.660072247128817" lon="11.513242721557617" /><trkpt lat="49.660072247128817" lon="11.512899398803711" /><trkpt lat="49.659461083114785" lon="11.512556076049805" /><trkpt lat="49.65912771768987" lon="11.512212753295898" /><trkpt lat="49.65882213071076" lon="11.511697769165037" /><trkpt lat="49.65857210357315" lon="11.511354446411133" /><trkpt lat="49.658210950995304" lon="11.511354446411133" /><trkpt lat="49.658655446095096" lon="11.512556076049805" /><trkpt lat="49.6587387884743" lon="11.513242721557617" /><trkpt lat="49.6587387884743" lon="11.513800621032715" /><trkpt lat="49.65882213071076" lon="11.514358520507813" /><trkpt lat="49.659016595374055" lon="11.515045166015625" /><trkpt lat="49.659183278752636" lon="11.515474319458008" /><trkpt lat="49.659183278752636" lon="11.516032218933105" /><trkpt lat="49.659099937134705" lon="11.516718864440918" /><trkpt lat="49.658961034120992" lon="11.517577171325682" /><trkpt lat="49.65882213071076" lon="11.518006324768066" /><trkpt lat="49.658794349981143" lon="11.518564224243162" /><trkpt lat="49.658516541812581" lon="11.518092155456543" /><trkpt lat="49.657960920717414" lon="11.5171480178833" /><trkpt lat="49.657377511739725" lon="11.516461372375488" /><trkpt lat="49.657016350296061" lon="11.516075134277344" /><trkpt lat="49.656544058209988" lon="11.515731811523438" /><trkpt lat="49.655905067503717" lon="11.515517234802246" /><trkpt lat="49.655460547281358" lon="11.515130996704102" /><trkpt lat="49.655154937273245" lon="11.514744758605955" /><trkpt lat="49.654821542348358" lon="11.514101028442383" /><trkpt lat="49.65446036193579" lon="11.51341438293457" /><trkpt lat="49.654071395416921" lon="11.512770652770994" /><trkpt lat="49.653626858445961" lon="11.511569023132324" /><trkpt lat="49.653460156035067" lon="11.51066780090332" /><trkpt lat="49.653154533465475" lon="11.509552001953125" /><trkpt lat="49.652293223171355" lon="11.509509086608887" /><trkpt lat="49.651543037270514" lon="11.50968074798584" /><trkpt lat="49.65115404743657" lon="11.50993824005127" /><trkpt lat="49.65134854274212" lon="11.510281562805176" /><trkpt lat="49.651376327722332" lon="11.51066780090332" /><trkpt lat="49.651209617603172" lon="11.511054039001465" /><trkpt lat="49.650987336556092" lon="11.5116548538208" /><trkpt lat="49.65079283980721" lon="11.512255668640137" /><trkpt lat="49.650542771416688" lon="11.512684822082518" /><trkpt lat="49.650209344897519" lon="11.512384414672852" /><trkpt lat="49.650348272891407" lon="11.512513160705566" /><trkpt lat="49.650459415001009" lon="11.512942314147949" /><trkpt lat="49.650209344897519" lon="11.513671874999998" /><trkpt lat="49.650098202216888" lon="11.51392936706543" /><trkpt lat="49.649681414904457" lon="11.512556076049805" /><trkpt lat="49.649320196346984" lon="11.512684822082518" /><trkpt lat="49.648986761453266" lon="11.512641906738281" /><trkpt lat="49.648681110794286" lon="11.512041091918945" /><trkpt lat="49.648486604830239" lon="11.511483192443848" /><trkpt lat="49.648236524591617" lon="11.510624885559082" /><trkpt lat="49.648236524591617" lon="11.510109901428223" /><trkpt lat="49.648236524591617" lon="11.50968074798584" /><trkpt lat="49.648319884813908" lon="11.50916576385498" /><trkpt lat="49.648319884813908" lon="11.508564949035645" /><trkpt lat="49.648292098089" lon="11.508049964904785" /><trkpt lat="49.648097590570579" lon="11.507449150085449" /><trkpt lat="49.648292098089" lon="11.507148742675781" /><trkpt lat="49.648486604830239" lon="11.506805419921875" /><trkpt lat="49.648875615981147" lon="11.50641918182373" /><trkpt lat="49.649320196346984" lon="11.506032943725586" /><trkpt lat="49.649125692936551" lon="11.505517959594727" /><trkpt lat="49.648903402372966" lon="11.504960060119627" /><trkpt lat="49.648764470255252" lon="11.50444507598877" /><trkpt lat="49.648708897297141" lon="11.503801345825195" /><trkpt lat="49.648653324275571" lon="11.503286361694336" /><trkpt lat="49.648625537741012" lon="11.502728462219238" /><trkpt lat="49.648653324275571" lon="11.501955986022947" /><trkpt lat="49.648653324275571" lon="11.501140594482422" /><trkpt lat="49.648653324275571" lon="11.500325202941895" /><trkpt lat="49.648625537741012" lon="11.499767303466797" /><trkpt lat="49.6485699646243" lon="11.4992094039917" /><trkpt lat="49.648486604830239" lon="11.498394012451172" /><trkpt lat="49.64837545821613" lon="11.497535705566406" /><trkpt lat="49.648264311348235" lon="11.496806144714355" /><trkpt lat="49.647847508333477" lon="11.49693489074707" /><trkpt lat="49.647458488966585" lon="11.497063636779785" /><trkpt lat="49.6472361907897" lon="11.496763229370117" /><trkpt lat="49.647125041320621" lon="11.496334075927734" /><trkpt lat="49.64662486556918" lon="11.496334075927734" /><trkpt lat="49.646680440906422" lon="11.495733261108398" /><trkpt lat="49.646736016180256" lon="11.495175361633299" /><trkpt lat="49.646569290168451" lon="11.494832038879395" /><trkpt lat="49.646402563585625" lon="11.494488716125488" /><trkpt lat="49.646513714704291" lon="11.493887901306152" /><trkpt lat="49.646736016180256" lon="11.492342948913574" /><trkpt lat="49.646652653245738" lon="11.491656303405762" /><trkpt lat="49.646402563585625" lon="11.491227149963377" /><trkpt lat="49.646208048517337" lon="11.490926742553711" /><trkpt lat="49.6462358364318" lon="11.490540504455566" /><trkpt lat="49.646208048517337" lon="11.49019718170166" /><trkpt lat="49.64604132069735" lon="11.48993968963623" /><trkpt lat="49.64579122789673" lon="11.489725112915039" /><trkpt lat="49.645568922106513" lon="11.489167213439941" /><trkpt lat="49.645291038441222" lon="11.488609313964844" /><trkpt lat="49.645013153189808" lon="11.488308906555174" /><trkpt lat="49.644818632570072" lon="11.488351821899412" /><trkpt lat="49.644651899991693" lon="11.488738059997559" /><trkpt lat="49.644651899991693" lon="11.489253044128418" /><trkpt lat="49.644651899991693" lon="11.489725112915039" /><trkpt lat="49.644540744622226" lon="11.490111351013184" /><trkpt lat="49.644290644113042" lon="11.49045467376709" /><trkpt lat="49.643984963968158" lon="11.490669250488281" /><trkpt lat="49.6435403348768" lon="11.491055488586426" /><trkpt lat="49.643373597920714" lon="11.491355895996092" /><trkpt lat="49.643151281090994" lon="11.491570472717285" /><trkpt lat="49.64298454280253" lon="11.491570472717285" /><trkpt lat="49.64298454280253" lon="11.491055488586426" /><trkpt lat="49.642873383626323" lon="11.490540504455566" /><trkpt lat="49.642678854457309" lon="11.490154266357422" /><trkpt lat="49.642345374073585" lon="11.489982604980469" /><trkpt lat="49.642095262286915" lon="11.489596366882324" /><trkpt lat="49.641984101080446" lon="11.489081382751465" /><trkpt lat="49.64181735879486" lon="11.488480567932129" /><trkpt lat="49.641511663121591" lon="11.487536430358887" /><trkpt lat="49.6412893377901" lon="11.488308906555174" /><trkpt lat="49.641205965529046" lon="11.488780975341797" /><trkpt lat="49.641094802292287" lon="11.48921012878418" /><trkpt lat="49.640928056961286" lon="11.489553451538086" /><trkpt lat="49.640650146807374" lon="11.489853858947754" /><trkpt lat="49.640427817542168" lon="11.489596366882324" /><trkpt lat="49.640066530321107" lon="11.489467620849609" /><trkpt lat="49.639566282051163" lon="11.489081382751465" /><trkpt lat="49.638982652574107" lon="11.488523483276367" /><trkpt lat="49.638760315695265" lon="11.488265991210938" /><trkpt lat="49.63862135463048" lon="11.48770809173584" /><trkpt lat="49.638537977801263" lon="11.48719310760498" /><trkpt lat="49.63862135463048" lon="11.486763954162598" /><trkpt lat="49.638871484261593" lon="11.486034393310547" /><trkpt lat="49.639093820632844" lon="11.485390663146971" /><trkpt lat="49.639316155988965" lon="11.484918594360352" /><trkpt lat="49.639594073756541" lon="11.48470401763916" /><trkpt lat="49.6398997814688" lon="11.484360694885254" /><trkpt lat="49.640261069927071" lon="11.48371696472168" /><trkpt lat="49.640594564586237" lon="11.483116149902344" /><trkpt lat="49.640872475057421" lon="11.482601165771484" /><trkpt lat="49.641094802292287" lon="11.482172012329102" /><trkpt lat="49.641483872510676" lon="11.48169994354248" /><trkpt lat="49.641761777906126" lon="11.481399536132813" /><trkpt lat="49.641984101080446" lon="11.481270790100098" /><trkpt lat="49.6422620036208" lon="11.481270790100098" /><trkpt lat="49.642623274551973" lon="11.481485366821287" /><trkpt lat="49.643012332556935" lon="11.481571197509764" /><trkpt lat="49.6434847559549" lon="11.481528282165526" /><trkpt lat="49.643762649930046" lon="11.481270790100098" /><trkpt lat="49.644123909726481" lon="11.480841636657715" /><trkpt lat="49.644374011092182" lon="11.480627059936522" /><trkpt lat="49.644651899991693" lon="11.480927467346191" /><trkpt lat="49.644874209969309" lon="11.481399536132813" /><trkpt lat="49.644901998645118" lon="11.481828689575195" /><trkpt lat="49.644735266352257" lon="11.482257843017578" /><trkpt lat="49.644540744622226" lon="11.482944488525391" /><trkpt lat="49.644568533488396" lon="11.483502388000487" /><trkpt lat="49.644624111173137" lon="11.48440361022949" /><trkpt lat="49.645124307480707" lon="11.484103202819824" /><trkpt lat="49.645457768830717" lon="11.483888626098633" /><trkpt lat="49.64579122789673" lon="11.483845710754395" /><trkpt lat="49.64604132069735" lon="11.484274864196777" /><trkpt lat="49.646263624330437" lon="11.484746932983398" /><trkpt lat="49.646652653245738" lon="11.484789848327637" /><trkpt lat="49.64701389159773" lon="11.484746932983398" /><trkpt lat="49.647569637674337" lon="11.484918594360352" /><trkpt lat="49.647736360260154" lon="11.485090255737305" /><trkpt lat="49.647930869221931" lon="11.485176086425781" /><trkpt lat="49.648014229967643" lon="11.484832763671875" /><trkpt lat="49.648069803718805" lon="11.484317779541016" /><trkpt lat="49.648208737819125" lon="11.48371696472168" /><trkpt lat="49.648514391444138" lon="11.483244895935059" /><trkpt lat="49.648764470255252" lon="11.483073234558105" /><trkpt lat="49.648986761453266" lon="11.483416557312012" /><trkpt lat="49.6492090516362" lon="11.483802795410156" /><trkpt lat="49.649625842993153" lon="11.483931541442871" /><trkpt lat="49.650487200488769" lon="11.483674049377441" /><trkpt lat="49.650653913082216" lon="11.484103202819824" /><trkpt lat="49.650876195651918" lon="11.484017372131348" /><trkpt lat="49.650876195651918" lon="11.48371696472168" /><trkpt lat="49.6507372691648" lon="11.483459472656248" /><trkpt lat="49.650681698458932" lon="11.483244895935059" /><trkpt lat="49.650848410386217" lon="11.483116149902344" /><trkpt lat="49.650681698458932" lon="11.482772827148438" /><trkpt lat="49.650876195651918" lon="11.482558250427244" /><trkpt lat="49.6507372691648" lon="11.482000350952148" /><trkpt lat="49.65134854274212" lon="11.482257843017578" /><trkpt lat="49.651404112686691" lon="11.48097038269043" /><trkpt lat="49.650987336556092" lon="11.480412483215332" /><trkpt lat="49.65095955135385" lon="11.479854583740234" /><trkpt lat="49.65101512174251" lon="11.479339599609375" /><trkpt lat="49.651126262329491" lon="11.478610038757322" /><trkpt lat="49.651265187706343" lon="11.478180885314941" /><trkpt lat="49.651487467484557" lon="11.478009223937988" /><trkpt lat="49.651737531021737" lon="11.477880477905273" /><trkpt lat="49.65176531577989" lon="11.478309631347656" /><trkpt lat="49.651848669959186" lon="11.479125022888184" /><trkpt lat="49.652043162489122" lon="11.47972583770752" /><trkpt lat="49.652348792037387" lon="11.480369567871094" /><trkpt lat="49.652515498254814" lon="11.480584144592283" /><trkpt lat="49.652487713924913" lon="11.481399536132813" /><trkpt lat="49.652404360839988" lon="11.482815742492676" /><trkpt lat="49.652654419666504" lon="11.482858657836914" /><trkpt lat="49.6529600453765" lon="11.482944488525391" /><trkpt lat="49.6532934530532" lon="11.483116149902344" /><trkpt lat="49.653543507311888" lon="11.483373641967773" /><trkpt lat="49.653821343870362" lon="11.483759880065918" /><trkpt lat="49.653988045044144" lon="11.484231948852539" /><trkpt lat="49.654238095734215" lon="11.485004425048828" /><trkpt lat="49.6544881451396" lon="11.485476493835447" /><trkpt lat="49.654710410199208" lon="11.485776901245117" /><trkpt lat="49.6549882400963" lon="11.485819816589355" /><trkpt lat="49.655238285647592" lon="11.485776901245117" /><trkpt lat="49.6555161125312" lon="11.485519409179687" /><trkpt lat="49.655821720271291" lon="11.485090255737305" /><trkpt lat="49.656043979240543" lon="11.48470401763916" /><trkpt lat="49.656266237194707" lon="11.484575271606445" /><trkpt lat="49.656599622222728" lon="11.484575271606445" /><trkpt lat="49.657349730185373" lon="11.484618186950684" /><trkpt lat="49.657544200732765" lon="11.484575271606445" /><trkpt lat="49.657822014452371" lon="11.484274864196777" /><trkpt lat="49.658099826585968" lon="11.484017372131348" /><trkpt lat="49.658405418101054" lon="11.483802795410156" /><trkpt lat="49.658655446095096" lon="11.483888626098633" /><trkpt lat="49.659266620227818" lon="11.484274864196777" /><trkpt lat="49.659877786684262" lon="11.484489440917967" /><trkpt lat="49.660433385892624" lon="11.48470401763916" /><trkpt lat="49.660738962753072" lon="11.484832763671875" /><trkpt lat="49.661016758233686" lon="11.485304832458496" /><trkpt lat="49.661238993476253" lon="11.485905647277832" /><trkpt lat="49.661377889987406" lon="11.486506462097168" /><trkpt lat="49.661405669242058" lon="11.487064361572266" /><trkpt lat="49.661461227703789" lon="11.487622261047363" /><trkpt lat="49.6613501107169" lon="11.488051414489746" /><trkpt lat="49.661211214126439" lon="11.488738059997559" /><trkpt lat="49.661183434760765" lon="11.489167213439941" /><trkpt lat="49.66132233143054" lon="11.489853858947754" /><trkpt lat="49.661516786102084" lon="11.490154266357422" /><trkpt lat="49.6617112399965" lon="11.490025520324707" /><trkpt lat="49.661850135159582" lon="11.489853858947754" /><trkpt lat="49.662155703122693" lon="11.490840911865234" /><trkpt lat="49.662405711846951" lon="11.491570472717285" /><trkpt lat="49.662739054814324" lon="11.492428779602051" /><trkpt lat="49.663016838875912" lon="11.493372917175293" /><trkpt lat="49.663489068140755" lon="11.49444580078125" /><trkpt lat="49.663794625810958" lon="11.495218276977537" /><trkpt lat="49.664266847526669" lon="11.496334075927734" /><trkpt lat="49.664489067924563" lon="11.497106552124022" /><trkpt lat="49.664627955157812" lon="11.498007774353027" /><trkpt lat="49.664766841994584" lon="11.498522758483887" /><trkpt lat="49.66482239661827" lon="11.498908996582031" /><trkpt lat="49.665072391639832" lon="11.499295234680176" /></trkseg></trk></gpx>