<?xml version="1.0" encoding="UTF-8"?>
<gpx version="1.1"
creator="Smartprofil-Office - http://www.rother.de"
xmlns:xsi="http://www.w3.org/2001/XMLSchema-instance"
xmlns="http://www.topografix.com/GPX/1/1"
xsi:schemaLocation="http://www.topografix.com/GPX/1/1 http://www.topografix.com/GPX/1/1/gpx.xsd">
<metadata>

<bounds minlat="57.081858962774277" minlon="8.65346803329885" maxlat="57.118036011233926" maxlon="8.729710998013616"/>
</metadata>
<wpt lat="57.095951037481427" lon="8.716187970712781">
<ele>25</ele>
<name>13_Vigsø (1)</name>
<cmt></cmt>
<desc></desc>
<sym>Crossing</sym>
</wpt>

<wpt lat="57.091194977983832" lon="8.717812970280647">
<ele>50</ele>
<name>13_Abenteuerspielplatz (2)</name>
<cmt></cmt>
<desc></desc>
<sym>Crossing</sym>
</wpt>

<wpt lat="57.081875978037715" lon="8.724610023200512">
<ele>55</ele>
<name>13_Hesseldal Bjerg (3)</name>
<cmt></cmt>
<desc></desc>
<sym>Crossing</sym>
</wpt>

<wpt lat="57.091741980984807" lon="8.724872041493654">
<ele>29</ele>
<name>13_Infotafel (4)</name>
<cmt></cmt>
<desc></desc>
<sym>Crossing</sym>
</wpt>

<wpt lat="57.100093960762024" lon="8.729710998013616">
<ele>5</ele>
<name>13_Vigsø Bugt (5)</name>
<cmt></cmt>
<desc></desc>
<sym>Crossing</sym>
</wpt>

<wpt lat="57.113063028082252" lon="8.678958993405104">
<ele>5</ele>
<name>13_Kreuzung Febbersted (6)</name>
<cmt></cmt>
<desc></desc>
<sym>Crossing</sym>
</wpt>

<wpt lat="57.117319023236632" lon="8.65346803329885">
<ele>30</ele>
<name>13_Hangaufstieg (7)</name>
<cmt></cmt>
<desc></desc>
<sym>Crossing</sym>
</wpt>

<wpt lat="57.114086039364338" lon="8.666217997670174">
<ele>70</ele>
<name>13_Hochpunkt (8)</name>
<cmt></cmt>
<desc></desc>
<sym>Crossing</sym>
</wpt>

<wpt lat="57.107211034744978" lon="8.690128969028592">
<ele>45</ele>
<name>13_Parkplatz (9)</name>
<cmt></cmt>
<desc></desc>
<sym>Crossing</sym>
</wpt>

<trk>
<name>DAN_13_HesseldalBjerg</name>
<trkseg>
<trkpt lat="57.095951037481427" lon="8.716187970712781">
<ele>25</ele>
</trkpt>
<trkpt lat="57.095847018063068" lon="8.716245973482728">
<ele>26</ele>
</trkpt>
<trkpt lat="57.095762025564909" lon="8.716446971520782">
<ele>26</ele>
</trkpt>
<trkpt lat="57.095735035836697" lon="8.716383017599583">
<ele>27</ele>
</trkpt>
<trkpt lat="57.095654988661408" lon="8.716386035084724">
<ele>27</ele>
</trkpt>
<trkpt lat="57.095587011426687" lon="8.716375976800919">
<ele>28</ele>
</trkpt>
<trkpt lat="57.095531020313501" lon="8.716317974030972">
<ele>29</ele>
</trkpt>
<trkpt lat="57.095434963703156" lon="8.716274974867702">
<ele>29</ele>
</trkpt>
<trkpt lat="57.095320969820023" lon="8.716298025101423">
<ele>30</ele>
</trkpt>
<trkpt lat="57.09529297426343" lon="8.716301964595914">
<ele>30</ele>
</trkpt>
<trkpt lat="57.095154002308846" lon="8.716224012896419">
<ele>31</ele>
</trkpt>
<trkpt lat="57.095082001760602" lon="8.716280004009605">
<ele>32</ele>
</trkpt>
<trkpt lat="57.095028022304177" lon="8.71626902371645">
<ele>32</ele>
</trkpt>
<trkpt lat="57.094931965693831" lon="8.71624999679625">
<ele>32</ele>
</trkpt>
<trkpt lat="57.094838004559278" lon="8.716202974319458">
<ele>33</ele>
</trkpt>
<trkpt lat="57.094700960442424" lon="8.716114964336157">
<ele>34</ele>
</trkpt>
<trkpt lat="57.094571040943265" lon="8.716021003201604">
<ele>34</ele>
</trkpt>
<trkpt lat="57.094538016244769" lon="8.716000970453024">
<ele>34</ele>
</trkpt>
<trkpt lat="57.094403989613056" lon="8.715912038460374">
<ele>35</ele>
</trkpt>
<trkpt lat="57.094341041520238" lon="8.715843977406621">
<ele>36</ele>
</trkpt>
<trkpt lat="57.094242973253131" lon="8.715771976858378">
<ele>36</ele>
</trkpt>
<trkpt lat="57.094200979918242" lon="8.715961994603276">
<ele>36</ele>
</trkpt>
<trkpt lat="57.094167033210397" lon="8.716134997084737">
<ele>37</ele>
</trkpt>
<trkpt lat="57.094072988256812" lon="8.716543028131127">
<ele>38</ele>
</trkpt>
<trkpt lat="57.094014985486865" lon="8.71680798009038">
<ele>38</ele>
</trkpt>
<trkpt lat="57.093986989930272" lon="8.716876041144133">
<ele>38</ele>
</trkpt>
<trkpt lat="57.093890011310577" lon="8.716999003663659">
<ele>39</ele>
</trkpt>
<trkpt lat="57.093799989670515" lon="8.71717200614512">
<ele>40</ele>
</trkpt>
<trkpt lat="57.093778029084206" lon="8.717218022793531">
<ele>40</ele>
</trkpt>
<trkpt lat="57.093649031594396" lon="8.717440981417894">
<ele>40</ele>
</trkpt>
<trkpt lat="57.093508969992399" lon="8.717670980840921">
<ele>41</ele>
</trkpt>
<trkpt lat="57.093376033008099" lon="8.717962000519037">
<ele>42</ele>
</trkpt>
<trkpt lat="57.093291040509939" lon="8.718202980235219">
<ele>42</ele>
</trkpt>
<trkpt lat="57.093211999163032" lon="8.718593996018171">
<ele>42</ele>
</trkpt>
<trkpt lat="57.093087024986744" lon="8.718558037653565">
<ele>43</ele>
</trkpt>
<trkpt lat="57.092905975878239" lon="8.718484025448561">
<ele>44</ele>
</trkpt>
<trkpt lat="57.092794999480247" lon="8.718460975214839">
<ele>44</ele>
</trkpt>
<trkpt lat="57.092794999480247" lon="8.718460975214839">
<ele>44</ele>
</trkpt>
<trkpt lat="57.092556031420827" lon="8.718398027122021">
<ele>45</ele>
</trkpt>
<trkpt lat="57.092424016445875" lon="8.718339018523693">
<ele>46</ele>
</trkpt>
<trkpt lat="57.092308010905981" lon="8.718288978561759">
<ele>46</ele>
</trkpt>
<trkpt lat="57.092124028131366" lon="8.718212032690644">
<ele>46</ele>
</trkpt>
<trkpt lat="57.092050015926361" lon="8.718175990507007">
<ele>47</ele>
</trkpt>
<trkpt lat="57.091956976801157" lon="8.718153024092317">
<ele>47</ele>
</trkpt>
<trkpt lat="57.091835020110011" lon="8.718064008280635">
<ele>48</ele>
</trkpt>
<trkpt lat="57.091665035113692" lon="8.717957977205515">
<ele>48</ele>
</trkpt>
<trkpt lat="57.091533020138741" lon="8.717905003577471">
<ele>49</ele>
</trkpt>
<trkpt lat="57.091503012925386" lon="8.717879019677639">
<ele>49</ele>
</trkpt>
<trkpt lat="57.091338979080319" lon="8.717820011079311">
<ele>50</ele>
</trkpt>
<trkpt lat="57.091194977983832" lon="8.717812970280647">
<ele>50</ele>
</trkpt>
<trkpt lat="57.091042008250952" lon="8.717725966125727">
<ele>50</ele>
</trkpt>
<trkpt lat="57.091002026572824" lon="8.717697970569134">
<ele>49</ele>
</trkpt>
<trkpt lat="57.090921979397535" lon="8.717634016647935">
<ele>48</ele>
</trkpt>
<trkpt lat="57.090828018262982" lon="8.717577019706368">
<ele>48</ele>
</trkpt>
<trkpt lat="57.090690974146128" lon="8.717523962259293">
<ele>48</ele>
</trkpt>
<trkpt lat="57.090658117085695" lon="8.71755313128233">
<ele>47</ele>
</trkpt>
<trkpt lat="57.090633977204561" lon="8.717701993882656">
<ele>46</ele>
</trkpt>
<trkpt lat="57.09060899913311" lon="8.717893017455936">
<ele>46</ele>
</trkpt>
<trkpt lat="57.090604975819588" lon="8.717897962778807">
<ele>46</ele>
</trkpt>
<trkpt lat="57.090570023283362" lon="8.718068031594157">
<ele>45</ele>
</trkpt>
<trkpt lat="57.090558037161827" lon="8.718111030757427">
<ele>45</ele>
</trkpt>
<trkpt lat="57.090529035776854" lon="8.718303982168436">
<ele>45</ele>
</trkpt>
<trkpt lat="57.090473966673017" lon="8.718390986323357">
<ele>46</ele>
</trkpt>
<trkpt lat="57.090387968346477" lon="8.718704972416163">
<ele>46</ele>
</trkpt>
<trkpt lat="57.090352009981871" lon="8.71902197599411">
<ele>46</ele>
</trkpt>
<trkpt lat="57.090275986120105" lon="8.719369992613792">
<ele>46</ele>
</trkpt>
<trkpt lat="57.090257965028286" lon="8.719563027843833">
<ele>46</ele>
</trkpt>
<trkpt lat="57.09020096808672" lon="8.719843989238143">
<ele>47</ele>
</trkpt>
<trkpt lat="57.090199962258339" lon="8.719882965087891">
<ele>47</ele>
</trkpt>
<trkpt lat="57.090164003893733" lon="8.720267023891211">
<ele>47</ele>
</trkpt>
<trkpt lat="57.09015796892345" lon="8.720328966155648">
<ele>47</ele>
</trkpt>
<trkpt lat="57.090121004730463" lon="8.720720987766981">
<ele>47</ele>
</trkpt>
<trkpt lat="57.090053027495742" lon="8.721160031855106">
<ele>48</ele>
</trkpt>
<trkpt lat="57.090061996132135" lon="8.72129799798131">
<ele>48</ele>
</trkpt>
<trkpt lat="57.09004900418222" lon="8.721378967165947">
<ele>48</ele>
</trkpt>
<trkpt lat="57.09000600501895" lon="8.721498996019363">
<ele>48</ele>
</trkpt>
<trkpt lat="57.089966023340821" lon="8.721649032086134">
<ele>48</ele>
</trkpt>
<trkpt lat="57.089935010299087" lon="8.721919013187289">
<ele>49</ele>
</trkpt>
<trkpt lat="57.089923024177551" lon="8.721981039270759">
<ele>49</ele>
</trkpt>
<trkpt lat="57.089725965633988" lon="8.722013980150223">
<ele>49</ele>
</trkpt>
<trkpt lat="57.089718002825975" lon="8.721997970715165">
<ele>49</ele>
</trkpt>
<trkpt lat="57.089607026427984" lon="8.721956983208656">
<ele>49</ele>
</trkpt>
<trkpt lat="57.089560003951192" lon="8.72192395851016">
<ele>49</ele>
</trkpt>
<trkpt lat="57.089411979541183" lon="8.721765959635377">
<ele>49</ele>
</trkpt>
<trkpt lat="57.089269990101457" lon="8.721681972965598">
<ele>50</ele>
</trkpt>
<trkpt lat="57.089119032025337" lon="8.721617013216019">
<ele>50</ele>
</trkpt>
<trkpt lat="57.088973019272089" lon="8.721451973542571">
<ele>50</ele>
</trkpt>
<trkpt lat="57.088905964046717" lon="8.721396988257766">
<ele>50</ele>
</trkpt>
<trkpt lat="57.08873899653554" lon="8.721272014081478">
<ele>50</ele>
</trkpt>
<trkpt lat="57.088586026802659" lon="8.721158020198345">
<ele>50</ele>
</trkpt>
<trkpt lat="57.088469015434384" lon="8.721074033528566">
<ele>50</ele>
</trkpt>
<trkpt lat="57.08841897547245" lon="8.721034973859787">
<ele>50</ele>
</trkpt>
<trkpt lat="57.088269023224711" lon="8.720923997461796">
<ele>49</ele>
</trkpt>
<trkpt lat="57.08824697881937" lon="8.720904970541596">
<ele>49</ele>
</trkpt>
<trkpt lat="57.088048998266459" lon="8.720752000808716">
<ele>49</ele>
</trkpt>
<trkpt lat="57.087881024926901" lon="8.720644963905215">
<ele>49</ele>
</trkpt>
<trkpt lat="57.087791003286839" lon="8.720549996942282">
<ele>49</ele>
</trkpt>
<trkpt lat="57.087636021897197" lon="8.720455029979348">
<ele>48</ele>
</trkpt>
<trkpt lat="57.087457990273833" lon="8.720356961712241">
<ele>48</ele>
</trkpt>
<trkpt lat="57.087265960872173" lon="8.720279010012746">
<ele>48</ele>
</trkpt>
<trkpt lat="57.08704300224781" lon="8.720261994749308">
<ele>48</ele>
</trkpt>
<trkpt lat="57.086778972297907" lon="8.72024598531425">
<ele>48</ele>
</trkpt>
<trkpt lat="57.086584009230137" lon="8.720251014456153">
<ele>48</ele>
</trkpt>
<trkpt lat="57.08650597371161" lon="8.72024598531425">
<ele>48</ele>
</trkpt>
<trkpt lat="57.086318973451853" lon="8.720230981707573">
<ele>48</ele>
</trkpt>
<trkpt lat="57.086129961535335" lon="8.720212038606405">
<ele>47</ele>
</trkpt>
<trkpt lat="57.08594799041748" lon="8.720189994201064">
<ele>47</ele>
</trkpt>
<trkpt lat="57.085902979597449" lon="8.720197034999728">
<ele>47</ele>
</trkpt>
<trkpt lat="57.085869032889605" lon="8.720185970887542">
<ele>47</ele>
</trkpt>
<trkpt lat="57.085784962400794" lon="8.720199968665838">
<ele>47</ele>
</trkpt>
<trkpt lat="57.085717990994453" lon="8.720206003636122">
<ele>47</ele>
</trkpt>
<trkpt lat="57.085566027089953" lon="8.720186976715922">
<ele>47</ele>
</trkpt>
<trkpt lat="57.085551023483276" lon="8.720184965059161">
<ele>47</ele>
</trkpt>
<trkpt lat="57.085371986031532" lon="8.720175996422768">
<ele>47</ele>
</trkpt>
<trkpt lat="57.085200995206833" lon="8.720189994201064">
<ele>46</ele>
</trkpt>
<trkpt lat="57.085025981068611" lon="8.720203991979361">
<ele>46</ele>
</trkpt>
<trkpt lat="57.084832023829222" lon="8.720169961452484">
<ele>46</ele>
</trkpt>
<trkpt lat="57.084662038832903" lon="8.720166021957994">
<ele>46</ele>
</trkpt>
<trkpt lat="57.084521977230906" lon="8.720158981159329">
<ele>46</ele>
</trkpt>
<trkpt lat="57.084418963640928" lon="8.720161998644471">
<ele>46</ele>
</trkpt>
<trkpt lat="57.084383005276322" lon="8.720216983929277">
<ele>46</ele>
</trkpt>
<trkpt lat="57.084212014451623" lon="8.720451006665826">
<ele>47</ele>
</trkpt>
<trkpt lat="57.084116963669658" lon="8.720572041347623">
<ele>47</ele>
</trkpt>
<trkpt lat="57.084059966728091" lon="8.720707995817065">
<ele>48</ele>
</trkpt>
<trkpt lat="57.083984026685357" lon="8.720756024122238">
<ele>48</ele>
</trkpt>
<trkpt lat="57.08388595841825" lon="8.720905976369977">
<ele>48</ele>
</trkpt>
<trkpt lat="57.083756038919091" lon="8.721122983843088">
<ele>49</ele>
</trkpt>
<trkpt lat="57.083631986752152" lon="8.721430012956262">
<ele>49</ele>
</trkpt>
<trkpt lat="57.083525033667684" lon="8.72164199128747">
<ele>50</ele>
</trkpt>
<trkpt lat="57.083401987329125" lon="8.721875008195639">
<ele>50</ele>
</trkpt>
<trkpt lat="57.083311965689063" lon="8.722168961539865">
<ele>50</ele>
</trkpt>
<trkpt lat="57.08321800455451" lon="8.72235101647675">
<ele>50</ele>
</trkpt>
<trkpt lat="57.083208030089736" lon="8.722368031740189">
<ele>50</ele>
</trkpt>
<trkpt lat="57.083096969872713" lon="8.722581015899777">
<ele>50</ele>
</trkpt>
<trkpt lat="57.083069980144501" lon="8.722641030326486">
<ele>50</ele>
</trkpt>
<trkpt lat="57.082884991541505" lon="8.72284596785903">
<ele>50</ele>
</trkpt>
<trkpt lat="57.082836041226983" lon="8.722873963415623">
<ele>50</ele>
</trkpt>
<trkpt lat="57.082776026800275" lon="8.723016958683729">
<ele>50</ele>
</trkpt>
<trkpt lat="57.082714000716805" lon="8.723135981708765">
<ele>50</ele>
</trkpt>
<trkpt lat="57.082645017653704" lon="8.723261039704084">
<ele>50</ele>
</trkpt>
<trkpt lat="57.082536974921823" lon="8.723493972793222">
<ele>50</ele>
</trkpt>
<trkpt lat="57.082485007122159" lon="8.723544012755156">
<ele>50</ele>
</trkpt>
<trkpt lat="57.082312004640698" lon="8.72374601662159">
<ele>50</ele>
</trkpt>
<trkpt lat="57.082248972728848" lon="8.723907032981515">
<ele>50</ele>
</trkpt>
<trkpt lat="57.08220899105072" lon="8.723975010216236">
<ele>50</ele>
</trkpt>
<trkpt lat="57.082089968025684" lon="8.724213978275657">
<ele>50</ele>
</trkpt>
<trkpt lat="57.082083011046052" lon="8.724223030731082">
<ele>50</ele>
</trkpt>
<trkpt lat="57.08194999024272" lon="8.724444983527064">
<ele>50</ele>
</trkpt>
<trkpt lat="57.081875978037715" lon="8.724610023200512">
<ele>55</ele>
</trkpt>
<trkpt lat="57.081858962774277" lon="8.724711025133729">
<ele>50</ele>
</trkpt>
<trkpt lat="57.081860974431038" lon="8.724814960733056">
<ele>50</ele>
</trkpt>
<trkpt lat="57.081878995522857" lon="8.724938007071614">
<ele>49</ele>
</trkpt>
<trkpt lat="57.081952001899481" lon="8.725187033414841">
<ele>49</ele>
</trkpt>
<trkpt lat="57.08199298940599" lon="8.725244030356407">
<ele>49</ele>
</trkpt>
<trkpt lat="57.082118969410658" lon="8.72540102340281">
<ele>49</ele>
</trkpt>
<trkpt lat="57.082193987444043" lon="8.725503031164408">
<ele>49</ele>
</trkpt>
<trkpt lat="57.082292977720499" lon="8.725609984248877">
<ele>48</ele>
</trkpt>
<trkpt lat="57.082382999360561" lon="8.725732024759054">
<ele>48</ele>
</trkpt>
<trkpt lat="57.082419963553548" lon="8.72580997645855">
<ele>48</ele>
</trkpt>
<trkpt lat="57.082497999072075" lon="8.725935034453869">
<ele>48</ele>
</trkpt>
<trkpt lat="57.082579974085093" lon="8.726078029721975">
<ele>47</ele>
</trkpt>
<trkpt lat="57.082601012662053" lon="8.726100996136665">
<ele>47</ele>
</trkpt>
<trkpt lat="57.08272498100996" lon="8.726254971697927">
<ele>47</ele>
</trkpt>
<trkpt lat="57.082763034850359" lon="8.726310040801764">
<ele>46</ele>
</trkpt>
<trkpt lat="57.082887003198266" lon="8.726367959752679">
<ele>46</ele>
</trkpt>
<trkpt lat="57.082949029281735" lon="8.726382963359356">
<ele>46</ele>
</trkpt>
<trkpt lat="57.083152960985899" lon="8.726482959464192">
<ele>46</ele>
</trkpt>
<trkpt lat="57.083181962370872" lon="8.726513972505927">
<ele>45</ele>
</trkpt>
<trkpt lat="57.083328980952501" lon="8.726554038003087">
<ele>45</ele>
</trkpt>
<trkpt lat="57.083445992320776" lon="8.726645987480879">
<ele>45</ele>
</trkpt>
<trkpt lat="57.083620000630617" lon="8.726790994405747">
<ele>45</ele>
</trkpt>
<trkpt lat="57.083725025877357" lon="8.726906999945641">
<ele>44</ele>
</trkpt>
<trkpt lat="57.083811024203897" lon="8.726977994665504">
<ele>44</ele>
</trkpt>
<trkpt lat="57.083972040563822" lon="8.727080002427101">
<ele>44</ele>
</trkpt>
<trkpt lat="57.084101960062981" lon="8.727196007966995">
<ele>44</ele>
</trkpt>
<trkpt lat="57.084109000861645" lon="8.727207994088531">
<ele>44</ele>
</trkpt>
<trkpt lat="57.084305975586176" lon="8.727353001013398">
<ele>43</ele>
</trkpt>
<trkpt lat="57.084330031648278" lon="8.727353001013398">
<ele>43</ele>
</trkpt>
<trkpt lat="57.084646029397845" lon="8.727373033761978">
<ele>43</ele>
</trkpt>
<trkpt lat="57.084673019126058" lon="8.727371022105217">
<ele>43</ele>
</trkpt>
<trkpt lat="57.084774021059275" lon="8.727349983528256">
<ele>43</ele>
</trkpt>
<trkpt lat="57.084923973307014" lon="8.727391976863146">
<ele>42</ele>
</trkpt>
<trkpt lat="57.085025981068611" lon="8.727438999339938">
<ele>42</ele>
</trkpt>
<trkpt lat="57.085057999938726" lon="8.727460037916899">
<ele>42</ele>
</trkpt>
<trkpt lat="57.085161013528705" lon="8.727498007938266">
<ele>42</ele>
</trkpt>
<trkpt lat="57.085179034620523" lon="8.727503959089518">
<ele>42</ele>
</trkpt>
<trkpt lat="57.085336027666926" lon="8.727633962407708">
<ele>41</ele>
</trkpt>
<trkpt lat="57.085488997399807" lon="8.727766983211041">
<ele>41</ele>
</trkpt>
<trkpt lat="57.085513975471258" lon="8.727778969332576">
<ele>41</ele>
</trkpt>
<trkpt lat="57.085672980174422" lon="8.727731024846435">
<ele>41</ele>
</trkpt>
<trkpt lat="57.085807006806135" lon="8.727556010708213">
<ele>41</ele>
</trkpt>
<trkpt lat="57.085856040939689" lon="8.727490967139602">
<ele>40</ele>
</trkpt>
<trkpt lat="57.085985038429499" lon="8.727426007390022">
<ele>40</ele>
</trkpt>
<trkpt lat="57.086223000660539" lon="8.727419972419739">
<ele>40</ele>
</trkpt>
<trkpt lat="57.086245967075229" lon="8.727419972419739">
<ele>40</ele>
</trkpt>
<trkpt lat="57.086393991485238" lon="8.727553999051452">
<ele>40</ele>
</trkpt>
<trkpt lat="57.086415030062199" lon="8.727575037628412">
<ele>39</ele>
</trkpt>
<trkpt lat="57.086545033380389" lon="8.727684002369642">
<ele>39</ele>
</trkpt>
<trkpt lat="57.086640000343323" lon="8.727732030674815">
<ele>39</ele>
</trkpt>
<trkpt lat="57.086679982021451" lon="8.727727001532912">
<ele>39</ele>
</trkpt>
<trkpt lat="57.086730021983385" lon="8.72774301096797">
<ele>39</ele>
</trkpt>
<trkpt lat="57.086833035573363" lon="8.727747034281492">
<ele>38</ele>
</trkpt>
<trkpt lat="57.086947029456496" lon="8.727739993482828">
<ele>38</ele>
</trkpt>
<trkpt lat="57.087197983637452" lon="8.727672016248107">
<ele>38</ele>
</trkpt>
<trkpt lat="57.087245006114244" lon="8.727648966014385">
<ele>38</ele>
</trkpt>
<trkpt lat="57.087534014135599" lon="8.727647960186005">
<ele>38</ele>
</trkpt>
<trkpt lat="57.087685978040099" lon="8.727676961570978">
<ele>37</ele>
</trkpt>
<trkpt lat="57.08770701661706" lon="8.727662041783333">
<ele>37</ele>
</trkpt>
<trkpt lat="57.087839031592011" lon="8.727704035118222">
<ele>37</ele>
</trkpt>
<trkpt lat="57.087964005768299" lon="8.727744016796351">
<ele>37</ele>
</trkpt>
<trkpt lat="57.088075987994671" lon="8.727751979604363">
<ele>37</ele>
</trkpt>
<trkpt lat="57.08815997466445" lon="8.72776597738266">
<ele>36</ele>
</trkpt>
<trkpt lat="57.088294001296163" lon="8.727783998474479">
<ele>36</ele>
</trkpt>
<trkpt lat="57.088306993246078" lon="8.72778601013124">
<ele>36</ele>
</trkpt>
<trkpt lat="57.088441019877791" lon="8.727805959060788">
<ele>36</ele>
</trkpt>
<trkpt lat="57.088564988225698" lon="8.727780980989337">
<ele>36</ele>
</trkpt>
<trkpt lat="57.088663978502154" lon="8.727698000147939">
<ele>35</ele>
</trkpt>
<trkpt lat="57.088789036497474" lon="8.727578977122903">
<ele>35</ele>
</trkpt>
<trkpt lat="57.088887020945549" lon="8.727556010708213">
<ele>35</ele>
</trkpt>
<trkpt lat="57.089013000950217" lon="8.727562967687845">
<ele>35</ele>
</trkpt>
<trkpt lat="57.089044013991952" lon="8.727562967687845">
<ele>35</ele>
</trkpt>
<trkpt lat="57.089183991774917" lon="8.727572020143271">
<ele>35</ele>
</trkpt>
<trkpt lat="57.089215004816651" lon="8.727577971294522">
<ele>35</ele>
</trkpt>
<trkpt lat="57.089307960122824" lon="8.727602027356625">
<ele>34</ele>
</trkpt>
<trkpt lat="57.089335033670068" lon="8.727607978507876">
<ele>34</ele>
</trkpt>
<trkpt lat="57.089439975097775" lon="8.727600015699863">
<ele>34</ele>
</trkpt>
<trkpt lat="57.089532008394599" lon="8.727553999051452">
<ele>34</ele>
</trkpt>
<trkpt lat="57.089615995064378" lon="8.727531032636762">
<ele>34</ele>
</trkpt>
<trkpt lat="57.089733006432652" lon="8.727520974352956">
<ele>34</ele>
</trkpt>
<trkpt lat="57.089906008914113" lon="8.727417038753629">
<ele>34</ele>
</trkpt>
<trkpt lat="57.089935010299087" lon="8.727396000176668">
<ele>34</ele>
</trkpt>
<trkpt lat="57.090121004730463" lon="8.727183016017079">
<ele>33</ele>
</trkpt>
<trkpt lat="57.090174984186888" lon="8.727116966620088">
<ele>33</ele>
</trkpt>
<trkpt lat="57.090345975011587" lon="8.726986041292548">
<ele>33</ele>
</trkpt>
<trkpt lat="57.090375982224941" lon="8.726953016594052">
<ele>33</ele>
</trkpt>
<trkpt lat="57.090495005249977" lon="8.726815972477198">
<ele>33</ele>
</trkpt>
<trkpt lat="57.09054596722126" lon="8.726741038262844">
<ele>32</ele>
</trkpt>
<trkpt lat="57.090647974982858" lon="8.726579016074538">
<ele>32</ele>
</trkpt>
<trkpt lat="57.090710001066327" lon="8.726468039676547">
<ele>32</ele>
</trkpt>
<trkpt lat="57.090770015493035" lon="8.726300988346338">
<ele>32</ele>
</trkpt>
<trkpt lat="57.090851990506053" lon="8.726265029981732">
<ele>32</ele>
</trkpt>
<trkpt lat="57.090975036844611" lon="8.726204009726644">
<ele>31</ele>
</trkpt>
<trkpt lat="57.091014012694359" lon="8.726209038868547">
<ele>31</ele>
</trkpt>
<trkpt lat="57.091092970222235" lon="8.726162016391754">
<ele>31</ele>
</trkpt>
<trkpt lat="57.091100011020899" lon="8.726156987249851">
<ele>31</ele>
</trkpt>
<trkpt lat="57.091251974925399" lon="8.726008962839842">
<ele>30</ele>
</trkpt>
<trkpt lat="57.091279970481992" lon="8.725985996425152">
<ele>30</ele>
</trkpt>
<trkpt lat="57.091476023197174" lon="8.725761026144028">
<ele>30</ele>
</trkpt>
<trkpt lat="57.091547017917037" lon="8.725709980353713">
<ele>30</ele>
</trkpt>
<trkpt lat="57.0916180126369" lon="8.725504959002137">
<ele>30</ele>
</trkpt>
<trkpt lat="57.091685989871621" lon="8.725178986787796">
<ele>29</ele>
</trkpt>
<trkpt lat="57.091713985428214" lon="8.725054012611508">
<ele>29</ele>
</trkpt>
<trkpt lat="57.091741980984807" lon="8.724872041493654">
<ele>29</ele>
</trkpt>
<trkpt lat="57.091757990419865" lon="8.724800040945411">
<ele>29</ele>
</trkpt>
<trkpt lat="57.091789003461599" lon="8.724647993221879">
<ele>29</ele>
</trkpt>
<trkpt lat="57.091806018725038" lon="8.724652016535401">
<ele>27</ele>
</trkpt>
<trkpt lat="57.091890005394816" lon="8.724470967426896">
<ele>27</ele>
</trkpt>
<trkpt lat="57.092017997056246" lon="8.724223030731082">
<ele>29</ele>
</trkpt>
<trkpt lat="57.092051021754742" lon="8.724173996597529">
<ele>29</ele>
</trkpt>
<trkpt lat="57.09217700175941" lon="8.724044999107719">
<ele>28</ele>
</trkpt>
<trkpt lat="57.092194017022848" lon="8.724040975794196">
<ele>27</ele>
</trkpt>
<trkpt lat="57.092351010069251" lon="8.724034018814564">
<ele>27</ele>
</trkpt>
<trkpt lat="57.092399038374424" lon="8.724068971350789">
<ele>26</ele>
</trkpt>
<trkpt lat="57.092432985082269" lon="8.724181037396193">
<ele>26</ele>
</trkpt>
<trkpt lat="57.092420998960733" lon="8.724397039040923">
<ele>27</ele>
</trkpt>
<trkpt lat="57.092426028102636" lon="8.724547997117043">
<ele>27</ele>
</trkpt>
<trkpt lat="57.092466009780765" lon="8.724701972678304">
<ele>26</ele>
</trkpt>
<trkpt lat="57.092568017542362" lon="8.724655034020543">
<ele>26</ele>
</trkpt>
<trkpt lat="57.092573968693614" lon="8.724656039848924">
<ele>25</ele>
</trkpt>
<trkpt lat="57.092573968693614" lon="8.724656039848924">
<ele>25</ele>
</trkpt>
<trkpt lat="57.092762980610132" lon="8.724441966041923">
<ele>24</ele>
</trkpt>
<trkpt lat="57.092827018350363" lon="8.724408019334078">
<ele>23</ele>
</trkpt>
<trkpt lat="57.09293195977807" lon="8.724345993250608">
<ele>25</ele>
</trkpt>
<trkpt lat="57.092964984476566" lon="8.724314980208874">
<ele>24</ele>
</trkpt>
<trkpt lat="57.09310001693666" lon="8.724235016852617">
<ele>24</ele>
</trkpt>
<trkpt lat="57.093260027468204" lon="8.724161004647613">
<ele>24</ele>
</trkpt>
<trkpt lat="57.09335801191628" lon="8.724052961915731">
<ele>24</ele>
</trkpt>
<trkpt lat="57.093527996912599" lon="8.72398498468101">
<ele>23</ele>
</trkpt>
<trkpt lat="57.09359597414732" lon="8.723937040194869">
<ele>22</ele>
</trkpt>
<trkpt lat="57.093683984130621" lon="8.723893035203219">
<ele>24</ele>
</trkpt>
<trkpt lat="57.093707034364343" lon="8.723878031596541">
<ele>24</ele>
</trkpt>
<trkpt lat="57.093857992440462" lon="8.723821034654975">
<ele>23</ele>
</trkpt>
<trkpt lat="57.094012973830104" lon="8.723760014399886">
<ele>23</ele>
</trkpt>
<trkpt lat="57.094136020168662" lon="8.723694970831275">
<ele>23</ele>
</trkpt>
<trkpt lat="57.094136020168662" lon="8.723705029115081">
<ele>22</ele>
</trkpt>
<trkpt lat="57.094199974089861" lon="8.72368298470974">
<ele>22</ele>
</trkpt>
<trkpt lat="57.09423903375864" lon="8.723673010244966">
<ele>24</ele>
</trkpt>
<trkpt lat="57.0944759901613" lon="8.723605033010244">
<ele>23</ele>
</trkpt>
<trkpt lat="57.094516977667809" lon="8.723592041060329">
<ele>22</ele>
</trkpt>
<trkpt lat="57.094657039269805" lon="8.72361701913178">
<ele>22</ele>
</trkpt>
<trkpt lat="57.094709007069468" lon="8.72362095862627">
<ele>22</ele>
</trkpt>
<trkpt lat="57.094831969588995" lon="8.723595980554819">
<ele>21</ele>
</trkpt>
<trkpt lat="57.094869017601013" lon="8.723444016650319">
<ele>21</ele>
</trkpt>
<trkpt lat="57.094938000664115" lon="8.723191972821951">
<ele>23</ele>
</trkpt>
<trkpt lat="57.094945041462779" lon="8.723173029720783">
<ele>23</ele>
</trkpt>
<trkpt lat="57.095020981505513" lon="8.722827024757862">
<ele>22</ele>
</trkpt>
<trkpt lat="57.095042020082474" lon="8.722574980929494">
<ele>22</ele>
</trkpt>
<trkpt lat="57.095159031450748" lon="8.722601970657706">
<ele>22</ele>
</trkpt>
<trkpt lat="57.095217034220695" lon="8.722603982314467">
<ele>22</ele>
</trkpt>
<trkpt lat="57.095307977870107" lon="8.722642036154866">
<ele>21</ele>
</trkpt>
<trkpt lat="57.095452984794974" lon="8.72271403670311">
<ele>23</ele>
</trkpt>
<trkpt lat="57.095491038635373" lon="8.722749995067716">
<ele>23</ele>
</trkpt>
<trkpt lat="57.095655994489789" lon="8.72288997285068">
<ele>22</ele>
</trkpt>
<trkpt lat="57.09567803889513" lon="8.722917968407273">
<ele>22</ele>
</trkpt>
<trkpt lat="57.095851041376591" lon="8.723072027787566">
<ele>21</ele>
</trkpt>
<trkpt lat="57.095913402736187" lon="8.72327696532011">
<ele>21</ele>
</trkpt>
<trkpt lat="57.095956988632679" lon="8.723645014688373">
<ele>20</ele>
</trkpt>
<trkpt lat="57.095946008339524" lon="8.723799996078014">
<ele>21</ele>
</trkpt>
<trkpt lat="57.09595799446106" lon="8.723880965262651">
<ele>21</ele>
</trkpt>
<trkpt lat="57.095962017774582" lon="8.723978027701378">
<ele>20</ele>
</trkpt>
<trkpt lat="57.095966963097453" lon="8.724214984104037">
<ele>20</ele>
</trkpt>
<trkpt lat="57.095986995846033" lon="8.724369965493679">
<ele>19</ele>
</trkpt>
<trkpt lat="57.096063019707799" lon="8.724481025710702">
<ele>19</ele>
</trkpt>
<trkpt lat="57.096081040799618" lon="8.724492006003857">
<ele>17</ele>
</trkpt>
<trkpt lat="57.096170978620648" lon="8.724595019593835">
<ele>16</ele>
</trkpt>
<trkpt lat="57.096214983612299" lon="8.724602982401848">
<ele>17</ele>
</trkpt>
<trkpt lat="57.096315985545516" lon="8.724699039012194">
<ele>16</ele>
</trkpt>
<trkpt lat="57.096435008570552" lon="8.7248420342803">
<ele>14</ele>
</trkpt>
<trkpt lat="57.096530981361866" lon="8.724872963503003">
<ele>13</ele>
</trkpt>
<trkpt lat="57.096536010503769" lon="8.724843040108681">
<ele>11</ele>
</trkpt>
<trkpt lat="57.097757002338767" lon="8.726416993886232">
<ele>9</ele>
</trkpt>
<trkpt lat="57.098843967542052" lon="8.727629017084837">
<ele>8</ele>
</trkpt>
<trkpt lat="57.099240683019161" lon="8.728200327605009">
<ele>9</ele>
</trkpt>
<trkpt lat="57.099629603326321" lon="8.728945730254054">
<ele>8</ele>
</trkpt>
<trkpt lat="57.099932357668877" lon="8.729461468756199">
<ele>6</ele>
</trkpt>
<trkpt lat="57.100093960762024" lon="8.729710998013616">
<ele>5</ele>
</trkpt>
<trkpt lat="57.100219773128629" lon="8.728644987568259">
<ele>5</ele>
</trkpt>
<trkpt lat="57.100381543859839" lon="8.727558441460133">
<ele>6</ele>
</trkpt>
<trkpt lat="57.100462345406413" lon="8.727218890562654">
<ele>6</ele>
</trkpt>
<trkpt lat="57.100634844973683" lon="8.726782277226448">
<ele>4</ele>
</trkpt>
<trkpt lat="57.100823521614075" lon="8.726549511775374">
<ele>3</ele>
</trkpt>
<trkpt lat="57.101216046139598" lon="8.726319763809443">
<ele>4</ele>
</trkpt>
<trkpt lat="57.101302966475487" lon="8.726169979199767">
<ele>4</ele>
</trkpt>
<trkpt lat="57.10156599059701" lon="8.725456008687615">
<ele>4</ele>
</trkpt>
<trkpt lat="57.101548388600349" lon="8.725262302905321">
<ele>4</ele>
</trkpt>
<trkpt lat="57.10149809718132" lon="8.724961560219526">
<ele>5</ele>
</trkpt>
<trkpt lat="57.10149809718132" lon="8.724913112819195">
<ele>5</ele>
</trkpt>
<trkpt lat="57.101532211527228" lon="8.724654363468289">
<ele>3</ele>
</trkpt>
<trkpt lat="57.101700017228723" lon="8.72441103681922">
<ele>3</ele>
</trkpt>
<trkpt lat="57.101767575368285" lon="8.724185479804874">
<ele>4</ele>
</trkpt>
<trkpt lat="57.10180445574224" lon="8.723425408825278">
<ele>4</ele>
</trkpt>
<trkpt lat="57.101786434650421" lon="8.723244359716773">
<ele>4</ele>
</trkpt>
<trkpt lat="57.10171896032989" lon="8.722885362803936">
<ele>4</ele>
</trkpt>
<trkpt lat="57.101724408566952" lon="8.722607251256704">
<ele>5</ele>
</trkpt>
<trkpt lat="57.101817782968283" lon="8.72251027263701">
<ele>5</ele>
</trkpt>
<trkpt lat="57.101959772408009" lon="8.722361493855715">
<ele>3</ele>
</trkpt>
<trkpt lat="57.102072928100824" lon="8.722096290439367">
<ele>4</ele>
</trkpt>
<trkpt lat="57.102125063538551" lon="8.721698569133878">
<ele>4</ele>
</trkpt>
<trkpt lat="57.102322624996305" lon="8.721284586936235">
<ele>4</ele>
</trkpt>
<trkpt lat="57.102376520633698" lon="8.721061460673809">
<ele>4</ele>
</trkpt>
<trkpt lat="57.102567041292787" lon="8.720247996971011">
<ele>5</ele>
</trkpt>
<trkpt lat="57.102777007967234" lon="8.719571996480227">
<ele>5</ele>
</trkpt>
<trkpt lat="57.10306903347373" lon="8.718616962432861">
<ele>3</ele>
</trkpt>
<trkpt lat="57.103030644357204" lon="8.718154197558761">
<ele>3</ele>
</trkpt>
<trkpt lat="57.103121001273394" lon="8.717737030237913">
<ele>4</ele>
</trkpt>
<trkpt lat="57.103192331269383" lon="8.717222884297371">
<ele>4</ele>
</trkpt>
<trkpt lat="57.103440267965198" lon="8.716812171041966">
<ele>4</ele>
</trkpt>
<trkpt lat="57.103542694821954" lon="8.716262402012944">
<ele>4</ele>
</trkpt>
<trkpt lat="57.103598350659013" lon="8.716107169166207">
<ele>5</ele>
</trkpt>
<trkpt lat="57.103772610425949" lon="8.715787064284086">
<ele>5</ele>
</trkpt>
<trkpt lat="57.103890040889382" lon="8.715440975502133">
<ele>3</ele>
</trkpt>
<trkpt lat="57.10399498231709" lon="8.71465802192688">
<ele>4</ele>
</trkpt>
<trkpt lat="57.104338556528091" lon="8.713840283453465">
<ele>5</ele>
</trkpt>
<trkpt lat="57.104502925649285" lon="8.713326137512922">
<ele>5</ele>
</trkpt>
<trkpt lat="57.10474549792707" lon="8.712976863607764">
<ele>5</ele>
</trkpt>
<trkpt lat="57.104856977239251" lon="8.712565982714295">
<ele>6</ele>
</trkpt>
<trkpt lat="57.105362573638558" lon="8.711201492697001">
<ele>6</ele>
</trkpt>
<trkpt lat="57.105673039332032" lon="8.710055015981197">
<ele>4</ele>
</trkpt>
<trkpt lat="57.105819806456566" lon="8.709401898086071">
<ele>4</ele>
</trkpt>
<trkpt lat="57.105981493368745" lon="8.708329852670431">
<ele>5</ele>
</trkpt>
<trkpt lat="57.106029018759727" lon="8.707770025357604">
<ele>4</ele>
</trkpt>
<trkpt lat="57.106046201661229" lon="8.707311199977994">
<ele>4</ele>
</trkpt>
<trkpt lat="57.106312997639179" lon="8.705792902037501">
<ele>4</ele>
</trkpt>
<trkpt lat="57.106489017605782" lon="8.70492696762085">
<ele>5</ele>
</trkpt>
<trkpt lat="57.106757741421461" lon="8.704007808119059">
<ele>5</ele>
</trkpt>
<trkpt lat="57.106910375878215" lon="8.702956801280379">
<ele>3</ele>
</trkpt>
<trkpt lat="57.107158983126283" lon="8.701987015083432">
<ele>3</ele>
</trkpt>
<trkpt lat="57.107470203191042" lon="8.700382634997368">
<ele>4</ele>
</trkpt>
<trkpt lat="57.107683941721916" lon="8.698809435591102">
<ele>4</ele>
</trkpt>
<trkpt lat="57.107928022742271" lon="8.6981360334903">
<ele>4</ele>
</trkpt>
<trkpt lat="57.108616009354591" lon="8.695861017331481">
<ele>4</ele>
</trkpt>
<trkpt lat="57.109139962121844" lon="8.694186983630061">
<ele>6</ele>
</trkpt>
<trkpt lat="57.109507005661726" lon="8.692835988476872">
<ele>5</ele>
</trkpt>
<trkpt lat="57.109864996746182" lon="8.691763021051884">
<ele>4</ele>
</trkpt>
<trkpt lat="57.109941439703107" lon="8.691041590645909">
<ele>5</ele>
</trkpt>
<trkpt lat="57.110203038901091" lon="8.690560972318053">
<ele>5</ele>
</trkpt>
<trkpt lat="57.110489029437304" lon="8.689986979588866">
<ele>5</ele>
</trkpt>
<trkpt lat="57.110902005806565" lon="8.689000010490418">
<ele>6</ele>
</trkpt>
<trkpt lat="57.111060004681349" lon="8.688743021339178">
<ele>7</ele>
</trkpt>
<trkpt lat="57.111333003267646" lon="8.688071966171265">
<ele>7</ele>
</trkpt>
<trkpt lat="57.111685965210199" lon="8.68726696819067">
<ele>5</ele>
</trkpt>
<trkpt lat="57.111926609650254" lon="8.686055028811097">
<ele>6</ele>
</trkpt>
<trkpt lat="57.111971536651254" lon="8.685206193476915">
<ele>7</ele>
</trkpt>
<trkpt lat="57.111860979348421" lon="8.685007290914655">
<ele>7</ele>
</trkpt>
<trkpt lat="57.111844886094332" lon="8.684742087498307">
<ele>8</ele>
</trkpt>
<trkpt lat="57.112246379256248" lon="8.683957876637578">
<ele>8</ele>
</trkpt>
<trkpt lat="57.112443102523685" lon="8.683361168950796">
<ele>9</ele>
</trkpt>
<trkpt lat="57.112788101658225" lon="8.682636804878712">
<ele>8</ele>
</trkpt>
<trkpt lat="57.112903017550707" lon="8.681839602068067">
<ele>6</ele>
</trkpt>
<trkpt lat="57.113089933991432" lon="8.680780632421374">
<ele>5</ele>
</trkpt>
<trkpt lat="57.113073673099279" lon="8.680238910019398">
<ele>6</ele>
</trkpt>
<trkpt lat="57.112984824925661" lon="8.679456291720271">
<ele>5</ele>
</trkpt>
<trkpt lat="57.113063028082252" lon="8.678958993405104">
<ele>5</ele>
</trkpt>
<trkpt lat="57.113038636744022" lon="8.678554063662887">
<ele>5</ele>
</trkpt>
<trkpt lat="57.1131572406739" lon="8.677957439795137">
<ele>5</ele>
</trkpt>
<trkpt lat="57.113389000296593" lon="8.677380178123713">
<ele>5</ele>
</trkpt>
<trkpt lat="57.113472567871213" lon="8.67706979624927">
<ele>5</ele>
</trkpt>
<trkpt lat="57.113496791571379" lon="8.677040627226234">
<ele>5</ele>
</trkpt>
<trkpt lat="57.113844472914934" lon="8.67633244022727">
<ele>5</ele>
</trkpt>
<trkpt lat="57.114028036594391" lon="8.675894988700748">
<ele>5</ele>
</trkpt>
<trkpt lat="57.114669000729918" lon="8.673405982553959">
<ele>5</ele>
</trkpt>
<trkpt lat="57.114960020408034" lon="8.67166799493134">
<ele>5</ele>
</trkpt>
<trkpt lat="57.115263026207685" lon="8.66999396122992">
<ele>5</ele>
</trkpt>
<trkpt lat="57.115774992853403" lon="8.666645977646112">
<ele>8</ele>
</trkpt>
<trkpt lat="57.116508996114135" lon="8.663964020088315">
<ele>11</ele>
</trkpt>
<trkpt lat="57.117254985496402" lon="8.660058975219727">
<ele>14</ele>
</trkpt>
<trkpt lat="57.117768041789532" lon="8.657011985778809">
<ele>18</ele>
</trkpt>
<trkpt lat="57.118036011233926" lon="8.655745983123779">
<ele>21</ele>
</trkpt>
<trkpt lat="57.118005501106381" lon="8.655187916010618">
<ele>24</ele>
</trkpt>
<trkpt lat="57.117755971848965" lon="8.653622008860111">
<ele>27</ele>
</trkpt>
<trkpt lat="57.117319023236632" lon="8.65346803329885">
<ele>30</ele>
</trkpt>
<trkpt lat="57.117184996604919" lon="8.65381496027112">
<ele>34</ele>
</trkpt>
<trkpt lat="57.116888025775552" lon="8.654232965782285">
<ele>38</ele>
</trkpt>
<trkpt lat="57.116830023005605" lon="8.655092027038336">
<ele>42</ele>
</trkpt>
<trkpt lat="57.116479994729161" lon="8.65660403855145">
<ele>46</ele>
</trkpt>
<trkpt lat="57.115909019485116" lon="8.658449985086918">
<ele>50</ele>
</trkpt>
<trkpt lat="57.115076025947928" lon="8.661914980039001">
<ele>54</ele>
</trkpt>
<trkpt lat="57.114610746502876" lon="8.663922613486648">
<ele>58</ele>
</trkpt>
<trkpt lat="57.114493986591697" lon="8.66459702141583">
<ele>62</ele>
</trkpt>
<trkpt lat="57.114416705444455" lon="8.664994658902288">
<ele>66</ele>
</trkpt>
<trkpt lat="57.114086039364338" lon="8.666217997670174">
<ele>70</ele>
</trkpt>
<trkpt lat="57.113952348008752" lon="8.667347291484475">
<ele>68</ele>
</trkpt>
<trkpt lat="57.113898452371359" lon="8.668152540922165">
<ele>66</ele>
</trkpt>
<trkpt lat="57.113776998594403" lon="8.669200027361512">
<ele>63</ele>
</trkpt>
<trkpt lat="57.11364297196269" lon="8.670272994786501">
<ele>61</ele>
</trkpt>
<trkpt lat="57.11353300139308" lon="8.670874983072281">
<ele>59</ele>
</trkpt>
<trkpt lat="57.113481033593416" lon="8.671145970001817">
<ele>57</ele>
</trkpt>
<trkpt lat="57.113449014723301" lon="8.671283014118671">
<ele>55</ele>
</trkpt>
<trkpt lat="57.11338497698307" lon="8.671555006876588">
<ele>52</ele>
</trkpt>
<trkpt lat="57.1133419778198" lon="8.671616027131677">
<ele>50</ele>
</trkpt>
<trkpt lat="57.113196970894933" lon="8.671522988006473">
<ele>48</ele>
</trkpt>
<trkpt lat="57.113076020032167" lon="8.67173102684319">
<ele>45</ele>
</trkpt>
<trkpt lat="57.113046012818813" lon="8.671875027939677">
<ele>43</ele>
</trkpt>
<trkpt lat="57.113032015040517" lon="8.672165963798761">
<ele>40</ele>
</trkpt>
<trkpt lat="57.113074008375406" lon="8.672302002087236">
<ele>38</ele>
</trkpt>
<trkpt lat="57.113150032237172" lon="8.672537030652165">
<ele>35</ele>
</trkpt>
<trkpt lat="57.11318900808692" lon="8.672814974561334">
<ele>32</ele>
</trkpt>
<trkpt lat="57.113194037228823" lon="8.672965010628104">
<ele>30</ele>
</trkpt>
<trkpt lat="57.113110972568393" lon="8.673401959240437">
<ele>27</ele>
</trkpt>
<trkpt lat="57.112962026149035" lon="8.674205029383302">
<ele>25</ele>
</trkpt>
<trkpt lat="57.112720040604472" lon="8.675277996808291">
<ele>22</ele>
</trkpt>
<trkpt lat="57.112507978454232" lon="8.676203023642302">
<ele>21</ele>
</trkpt>
<trkpt lat="57.112552737817168" lon="8.676490942016244">
<ele>20</ele>
</trkpt>
<trkpt lat="57.112506972625852" lon="8.676978014409542">
<ele>20</ele>
</trkpt>
<trkpt lat="57.112320978194475" lon="8.677354026585817">
<ele>19</ele>
</trkpt>
<trkpt lat="57.112041022628546" lon="8.678041007369757">
<ele>18</ele>
</trkpt>
<trkpt lat="57.112017972394824" lon="8.678502012044191">
<ele>17</ele>
</trkpt>
<trkpt lat="57.112044040113688" lon="8.678839970380068">
<ele>16</ele>
</trkpt>
<trkpt lat="57.111622178927064" lon="8.679671538993716">
<ele>16</ele>
</trkpt>
<trkpt lat="57.111417995765805" lon="8.680358016863465">
<ele>15</ele>
</trkpt>
<trkpt lat="57.111281035467982" lon="8.681446993723512">
<ele>14</ele>
</trkpt>
<trkpt lat="57.111038966104388" lon="8.682535970583558">
<ele>16</ele>
</trkpt>
<trkpt lat="57.110770996659994" lon="8.683028994128108">
<ele>18</ele>
</trkpt>
<trkpt lat="57.110392972826958" lon="8.684215033426881">
<ele>21</ele>
</trkpt>
<trkpt lat="57.110346034169197" lon="8.684483002871275">
<ele>23</ele>
</trkpt>
<trkpt lat="57.109984019771218" lon="8.685277020558715">
<ele>25</ele>
</trkpt>
<trkpt lat="57.109285974875093" lon="8.687341986224055">
<ele>27</ele>
</trkpt>
<trkpt lat="57.108721034601331" lon="8.688699016347528">
<ele>29</ele>
</trkpt>
<trkpt lat="57.108323983848095" lon="8.689188016578555">
<ele>32</ele>
</trkpt>
<trkpt lat="57.108156010508537" lon="8.689474007114768">
<ele>34</ele>
</trkpt>
<trkpt lat="57.10777304135263" lon="8.689852030947805">
<ele>36</ele>
</trkpt>
<trkpt lat="57.107746973633766" lon="8.690120000392199">
<ele>38</ele>
</trkpt>
<trkpt lat="57.107595009729266" lon="8.690098961815238">
<ele>40</ele>
</trkpt>
<trkpt lat="57.107458300888538" lon="8.690141038969159">
<ele>41</ele>
</trkpt>
<trkpt lat="57.107334332540631" lon="8.690086053684354">
<ele>43</ele>
</trkpt>
<trkpt lat="57.107211034744978" lon="8.690128969028592">
<ele>45</ele>
</trkpt>
<trkpt lat="57.107252022251487" lon="8.691037986427546">
<ele>44</ele>
</trkpt>
<trkpt lat="57.107095029205084" lon="8.691269997507334">
<ele>44</ele>
</trkpt>
<trkpt lat="57.106762016192079" lon="8.69128399528563">
<ele>44</ele>
</trkpt>
<trkpt lat="57.106459010392427" lon="8.691118033602834">
<ele>43</ele>
</trkpt>
<trkpt lat="57.106418022885919" lon="8.691231021657586">
<ele>42</ele>
</trkpt>
<trkpt lat="57.106452975422144" lon="8.691461021080613">
<ele>42</ele>
</trkpt>
<trkpt lat="57.106820018962026" lon="8.692002994939685">
<ele>42</ele>
</trkpt>
<trkpt lat="57.106867041438818" lon="8.692270964384079">
<ele>41</ele>
</trkpt>
<trkpt lat="57.106883972883224" lon="8.692641025409102">
<ele>40</ele>
</trkpt>
<trkpt lat="57.106797974556684" lon="8.69302399456501">
<ele>40</ele>
</trkpt>
<trkpt lat="57.10653000511229" lon="8.694085981696844">
<ele>40</ele>
</trkpt>
<trkpt lat="57.10618601180613" lon="8.695271015167236">
<ele>39</ele>
</trkpt>
<trkpt lat="57.105704974383116" lon="8.697925982996821">
<ele>38</ele>
</trkpt>
<trkpt lat="57.105416972190142" lon="8.698800969868898">
<ele>38</ele>
</trkpt>
<trkpt lat="57.105299960821867" lon="8.699177987873554">
<ele>38</ele>
</trkpt>
<trkpt lat="57.105323011055589" lon="8.699414022266865">
<ele>37</ele>
</trkpt>
<trkpt lat="57.105200970545411" lon="8.699863962829113">
<ele>36</ele>
</trkpt>
<trkpt lat="57.105159983038902" lon="8.701195009052753">
<ele>36</ele>
</trkpt>
<trkpt lat="57.104871980845928" lon="8.701726002618671">
<ele>36</ele>
</trkpt>
<trkpt lat="57.104749018326402" lon="8.702170997858048">
<ele>35</ele>
</trkpt>
<trkpt lat="57.10472596809268" lon="8.702712971717119">
<ele>35</ele>
</trkpt>
<trkpt lat="57.104522036388516" lon="8.703196020796895">
<ele>34</ele>
</trkpt>
<trkpt lat="57.104391027241945" lon="8.703676974400878">
<ele>34</ele>
</trkpt>
<trkpt lat="57.104495968669653" lon="8.703899011015892">
<ele>33</ele>
</trkpt>
<trkpt lat="57.104451041668653" lon="8.704264964908361">
<ele>33</ele>
</trkpt>
<trkpt lat="57.103735981509089" lon="8.705977974459529">
<ele>33</ele>
</trkpt>
<trkpt lat="57.103111026808619" lon="8.707476994022727">
<ele>32</ele>
</trkpt>
<trkpt lat="57.102367635816336" lon="8.708455832675099">
<ele>32</ele>
</trkpt>
<trkpt lat="57.102493029087782" lon="8.709047008305788">
<ele>31</ele>
</trkpt>
<trkpt lat="57.102116011083126" lon="8.71008200570941">
<ele>31</ele>
</trkpt>
<trkpt lat="57.10148099809885" lon="8.712357021868229">
<ele>31</ele>
</trkpt>
<trkpt lat="57.100927038118243" lon="8.713632998988032">
<ele>30</ele>
</trkpt>
<trkpt lat="57.10070600733161" lon="8.714599013328552">
<ele>30</ele>
</trkpt>
<trkpt lat="57.100122962146997" lon="8.714276980608702">
<ele>29</ele>
</trkpt>
<trkpt lat="57.09935400635004" lon="8.713784040883184">
<ele>29</ele>
</trkpt>
<trkpt lat="57.098671970888972" lon="8.713478017598391">
<ele>28</ele>
</trkpt>
<trkpt lat="57.098254971206188" lon="8.713225973770022">
<ele>28</ele>
</trkpt>
<trkpt lat="57.098104013130069" lon="8.712673019617796">
<ele>27</ele>
</trkpt>
<trkpt lat="57.097808970138431" lon="8.712033983319998">
<ele>27</ele>
</trkpt>
<trkpt lat="57.096803979948163" lon="8.714560959488154">
<ele>26</ele>
</trkpt>
<trkpt lat="57.096210038289428" lon="8.716318979859352">
<ele>26</ele>
</trkpt>
<trkpt lat="57.096167039126158" lon="8.716481002047658">
<ele>25</ele>
</trkpt>
<trkpt lat="57.095951037481427" lon="8.716187970712781">
<ele>25</ele>
</trkpt>
</trkseg>
</trk>
</gpx>
