<?xml version="1.0" encoding="UTF-8"?>
<gpx version="1.1"
creator="Smartprofil-Office - http://www.rother.de"
xmlns:xsi="http://www.w3.org/2001/XMLSchema-instance"
xmlns="http://www.topografix.com/GPX/1/1"
xsi:schemaLocation="http://www.topografix.com/GPX/1/1 http://www.topografix.com/GPX/1/1/gpx.xsd">
<metadata>

<bounds minlat="57.107674973085523" minlon="8.587423246353865" maxlat="57.122838841751218" maxlon="8.653000993654132"/>
</metadata>
<wpt lat="57.107674973085523" lon="8.589783003553748">
<ele>10</ele>
<name>14_Hanstholm (1)</name>
<cmt></cmt>
<desc></desc>
<sym>Crossing</sym>
</wpt>

<wpt lat="57.112766979262233" lon="8.598763961344957">
<ele>47</ele>
<name>14_Hanstholm Fyr (2)</name>
<cmt></cmt>
<desc></desc>
<sym>Crossing</sym>
</wpt>

<wpt lat="57.117911959066987" lon="8.601784966886044">
<ele>40</ele>
<name>14_Skulpturenpark (3)</name>
<cmt></cmt>
<desc></desc>
<sym>Crossing</sym>
</wpt>

<wpt lat="57.121901996433735" lon="8.612756039947271">
<ele>48</ele>
<name>14_Bunker 4 (4)</name>
<cmt></cmt>
<desc></desc>
<sym>Crossing</sym>
</wpt>

<wpt lat="57.120810002088547" lon="8.616996025666595">
<ele>45</ele>
<name>14_Bunkermuseum (5)</name>
<cmt></cmt>
<desc></desc>
<sym>Crossing</sym>
</wpt>

<wpt lat="57.119168993085623" lon="8.626734036952257">
<ele>55</ele>
<name>14_Str. 26 (6)</name>
<cmt></cmt>
<desc></desc>
<sym>Crossing</sym>
</wpt>

<wpt lat="57.117145014926791" lon="8.652290962636471">
<ele>46</ele>
<name>14_Grønnedal (7)</name>
<cmt></cmt>
<desc></desc>
<sym>Crossing</sym>
</wpt>

<wpt lat="57.12060104124248" lon="8.639248972758651">
<ele>28</ele>
<name>14_Holztor (8)</name>
<cmt></cmt>
<desc></desc>
<sym>Crossing</sym>
</wpt>

<wpt lat="57.122575985267758" lon="8.618088020011783">
<ele>46</ele>
<name>14_Ildledelsesbunker (9)</name>
<cmt></cmt>
<desc></desc>
<sym>Crossing</sym>
</wpt>

<trk>
<name>DAN_14_Hanstholm</name>
<trkseg>
<trkpt lat="57.107674973085523" lon="8.589783003553748">
<ele>10</ele>
</trkpt>
<trkpt lat="57.107757031917572" lon="8.589241029694676">
<ele>10</ele>
</trkpt>
<trkpt lat="57.107884017750621" lon="8.589046988636255">
<ele>9</ele>
</trkpt>
<trkpt lat="57.108170762658119" lon="8.588829897344112">
<ele>9</ele>
</trkpt>
<trkpt lat="57.108574016019702" lon="8.588695032522082">
<ele>8</ele>
</trkpt>
<trkpt lat="57.109085144475102" lon="8.588462853804231">
<ele>8</ele>
</trkpt>
<trkpt lat="57.10923601873219" lon="8.58821801841259">
<ele>8</ele>
</trkpt>
<trkpt lat="57.10938697680831" lon="8.587762797251344">
<ele>7</ele>
</trkpt>
<trkpt lat="57.109410362318158" lon="8.587429700419307">
<ele>7</ele>
</trkpt>
<trkpt lat="57.109530726447701" lon="8.587584933266044">
<ele>6</ele>
</trkpt>
<trkpt lat="57.109832558780909" lon="8.587636649608612">
<ele>6</ele>
</trkpt>
<trkpt lat="57.109963987022638" lon="8.587721977382898">
<ele>7</ele>
</trkpt>
<trkpt lat="57.110035484656692" lon="8.58852437697351">
<ele>8</ele>
</trkpt>
<trkpt lat="57.110097007825971" lon="8.589267013594508">
<ele>10</ele>
</trkpt>
<trkpt lat="57.110342010855675" lon="8.589269025251269">
<ele>11</ele>
</trkpt>
<trkpt lat="57.110390961170197" lon="8.58901496976614">
<ele>12</ele>
</trkpt>
<trkpt lat="57.110552899539471" lon="8.588889827951789">
<ele>13</ele>
</trkpt>
<trkpt lat="57.110666139051318" lon="8.589193839579821">
<ele>14</ele>
</trkpt>
<trkpt lat="57.111229989677668" lon="8.589886017143726">
<ele>16</ele>
</trkpt>
<trkpt lat="57.1117930021137" lon="8.590177036821842">
<ele>17</ele>
</trkpt>
<trkpt lat="57.11252499371767" lon="8.590168990194798">
<ele>18</ele>
</trkpt>
<trkpt lat="57.113094292581081" lon="8.590551959350705">
<ele>20</ele>
</trkpt>
<trkpt lat="57.1137719694525" lon="8.591472040861845">
<ele>23</ele>
</trkpt>
<trkpt lat="57.11399526335299" lon="8.591840593144298">
<ele>25</ele>
</trkpt>
<trkpt lat="57.113918904215097" lon="8.592340154573321">
<ele>28</ele>
</trkpt>
<trkpt lat="57.113329656422138" lon="8.593559302389622">
<ele>30</ele>
</trkpt>
<trkpt lat="57.113313982263207" lon="8.594392966479063">
<ele>32</ele>
</trkpt>
<trkpt lat="57.112934030592442" lon="8.596033975481987">
<ele>35</ele>
</trkpt>
<trkpt lat="57.112933527678251" lon="8.596349973231554">
<ele>37</ele>
</trkpt>
<trkpt lat="57.112992787733674" lon="8.596712155267596">
<ele>40</ele>
</trkpt>
<trkpt lat="57.11296227760613" lon="8.597792247310281">
<ele>42</ele>
</trkpt>
<trkpt lat="57.11291098035872" lon="8.598015960305929">
<ele>45</ele>
</trkpt>
<trkpt lat="57.112766979262233" lon="8.598763961344957">
<ele>47</ele>
</trkpt>
<trkpt lat="57.112968983128667" lon="8.597733993083239">
<ele>47</ele>
</trkpt>
<trkpt lat="57.112991027534008" lon="8.596702516078949">
<ele>46</ele>
</trkpt>
<trkpt lat="57.112946100533009" lon="8.596346788108349">
<ele>46</ele>
</trkpt>
<trkpt lat="57.112949704751372" lon="8.596003968268633">
<ele>45</ele>
</trkpt>
<trkpt lat="57.113005025312304" lon="8.59580397605896">
<ele>45</ele>
</trkpt>
<trkpt lat="57.113311719149351" lon="8.594400091096759">
<ele>45</ele>
</trkpt>
<trkpt lat="57.113331416621804" lon="8.593543125316501">
<ele>44</ele>
</trkpt>
<trkpt lat="57.113918904215097" lon="8.592343339696527">
<ele>44</ele>
</trkpt>
<trkpt lat="57.114003393799067" lon="8.591845370829105">
<ele>43</ele>
</trkpt>
<trkpt lat="57.114688027650118" lon="8.591377912089229">
<ele>43</ele>
</trkpt>
<trkpt lat="57.114853318780661" lon="8.591112792491913">
<ele>43</ele>
</trkpt>
<trkpt lat="57.115206448361278" lon="8.591128885746002">
<ele>43</ele>
</trkpt>
<trkpt lat="57.115495707839727" lon="8.591410266235471">
<ele>44</ele>
</trkpt>
<trkpt lat="57.115707686170936" lon="8.591717462986708">
<ele>44</ele>
</trkpt>
<trkpt lat="57.115887394174933" lon="8.592015020549297">
<ele>44</ele>
</trkpt>
<trkpt lat="57.116043968126178" lon="8.592522041872144">
<ele>44</ele>
</trkpt>
<trkpt lat="57.116101970896125" lon="8.59328898601234">
<ele>44</ele>
</trkpt>
<trkpt lat="57.116273632273078" lon="8.594010248780251">
<ele>45</ele>
</trkpt>
<trkpt lat="57.116407994180918" lon="8.594636041671038">
<ele>45</ele>
</trkpt>
<trkpt lat="57.116732038557529" lon="8.594854976981878">
<ele>45</ele>
</trkpt>
<trkpt lat="57.116847038269043" lon="8.595324028283358">
<ele>45</ele>
</trkpt>
<trkpt lat="57.116890707984567" lon="8.595746895298362">
<ele>44</ele>
</trkpt>
<trkpt lat="57.116926666349173" lon="8.595970021560788">
<ele>44</ele>
</trkpt>
<trkpt lat="57.117160186171532" lon="8.596409903839231">
<ele>43</ele>
</trkpt>
<trkpt lat="57.117402004078031" lon="8.59868299216032">
<ele>43</ele>
</trkpt>
<trkpt lat="57.117564445361495" lon="8.599714804440737">
<ele>42</ele>
</trkpt>
<trkpt lat="57.117609959095716" lon="8.600239008665085">
<ele>42</ele>
</trkpt>
<trkpt lat="57.117456654086709" lon="8.601011568680406">
<ele>42</ele>
</trkpt>
<trkpt lat="57.117585986852646" lon="8.60125414095819">
<ele>41</ele>
</trkpt>
<trkpt lat="57.117700986564159" lon="8.601063368842006">
<ele>41</ele>
</trkpt>
<trkpt lat="57.118000974878669" lon="8.601289009675384">
<ele>40</ele>
</trkpt>
<trkpt lat="57.117911959066987" lon="8.601784966886044">
<ele>40</ele>
</trkpt>
<trkpt lat="57.117939032614231" lon="8.601941959932447">
<ele>41</ele>
</trkpt>
<trkpt lat="57.118271039798856" lon="8.602200960740447">
<ele>42</ele>
</trkpt>
<trkpt lat="57.11877797730267" lon="8.602847037836909">
<ele>44</ele>
</trkpt>
<trkpt lat="57.119019459933043" lon="8.603605013340712">
<ele>45</ele>
</trkpt>
<trkpt lat="57.119259014725685" lon="8.604159979149699">
<ele>46</ele>
</trkpt>
<trkpt lat="57.119494965299964" lon="8.604574967175722">
<ele>47</ele>
</trkpt>
<trkpt lat="57.11965698748827" lon="8.604705976322293">
<ele>48</ele>
</trkpt>
<trkpt lat="57.119968039914966" lon="8.605348030105233">
<ele>50</ele>
</trkpt>
<trkpt lat="57.120136013254523" lon="8.605959992855787">
<ele>51</ele>
</trkpt>
<trkpt lat="57.120317984372377" lon="8.606225028634071">
<ele>52</ele>
</trkpt>
<trkpt lat="57.120564999058843" lon="8.606970012187958">
<ele>51</ele>
</trkpt>
<trkpt lat="57.120599029585719" lon="8.60725499689579">
<ele>51</ele>
</trkpt>
<trkpt lat="57.120806984603405" lon="8.607889004051685">
<ele>50</ele>
</trkpt>
<trkpt lat="57.121114013716578" lon="8.608591994270682">
<ele>50</ele>
</trkpt>
<trkpt lat="57.121071014553308" lon="8.608811013400555">
<ele>49</ele>
</trkpt>
<trkpt lat="57.121174028143287" lon="8.609154000878334">
<ele>48</ele>
</trkpt>
<trkpt lat="57.121342001482844" lon="8.609142014756799">
<ele>48</ele>
</trkpt>
<trkpt lat="57.121472004801035" lon="8.609645012766123">
<ele>47</ele>
</trkpt>
<trkpt lat="57.121747015044093" lon="8.61067296937108">
<ele>47</ele>
</trkpt>
<trkpt lat="57.121708039194345" lon="8.611010005697608">
<ele>46</ele>
</trkpt>
<trkpt lat="57.121607037261128" lon="8.611270012333989">
<ele>46</ele>
</trkpt>
<trkpt lat="57.121661016717553" lon="8.611312005668879">
<ele>47</ele>
</trkpt>
<trkpt lat="57.121825972571969" lon="8.611743003129959">
<ele>47</ele>
</trkpt>
<trkpt lat="57.121876012533903" lon="8.61202497035265">
<ele>47</ele>
</trkpt>
<trkpt lat="57.121800994500518" lon="8.612232003360987">
<ele>47</ele>
</trkpt>
<trkpt lat="57.121814992278814" lon="8.612511036917567">
<ele>48</ele>
</trkpt>
<trkpt lat="57.121901996433735" lon="8.612756039947271">
<ele>48</ele>
</trkpt>
<trkpt lat="57.121991012245417" lon="8.612896017730236">
<ele>48</ele>
</trkpt>
<trkpt lat="57.122004004195333" lon="8.613002970814705">
<ele>47</ele>
</trkpt>
<trkpt lat="57.122136019170284" lon="8.613379988819361">
<ele>46</ele>
</trkpt>
<trkpt lat="57.122151022776961" lon="8.613717025145888">
<ele>46</ele>
</trkpt>
<trkpt lat="57.122189998626709" lon="8.613863037899137">
<ele>46</ele>
</trkpt>
<trkpt lat="57.12223500944674" lon="8.614358995109797">
<ele>45</ele>
</trkpt>
<trkpt lat="57.122313966974616" lon="8.615024015307427">
<ele>44</ele>
</trkpt>
<trkpt lat="57.122118333354592" lon="8.615303551778197">
<ele>44</ele>
</trkpt>
<trkpt lat="57.121945917606354" lon="8.615284189581871">
<ele>44</ele>
</trkpt>
<trkpt lat="57.121849022805691" lon="8.615169022232294">
<ele>43</ele>
</trkpt>
<trkpt lat="57.121713990345597" lon="8.615115964785218">
<ele>43</ele>
</trkpt>
<trkpt lat="57.121617095544934" lon="8.615180589258671">
<ele>44</ele>
</trkpt>
<trkpt lat="57.12148055434227" lon="8.615235574543476">
<ele>44</ele>
</trkpt>
<trkpt lat="57.121264971792698" lon="8.615510417148471">
<ele>44</ele>
</trkpt>
<trkpt lat="57.121090712025762" lon="8.616225142031908">
<ele>44</ele>
</trkpt>
<trkpt lat="57.120916368439794" lon="8.616989906877279">
<ele>45</ele>
</trkpt>
<trkpt lat="57.120810002088547" lon="8.616996025666595">
<ele>45</ele>
</trkpt>
<trkpt lat="57.120576985180378" lon="8.617882998660207">
<ele>45</ele>
</trkpt>
<trkpt lat="57.120396019890904" lon="8.618054995313287">
<ele>46</ele>
</trkpt>
<trkpt lat="57.120410604402423" lon="8.618558328598738">
<ele>46</ele>
</trkpt>
<trkpt lat="57.120414040982723" lon="8.619199963286519">
<ele>47</ele>
</trkpt>
<trkpt lat="57.120717884972692" lon="8.619360392913222">
<ele>47</ele>
</trkpt>
<trkpt lat="57.120286971330643" lon="8.619814021512866">
<ele>47</ele>
</trkpt>
<trkpt lat="57.119696969166398" lon="8.619990041479468">
<ele>48</ele>
</trkpt>
<trkpt lat="57.119730999693274" lon="8.620357001200318">
<ele>48</ele>
</trkpt>
<trkpt lat="57.119351970031857" lon="8.62111296504736">
<ele>49</ele>
</trkpt>
<trkpt lat="57.119278963655233" lon="8.621831964701414">
<ele>49</ele>
</trkpt>
<trkpt lat="57.119109984487295" lon="8.622158020734787">
<ele>50</ele>
</trkpt>
<trkpt lat="57.118800021708012" lon="8.623452018946409">
<ele>50</ele>
</trkpt>
<trkpt lat="57.118771020323038" lon="8.624059036374092">
<ele>51</ele>
</trkpt>
<trkpt lat="57.118621990084648" lon="8.624841989949346">
<ele>51</ele>
</trkpt>
<trkpt lat="57.118763979524374" lon="8.625782020390034">
<ele>52</ele>
</trkpt>
<trkpt lat="57.118751993402839" lon="8.626041021198034">
<ele>52</ele>
</trkpt>
<trkpt lat="57.118808990344405" lon="8.626107992604375">
<ele>53</ele>
</trkpt>
<trkpt lat="57.118867998942733" lon="8.626137999817729">
<ele>53</ele>
</trkpt>
<trkpt lat="57.118892977014184" lon="8.626464977860451">
<ele>54</ele>
</trkpt>
<trkpt lat="57.118995822966099" lon="8.62671903334558">
<ele>54</ele>
</trkpt>
<trkpt lat="57.119168993085623" lon="8.626734036952257">
<ele>55</ele>
</trkpt>
<trkpt lat="57.119410978630185" lon="8.626193990930915">
<ele>54</ele>
</trkpt>
<trkpt lat="57.119443165138364" lon="8.625996261835098">
<ele>54</ele>
</trkpt>
<trkpt lat="57.119511980563402" lon="8.625847985967994">
<ele>53</ele>
</trkpt>
<trkpt lat="57.119694035500288" lon="8.625713959336281">
<ele>53</ele>
</trkpt>
<trkpt lat="57.119773998856544" lon="8.625900959596038">
<ele>52</ele>
</trkpt>
<trkpt lat="57.119556488469243" lon="8.627102253958583">
<ele>51</ele>
</trkpt>
<trkpt lat="57.119548358023167" lon="8.627548506483436">
<ele>51</ele>
</trkpt>
<trkpt lat="57.119421707466245" lon="8.62812576815486">
<ele>50</ele>
</trkpt>
<trkpt lat="57.119373008608818" lon="8.629101002588868">
<ele>50</ele>
</trkpt>
<trkpt lat="57.119223978370428" lon="8.630669005215168">
<ele>49</ele>
</trkpt>
<trkpt lat="57.119229007512331" lon="8.631357997655869">
<ele>47</ele>
</trkpt>
<trkpt lat="57.119390023872256" lon="8.63269398920238">
<ele>46</ele>
</trkpt>
<trkpt lat="57.119446014985442" lon="8.63389402627945">
<ele>44</ele>
</trkpt>
<trkpt lat="57.119539976119995" lon="8.634213963523507">
<ele>43</ele>
</trkpt>
<trkpt lat="57.11950502358377" lon="8.634630041196942">
<ele>41</ele>
</trkpt>
<trkpt lat="57.119719013571739" lon="8.635196993127465">
<ele>39</ele>
</trkpt>
<trkpt lat="57.119851028546691" lon="8.635318027809262">
<ele>38</ele>
</trkpt>
<trkpt lat="57.120074992999434" lon="8.635854972526431">
<ele>36</ele>
</trkpt>
<trkpt lat="57.120202984660864" lon="8.63658201880753">
<ele>34</ele>
</trkpt>
<trkpt lat="57.120297532528639" lon="8.637243686243892">
<ele>33</ele>
</trkpt>
<trkpt lat="57.120325025171041" lon="8.637694967910647">
<ele>31</ele>
</trkpt>
<trkpt lat="57.120315553620458" lon="8.638242892920971">
<ele>30</ele>
</trkpt>
<trkpt lat="57.119930991902947" lon="8.639016039669514">
<ele>28</ele>
</trkpt>
<trkpt lat="57.119982959702611" lon="8.639474026858807">
<ele>29</ele>
</trkpt>
<trkpt lat="57.119992012158036" lon="8.639881974086165">
<ele>29</ele>
</trkpt>
<trkpt lat="57.119671991094947" lon="8.639974007382989">
<ele>30</ele>
</trkpt>
<trkpt lat="57.119450960308313" lon="8.640339961275458">
<ele>30</ele>
</trkpt>
<trkpt lat="57.11897000670433" lon="8.641374036669731">
<ele>30</ele>
</trkpt>
<trkpt lat="57.118789041414857" lon="8.641976024955511">
<ele>31</ele>
</trkpt>
<trkpt lat="57.118440018966794" lon="8.642120026051998">
<ele>31</ele>
</trkpt>
<trkpt lat="57.118145981803536" lon="8.642492014914751">
<ele>32</ele>
</trkpt>
<trkpt lat="57.117716995999217" lon="8.642693012952805">
<ele>32</ele>
</trkpt>
<trkpt lat="57.117616999894381" lon="8.643172038719058">
<ele>33</ele>
</trkpt>
<trkpt lat="57.117774998769164" lon="8.644711961969733">
<ele>34</ele>
</trkpt>
<trkpt lat="57.118199039250612" lon="8.644759990274906">
<ele>35</ele>
</trkpt>
<trkpt lat="57.118286965414882" lon="8.644996024668217">
<ele>36</ele>
</trkpt>
<trkpt lat="57.118261987343431" lon="8.646379038691521">
<ele>37</ele>
</trkpt>
<trkpt lat="57.118099965155125" lon="8.647397020831704">
<ele>38</ele>
</trkpt>
<trkpt lat="57.117871977388859" lon="8.647722993046045">
<ele>39</ele>
</trkpt>
<trkpt lat="57.117807017639279" lon="8.647943018004298">
<ele>40</ele>
</trkpt>
<trkpt lat="57.117833001539111" lon="8.649180019274354">
<ele>41</ele>
</trkpt>
<trkpt lat="57.117720013484359" lon="8.649840010330081">
<ele>42</ele>
</trkpt>
<trkpt lat="57.117509040981531" lon="8.650480974465609">
<ele>42</ele>
</trkpt>
<trkpt lat="57.117562014609575" lon="8.650795966386795">
<ele>43</ele>
</trkpt>
<trkpt lat="57.117417007684708" lon="8.651295024901629">
<ele>44</ele>
</trkpt>
<trkpt lat="57.117432011291385" lon="8.651682017371059">
<ele>44</ele>
</trkpt>
<trkpt lat="57.117461012676358" lon="8.651780001819134">
<ele>44</ele>
</trkpt>
<trkpt lat="57.117418013513088" lon="8.652045959606767">
<ele>45</ele>
</trkpt>
<trkpt lat="57.117352969944477" lon="8.652086025103927">
<ele>46</ele>
</trkpt>
<trkpt lat="57.117145014926791" lon="8.652290962636471">
<ele>46</ele>
</trkpt>
<trkpt lat="57.117263032123446" lon="8.65243898704648">
<ele>42</ele>
</trkpt>
<trkpt lat="57.117321034893394" lon="8.652698993682861">
<ele>38</ele>
</trkpt>
<trkpt lat="57.117547011002898" lon="8.653000993654132">
<ele>34</ele>
</trkpt>
<trkpt lat="57.117751026526093" lon="8.652863027527928">
<ele>30</ele>
</trkpt>
<trkpt lat="57.117941966280341" lon="8.652879958972335">
<ele>26</ele>
</trkpt>
<trkpt lat="57.118433648720384" lon="8.651419244706631">
<ele>21</ele>
</trkpt>
<trkpt lat="57.118909992277622" lon="8.650044025853276">
<ele>17</ele>
</trkpt>
<trkpt lat="57.119233114644885" lon="8.648185422644019">
<ele>13</ele>
</trkpt>
<trkpt lat="57.119572749361396" lon="8.646912882104516">
<ele>9</ele>
</trkpt>
<trkpt lat="57.119936523959041" lon="8.645467339083552">
<ele>5</ele>
</trkpt>
<trkpt lat="57.120427032932639" lon="8.643563976511359">
<ele>7</ele>
</trkpt>
<trkpt lat="57.120740013197064" lon="8.643696997314692">
<ele>9</ele>
</trkpt>
<trkpt lat="57.120854007080197" lon="8.642816981300712">
<ele>11</ele>
</trkpt>
<trkpt lat="57.121115019544959" lon="8.642737017944455">
<ele>13</ele>
</trkpt>
<trkpt lat="57.12133102118969" lon="8.642305014654994">
<ele>15</ele>
</trkpt>
<trkpt lat="57.121767969802022" lon="8.640826027840376">
<ele>16</ele>
</trkpt>
<trkpt lat="57.121905013918877" lon="8.640559986233711">
<ele>18</ele>
</trkpt>
<trkpt lat="57.121980031952262" lon="8.639891026541591">
<ele>20</ele>
</trkpt>
<trkpt lat="57.121943989768624" lon="8.638952001929283">
<ele>22</ele>
</trkpt>
<trkpt lat="57.121469993144274" lon="8.638959964737296">
<ele>24</ele>
</trkpt>
<trkpt lat="57.121023992076516" lon="8.639454999938607">
<ele>26</ele>
</trkpt>
<trkpt lat="57.12060104124248" lon="8.639248972758651">
<ele>28</ele>
</trkpt>
<trkpt lat="57.120748981833458" lon="8.637946005910635">
<ele>29</ele>
</trkpt>
<trkpt lat="57.120742024853826" lon="8.636541031301022">
<ele>29</ele>
</trkpt>
<trkpt lat="57.120563993230462" lon="8.635772997513413">
<ele>30</ele>
</trkpt>
<trkpt lat="57.120442958548665" lon="8.634270038455725">
<ele>31</ele>
</trkpt>
<trkpt lat="57.120459973812103" lon="8.632527021691203">
<ele>32</ele>
</trkpt>
<trkpt lat="57.120288647711277" lon="8.631721856072545">
<ele>32</ele>
</trkpt>
<trkpt lat="57.120091002434492" lon="8.630975028499961">
<ele>33</ele>
</trkpt>
<trkpt lat="57.119906013831496" lon="8.630444034934044">
<ele>34</ele>
</trkpt>
<trkpt lat="57.119945995509624" lon="8.629598971456289">
<ele>34</ele>
</trkpt>
<trkpt lat="57.11985002271831" lon="8.628592975437641">
<ele>35</ele>
</trkpt>
<trkpt lat="57.119964016601443" lon="8.628187961876392">
<ele>36</ele>
</trkpt>
<trkpt lat="57.120019001886249" lon="8.627513973042369">
<ele>38</ele>
</trkpt>
<trkpt lat="57.120165014639497" lon="8.627096973359585">
<ele>39</ele>
</trkpt>
<trkpt lat="57.120177000761032" lon="8.626408986747265">
<ele>41</ele>
</trkpt>
<trkpt lat="57.120293006300926" lon="8.626012019813061">
<ele>42</ele>
</trkpt>
<trkpt lat="57.120300969108939" lon="8.625499969348311">
<ele>44</ele>
</trkpt>
<trkpt lat="57.120239026844501" lon="8.62534599378705">
<ele>45</ele>
</trkpt>
<trkpt lat="57.120243972167373" lon="8.625098979100585">
<ele>46</ele>
</trkpt>
<trkpt lat="57.120135007426143" lon="8.625084981322289">
<ele>48</ele>
</trkpt>
<trkpt lat="57.119885981082916" lon="8.625464010983706">
<ele>49</ele>
</trkpt>
<trkpt lat="57.119852788746357" lon="8.625011555850506">
<ele>51</ele>
</trkpt>
<trkpt lat="57.119476022198796" lon="8.625738015398383">
<ele>52</ele>
</trkpt>
<trkpt lat="57.118933964520693" lon="8.625741032883525">
<ele>54</ele>
</trkpt>
<trkpt lat="57.118799015879631" lon="8.625866007059813">
<ele>54</ele>
</trkpt>
<trkpt lat="57.118628025054932" lon="8.624940980225802">
<ele>53</ele>
</trkpt>
<trkpt lat="57.11884000338614" lon="8.62332696095109">
<ele>53</ele>
</trkpt>
<trkpt lat="57.11911803111434" lon="8.622142011299729">
<ele>52</ele>
</trkpt>
<trkpt lat="57.11929296143353" lon="8.621800029650331">
<ele>51</ele>
</trkpt>
<trkpt lat="57.119337972253561" lon="8.621275993064046">
<ele>50</ele>
</trkpt>
<trkpt lat="57.119744997471571" lon="8.620442999526858">
<ele>49</ele>
</trkpt>
<trkpt lat="57.119722031056881" lon="8.62012499012053">
<ele>49</ele>
</trkpt>
<trkpt lat="57.119790008291602" lon="8.620006972923875">
<ele>48</ele>
</trkpt>
<trkpt lat="57.119838036596775" lon="8.620029017329216">
<ele>47</ele>
</trkpt>
<trkpt lat="57.12019401602447" lon="8.619901025667787">
<ele>47</ele>
</trkpt>
<trkpt lat="57.120459135621786" lon="8.619654681533575">
<ele>46</ele>
</trkpt>
<trkpt lat="57.120733978226781" lon="8.619353016838431">
<ele>46</ele>
</trkpt>
<trkpt lat="57.120944196358323" lon="8.618597136810422">
<ele>45</ele>
</trkpt>
<trkpt lat="57.12146102450788" lon="8.618294969201088">
<ele>45</ele>
</trkpt>
<trkpt lat="57.121724803000689" lon="8.618503510951996">
<ele>45</ele>
</trkpt>
<trkpt lat="57.121987156569958" lon="8.618070082738996">
<ele>45</ele>
</trkpt>
<trkpt lat="57.122003333643079" lon="8.618225315585733">
<ele>45</ele>
</trkpt>
<trkpt lat="57.121979026123881" lon="8.618523962795734">
<ele>46</ele>
</trkpt>
<trkpt lat="57.122015906497836" lon="8.619033833965659">
<ele>46</ele>
</trkpt>
<trkpt lat="57.12225697003305" lon="8.619193006306887">
<ele>46</ele>
</trkpt>
<trkpt lat="57.122588977217674" lon="8.618613984435797">
<ele>46</ele>
</trkpt>
<trkpt lat="57.12252083234489" lon="8.618437126278877">
<ele>46</ele>
</trkpt>
<trkpt lat="57.122575985267758" lon="8.618088020011783">
<ele>46</ele>
</trkpt>
<trkpt lat="57.122524017468095" lon="8.618421033024788">
<ele>47</ele>
</trkpt>
<trkpt lat="57.122605992481112" lon="8.618569979444146">
<ele>49</ele>
</trkpt>
<trkpt lat="57.122689979150891" lon="8.618410974740982">
<ele>50</ele>
</trkpt>
<trkpt lat="57.122808247804642" lon="8.61781619489193">
<ele>52</ele>
</trkpt>
<trkpt lat="57.122838841751218" lon="8.616658486425877">
<ele>53</ele>
</trkpt>
<trkpt lat="57.12277396582067" lon="8.616384984925389">
<ele>54</ele>
</trkpt>
<trkpt lat="57.122481018304825" lon="8.616334022954106">
<ele>56</ele>
</trkpt>
<trkpt lat="57.122330395504832" lon="8.616108801215887">
<ele>57</ele>
</trkpt>
<trkpt lat="57.122436342760921" lon="8.61509014852345">
<ele>59</ele>
</trkpt>
<trkpt lat="57.122311033308506" lon="8.614987973123789">
<ele>60</ele>
</trkpt>
<trkpt lat="57.122239619493484" lon="8.614338291808963">
<ele>58</ele>
</trkpt>
<trkpt lat="57.122244983911514" lon="8.613906959071755">
<ele>57</ele>
</trkpt>
<trkpt lat="57.122146999463439" lon="8.613645024597645">
<ele>55</ele>
</trkpt>
<trkpt lat="57.122155968099833" lon="8.613409996032715">
<ele>53</ele>
</trkpt>
<trkpt lat="57.122072987258434" lon="8.613101039081812">
<ele>51</ele>
</trkpt>
<trkpt lat="57.121989168226719" lon="8.612907249480486">
<ele>50</ele>
</trkpt>
<trkpt lat="57.121901996433735" lon="8.612756039947271">
<ele>48</ele>
</trkpt>
<trkpt lat="57.121816668659449" lon="8.612509444355965">
<ele>47</ele>
</trkpt>
<trkpt lat="57.121813986450434" lon="8.61220870167017">
<ele>46</ele>
</trkpt>
<trkpt lat="57.121881376951933" lon="8.612014660611749">
<ele>45</ele>
</trkpt>
<trkpt lat="57.121830163523555" lon="8.611738225445151">
<ele>44</ele>
</trkpt>
<trkpt lat="57.121668476611376" lon="8.611316196620464">
<ele>43</ele>
</trkpt>
<trkpt lat="57.121614497154951" lon="8.611257942393422">
<ele>42</ele>
</trkpt>
<trkpt lat="57.121719606220722" lon="8.610991146415472">
<ele>41</ele>
</trkpt>
<trkpt lat="57.121749278157949" lon="8.610661318525672">
<ele>40</ele>
</trkpt>
<trkpt lat="57.121479799970984" lon="8.609637804329395">
<ele>39</ele>
</trkpt>
<trkpt lat="57.121347701177001" lon="8.609143020585179">
<ele>38</ele>
</trkpt>
<trkpt lat="57.121177967637777" lon="8.609152743592858">
<ele>40</ele>
</trkpt>
<trkpt lat="57.121075456961989" lon="8.608798608183861">
<ele>41</ele>
</trkpt>
<trkpt lat="57.12109699845314" lon="8.608505995944142">
<ele>43</ele>
</trkpt>
<trkpt lat="57.120833974331617" lon="8.607912976294756">
<ele>44</ele>
</trkpt>
<trkpt lat="57.120603220537305" lon="8.60726572573185">
<ele>46</ele>
</trkpt>
<trkpt lat="57.120563741773367" lon="8.606981160119176">
<ele>48</ele>
</trkpt>
<trkpt lat="57.120338017120957" lon="8.606242965906858">
<ele>49</ele>
</trkpt>
<trkpt lat="57.120118997991085" lon="8.605910036712885">
<ele>51</ele>
</trkpt>
<trkpt lat="57.120008021593094" lon="8.605396980419755">
<ele>52</ele>
</trkpt>
<trkpt lat="57.119594039395452" lon="8.604599023237824">
<ele>54</ele>
</trkpt>
<trkpt lat="57.1194429975003" lon="8.604488968849182">
<ele>52</ele>
</trkpt>
<trkpt lat="57.119287010282278" lon="8.604185963049531">
<ele>50</ele>
</trkpt>
<trkpt lat="57.119017029181123" lon="8.60360300168395">
<ele>48</ele>
</trkpt>
<trkpt lat="57.118826005607843" lon="8.602924989536405">
<ele>46</ele>
</trkpt>
<trkpt lat="57.118279337882996" lon="8.602201547473669">
<ele>44</ele>
</trkpt>
<trkpt lat="57.117937942966819" lon="8.601962244138122">
<ele>42</ele>
</trkpt>
<trkpt lat="57.117911959066987" lon="8.601784966886044">
<ele>40</ele>
</trkpt>
<trkpt lat="57.11799468845129" lon="8.601309126242995">
<ele>41</ele>
</trkpt>
<trkpt lat="57.117695035412908" lon="8.601079965010285">
<ele>42</ele>
</trkpt>
<trkpt lat="57.117580622434616" lon="8.601273586973548">
<ele>43</ele>
</trkpt>
<trkpt lat="57.117463778704405" lon="8.601014837622643">
<ele>44</ele>
</trkpt>
<trkpt lat="57.117530331015587" lon="8.600701186805964">
<ele>44</ele>
</trkpt>
<trkpt lat="57.117605768144131" lon="8.600245211273432">
<ele>45</ele>
</trkpt>
<trkpt lat="57.117562014609575" lon="8.599729975685477">
<ele>46</ele>
</trkpt>
<trkpt lat="57.117485990747809" lon="8.599151037633419">
<ele>47</ele>
</trkpt>
<trkpt lat="57.117350958287716" lon="8.598287031054497">
<ele>48</ele>
</trkpt>
<trkpt lat="57.117299996316433" lon="8.59780297614634">
<ele>49</ele>
</trkpt>
<trkpt lat="57.117273425683379" lon="8.597499635070562">
<ele>49</ele>
</trkpt>
<trkpt lat="57.117250040173531" lon="8.597179530188441">
<ele>49</ele>
</trkpt>
<trkpt lat="57.117216009646654" lon="8.596789017319679">
<ele>50</ele>
</trkpt>
<trkpt lat="57.117155995219946" lon="8.596428008750081">
<ele>50</ele>
</trkpt>
<trkpt lat="57.116926666349173" lon="8.595986198633909">
<ele>50</ele>
</trkpt>
<trkpt lat="57.116888025775552" lon="8.595738010481">
<ele>50</ele>
</trkpt>
<trkpt lat="57.116867993026972" lon="8.595557967200875">
<ele>50</ele>
</trkpt>
<trkpt lat="57.116847625002265" lon="8.595320088788867">
<ele>51</ele>
</trkpt>
<trkpt lat="57.116732625290751" lon="8.594873752444983">
<ele>51</ele>
</trkpt>
<trkpt lat="57.116430960595608" lon="8.594630006700754">
<ele>51</ele>
</trkpt>
<trkpt lat="57.116388967260718" lon="8.594511989504099">
<ele>51</ele>
</trkpt>
<trkpt lat="57.116073975339532" lon="8.593072984367609">
<ele>50</ele>
</trkpt>
<trkpt lat="57.116047320887446" lon="8.592503350228071">
<ele>50</ele>
</trkpt>
<trkpt lat="57.115889992564917" lon="8.592007979750633">
<ele>49</ele>
</trkpt>
<trkpt lat="57.115492019802332" lon="8.59139802865684">
<ele>49</ele>
</trkpt>
<trkpt lat="57.115334859117866" lon="8.591258302330971">
<ele>49</ele>
</trkpt>
<trkpt lat="57.115196473896503" lon="8.591141877695918">
<ele>48</ele>
</trkpt>
<trkpt lat="57.114856922999024" lon="8.591109523549676">
<ele>48</ele>
</trkpt>
<trkpt lat="57.114686099812388" lon="8.59137648716569">
<ele>47</ele>
</trkpt>
<trkpt lat="57.11441402323544" lon="8.591585028916597">
<ele>47</ele>
</trkpt>
<trkpt lat="57.114174049347639" lon="8.591741854324937">
<ele>45</ele>
</trkpt>
<trkpt lat="57.113993503153324" lon="8.591843862086535">
<ele>43</ele>
</trkpt>
<trkpt lat="57.113092532381415" lon="8.590539051219821">
<ele>41</ele>
</trkpt>
<trkpt lat="57.112675029784441" lon="8.590236967429519">
<ele>39</ele>
</trkpt>
<trkpt lat="57.112462967634201" lon="8.590150969102979">
<ele>38</ele>
</trkpt>
<trkpt lat="57.111842958256602" lon="8.590163961052895">
<ele>36</ele>
</trkpt>
<trkpt lat="57.111397041007876" lon="8.589972015470266">
<ele>34</ele>
</trkpt>
<trkpt lat="57.111034020781517" lon="8.589669009670615">
<ele>32</ele>
</trkpt>
<trkpt lat="57.110662534832954" lon="8.589197024703026">
<ele>30</ele>
</trkpt>
<trkpt lat="57.110543930903077" lon="8.588870465755463">
<ele>28</ele>
</trkpt>
<trkpt lat="57.110393056645989" lon="8.5890256986022">
<ele>26</ele>
</trkpt>
<trkpt lat="57.110339161008596" lon="8.589294087141752">
<ele>23</ele>
</trkpt>
<trkpt lat="57.110222317278385" lon="8.589248824864626">
<ele>21</ele>
</trkpt>
<trkpt lat="57.110128020867705" lon="8.589236000552774">
<ele>18</ele>
</trkpt>
<trkpt lat="57.110084015876055" lon="8.589054783806205">
<ele>16</ele>
</trkpt>
<trkpt lat="57.109967339783907" lon="8.587727257981896">
<ele>14</ele>
</trkpt>
<trkpt lat="57.109828954562545" lon="8.587636649608612">
<ele>11</ele>
</trkpt>
<trkpt lat="57.109539695084095" lon="8.587581664323807">
<ele>9</ele>
</trkpt>
<trkpt lat="57.109408602118492" lon="8.587423246353865">
<ele>6</ele>
</trkpt>
<trkpt lat="57.10938697680831" lon="8.587769251316786">
<ele>4</ele>
</trkpt>
<trkpt lat="57.109227133914828" lon="8.588213827461004">
<ele>5</ele>
</trkpt>
<trkpt lat="57.1090869884938" lon="8.588461009785533">
<ele>6</ele>
</trkpt>
<trkpt lat="57.108663031831384" lon="8.588639963418245">
<ele>7</ele>
</trkpt>
<trkpt lat="57.108223987743258" lon="8.588810032233596">
<ele>7</ele>
</trkpt>
<trkpt lat="57.10789768025279" lon="8.589030392467976">
<ele>8</ele>
</trkpt>
<trkpt lat="57.107757534831762" lon="8.58921479433775">
<ele>9</ele>
</trkpt>
<trkpt lat="57.107674973085523" lon="8.589783003553748">
<ele>10</ele>
</trkpt>
</trkseg>
</trk>
</gpx>
