<?xml version="1.0" encoding="UTF-8"?>
<gpx version="1.1"
creator="Smartprofil-Office - http://www.rother.de"
xmlns:xsi="http://www.w3.org/2001/XMLSchema-instance"
xmlns="http://www.topografix.com/GPX/1/1"
xsi:schemaLocation="http://www.topografix.com/GPX/1/1 http://www.topografix.com/GPX/1/1/gpx.xsd">
<metadata>

<bounds minlat="56.933910995721817" minlon="8.839362971484661" maxlat="56.945923017337918" maxlon="8.875113967806101"/>
</metadata>
<wpt lat="56.943141985684633" lon="8.874579034745693">
<ele>31</ele>
<name>19_Molermuseet Morsø (1)</name>
<cmt>Moler Museum</cmt>
<desc></desc>
<sym>Crossing</sym>
</wpt>

<wpt lat="56.945016011595726" lon="8.867222992703319">
<ele>34</ele>
<name>19_Krogbjerg (2)</name>
<cmt>Krogbjerg</cmt>
<desc></desc>
<sym>Crossing</sym>
</wpt>

<wpt lat="56.94089999422431" lon="8.866222025826573">
<ele>26</ele>
<name>19_Skarregård (3)</name>
<cmt>Gutshof Skarregard</cmt>
<desc></desc>
<sym>Crossing</sym>
</wpt>

<wpt lat="56.940607968717813" lon="8.845706982538104">
<ele>4</ele>
<name>19_Limfjord (4)</name>
<cmt>Limfjord</cmt>
<desc></desc>
<sym>Crossing</sym>
</wpt>

<wpt lat="56.933910995721817" lon="8.850583992898464">
<ele>41</ele>
<name>19_Waldrand (5)</name>
<cmt>Waldrand</cmt>
<desc></desc>
<sym>Crossing</sym>
</wpt>

<wpt lat="56.942640915513039" lon="8.863898478448391">
<ele>10</ele>
<name>19_Plankehus (6)</name>
<cmt>Planke Hus</cmt>
<desc></desc>
<sym>Crossing</sym>
</wpt>

<trk>
<name>DAN_19_Skarregard</name>
<trkseg>
<trkpt lat="56.943141985684633" lon="8.874579034745693">
<ele>31</ele>
</trkpt>
<trkpt lat="56.943321023136377" lon="8.875113967806101">
<ele>32</ele>
</trkpt>
<trkpt lat="56.943437028676271" lon="8.874693028628826">
<ele>33</ele>
</trkpt>
<trkpt lat="56.943504000082612" lon="8.874280974268913">
<ele>34</ele>
</trkpt>
<trkpt lat="56.943454965949059" lon="8.873332981020212">
<ele>35</ele>
</trkpt>
<trkpt lat="56.943423030897975" lon="8.87319803237915">
<ele>36</ele>
</trkpt>
<trkpt lat="56.943428982049227" lon="8.872871976345778">
<ele>37</ele>
</trkpt>
<trkpt lat="56.943501988425851" lon="8.872333019971848">
<ele>38</ele>
</trkpt>
<trkpt lat="56.943613970652223" lon="8.871886013075709">
<ele>39</ele>
</trkpt>
<trkpt lat="56.943644983693957" lon="8.87167202308774">
<ele>40</ele>
</trkpt>
<trkpt lat="56.943695023655891" lon="8.871513018384576">
<ele>41</ele>
</trkpt>
<trkpt lat="56.943743973970413" lon="8.871478987857699">
<ele>41</ele>
</trkpt>
<trkpt lat="56.943899039179087" lon="8.871492985635996">
<ele>40</ele>
</trkpt>
<trkpt lat="56.944043040275574" lon="8.871324006468058">
<ele>40</ele>
</trkpt>
<trkpt lat="56.944140018895268" lon="8.870965009555221">
<ele>40</ele>
</trkpt>
<trkpt lat="56.944069024175406" lon="8.870291020721197">
<ele>40</ele>
</trkpt>
<trkpt lat="56.944043040275574" lon="8.870331002399325">
<ele>39</ele>
</trkpt>
<trkpt lat="56.943814968690276" lon="8.870333014056087">
<ele>39</ele>
</trkpt>
<trkpt lat="56.943431999534369" lon="8.870205022394657">
<ele>39</ele>
</trkpt>
<trkpt lat="56.943289004266262" lon="8.870097985491157">
<ele>38</ele>
</trkpt>
<trkpt lat="56.943119019269943" lon="8.870044006034732">
<ele>38</ele>
</trkpt>
<trkpt lat="56.943065039813519" lon="8.869906961917877">
<ele>37</ele>
</trkpt>
<trkpt lat="56.943055987358093" lon="8.869513012468815">
<ele>36</ele>
</trkpt>
<trkpt lat="56.942808972671628" lon="8.869328023865819">
<ele>34</ele>
</trkpt>
<trkpt lat="56.942788017913699" lon="8.869131971150637">
<ele>33</ele>
</trkpt>
<trkpt lat="56.94276999682188" lon="8.868997022509575">
<ele>32</ele>
</trkpt>
<trkpt lat="56.942820958793163" lon="8.868698040023446">
<ele>31</ele>
</trkpt>
<trkpt lat="56.943122958764434" lon="8.868350023403764">
<ele>30</ele>
</trkpt>
<trkpt lat="56.943179033696651" lon="8.868175009265542">
<ele>28</ele>
</trkpt>
<trkpt lat="56.94315698929131" lon="8.867650972679257">
<ele>27</ele>
</trkpt>
<trkpt lat="56.94296102039516" lon="8.867421979084611">
<ele>26</ele>
</trkpt>
<trkpt lat="56.942980969324708" lon="8.867254005745053">
<ele>26</ele>
</trkpt>
<trkpt lat="56.943182973191142" lon="8.86754703707993">
<ele>26</ele>
</trkpt>
<trkpt lat="56.943316999822855" lon="8.867687014862895">
<ele>27</ele>
</trkpt>
<trkpt lat="56.943378020077944" lon="8.867902010679245">
<ele>27</ele>
</trkpt>
<trkpt lat="56.943408027291298" lon="8.86810602620244">
<ele>27</ele>
</trkpt>
<trkpt lat="56.943483967334032" lon="8.868177020922303">
<ele>27</ele>
</trkpt>
<trkpt lat="56.943683037534356" lon="8.867792040109634">
<ele>27</ele>
</trkpt>
<trkpt lat="56.943725030869246" lon="8.867777958512306">
<ele>28</ele>
</trkpt>
<trkpt lat="56.943827960640192" lon="8.867910979315639">
<ele>28</ele>
</trkpt>
<trkpt lat="56.943913958966732" lon="8.867894969880581">
<ele>28</ele>
</trkpt>
<trkpt lat="56.944065000861883" lon="8.86782699264586">
<ele>29</ele>
</trkpt>
<trkpt lat="56.944171031937003" lon="8.867707969620824">
<ele>30</ele>
</trkpt>
<trkpt lat="56.944264993071556" lon="8.867691960185766">
<ele>31</ele>
</trkpt>
<trkpt lat="56.944605968892574" lon="8.867423990741372">
<ele>32</ele>
</trkpt>
<trkpt lat="56.944859018549323" lon="8.867341009899974">
<ele>33</ele>
</trkpt>
<trkpt lat="56.945016011595726" lon="8.867222992703319">
<ele>34</ele>
</trkpt>
<trkpt lat="56.944821970537305" lon="8.86735500767827">
<ele>33</ele>
</trkpt>
<trkpt lat="56.944662965834141" lon="8.867349978536367">
<ele>32</ele>
</trkpt>
<trkpt lat="56.944330036640167" lon="8.867624988779426">
<ele>31</ele>
</trkpt>
<trkpt lat="56.944160973653197" lon="8.867682991549373">
<ele>30</ele>
</trkpt>
<trkpt lat="56.943900967016816" lon="8.867904022336006">
<ele>28</ele>
</trkpt>
<trkpt lat="56.943830978125334" lon="8.86789103038609">
<ele>27</ele>
</trkpt>
<trkpt lat="56.94371497258544" lon="8.867845013737679">
<ele>26</ele>
</trkpt>
<trkpt lat="56.943597961217165" lon="8.867990020662546">
<ele>25</ele>
</trkpt>
<trkpt lat="56.943438034504652" lon="8.868131004273891">
<ele>24</ele>
</trkpt>
<trkpt lat="56.943303002044559" lon="8.867630017921329">
<ele>23</ele>
</trkpt>
<trkpt lat="56.94309102371335" lon="8.867341009899974">
<ele>23</ele>
</trkpt>
<trkpt lat="56.943060010671616" lon="8.867262974381447">
<ele>23</ele>
</trkpt>
<trkpt lat="56.942958002910018" lon="8.867122996598482">
<ele>23</ele>
</trkpt>
<trkpt lat="56.942783994600177" lon="8.866771040484309">
<ele>23</ele>
</trkpt>
<trkpt lat="56.942587019875646" lon="8.866449007764459">
<ele>22</ele>
</trkpt>
<trkpt lat="56.942428015172482" lon="8.866096967831254">
<ele>22</ele>
</trkpt>
<trkpt lat="56.942344028502703" lon="8.866010969504714">
<ele>22</ele>
</trkpt>
<trkpt lat="56.942220982164145" lon="8.866105014458299">
<ele>22</ele>
</trkpt>
<trkpt lat="56.941890986636281" lon="8.866546992212534">
<ele>22</ele>
</trkpt>
<trkpt lat="56.941868020221591" lon="8.866615975275636">
<ele>22</ele>
</trkpt>
<trkpt lat="56.941478010267019" lon="8.866772968322039">
<ele>22</ele>
</trkpt>
<trkpt lat="56.941186990588903" lon="8.86681797914207">
<ele>23</ele>
</trkpt>
<trkpt lat="56.941153965890408" lon="8.866769028827548">
<ele>23</ele>
</trkpt>
<trkpt lat="56.941125970333815" lon="8.866407014429569">
<ele>23</ele>
</trkpt>
<trkpt lat="56.941063022240996" lon="8.866100991144776">
<ele>24</ele>
</trkpt>
<trkpt lat="56.941099986433983" lon="8.865981968119741">
<ele>24</ele>
</trkpt>
<trkpt lat="56.941247005015612" lon="8.865815000608563">
<ele>25</ele>
</trkpt>
<trkpt lat="56.941183973103762" lon="8.865596987307072">
<ele>25</ele>
</trkpt>
<trkpt lat="56.941057993099093" lon="8.865868980064988">
<ele>25</ele>
</trkpt>
<trkpt lat="56.941077020019293" lon="8.86604399420321">
<ele>26</ele>
</trkpt>
<trkpt lat="56.94089999422431" lon="8.866222025826573">
<ele>26</ele>
</trkpt>
<trkpt lat="56.940865963697433" lon="8.866077018901706">
<ele>26</ele>
</trkpt>
<trkpt lat="56.940881973132491" lon="8.865862023085356">
<ele>26</ele>
</trkpt>
<trkpt lat="56.940840985625982" lon="8.865769989788532">
<ele>26</ele>
</trkpt>
<trkpt lat="56.94083696231246" lon="8.865658007562161">
<ele>26</ele>
</trkpt>
<trkpt lat="56.940811984241009" lon="8.865359025076032">
<ele>26</ele>
</trkpt>
<trkpt lat="56.94066203199327" lon="8.86486298404634">
<ele>27</ele>
</trkpt>
<trkpt lat="56.940630013123155" lon="8.864396028220654">
<ele>27</ele>
</trkpt>
<trkpt lat="56.940713999792933" lon="8.863555993884802">
<ele>27</ele>
</trkpt>
<trkpt lat="56.940694972872734" lon="8.863290958106518">
<ele>27</ele>
</trkpt>
<trkpt lat="56.940721962600946" lon="8.863029023632407">
<ele>27</ele>
</trkpt>
<trkpt lat="56.940741995349526" lon="8.862384958192706">
<ele>26</ele>
</trkpt>
<trkpt lat="56.940719028934836" lon="8.861884977668524">
<ele>25</ele>
</trkpt>
<trkpt lat="56.940649040043354" lon="8.861563028767705">
<ele>24</ele>
</trkpt>
<trkpt lat="56.940385010093451" lon="8.860851991921663">
<ele>23</ele>
</trkpt>
<trkpt lat="56.940306974574924" lon="8.860601037740707">
<ele>22</ele>
</trkpt>
<trkpt lat="56.940288031473756" lon="8.860472962260246">
<ele>20</ele>
</trkpt>
<trkpt lat="56.940198009833694" lon="8.86028403416276">
<ele>19</ele>
</trkpt>
<trkpt lat="56.940071024000645" lon="8.859695037826896">
<ele>18</ele>
</trkpt>
<trkpt lat="56.940015032887459" lon="8.859572997316718">
<ele>17</ele>
</trkpt>
<trkpt lat="56.939794002100825" lon="8.859689002856612">
<ele>16</ele>
</trkpt>
<trkpt lat="56.939625022932887" lon="8.859697971493006">
<ele>16</ele>
</trkpt>
<trkpt lat="56.939046001061797" lon="8.859202014282346">
<ele>17</ele>
</trkpt>
<trkpt lat="56.938968971371651" lon="8.859034962952137">
<ele>17</ele>
</trkpt>
<trkpt lat="56.938911974430084" lon="8.858818039298058">
<ele>18</ele>
</trkpt>
<trkpt lat="56.938866963610053" lon="8.859000010415912">
<ele>18</ele>
</trkpt>
<trkpt lat="56.938824970275164" lon="8.859079973772168">
<ele>18</ele>
</trkpt>
<trkpt lat="56.938756993040442" lon="8.859475012868643">
<ele>19</ele>
</trkpt>
<trkpt lat="56.93870603106916" lon="8.859638962894678">
<ele>19</ele>
</trkpt>
<trkpt lat="56.93855800665915" lon="8.85994297452271">
<ele>20</ele>
</trkpt>
<trkpt lat="56.938250977545977" lon="8.860431974753737">
<ele>20</ele>
</trkpt>
<trkpt lat="56.93823304027319" lon="8.860576981678605">
<ele>21</ele>
</trkpt>
<trkpt lat="56.938262963667512" lon="8.861073022708297">
<ele>23</ele>
</trkpt>
<trkpt lat="56.938207978382707" lon="8.861213000491262">
<ele>24</ele>
</trkpt>
<trkpt lat="56.937711015343666" lon="8.862000983208418">
<ele>25</ele>
</trkpt>
<trkpt lat="56.937239030376077" lon="8.862444972619414">
<ele>26</ele>
</trkpt>
<trkpt lat="56.936996961012483" lon="8.862719982862473">
<ele>28</ele>
</trkpt>
<trkpt lat="56.936894031241536" lon="8.862783014774323">
<ele>29</ele>
</trkpt>
<trkpt lat="56.936682974919677" lon="8.862811010330916">
<ele>30</ele>
</trkpt>
<trkpt lat="56.93649304099381" lon="8.862771028652787">
<ele>32</ele>
</trkpt>
<trkpt lat="56.936476025730371" lon="8.862512027844787">
<ele>33</ele>
</trkpt>
<trkpt lat="56.936407964676619" lon="8.862058985978365">
<ele>32</ele>
</trkpt>
<trkpt lat="56.936394972726703" lon="8.861694959923625">
<ele>32</ele>
</trkpt>
<trkpt lat="56.936422968283296" lon="8.861565962433815">
<ele>32</ele>
</trkpt>
<trkpt lat="56.936438977718353" lon="8.861408969387412">
<ele>31</ele>
</trkpt>
<trkpt lat="56.936424979940057" lon="8.861096994951367">
<ele>30</ele>
</trkpt>
<trkpt lat="56.936408970504999" lon="8.859950015321374">
<ele>30</ele>
</trkpt>
<trkpt lat="56.936436966061592" lon="8.859627982601523">
<ele>30</ele>
</trkpt>
<trkpt lat="56.936421040445566" lon="8.859532009810209">
<ele>29</ele>
</trkpt>
<trkpt lat="56.936465967446566" lon="8.85936101898551">
<ele>28</ele>
</trkpt>
<trkpt lat="56.936469990760088" lon="8.859245013445616">
<ele>28</ele>
</trkpt>
<trkpt lat="56.936521958559752" lon="8.859106041491032">
<ele>28</ele>
</trkpt>
<trkpt lat="56.936723040416837" lon="8.858205992728472">
<ele>27</ele>
</trkpt>
<trkpt lat="56.936657996848226" lon="8.858156036585569">
<ele>26</ele>
</trkpt>
<trkpt lat="56.936547020450234" lon="8.858176991343498">
<ele>26</ele>
</trkpt>
<trkpt lat="56.93630201742053" lon="8.858148995786905">
<ele>26</ele>
</trkpt>
<trkpt lat="56.936247032135725" lon="8.857920002192259">
<ele>25</ele>
</trkpt>
<trkpt lat="56.936236973851919" lon="8.857608027756214">
<ele>24</ele>
</trkpt>
<trkpt lat="56.936282990500331" lon="8.857337962836027">
<ele>24</ele>
</trkpt>
<trkpt lat="56.936347028240561" lon="8.857377022504807">
<ele>24</ele>
</trkpt>
<trkpt lat="56.93649597465992" lon="8.857388002797961">
<ele>23</ele>
</trkpt>
<trkpt lat="56.936667971313" lon="8.857316002249718">
<ele>24</ele>
</trkpt>
<trkpt lat="56.936678029596806" lon="8.857198990881443">
<ele>25</ele>
</trkpt>
<trkpt lat="56.936612986028194" lon="8.857031017541885">
<ele>26</ele>
</trkpt>
<trkpt lat="56.936608040705323" lon="8.856786014512181">
<ele>27</ele>
</trkpt>
<trkpt lat="56.936506032943726" lon="8.856554003432393">
<ele>28</ele>
</trkpt>
<trkpt lat="56.936447024345398" lon="8.856473034247756">
<ele>29</ele>
</trkpt>
<trkpt lat="56.936336969956756" lon="8.856303971260786">
<ele>30</ele>
</trkpt>
<trkpt lat="56.936510978266597" lon="8.855508025735617">
<ele>31</ele>
</trkpt>
<trkpt lat="56.936593959107995" lon="8.855272997170687">
<ele>32</ele>
</trkpt>
<trkpt lat="56.936763022094965" lon="8.854575958102942">
<ele>33</ele>
</trkpt>
<trkpt lat="56.936755981296301" lon="8.854147978127003">
<ele>32</ele>
</trkpt>
<trkpt lat="56.936851032078266" lon="8.853898029774427">
<ele>30</ele>
</trkpt>
<trkpt lat="56.936863018199801" lon="8.85375402867794">
<ele>29</ele>
</trkpt>
<trkpt lat="56.936912974342704" lon="8.853616984561086">
<ele>27</ele>
</trkpt>
<trkpt lat="56.937038032338023" lon="8.853255975991488">
<ele>26</ele>
</trkpt>
<trkpt lat="56.937103997915983" lon="8.853147011250258">
<ele>25</ele>
</trkpt>
<trkpt lat="56.937269037589431" lon="8.853048020973802">
<ele>23</ele>
</trkpt>
<trkpt lat="56.937349000945687" lon="8.852917011827231">
<ele>22</ele>
</trkpt>
<trkpt lat="56.937519991770387" lon="8.852341007441282">
<ele>20</ele>
</trkpt>
<trkpt lat="56.937644965946674" lon="8.852086029946804">
<ele>19</ele>
</trkpt>
<trkpt lat="56.937833977863193" lon="8.85188695974648">
<ele>18</ele>
</trkpt>
<trkpt lat="56.93795501254499" lon="8.851684033870697">
<ele>17</ele>
</trkpt>
<trkpt lat="56.93817101418972" lon="8.851633993908763">
<ele>15</ele>
</trkpt>
<trkpt lat="56.938380980864167" lon="8.851647991687059">
<ele>14</ele>
</trkpt>
<trkpt lat="56.938520036637783" lon="8.851694008335471">
<ele>13</ele>
</trkpt>
<trkpt lat="56.938550965860486" lon="8.851739019155502">
<ele>12</ele>
</trkpt>
<trkpt lat="56.938561024144292" lon="8.851441964507103">
<ele>11</ele>
</trkpt>
<trkpt lat="56.938438983634114" lon="8.851107023656368">
<ele>9</ele>
</trkpt>
<trkpt lat="56.938403025269508" lon="8.850859003141522">
<ele>8</ele>
</trkpt>
<trkpt lat="56.938328007236123" lon="8.850584998726845">
<ele>7</ele>
</trkpt>
<trkpt lat="56.938131032511592" lon="8.850044030696154">
<ele>7</ele>
</trkpt>
<trkpt lat="56.938060959801078" lon="8.849773965775967">
<ele>7</ele>
</trkpt>
<trkpt lat="56.938019972294569" lon="8.849295023828745">
<ele>7</ele>
</trkpt>
<trkpt lat="56.937710009515285" lon="8.848401010036469">
<ele>7</ele>
</trkpt>
<trkpt lat="56.937581012025476" lon="8.848137985914946">
<ele>6</ele>
</trkpt>
<trkpt lat="56.937443967908621" lon="8.847644040361047">
<ele>6</ele>
</trkpt>
<trkpt lat="56.937388982623816" lon="8.847327958792448">
<ele>6</ele>
</trkpt>
<trkpt lat="56.937414966523647" lon="8.847121009603143">
<ele>6</ele>
</trkpt>
<trkpt lat="56.937661981210113" lon="8.84647099301219">
<ele>6</ele>
</trkpt>
<trkpt lat="56.937744040042162" lon="8.846367979422212">
<ele>6</ele>
</trkpt>
<trkpt lat="56.937817968428135" lon="8.846148038282991">
<ele>6</ele>
</trkpt>
<trkpt lat="56.937904972583055" lon="8.846024991944432">
<ele>6</ele>
</trkpt>
<trkpt lat="56.938199009746313" lon="8.845285037532449">
<ele>6</ele>
</trkpt>
<trkpt lat="56.938633024692535" lon="8.844365039840341">
<ele>6</ele>
</trkpt>
<trkpt lat="56.938682980835438" lon="8.844327991828322">
<ele>6</ele>
</trkpt>
<trkpt lat="56.938875010237098" lon="8.84453896433115">
<ele>5</ele>
</trkpt>
<trkpt lat="56.939257979393005" lon="8.845110023394227">
<ele>5</ele>
</trkpt>
<trkpt lat="56.939412038773298" lon="8.845381010323763">
<ele>5</ele>
</trkpt>
<trkpt lat="56.939599961042404" lon="8.845624001696706">
<ele>5</ele>
</trkpt>
<trkpt lat="56.939844964072108" lon="8.846302013844252">
<ele>5</ele>
</trkpt>
<trkpt lat="56.94023204036057" lon="8.846584986895323">
<ele>5</ele>
</trkpt>
<trkpt lat="56.940289959311485" lon="8.846656987443566">
<ele>5</ele>
</trkpt>
<trkpt lat="56.940347962081432" lon="8.846389017999172">
<ele>5</ele>
</trkpt>
<trkpt lat="56.940424991771579" lon="8.846261026337743">
<ele>4</ele>
</trkpt>
<trkpt lat="56.940465979278088" lon="8.846173016354442">
<ele>4</ele>
</trkpt>
<trkpt lat="56.940522976219654" lon="8.845949973911047">
<ele>4</ele>
</trkpt>
<trkpt lat="56.940586008131504" lon="8.845813013613224">
<ele>4</ele>
</trkpt>
<trkpt lat="56.940607968717813" lon="8.845706982538104">
<ele>4</ele>
</trkpt>
<trkpt lat="56.940548038110137" lon="8.845624001696706">
<ele>4</ele>
</trkpt>
<trkpt lat="56.940568992868066" lon="8.845564993098378">
<ele>4</ele>
</trkpt>
<trkpt lat="56.940504033118486" lon="8.845412023365498">
<ele>4</ele>
</trkpt>
<trkpt lat="56.940468996763229" lon="8.845340022817254">
<ele>4</ele>
</trkpt>
<trkpt lat="56.940361959859729" lon="8.845115974545479">
<ele>4</ele>
</trkpt>
<trkpt lat="56.940335975959897" lon="8.845003992319107">
<ele>3</ele>
</trkpt>
<trkpt lat="56.940223993733525" lon="8.8447539601475">
<ele>3</ele>
</trkpt>
<trkpt lat="56.939973039552569" lon="8.844497976824641">
<ele>3</ele>
</trkpt>
<trkpt lat="56.939918976277113" lon="8.844397980719805">
<ele>3</ele>
</trkpt>
<trkpt lat="56.939628040418029" lon="8.843970000743866">
<ele>3</ele>
</trkpt>
<trkpt lat="56.939513962715864" lon="8.843631036579609">
<ele>3</ele>
</trkpt>
<trkpt lat="56.939421007409692" lon="8.843431966379285">
<ele>3</ele>
</trkpt>
<trkpt lat="56.939316987991333" lon="8.843091996386647">
<ele>3</ele>
</trkpt>
<trkpt lat="56.939196959137917" lon="8.842835007235408">
<ele>3</ele>
</trkpt>
<trkpt lat="56.93909696303308" lon="8.8424969650805">
<ele>4</ele>
</trkpt>
<trkpt lat="56.939090006053448" lon="8.842413984239101">
<ele>4</ele>
</trkpt>
<trkpt lat="56.939019011333585" lon="8.842266965657473">
<ele>4</ele>
</trkpt>
<trkpt lat="56.938856989145279" lon="8.84206403978169">
<ele>4</ele>
</trkpt>
<trkpt lat="56.938783982768655" lon="8.841892965137959">
<ele>4</ele>
</trkpt>
<trkpt lat="56.938717011362314" lon="8.841624995693564">
<ele>4</ele>
</trkpt>
<trkpt lat="56.938593965023756" lon="8.841383010149002">
<ele>4</ele>
</trkpt>
<trkpt lat="56.938501009717584" lon="8.841089978814125">
<ele>4</ele>
</trkpt>
<trkpt lat="56.938296994194388" lon="8.840779010206461">
<ele>4</ele>
</trkpt>
<trkpt lat="56.938165985047817" lon="8.840638026595116">
<ele>4</ele>
</trkpt>
<trkpt lat="56.937902038916945" lon="8.840664010494947">
<ele>4</ele>
</trkpt>
<trkpt lat="56.93731396459043" lon="8.839703025296331">
<ele>5</ele>
</trkpt>
<trkpt lat="56.937148002907634" lon="8.839521976187825">
<ele>5</ele>
</trkpt>
<trkpt lat="56.937024034559727" lon="8.839490041136742">
<ele>5</ele>
</trkpt>
<trkpt lat="56.936852037906647" lon="8.839362971484661">
<ele>5</ele>
</trkpt>
<trkpt lat="56.936828987672925" lon="8.839369006454945">
<ele>5</ele>
</trkpt>
<trkpt lat="56.936653973534703" lon="8.839590959250927">
<ele>6</ele>
</trkpt>
<trkpt lat="56.9363450165838" lon="8.840083982795477">
<ele>6</ele>
</trkpt>
<trkpt lat="56.936278967186809" lon="8.840451026335359">
<ele>7</ele>
</trkpt>
<trkpt lat="56.936213001608849" lon="8.840702986344695">
<ele>7</ele>
</trkpt>
<trkpt lat="56.936050979420543" lon="8.84101202711463">
<ele>8</ele>
</trkpt>
<trkpt lat="56.936104036867619" lon="8.841298017650843">
<ele>9</ele>
</trkpt>
<trkpt lat="56.936093978583813" lon="8.841474037617445">
<ele>9</ele>
</trkpt>
<trkpt lat="56.936079980805516" lon="8.841592976823449">
<ele>10</ele>
</trkpt>
<trkpt lat="56.935962969437242" lon="8.842106033116579">
<ele>10</ele>
</trkpt>
<trkpt lat="56.93591401912272" lon="8.842375008389354">
<ele>11</ele>
</trkpt>
<trkpt lat="56.93570296280086" lon="8.842649012804031">
<ele>12</ele>
</trkpt>
<trkpt lat="56.935671027749777" lon="8.842835007235408">
<ele>14</ele>
</trkpt>
<trkpt lat="56.935681002214551" lon="8.842962998896837">
<ele>16</ele>
</trkpt>
<trkpt lat="56.935611013323069" lon="8.843070035800338">
<ele>17</ele>
</trkpt>
<trkpt lat="56.935564996674657" lon="8.843087973073125">
<ele>18</ele>
</trkpt>
<trkpt lat="56.935288980603218" lon="8.843876961618662">
<ele>20</ele>
</trkpt>
<trkpt lat="56.935181021690369" lon="8.844250962138176">
<ele>22</ele>
</trkpt>
<trkpt lat="56.934962002560496" lon="8.844685982912779">
<ele>23</ele>
</trkpt>
<trkpt lat="56.934930989518762" lon="8.844910031184554">
<ele>24</ele>
</trkpt>
<trkpt lat="56.934963008388877" lon="8.845240026712418">
<ele>26</ele>
</trkpt>
<trkpt lat="56.934879021719098" lon="8.845616038888693">
<ele>26</ele>
</trkpt>
<trkpt lat="56.934887990355492" lon="8.845846960321069">
<ele>27</ele>
</trkpt>
<trkpt lat="56.934868963435292" lon="8.846054999157786">
<ele>27</ele>
</trkpt>
<trkpt lat="56.934764022007585" lon="8.84619296528399">
<ele>27</ele>
</trkpt>
<trkpt lat="56.934681041166186" lon="8.846367979422212">
<ele>28</ele>
</trkpt>
<trkpt lat="56.934709036722779" lon="8.846552968025208">
<ele>28</ele>
</trkpt>
<trkpt lat="56.934555983170867" lon="8.846675008535385">
<ele>28</ele>
</trkpt>
<trkpt lat="56.93436898291111" lon="8.846927974373102">
<ele>28</ele>
</trkpt>
<trkpt lat="56.934188017621636" lon="8.847091002389789">
<ele>29</ele>
</trkpt>
<trkpt lat="56.933925999328494" lon="8.84752300567925">
<ele>29</ele>
</trkpt>
<trkpt lat="56.933990037068725" lon="8.847950985655189">
<ele>31</ele>
</trkpt>
<trkpt lat="56.934172008186579" lon="8.848570995032787">
<ele>33</ele>
</trkpt>
<trkpt lat="56.934252977371216" lon="8.849065024405718">
<ele>35</ele>
</trkpt>
<trkpt lat="56.934272004291415" lon="8.849497027695179">
<ele>37</ele>
</trkpt>
<trkpt lat="56.934158010408282" lon="8.849853007122874">
<ele>39</ele>
</trkpt>
<trkpt lat="56.933910995721817" lon="8.850583992898464">
<ele>41</ele>
</trkpt>
<trkpt lat="56.933961035683751" lon="8.85063897818327">
<ele>41</ele>
</trkpt>
<trkpt lat="56.934076035395265" lon="8.85072598233819">
<ele>40</ele>
</trkpt>
<trkpt lat="56.934488005936146" lon="8.850972997024655">
<ele>40</ele>
</trkpt>
<trkpt lat="56.93456201814115" lon="8.851109035313129">
<ele>39</ele>
</trkpt>
<trkpt lat="56.934695960953832" lon="8.851184975355864">
<ele>39</ele>
</trkpt>
<trkpt lat="56.934809032827616" lon="8.851270973682404">
<ele>39</ele>
</trkpt>
<trkpt lat="56.934836022555828" lon="8.851356972008944">
<ele>38</ele>
</trkpt>
<trkpt lat="56.935419989749789" lon="8.851571967825294">
<ele>38</ele>
</trkpt>
<trkpt lat="56.935561979189515" lon="8.851609015837312">
<ele>37</ele>
</trkpt>
<trkpt lat="56.935800025239587" lon="8.851550007238984">
<ele>37</ele>
</trkpt>
<trkpt lat="56.935887029394507" lon="8.851465014740825">
<ele>35</ele>
</trkpt>
<trkpt lat="56.936072017997503" lon="8.851437019184232">
<ele>33</ele>
</trkpt>
<trkpt lat="56.936306962743402" lon="8.851171983405948">
<ele>31</ele>
</trkpt>
<trkpt lat="56.93636798299849" lon="8.851140970364213">
<ele>29</ele>
</trkpt>
<trkpt lat="56.936630001291633" lon="8.851395025849342">
<ele>28</ele>
</trkpt>
<trkpt lat="56.936743995174766" lon="8.851507008075714">
<ele>26</ele>
</trkpt>
<trkpt lat="56.936984974890947" lon="8.851231997832656">
<ele>24</ele>
</trkpt>
<trkpt lat="56.937304995954037" lon="8.851293018087745">
<ele>22</ele>
</trkpt>
<trkpt lat="56.937609007582068" lon="8.851485969498754">
<ele>20</ele>
</trkpt>
<trkpt lat="56.93767698481679" lon="8.851490998640657">
<ele>18</ele>
</trkpt>
<trkpt lat="56.937907990068197" lon="8.851627036929131">
<ele>19</ele>
</trkpt>
<trkpt lat="56.937716966494918" lon="8.852044036611915">
<ele>19</ele>
</trkpt>
<trkpt lat="56.937623005360365" lon="8.852145038545132">
<ele>20</ele>
</trkpt>
<trkpt lat="56.937539018690586" lon="8.852299014106393">
<ele>21</ele>
</trkpt>
<trkpt lat="56.937519991770387" lon="8.8524229824543">
<ele>22</ele>
</trkpt>
<trkpt lat="56.93744296208024" lon="8.852509986609221">
<ele>22</ele>
</trkpt>
<trkpt lat="56.937324022874236" lon="8.852862026542425">
<ele>23</ele>
</trkpt>
<trkpt lat="56.937152026221156" lon="8.853061012923718">
<ele>24</ele>
</trkpt>
<trkpt lat="56.937077008187771" lon="8.853119015693665">
<ele>24</ele>
</trkpt>
<trkpt lat="56.937073990702629" lon="8.853454040363431">
<ele>25</ele>
</trkpt>
<trkpt lat="56.937215980142355" lon="8.854165999218822">
<ele>24</ele>
</trkpt>
<trkpt lat="56.937323017045856" lon="8.854267001152039">
<ele>24</ele>
</trkpt>
<trkpt lat="56.937508005648851" lon="8.854202963411808">
<ele>23</ele>
</trkpt>
<trkpt lat="56.937666004523635" lon="8.854101039469242">
<ele>23</ele>
</trkpt>
<trkpt lat="56.937845963984728" lon="8.85414102114737">
<ele>22</ele>
</trkpt>
<trkpt lat="56.938115023076534" lon="8.854513010010123">
<ele>21</ele>
</trkpt>
<trkpt lat="56.938225999474525" lon="8.854952976107597">
<ele>21</ele>
</trkpt>
<trkpt lat="56.938454993069172" lon="8.855511965230107">
<ele>20</ele>
</trkpt>
<trkpt lat="56.938618021085858" lon="8.85541096329689">
<ele>20</ele>
</trkpt>
<trkpt lat="56.938911974430084" lon="8.85500100441277">
<ele>19</ele>
</trkpt>
<trkpt lat="56.938926978036761" lon="8.854919029399753">
<ele>18</ele>
</trkpt>
<trkpt lat="56.939148008823395" lon="8.855013996362686">
<ele>17</ele>
</trkpt>
<trkpt lat="56.939230989664793" lon="8.85515003465116">
<ele>16</ele>
</trkpt>
<trkpt lat="56.939377002418041" lon="8.855573991313577">
<ele>15</ele>
</trkpt>
<trkpt lat="56.939446991309524" lon="8.855672981590033">
<ele>14</ele>
</trkpt>
<trkpt lat="56.939528966322541" lon="8.855913039296866">
<ele>13</ele>
</trkpt>
<trkpt lat="56.939559979364276" lon="8.855999959632754">
<ele>12</ele>
</trkpt>
<trkpt lat="56.939906990155578" lon="8.856602031737566">
<ele>11</ele>
</trkpt>
<trkpt lat="56.939955018460751" lon="8.856707978993654">
<ele>10</ele>
</trkpt>
<trkpt lat="56.940102037042379" lon="8.857072005048394">
<ele>9</ele>
</trkpt>
<trkpt lat="56.940131038427353" lon="8.857172001153231">
<ele>10</ele>
</trkpt>
<trkpt lat="56.939983014017344" lon="8.857356989756227">
<ele>10</ele>
</trkpt>
<trkpt lat="56.939909001812339" lon="8.857429996132851">
<ele>11</ele>
</trkpt>
<trkpt lat="56.939936997368932" lon="8.857601992785931">
<ele>11</ele>
</trkpt>
<trkpt lat="56.939982008188963" lon="8.857900975272059">
<ele>12</ele>
</trkpt>
<trkpt lat="56.940131038427353" lon="8.858349993824959">
<ele>13</ele>
</trkpt>
<trkpt lat="56.940156016498804" lon="8.858521990478039">
<ele>13</ele>
</trkpt>
<trkpt lat="56.940316027030349" lon="8.858778979629278">
<ele>14</ele>
</trkpt>
<trkpt lat="56.940477965399623" lon="8.859080979600549">
<ele>14</ele>
</trkpt>
<trkpt lat="56.940583996474743" lon="8.859492028132081">
<ele>15</ele>
</trkpt>
<trkpt lat="56.940559018403292" lon="8.859721021726728">
<ele>15</ele>
</trkpt>
<trkpt lat="56.940574022009969" lon="8.859831998124719">
<ele>15</ele>
</trkpt>
<trkpt lat="56.940615009516478" lon="8.859948003664613">
<ele>14</ele>
</trkpt>
<trkpt lat="56.940894965082407" lon="8.860080018639565">
<ele>14</ele>
</trkpt>
<trkpt lat="56.940953973680735" lon="8.860203986987472">
<ele>14</ele>
</trkpt>
<trkpt lat="56.941095041111112" lon="8.860687036067247">
<ele>14</ele>
</trkpt>
<trkpt lat="56.941281035542488" lon="8.861129013821483">
<ele>14</ele>
</trkpt>
<trkpt lat="56.941341971978545" lon="8.861380973830819">
<ele>13</ele>
</trkpt>
<trkpt lat="56.941492008045316" lon="8.86172697879374">
<ele>13</ele>
</trkpt>
<trkpt lat="56.941542970016599" lon="8.861782969906926">
<ele>13</ele>
</trkpt>
<trkpt lat="56.94141699001193" lon="8.862152025103569">
<ele>13</ele>
</trkpt>
<trkpt lat="56.941324034705758" lon="8.86230600066483">
<ele>12</ele>
</trkpt>
<trkpt lat="56.941311964765191" lon="8.862417982891202">
<ele>12</ele>
</trkpt>
<trkpt lat="56.941469963639975" lon="8.862911006435752">
<ele>12</ele>
</trkpt>
<trkpt lat="56.941607007756829" lon="8.863209988921881">
<ele>12</ele>
</trkpt>
<trkpt lat="56.941669033840299" lon="8.863192973658443">
<ele>12</ele>
</trkpt>
<trkpt lat="56.94178001023829" lon="8.862873036414385">
<ele>11</ele>
</trkpt>
<trkpt lat="56.941853016614914" lon="8.862795000895858">
<ele>11</ele>
</trkpt>
<trkpt lat="56.942159961909056" lon="8.863390032202005">
<ele>11</ele>
</trkpt>
<trkpt lat="56.942371018230915" lon="8.863533027470112">
<ele>10</ele>
</trkpt>
<trkpt lat="56.942547038197517" lon="8.863717010244727">
<ele>10</ele>
</trkpt>
<trkpt lat="56.942640915513039" lon="8.863898478448391">
<ele>10</ele>
</trkpt>
<trkpt lat="56.942605962976813" lon="8.86400300078094">
<ele>10</ele>
</trkpt>
<trkpt lat="56.94259699434042" lon="8.864295026287437">
<ele>9</ele>
</trkpt>
<trkpt lat="56.942835040390491" lon="8.864965997636318">
<ele>8</ele>
</trkpt>
<trkpt lat="56.942882984876633" lon="8.865016959607601">
<ele>8</ele>
</trkpt>
<trkpt lat="56.942990021780133" lon="8.864910006523132">
<ele>8</ele>
</trkpt>
<trkpt lat="56.943102004006505" lon="8.864718982949853">
<ele>7</ele>
</trkpt>
<trkpt lat="56.943132011219859" lon="8.864588979631662">
<ele>6</ele>
</trkpt>
<trkpt lat="56.943274000659585" lon="8.864552015438676">
<ele>6</ele>
</trkpt>
<trkpt lat="56.943421019241214" lon="8.864729963243008">
<ele>6</ele>
</trkpt>
<trkpt lat="56.943923011422157" lon="8.865216029807925">
<ele>5</ele>
</trkpt>
<trkpt lat="56.94431696087122" lon="8.865531021729112">
<ele>9</ele>
</trkpt>
<trkpt lat="56.944354008883238" lon="8.865534961223602">
<ele>13</ele>
</trkpt>
<trkpt lat="56.944390973076224" lon="8.865276966243982">
<ele>17</ele>
</trkpt>
<trkpt lat="56.944397008046508" lon="8.86563403531909">
<ele>22</ele>
</trkpt>
<trkpt lat="56.944750975817442" lon="8.865909967571497">
<ele>26</ele>
</trkpt>
<trkpt lat="56.945078959688544" lon="8.866325039416552">
<ele>30</ele>
</trkpt>
<trkpt lat="56.945016011595726" lon="8.867222992703319">
<ele>34</ele>
</trkpt>
<trkpt lat="56.945441979914904" lon="8.866973966360092">
<ele>34</ele>
</trkpt>
<trkpt lat="56.945544993504882" lon="8.86709701269865">
<ele>35</ele>
</trkpt>
<trkpt lat="56.945622023195028" lon="8.867373028770089">
<ele>35</ele>
</trkpt>
<trkpt lat="56.945616994053125" lon="8.867427008226514">
<ele>36</ele>
</trkpt>
<trkpt lat="56.945742974057794" lon="8.86808599345386">
<ele>36</ele>
</trkpt>
<trkpt lat="56.945907007902861" lon="8.868313981220126">
<ele>36</ele>
</trkpt>
<trkpt lat="56.945923017337918" lon="8.86838598176837">
<ele>37</ele>
</trkpt>
<trkpt lat="56.945923017337918" lon="8.868648000061512">
<ele>37</ele>
</trkpt>
<trkpt lat="56.945855040103197" lon="8.868855033069849">
<ele>38</ele>
</trkpt>
<trkpt lat="56.945800976827741" lon="8.868910018354654">
<ele>38</ele>
</trkpt>
<trkpt lat="56.945807011798024" lon="8.869096012786031">
<ele>39</ele>
</trkpt>
<trkpt lat="56.945613976567984" lon="8.869354007765651">
<ele>41</ele>
</trkpt>
<trkpt lat="56.945741968229413" lon="8.869576966390014">
<ele>42</ele>
</trkpt>
<trkpt lat="56.945749009028077" lon="8.869800008833408">
<ele>43</ele>
</trkpt>
<trkpt lat="56.945736017078161" lon="8.869844013825059">
<ele>44</ele>
</trkpt>
<trkpt lat="56.945622023195028" lon="8.8698919583112">
<ele>46</ele>
</trkpt>
<trkpt lat="56.945391017943621" lon="8.86991199105978">
<ele>47</ele>
</trkpt>
<trkpt lat="56.945219021290541" lon="8.869991032406688">
<ele>48</ele>
</trkpt>
<trkpt lat="56.944888019934297" lon="8.870256990194321">
<ele>50</ele>
</trkpt>
<trkpt lat="56.944771008566022" lon="8.870314992964268">
<ele>51</ele>
</trkpt>
<trkpt lat="56.944327019155025" lon="8.870351035147905">
<ele>50</ele>
</trkpt>
<trkpt lat="56.944105988368392" lon="8.870331002399325">
<ele>49</ele>
</trkpt>
<trkpt lat="56.944094002246857" lon="8.870364027097821">
<ele>48</ele>
</trkpt>
<trkpt lat="56.944129038602114" lon="8.870779015123844">
<ele>47</ele>
</trkpt>
<trkpt lat="56.944048991426826" lon="8.871298022568226">
<ele>46</ele>
</trkpt>
<trkpt lat="56.94392804056406" lon="8.871442023664713">
<ele>44</ele>
</trkpt>
<trkpt lat="56.943761995062232" lon="8.871482005342841">
<ele>43</ele>
</trkpt>
<trkpt lat="56.9436289742589" lon="8.871632963418961">
<ele>42</ele>
</trkpt>
<trkpt lat="56.943579018115997" lon="8.871920965611935">
<ele>41</ele>
</trkpt>
<trkpt lat="56.943494025617838" lon="8.872155994176865">
<ele>40</ele>
</trkpt>
<trkpt lat="56.943505005910993" lon="8.872289014980197">
<ele>38</ele>
</trkpt>
<trkpt lat="56.943433005362749" lon="8.872568970546126">
<ele>36</ele>
</trkpt>
<trkpt lat="56.943418001756072" lon="8.872979013249278">
<ele>35</ele>
</trkpt>
<trkpt lat="56.943481033667922" lon="8.874470992013812">
<ele>33</ele>
</trkpt>
<trkpt lat="56.943141985684633" lon="8.874579034745693">
<ele>31</ele>
</trkpt>
</trkseg>
</trk>
</gpx>
