<?xml version="1.0" encoding="UTF-8"?>
<gpx version="1.1"
creator="Smartprofil-Office - http://www.rother.de"
xmlns:xsi="http://www.w3.org/2001/XMLSchema-instance"
xmlns="http://www.topografix.com/GPX/1/1"
xsi:schemaLocation="http://www.topografix.com/GPX/1/1 http://www.topografix.com/GPX/1/1/gpx.xsd">
<metadata>

<bounds minlat="47.768956432119012" minlon="-3.648869013413787" maxlat="47.792965723201632" maxlon="-3.609662242233753"/>
</metadata>
<wpt lat="47.782590771093965" lon="-3.64677487872541">
<ele>5</ele>
<name>40_Port de Merrien (1)</name>
<cmt></cmt>
<desc></desc>
<sym>Crossing</sym>
</wpt>

<wpt lat="47.777120741084218" lon="-3.639286989346147">
<ele>5</ele>
<name>40_Porz Bali (2)</name>
<cmt></cmt>
<desc></desc>
<sym>Crossing</sym>
</wpt>

<wpt lat="47.774620922282338" lon="-3.627798082306981">
<ele>5</ele>
<name>40_Porz Teg (3)</name>
<cmt></cmt>
<desc></desc>
<sym>Crossing</sym>
</wpt>

<wpt lat="47.772390162572265" lon="-3.62072266638279">
<ele>5</ele>
<name>40_Porz Lamar (4)</name>
<cmt></cmt>
<desc></desc>
<sym>Crossing</sym>
</wpt>

<wpt lat="47.772118924185634" lon="-3.609662242233753">
<ele>7</ele>
<name>40_Doëlan (5)</name>
<cmt></cmt>
<desc></desc>
<sym>Crossing</sym>
</wpt>

<wpt lat="47.781160986050963" lon="-3.629104653373361">
<ele>33</ele>
<name>40_St-Thamec (6)</name>
<cmt></cmt>
<desc></desc>
<sym>Crossing</sym>
</wpt>

<wpt lat="47.789165871217847" lon="-3.63482647575438">
<ele>35</ele>
<name>40_Chef du Bois (7)</name>
<cmt></cmt>
<desc></desc>
<sym>Crossing</sym>
</wpt>

<trk>
<name>BRET_40_Merrien</name><trkseg>
<trkpt lat="47.782590771093965" lon="-3.64677487872541">
<ele>5</ele>
</trkpt>
<trkpt lat="47.78224803507328" lon="-3.647461272776127">
<ele>6</ele>
</trkpt>
<trkpt lat="47.78195827268064" lon="-3.64739497192204">
<ele>7</ele>
</trkpt>
<trkpt lat="47.781679574400187" lon="-3.648869013413787">
<ele>9</ele>
</trkpt>
<trkpt lat="47.7795893792063" lon="-3.648732723668218">
<ele>10</ele>
</trkpt>
<trkpt lat="47.779468176886439" lon="-3.647581553086639">
<ele>11</ele>
</trkpt>
<trkpt lat="47.779007675126195" lon="-3.647328671067953">
<ele>12</ele>
</trkpt>
<trkpt lat="47.77903139591217" lon="-3.646428119391203">
<ele>13</ele>
</trkpt>
<trkpt lat="47.777956752106547" lon="-3.645838117226958">
<ele>15</ele>
</trkpt>
<trkpt lat="47.777661876752973" lon="-3.645871644839644">
<ele>16</ele>
</trkpt>
<trkpt lat="47.777499603107572" lon="-3.645518766716123">
<ele>17</ele>
</trkpt>
<trkpt lat="47.77705293148756" lon="-3.645434780046344">
<ele>16</ele>
</trkpt>
<trkpt lat="47.77694103308022" lon="-3.645856976509094">
<ele>15</ele>
</trkpt>
<trkpt lat="47.776537528261542" lon="-3.645811378955841">
<ele>14</ele>
</trkpt>
<trkpt lat="47.776247514411807" lon="-3.645310224965215">
<ele>13</ele>
</trkpt>
<trkpt lat="47.775987256318331" lon="-3.645548354834318">
<ele>12</ele>
</trkpt>
<trkpt lat="47.77503197081387" lon="-3.645707946270704">
<ele>11</ele>
</trkpt>
<trkpt lat="47.774300649762154" lon="-3.645457914099097">
<ele>10</ele>
</trkpt>
<trkpt lat="47.774306684732437" lon="-3.643585313111544">
<ele>9</ele>
</trkpt>
<trkpt lat="47.774868691340089" lon="-3.64318055100739">
<ele>8</ele>
</trkpt>
<trkpt lat="47.775235734879971" lon="-3.642619885504246">
<ele>7</ele>
</trkpt>
<trkpt lat="47.775543937459588" lon="-3.641450442373753">
<ele>7</ele>
</trkpt>
<trkpt lat="47.775314189493656" lon="-3.640655083581805">
<ele>6</ele>
</trkpt>
<trkpt lat="47.77579179033637" lon="-3.640575204044581">
<ele>6</ele>
</trkpt>
<trkpt lat="47.776770796626806" lon="-3.639515060931444">
<ele>6</ele>
</trkpt>
<trkpt lat="47.776896776631474" lon="-3.639696529135108">
<ele>5</ele>
</trkpt>
<trkpt lat="47.777120741084218" lon="-3.639286989346147">
<ele>5</ele>
</trkpt>
<trkpt lat="47.777113700285554" lon="-3.638985073193908">
<ele>6</ele>
</trkpt>
<trkpt lat="47.776654874905944" lon="-3.638699082657695">
<ele>6</ele>
</trkpt>
<trkpt lat="47.776079205796123" lon="-3.639369970187545">
<ele>7</ele>
</trkpt>
<trkpt lat="47.775534298270941" lon="-3.639442222192884">
<ele>7</ele>
</trkpt>
<trkpt lat="47.775198183953762" lon="-3.639839105308056">
<ele>8</ele>
</trkpt>
<trkpt lat="47.774608265608549" lon="-3.639471307396889">
<ele>9</ele>
</trkpt>
<trkpt lat="47.774275336414576" lon="-3.63936678506434">
<ele>9</ele>
</trkpt>
<trkpt lat="47.774071656167507" lon="-3.638942325487733">
<ele>10</ele>
</trkpt>
<trkpt lat="47.774081714451313" lon="-3.638307899236679">
<ele>10</ele>
</trkpt>
<trkpt lat="47.774322526529431" lon="-3.6371308285743">
<ele>11</ele>
</trkpt>
<trkpt lat="47.774544814601541" lon="-3.636754564940929">
<ele>12</ele>
</trkpt>
<trkpt lat="47.774820411577821" lon="-3.636217033490539">
<ele>12</ele>
</trkpt>
<trkpt lat="47.774585802108049" lon="-3.635956356301904">
<ele>13</ele>
</trkpt>
<trkpt lat="47.774587227031589" lon="-3.635488143190742">
<ele>13</ele>
</trkpt>
<trkpt lat="47.774017509073019" lon="-3.63428651355207">
<ele>14</ele>
</trkpt>
<trkpt lat="47.773539908230305" lon="-3.634366309270263">
<ele>15</ele>
</trkpt>
<trkpt lat="47.773120477795601" lon="-3.633750323206186">
<ele>15</ele>
</trkpt>
<trkpt lat="47.773111257702112" lon="-3.63261197693646">
<ele>16</ele>
</trkpt>
<trkpt lat="47.772952085360885" lon="-3.631757693365216">
<ele>16</ele>
</trkpt>
<trkpt lat="47.773025929927826" lon="-3.631197363138199">
<ele>17</ele>
</trkpt>
<trkpt lat="47.772923335433006" lon="-3.629680490121245">
<ele>15</ele>
</trkpt>
<trkpt lat="47.773685082793236" lon="-3.628896782174707">
<ele>12</ele>
</trkpt>
<trkpt lat="47.773943915963173" lon="-3.629126697778702">
<ele>10</ele>
</trkpt>
<trkpt lat="47.774600638076663" lon="-3.628632081672549">
<ele>7</ele>
</trkpt>
<trkpt lat="47.774620922282338" lon="-3.627798082306981">
<ele>5</ele>
</trkpt>
<trkpt lat="47.774254800751805" lon="-3.627020828425884">
<ele>6</ele>
</trkpt>
<trkpt lat="47.774053299799562" lon="-3.627432966604829">
<ele>6</ele>
</trkpt>
<trkpt lat="47.773760100826621" lon="-3.627433385699987">
<ele>7</ele>
</trkpt>
<trkpt lat="47.772867260500789" lon="-3.628135453909636">
<ele>7</ele>
</trkpt>
<trkpt lat="47.772084223106503" lon="-3.628013664856553">
<ele>8</ele>
</trkpt>
<trkpt lat="47.77119574137032" lon="-3.62731134518981">
<ele>9</ele>
</trkpt>
<trkpt lat="47.771078227087855" lon="-3.626963663846254">
<ele>9</ele>
</trkpt>
<trkpt lat="47.770358808338642" lon="-3.626481117680669">
<ele>10</ele>
</trkpt>
<trkpt lat="47.770227463915944" lon="-3.625964540988207">
<ele>10</ele>
</trkpt>
<trkpt lat="47.770639266818762" lon="-3.625408904626966">
<ele>11</ele>
</trkpt>
<trkpt lat="47.770733814686537" lon="-3.624884365126491">
<ele>10</ele>
</trkpt>
<trkpt lat="47.771076634526253" lon="-3.624354377388954">
<ele>9</ele>
</trkpt>
<trkpt lat="47.771382909268141" lon="-3.623218210414052">
<ele>8</ele>
</trkpt>
<trkpt lat="47.771516852080822" lon="-3.622363591566682">
<ele>8</ele>
</trkpt>
<trkpt lat="47.771521378308535" lon="-3.62139405682683">
<ele>7</ele>
</trkpt>
<trkpt lat="47.77198682539165" lon="-3.621112005785108">
<ele>6</ele>
</trkpt>
<trkpt lat="47.772390162572265" lon="-3.62072266638279">
<ele>5</ele>
</trkpt>
<trkpt lat="47.771441331133246" lon="-3.620314719155431">
<ele>5</ele>
</trkpt>
<trkpt lat="47.771020475775003" lon="-3.620166946202517">
<ele>5</ele>
</trkpt>
<trkpt lat="47.770729875192046" lon="-3.618796253576875">
<ele>5</ele>
</trkpt>
<trkpt lat="47.770186057314277" lon="-3.617965690791607">
<ele>5</ele>
</trkpt>
<trkpt lat="47.769729997962713" lon="-3.616743609309197">
<ele>5</ele>
</trkpt>
<trkpt lat="47.77005379088223" lon="-3.616144554689527">
<ele>5</ele>
</trkpt>
<trkpt lat="47.770266523584723" lon="-3.614629860967398">
<ele>5</ele>
</trkpt>
<trkpt lat="47.769998889416456" lon="-3.614131473004818">
<ele>5</ele>
</trkpt>
<trkpt lat="47.769934684038162" lon="-3.613622523844242">
<ele>5</ele>
</trkpt>
<trkpt lat="47.769134379923344" lon="-3.613398727029562">
<ele>5</ele>
</trkpt>
<trkpt lat="47.768956432119012" lon="-3.612910397350788">
<ele>5</ele>
</trkpt>
<trkpt lat="47.769023319706321" lon="-3.612483087927103">
<ele>6</ele>
</trkpt>
<trkpt lat="47.769575351849198" lon="-3.612712500616908">
<ele>6</ele>
</trkpt>
<trkpt lat="47.769901491701603" lon="-3.612949876114726">
<ele>7</ele>
</trkpt>
<trkpt lat="47.770092766731977" lon="-3.612737227231264">
<ele>7</ele>
</trkpt>
<trkpt lat="47.770344810560346" lon="-3.61310007981956">
<ele>7</ele>
</trkpt>
<trkpt lat="47.770577492192388" lon="-3.612959012389183">
<ele>8</ele>
</trkpt>
<trkpt lat="47.770271804183722" lon="-3.612322574481368">
<ele>8</ele>
</trkpt>
<trkpt lat="47.770378170534968" lon="-3.611565185710788">
<ele>9</ele>
</trkpt>
<trkpt lat="47.77060205116868" lon="-3.611155562102795">
<ele>9</ele>
</trkpt>
<trkpt lat="47.770869098603725" lon="-3.610784159973264">
<ele>9</ele>
</trkpt>
<trkpt lat="47.771218959242105" lon="-3.610555920749903">
<ele>8</ele>
</trkpt>
<trkpt lat="47.771557001397014" lon="-3.610560530796647">
<ele>8</ele>
</trkpt>
<trkpt lat="47.771725812926888" lon="-3.610345367342234">
<ele>8</ele>
</trkpt>
<trkpt lat="47.771737379953265" lon="-3.609677664935589">
<ele>7</ele>
</trkpt>
<trkpt lat="47.772118924185634" lon="-3.609662242233753">
<ele>7</ele>
</trkpt>
<trkpt lat="47.772291088476777" lon="-3.609873717650771">
<ele>9</ele>
</trkpt>
<trkpt lat="47.772808503359556" lon="-3.609898444265127">
<ele>11</ele>
</trkpt>
<trkpt lat="47.772884862497449" lon="-3.610609564930201">
<ele>12</ele>
</trkpt>
<trkpt lat="47.772809760645032" lon="-3.611638024449348">
<ele>14</ele>
</trkpt>
<trkpt lat="47.773230699822307" lon="-3.611785713583231">
<ele>16</ele>
</trkpt>
<trkpt lat="47.773480983451009" lon="-3.612181842327118">
<ele>18</ele>
</trkpt>
<trkpt lat="47.774155307561159" lon="-3.612224254757166">
<ele>20</ele>
</trkpt>
<trkpt lat="47.774458983913064" lon="-3.612459115684032">
<ele>21</ele>
</trkpt>
<trkpt lat="47.775088464841247" lon="-3.612496498972178">
<ele>23</ele>
</trkpt>
<trkpt lat="47.77552155777812" lon="-3.612846275791526">
<ele>25</ele>
</trkpt>
<trkpt lat="47.77581132017076" lon="-3.612912325188518">
<ele>26</ele>
</trkpt>
<trkpt lat="47.77630627155304" lon="-3.612934621050954">
<ele>27</ele>
</trkpt>
<trkpt lat="47.776628974825144" lon="-3.613238548859954">
<ele>28</ele>
</trkpt>
<trkpt lat="47.777153514325619" lon="-3.613565191626549">
<ele>29</ele>
</trkpt>
<trkpt lat="47.777410922572017" lon="-3.614263152703643">
<ele>30</ele>
</trkpt>
<trkpt lat="47.777409832924604" lon="-3.615166302770376">
<ele>30</ele>
</trkpt>
<trkpt lat="47.777606807649136" lon="-3.615723699331284">
<ele>31</ele>
</trkpt>
<trkpt lat="47.777807554230094" lon="-3.616649564355612">
<ele>32</ele>
</trkpt>
<trkpt lat="47.778116595000029" lon="-3.617219617590308">
<ele>33</ele>
</trkpt>
<trkpt lat="47.778444411233068" lon="-3.617423800751567">
<ele>34</ele>
</trkpt>
<trkpt lat="47.779246140271425" lon="-3.617179552093148">
<ele>34</ele>
</trkpt>
<trkpt lat="47.779472954571247" lon="-3.618476316332817">
<ele>34</ele>
</trkpt>
<trkpt lat="47.780291447415948" lon="-3.620107434689999">
<ele>34</ele>
</trkpt>
<trkpt lat="47.780622951686382" lon="-3.620680086314678">
<ele>34</ele>
</trkpt>
<trkpt lat="47.780676847323775" lon="-3.6213886924088">
<ele>34</ele>
</trkpt>
<trkpt lat="47.780704088509083" lon="-3.623499507084489">
<ele>34</ele>
</trkpt>
<trkpt lat="47.780640972778201" lon="-3.624730221927166">
<ele>33</ele>
</trkpt>
<trkpt lat="47.780258925631642" lon="-3.626025309786201">
<ele>33</ele>
</trkpt>
<trkpt lat="47.780228247866035" lon="-3.626624112948775">
<ele>33</ele>
</trkpt>
<trkpt lat="47.780608283355832" lon="-3.627570262178779">
<ele>33</ele>
</trkpt>
<trkpt lat="47.78102058917284" lon="-3.627884415909648">
<ele>33</ele>
</trkpt>
<trkpt lat="47.781239943578839" lon="-3.628444410860539">
<ele>33</ele>
</trkpt>
<trkpt lat="47.781160986050963" lon="-3.629104653373361">
<ele>33</ele>
</trkpt>
<trkpt lat="47.78200420551002" lon="-3.62893215380609">
<ele>34</ele>
</trkpt>
<trkpt lat="47.782169915735722" lon="-3.62921847961843">
<ele>34</ele>
</trkpt>
<trkpt lat="47.783112041652203" lon="-3.630194719880819">
<ele>34</ele>
</trkpt>
<trkpt lat="47.783346986398101" lon="-3.630890334025025">
<ele>35</ele>
</trkpt>
<trkpt lat="47.783974958583713" lon="-3.631396181881428">
<ele>36</ele>
</trkpt>
<trkpt lat="47.784454822540283" lon="-3.632152983918786">
<ele>36</ele>
</trkpt>
<trkpt lat="47.785018505528569" lon="-3.631714778020978">
<ele>36</ele>
</trkpt>
<trkpt lat="47.785396445542574" lon="-3.632259266451001">
<ele>37</ele>
</trkpt>
<trkpt lat="47.785615799948573" lon="-3.632819429039955">
<ele>38</ele>
</trkpt>
<trkpt lat="47.786320801824331" lon="-3.632263289764524">
<ele>38</ele>
</trkpt>
<trkpt lat="47.787420842796564" lon="-3.631919045001268">
<ele>38</ele>
</trkpt>
<trkpt lat="47.787559228017926" lon="-3.632737705484033">
<ele>37</ele>
</trkpt>
<trkpt lat="47.78834561817348" lon="-3.632793109863997">
<ele>37</ele>
</trkpt>
<trkpt lat="47.788373613730073" lon="-3.633565837517381">
<ele>36</ele>
</trkpt>
<trkpt lat="47.788453325629234" lon="-3.634210573509336">
<ele>36</ele>
</trkpt>
<trkpt lat="47.788813747465611" lon="-3.634217865765095">
<ele>35</ele>
</trkpt>
<trkpt lat="47.789165871217847" lon="-3.63482647575438">
<ele>35</ele>
</trkpt>
<trkpt lat="47.789570884779096" lon="-3.63440377637744">
<ele>33</ele>
</trkpt>
<trkpt lat="47.790238168090582" lon="-3.634144524112344">
<ele>31</ele>
</trkpt>
<trkpt lat="47.790890028700233" lon="-3.634184673428536">
<ele>29</ele>
</trkpt>
<trkpt lat="47.791567286476493" lon="-3.633290743455291">
<ele>27</ele>
</trkpt>
<trkpt lat="47.792558614164591" lon="-3.632867289707065">
<ele>24</ele>
</trkpt>
<trkpt lat="47.792617874220014" lon="-3.633911339566112">
<ele>22</ele>
</trkpt>
<trkpt lat="47.792488876730204" lon="-3.634666465222836">
<ele>20</ele>
</trkpt>
<trkpt lat="47.792965723201632" lon="-3.636360028758645">
<ele>18</ele>
</trkpt>
<trkpt lat="47.792923059314489" lon="-3.637191765010357">
<ele>16</ele>
</trkpt>
<trkpt lat="47.79261477291584" lon="-3.637926606461406">
<ele>14</ele>
</trkpt>
<trkpt lat="47.791618499904871" lon="-3.638884825631976">
<ele>14</ele>
</trkpt>
<trkpt lat="47.79075457714498" lon="-3.639021366834641">
<ele>14</ele>
</trkpt>
<trkpt lat="47.7901750523597" lon="-3.63888893276453">
<ele>14</ele>
</trkpt>
<trkpt lat="47.789909848943353" lon="-3.639661995694041">
<ele>14</ele>
</trkpt>
<trkpt lat="47.789576333016157" lon="-3.641765853390098">
<ele>14</ele>
</trkpt>
<trkpt lat="47.788962442427874" lon="-3.641863754019141">
<ele>13</ele>
</trkpt>
<trkpt lat="47.788800420239568" lon="-3.641945812851191">
<ele>13</ele>
</trkpt>
<trkpt lat="47.788300355896354" lon="-3.642023093998432">
<ele>13</ele>
</trkpt>
<trkpt lat="47.78726963326335" lon="-3.643211480230093">
<ele>13</ele>
</trkpt>
<trkpt lat="47.78697308152914" lon="-3.64327828399837">
<ele>13</ele>
</trkpt>
<trkpt lat="47.786768060177565" lon="-3.643756974488497">
<ele>12</ele>
</trkpt>
<trkpt lat="47.786428341642022" lon="-3.64378547295928">
<ele>12</ele>
</trkpt>
<trkpt lat="47.786272941157222" lon="-3.643299490213394">
<ele>11</ele>
</trkpt>
<trkpt lat="47.785898605361581" lon="-3.643123302608728">
<ele>11</ele>
</trkpt>
<trkpt lat="47.785826437175274" lon="-3.643650440499187">
<ele>10</ele>
</trkpt>
<trkpt lat="47.785424776375294" lon="-3.644006503745914">
<ele>9</ele>
</trkpt>
<trkpt lat="47.784495558589697" lon="-3.644537078216672">
<ele>9</ele>
</trkpt>
<trkpt lat="47.78372316621244" lon="-3.645085422322154">
<ele>8</ele>
</trkpt>
<trkpt lat="47.783269453793764" lon="-3.644699519500136">
<ele>7</ele>
</trkpt>
<trkpt lat="47.783243805170059" lon="-3.645198494195938">
<ele>7</ele>
</trkpt>
<trkpt lat="47.782904086634517" lon="-3.645226992666721">
<ele>6</ele>
</trkpt>
<trkpt lat="47.783054374158382" lon="-3.645812720060349">
<ele>6</ele>
</trkpt>
<trkpt lat="47.782590771093965" lon="-3.64677487872541">
<ele>5</ele>
</trkpt>
</trkseg>
</trk>
</gpx>
