<?xml version="1.0" encoding="UTF-8"?>
<gpx version="1.1"
creator="Smartprofil-Office - http://www.rother.de"
xmlns:xsi="http://www.w3.org/2001/XMLSchema-instance"
xmlns="http://www.topografix.com/GPX/1/1"
xsi:schemaLocation="http://www.topografix.com/GPX/1/1 http://www.topografix.com/GPX/1/1/gpx.xsd">
<metadata>

<bounds minlat="48.032105695456266" minlon="-4.736812468618155" maxlat="48.064317768439651" maxlon="-4.686160543933511"/>
</metadata>
<wpt lat="48.060440383851528" lon="-4.709542784839869">
<ele>61</ele>
<name>32_Pointe du Van (1)</name>
<cmt></cmt>
<desc></desc>
<sym>Crossing</sym>
</wpt>

<wpt lat="48.053777776658535" lon="-4.713046504184604">
<ele>45</ele>
<name>32_Le Vorlen (2)</name>
<cmt></cmt>
<desc></desc>
<sym>Crossing</sym>
</wpt>

<wpt lat="48.047112235799432" lon="-4.70454465597868">
<ele>7</ele>
<name>32_Baie des Trépassés (3)</name>
<cmt></cmt>
<desc></desc>
<sym>Crossing</sym>
</wpt>

<wpt lat="48.039994742721319" lon="-4.736812468618155">
<ele>65</ele>
<name>32_Pointe du Raz (4)</name>
<cmt></cmt>
<desc></desc>
<sym>Crossing</sym>
</wpt>

<wpt lat="48.033902021124959" lon="-4.719602577388287">
<ele>25</ele>
<name>32_Port de Bestrée (5)</name>
<cmt></cmt>
<desc></desc>
<sym>Crossing</sym>
</wpt>

<wpt lat="48.032105695456266" lon="-4.708222132176161">
<ele>57</ele>
<name>32_Sentier (6)</name>
<cmt></cmt>
<desc></desc>
<sym>Crossing</sym>
</wpt>

<wpt lat="48.039878066629171" lon="-4.701354168355465">
<ele>72</ele>
<name>32_Kerherneau (7)</name>
<cmt></cmt>
<desc></desc>
<sym>Crossing</sym>
</wpt>

<wpt lat="48.047112235799432" lon="-4.70454465597868">
<ele>7</ele>
<name>32_Baie des Trépassés (3)</name>
<cmt></cmt>
<desc></desc>
<sym>Crossing</sym>
</wpt>

<wpt lat="48.048411766067147" lon="-4.690075144171715">
<ele>23</ele>
<name>32_St-Tugdual (8)</name>
<cmt></cmt>
<desc></desc>
<sym>Crossing</sym>
</wpt>

<wpt lat="48.064317768439651" lon="-4.689441220834851">
<ele>61</ele>
<name>32_Pointe du Castelmeur (9)</name>
<cmt></cmt>
<desc></desc>
<sym>Crossing</sym>
</wpt>

<trk>
<name>BRET_32_Raz</name><trkseg>
<trkpt lat="48.060440383851528" lon="-4.709542784839869">
<ele>61</ele>
</trkpt>
<trkpt lat="48.05996211245656" lon="-4.711182536557317">
<ele>60</ele>
</trkpt>
<trkpt lat="48.059889441356063" lon="-4.712014608085156">
<ele>58</ele>
</trkpt>
<trkpt lat="48.059160802513361" lon="-4.712118878960609">
<ele>56</ele>
</trkpt>
<trkpt lat="48.058727793395519" lon="-4.712936198338866">
<ele>55</ele>
</trkpt>
<trkpt lat="48.058320768177509" lon="-4.712948938831687">
<ele>54</ele>
</trkpt>
<trkpt lat="48.057816261425614" lon="-4.713453697040677">
<ele>52</ele>
</trkpt>
<trkpt lat="48.057559691369534" lon="-4.713217243552208">
<ele>50</ele>
</trkpt>
<trkpt lat="48.057541083544493" lon="-4.712777025997639">
<ele>49</ele>
</trkpt>
<trkpt lat="48.056704318150878" lon="-4.712429093196988">
<ele>48</ele>
</trkpt>
<trkpt lat="48.056392343714833" lon="-4.711612863466144">
<ele>46</ele>
</trkpt>
<trkpt lat="48.055610144510865" lon="-4.710733518004417">
<ele>46</ele>
</trkpt>
<trkpt lat="48.055483661592007" lon="-4.710211576893926">
<ele>46</ele>
</trkpt>
<trkpt lat="48.055308815091848" lon="-4.710491113364697">
<ele>46</ele>
</trkpt>
<trkpt lat="48.055070517584682" lon="-4.710324481129646">
<ele>46</ele>
</trkpt>
<trkpt lat="48.054836830124259" lon="-4.71083183772862">
<ele>46</ele>
</trkpt>
<trkpt lat="48.054792238399386" lon="-4.711196199059486">
<ele>45</ele>
</trkpt>
<trkpt lat="48.05456031113863" lon="-4.711299799382687">
<ele>45</ele>
</trkpt>
<trkpt lat="48.05430038832128" lon="-4.712241254746914">
<ele>45</ele>
</trkpt>
<trkpt lat="48.053970811888576" lon="-4.712466392666102">
<ele>45</ele>
</trkpt>
<trkpt lat="48.053777776658535" lon="-4.713046504184604">
<ele>45</ele>
</trkpt>
<trkpt lat="48.05340469814837" lon="-4.712121142074466">
<ele>42</ele>
</trkpt>
<trkpt lat="48.053323980420828" lon="-4.710090290755034">
<ele>39</ele>
</trkpt>
<trkpt lat="48.052832633256912" lon="-4.708879776299">
<ele>36</ele>
</trkpt>
<trkpt lat="48.051275108009577" lon="-4.708132278174162">
<ele>32</ele>
</trkpt>
<trkpt lat="48.050627438351512" lon="-4.707641433924437">
<ele>29</ele>
</trkpt>
<trkpt lat="48.050219910219312" lon="-4.70691354945302">
<ele>26</ele>
</trkpt>
<trkpt lat="48.049948671832681" lon="-4.706170242279768">
<ele>23</ele>
</trkpt>
<trkpt lat="48.049463862553239" lon="-4.705600272864103">
<ele>20</ele>
</trkpt>
<trkpt lat="48.049369733780622" lon="-4.704914381727576">
<ele>16</ele>
</trkpt>
<trkpt lat="48.048315541818738" lon="-4.705177154392004">
<ele>13</ele>
</trkpt>
<trkpt lat="48.047580700367689" lon="-4.705011360347271">
<ele>10</ele>
</trkpt>
<trkpt lat="48.047112235799432" lon="-4.70454465597868">
<ele>7</ele>
</trkpt>
<trkpt lat="48.046102803200483" lon="-4.704813379794359">
<ele>10</ele>
</trkpt>
<trkpt lat="48.04505649022758" lon="-4.704572148621082">
<ele>13</ele>
</trkpt>
<trkpt lat="48.04454343393445" lon="-4.704469805583358">
<ele>16</ele>
</trkpt>
<trkpt lat="48.044360037893057" lon="-4.704142240807414">
<ele>19</ele>
</trkpt>
<trkpt lat="48.044164823368192" lon="-4.70438539981842">
<ele>22</ele>
</trkpt>
<trkpt lat="48.044533710926771" lon="-4.705007085576654">
<ele>24</ele>
</trkpt>
<trkpt lat="48.044872591271996" lon="-4.706499902531505">
<ele>27</ele>
</trkpt>
<trkpt lat="48.043959382921457" lon="-4.707420989871025">
<ele>30</ele>
</trkpt>
<trkpt lat="48.043839605525136" lon="-4.707909906283021">
<ele>33</ele>
</trkpt>
<trkpt lat="48.043319089338183" lon="-4.708681628108025">
<ele>36</ele>
</trkpt>
<trkpt lat="48.043040810152888" lon="-4.709553178399801">
<ele>35</ele>
</trkpt>
<trkpt lat="48.042739648371935" lon="-4.709681086242199">
<ele>34</ele>
</trkpt>
<trkpt lat="48.042723806574941" lon="-4.710318529978395">
<ele>33</ele>
</trkpt>
<trkpt lat="48.042526999488473" lon="-4.711335590109229">
<ele>32</ele>
</trkpt>
<trkpt lat="48.041851501911879" lon="-4.711682600900531">
<ele>32</ele>
</trkpt>
<trkpt lat="48.041699286550283" lon="-4.71233538351953">
<ele>31</ele>
</trkpt>
<trkpt lat="48.041323106735945" lon="-4.712958075106144">
<ele>30</ele>
</trkpt>
<trkpt lat="48.041256638243794" lon="-4.714059960097075">
<ele>29</ele>
</trkpt>
<trkpt lat="48.041059663519263" lon="-4.714706707745791">
<ele>28</ele>
</trkpt>
<trkpt lat="48.04123098962009" lon="-4.715234600007534">
<ele>27</ele>
</trkpt>
<trkpt lat="48.04110936820507" lon="-4.71612710505724">
<ele>30</ele>
</trkpt>
<trkpt lat="48.041395107284188" lon="-4.717377182096243">
<ele>34</ele>
</trkpt>
<trkpt lat="48.041580934077501" lon="-4.718411928042769">
<ele>37</ele>
</trkpt>
<trkpt lat="48.041713954880834" lon="-4.719574162736535">
<ele>40</ele>
</trkpt>
<trkpt lat="48.041013982146978" lon="-4.719951432198286">
<ele>44</ele>
</trkpt>
<trkpt lat="48.040283331647515" lon="-4.720088979229331">
<ele>47</ele>
</trkpt>
<trkpt lat="48.040118962526321" lon="-4.720942005515099">
<ele>50</ele>
</trkpt>
<trkpt lat="48.040249720215797" lon="-4.721767455339432">
<ele>53</ele>
</trkpt>
<trkpt lat="48.040536968037486" lon="-4.722243547439575">
<ele>57</ele>
</trkpt>
<trkpt lat="48.040366731584072" lon="-4.723567049950361">
<ele>60</ele>
</trkpt>
<trkpt lat="48.040202362462878" lon="-4.724420160055161">
<ele>62</ele>
</trkpt>
<trkpt lat="48.040070431306958" lon="-4.725109236314893">
<ele>63</ele>
</trkpt>
<trkpt lat="48.040415178984404" lon="-4.726501973345876">
<ele>65</ele>
</trkpt>
<trkpt lat="48.039994155988097" lon="-4.727118546143174">
<ele>67</ele>
</trkpt>
<trkpt lat="48.039949564263225" lon="-4.727482823655009">
<ele>68</ele>
</trkpt>
<trkpt lat="48.03992391563952" lon="-4.729027692228556">
<ele>70</ele>
</trkpt>
<trkpt lat="48.039525272324681" lon="-4.729647282510996">
<ele>72</ele>
</trkpt>
<trkpt lat="48.039450589567423" lon="-4.730882607400417">
<ele>74</ele>
</trkpt>
<trkpt lat="48.040051655843854" lon="-4.732141485437751">
<ele>75</ele>
</trkpt>
<trkpt lat="48.040638221427798" lon="-4.732893593609333">
<ele>77</ele>
</trkpt>
<trkpt lat="48.040111251175404" lon="-4.733394915238023">
<ele>75</ele>
</trkpt>
<trkpt lat="48.040066994726658" lon="-4.734499733895063">
<ele>72</ele>
</trkpt>
<trkpt lat="48.039676398038864" lon="-4.734985716640949">
<ele>70</ele>
</trkpt>
<trkpt lat="48.0399698484689" lon="-4.735732041299343">
<ele>67</ele>
</trkpt>
<trkpt lat="48.039994742721319" lon="-4.736812468618155">
<ele>65</ele>
</trkpt>
<trkpt lat="48.039793241769075" lon="-4.736785395070911">
<ele>67</ele>
</trkpt>
<trkpt lat="48.039709590375423" lon="-4.736302932724357">
<ele>68</ele>
</trkpt>
<trkpt lat="48.039053874090314" lon="-4.735575132071972">
<ele>70</ele>
</trkpt>
<trkpt lat="48.038892019540071" lon="-4.73339919000864">
<ele>71</ele>
</trkpt>
<trkpt lat="48.038213923573494" lon="-4.732668539509177">
<ele>73</ele>
</trkpt>
<trkpt lat="48.038016110658646" lon="-4.731834121048451">
<ele>75</ele>
</trkpt>
<trkpt lat="48.03769432939589" lon="-4.731555255129933">
<ele>76</ele>
</trkpt>
<trkpt lat="48.037549573928118" lon="-4.730963576585054">
<ele>78</ele>
</trkpt>
<trkpt lat="48.037272552028298" lon="-4.730690745636821">
<ele>79</ele>
</trkpt>
<trkpt lat="48.036771565675735" lon="-4.730017594993115">
<ele>81</ele>
</trkpt>
<trkpt lat="48.036296730861068" lon="-4.728910345584154">
<ele>77</ele>
</trkpt>
<trkpt lat="48.036092799156904" lon="-4.728176174685359">
<ele>73</ele>
</trkpt>
<trkpt lat="48.035718211904168" lon="-4.728024881333113">
<ele>69</ele>
</trkpt>
<trkpt lat="48.035428952425718" lon="-4.72758206538856">
<ele>65</ele>
</trkpt>
<trkpt lat="48.034207373857498" lon="-4.726879494264722">
<ele>61</ele>
</trkpt>
<trkpt lat="48.033655676990747" lon="-4.726670701056719">
<ele>57</ele>
</trkpt>
<trkpt lat="48.033368177711964" lon="-4.725824380293489">
<ele>53</ele>
</trkpt>
<trkpt lat="48.033385779708624" lon="-4.724413203075528">
<ele>49</ele>
</trkpt>
<trkpt lat="48.033965472131968" lon="-4.723784308880568">
<ele>45</ele>
</trkpt>
<trkpt lat="48.034386076033115" lon="-4.722427278757095">
<ele>41</ele>
</trkpt>
<trkpt lat="48.034224640578032" lon="-4.72136227414012">
<ele>37</ele>
</trkpt>
<trkpt lat="48.034332180395722" lon="-4.7207036241889">
<ele>33</ele>
</trkpt>
<trkpt lat="48.033888190984726" lon="-4.720206493511796">
<ele>29</ele>
</trkpt>
<trkpt lat="48.033902021124959" lon="-4.719602577388287">
<ele>25</ele>
</trkpt>
<trkpt lat="48.034154400229454" lon="-4.719535522162914">
<ele>25</ele>
</trkpt>
<trkpt lat="48.034070413559675" lon="-4.718682831153274">
<ele>24</ele>
</trkpt>
<trkpt lat="48.033911241218448" lon="-4.717954695224762">
<ele>24</ele>
</trkpt>
<trkpt lat="48.034092206507921" lon="-4.717575162649155">
<ele>24</ele>
</trkpt>
<trkpt lat="48.033853741362691" lon="-4.717038301751018">
<ele>24</ele>
</trkpt>
<trkpt lat="48.033389300107956" lon="-4.716504877433181">
<ele>23</ele>
</trkpt>
<trkpt lat="48.03383219987154" lon="-4.715150780975819">
<ele>23</ele>
</trkpt>
<trkpt lat="48.034165799617767" lon="-4.714859006926417">
<ele>23</ele>
</trkpt>
<trkpt lat="48.034002352505922" lon="-4.713827446103096">
<ele>22</ele>
</trkpt>
<trkpt lat="48.033657940104604" lon="-4.713175417855382">
<ele>22</ele>
</trkpt>
<trkpt lat="48.033431712538004" lon="-4.712808541953564">
<ele>25</ele>
</trkpt>
<trkpt lat="48.033808143809438" lon="-4.712556162849069">
<ele>28</ele>
</trkpt>
<trkpt lat="48.034038310870528" lon="-4.71285623498261">
<ele>31</ele>
</trkpt>
<trkpt lat="48.034573495388031" lon="-4.712591450661421">
<ele>34</ele>
</trkpt>
<trkpt lat="48.034298233687878" lon="-4.711915114894509">
<ele>37</ele>
</trkpt>
<trkpt lat="48.034008974209428" lon="-4.71147246658802">
<ele>40</ele>
</trkpt>
<trkpt lat="48.033603625372052" lon="-4.711081618443131">
<ele>42</ele>
</trkpt>
<trkpt lat="48.03334454074502" lon="-4.710138151422143">
<ele>45</ele>
</trkpt>
<trkpt lat="48.032829221338034" lon="-4.709698939695954">
<ele>48</ele>
</trkpt>
<trkpt lat="48.032713048160076" lon="-4.709380427375436">
<ele>51</ele>
</trkpt>
<trkpt lat="48.032167302444577" lon="-4.709071721881628">
<ele>54</ele>
</trkpt>
<trkpt lat="48.032105695456266" lon="-4.708222132176161">
<ele>57</ele>
</trkpt>
<trkpt lat="48.032650854438543" lon="-4.707790380343795">
<ele>58</ele>
</trkpt>
<trkpt lat="48.032585475593805" lon="-4.707377823069692">
<ele>59</ele>
</trkpt>
<trkpt lat="48.032475002110004" lon="-4.706589002162218">
<ele>60</ele>
</trkpt>
<trkpt lat="48.032409036532044" lon="-4.705435903742909">
<ele>61</ele>
</trkpt>
<trkpt lat="48.032845985144377" lon="-4.704552115872502">
<ele>62</ele>
</trkpt>
<trkpt lat="48.032891750335693" lon="-4.703043876215816">
<ele>63</ele>
</trkpt>
<trkpt lat="48.033558698371053" lon="-4.702089847996831">
<ele>64</ele>
</trkpt>
<trkpt lat="48.034519851207733" lon="-4.699997389689088">
<ele>65</ele>
</trkpt>
<trkpt lat="48.035275731235743" lon="-4.700939934700728">
<ele>66</ele>
</trkpt>
<trkpt lat="48.036058852449059" lon="-4.70030433498323">
<ele>67</ele>
</trkpt>
<trkpt lat="48.036657404154539" lon="-4.700485467910767">
<ele>68</ele>
</trkpt>
<trkpt lat="48.037001313641667" lon="-4.700396871194243">
<ele>68</ele>
</trkpt>
<trkpt lat="48.0373415350914" lon="-4.700745306909084">
<ele>69</ele>
</trkpt>
<trkpt lat="48.037600116804242" lon="-4.700948232784867">
<ele>69</ele>
</trkpt>
<trkpt lat="48.038274189457297" lon="-4.701375039294362">
<ele>70</ele>
</trkpt>
<trkpt lat="48.039057645946741" lon="-4.701109668239951">
<ele>70</ele>
</trkpt>
<trkpt lat="48.039348414167762" lon="-4.70077833160758">
<ele>71</ele>
</trkpt>
<trkpt lat="48.03987555205822" lon="-4.700646987184882">
<ele>71</ele>
</trkpt>
<trkpt lat="48.039878066629171" lon="-4.701354168355465">
<ele>72</ele>
</trkpt>
<trkpt lat="48.040584241971374" lon="-4.701246796175838">
<ele>70</ele>
</trkpt>
<trkpt lat="48.040914153680205" lon="-4.701391886919737">
<ele>68</ele>
</trkpt>
<trkpt lat="48.041290752589703" lon="-4.701509652659297">
<ele>66</ele>
</trkpt>
<trkpt lat="48.041342133656144" lon="-4.702156065031886">
<ele>64</ele>
</trkpt>
<trkpt lat="48.041220679879189" lon="-4.703048570081592">
<ele>62</ele>
</trkpt>
<trkpt lat="48.041745722293854" lon="-4.702950585633516">
<ele>61</ele>
</trkpt>
<trkpt lat="48.042234554886818" lon="-4.703453667461872">
<ele>59</ele>
</trkpt>
<trkpt lat="48.042090469971299" lon="-4.703972926363349">
<ele>57</ele>
</trkpt>
<trkpt lat="48.042204715311527" lon="-4.70432479865849">
<ele>55</ele>
</trkpt>
<trkpt lat="48.042213516309857" lon="-4.705302128568292">
<ele>53</ele>
</trkpt>
<trkpt lat="48.042870908975601" lon="-4.705255525186658">
<ele>47</ele>
</trkpt>
<trkpt lat="48.044128613546491" lon="-4.704986466094852">
<ele>42</ele>
</trkpt>
<trkpt lat="48.044164823368192" lon="-4.70438539981842">
<ele>36</ele>
</trkpt>
<trkpt lat="48.044360037893057" lon="-4.704142240807414">
<ele>30</ele>
</trkpt>
<trkpt lat="48.04454343393445" lon="-4.704469805583358">
<ele>24</ele>
</trkpt>
<trkpt lat="48.04505649022758" lon="-4.704572148621082">
<ele>18</ele>
</trkpt>
<trkpt lat="48.046102803200483" lon="-4.704813379794359">
<ele>13</ele>
</trkpt>
<trkpt lat="48.047112235799432" lon="-4.70454465597868">
<ele>7</ele>
</trkpt>
<trkpt lat="48.04741507396102" lon="-4.704012908041477">
<ele>8</ele>
</trkpt>
<trkpt lat="48.047460839152336" lon="-4.702504249289632">
<ele>9</ele>
</trkpt>
<trkpt lat="48.04753920994699" lon="-4.701201869174838">
<ele>10</ele>
</trkpt>
<trkpt lat="48.047098070383072" lon="-4.699156684800983">
<ele>12</ele>
</trkpt>
<trkpt lat="48.047050712630153" lon="-4.698443468660116">
<ele>13</ele>
</trkpt>
<trkpt lat="48.047192450612783" lon="-4.697587173432112">
<ele>14</ele>
</trkpt>
<trkpt lat="48.047299822792411" lon="-4.696928272023797">
<ele>15</ele>
</trkpt>
<trkpt lat="48.04757634177804" lon="-4.696460394188762">
<ele>16</ele>
</trkpt>
<trkpt lat="48.047632835805416" lon="-4.695895621553063">
<ele>17</ele>
</trkpt>
<trkpt lat="48.047259673476219" lon="-4.694970510900021">
<ele>18</ele>
</trkpt>
<trkpt lat="48.047176944091916" lon="-4.693343667313457">
<ele>20</ele>
</trkpt>
<trkpt lat="48.047477100044489" lon="-4.692104570567608">
<ele>21</ele>
</trkpt>
<trkpt lat="48.048198781907558" lon="-4.690989274531603">
<ele>22</ele>
</trkpt>
<trkpt lat="48.048411766067147" lon="-4.690075144171715">
<ele>23</ele>
</trkpt>
<trkpt lat="48.049494875594974" lon="-4.690455598756671">
<ele>28</ele>
</trkpt>
<trkpt lat="48.049908606335521" lon="-4.691083235666156">
<ele>33</ele>
</trkpt>
<trkpt lat="48.050961038097739" lon="-4.691223967820406">
<ele>38</ele>
</trkpt>
<trkpt lat="48.052043812349439" lon="-4.691234109923244">
<ele>43</ele>
</trkpt>
<trkpt lat="48.052027132362127" lon="-4.690760532394052">
<ele>48</ele>
</trkpt>
<trkpt lat="48.051592782139778" lon="-4.689726205542684">
<ele>52</ele>
</trkpt>
<trkpt lat="48.051624884828925" lon="-4.689191859215498">
<ele>57</ele>
</trkpt>
<trkpt lat="48.051520613953471" lon="-4.688672935590148">
<ele>62</ele>
</trkpt>
<trkpt lat="48.052098462358117" lon="-4.688447210937738">
<ele>67</ele>
</trkpt>
<trkpt lat="48.052462488412857" lon="-4.688024511560798">
<ele>72</ele>
</trkpt>
<trkpt lat="48.052963139489293" lon="-4.687956785783172">
<ele>70</ele>
</trkpt>
<trkpt lat="48.053472088649869" lon="-4.688125848770142">
<ele>69</ele>
</trkpt>
<trkpt lat="48.055095747113228" lon="-4.68740014359355">
<ele>67</ele>
</trkpt>
<trkpt lat="48.056400138884783" lon="-4.687103172764182">
<ele>66</ele>
</trkpt>
<trkpt lat="48.056267201900482" lon="-4.686311082914472">
<ele>64</ele>
</trkpt>
<trkpt lat="48.057156521826982" lon="-4.686160543933511">
<ele>62</ele>
</trkpt>
<trkpt lat="48.057832606136799" lon="-4.686553906649351">
<ele>61</ele>
</trkpt>
<trkpt lat="48.058742629364133" lon="-4.686810225248337">
<ele>59</ele>
</trkpt>
<trkpt lat="48.059913329780102" lon="-4.687236109748483">
<ele>58</ele>
</trkpt>
<trkpt lat="48.060988141223788" lon="-4.687379775568843">
<ele>56</ele>
</trkpt>
<trkpt lat="48.061247142031789" lon="-4.687953097745776">
<ele>57</ele>
</trkpt>
<trkpt lat="48.061412516981363" lon="-4.688581321388483">
<ele>57</ele>
</trkpt>
<trkpt lat="48.062067897990346" lon="-4.688567910343409">
<ele>58</ele>
</trkpt>
<trkpt lat="48.062715567648411" lon="-4.689058586955071">
<ele>58</ele>
</trkpt>
<trkpt lat="48.063096273690462" lon="-4.689109548926354">
<ele>59</ele>
</trkpt>
<trkpt lat="48.063440518453717" lon="-4.689391264691949">
<ele>60</ele>
</trkpt>
<trkpt lat="48.063847543671727" lon="-4.689378356561065">
<ele>60</ele>
</trkpt>
<trkpt lat="48.064317768439651" lon="-4.689441220834851">
<ele>61</ele>
</trkpt>
<trkpt lat="48.063847543671727" lon="-4.689378356561065">
<ele>61</ele>
</trkpt>
<trkpt lat="48.063440518453717" lon="-4.689391264691949">
<ele>60</ele>
</trkpt>
<trkpt lat="48.063096273690462" lon="-4.689109548926354">
<ele>60</ele>
</trkpt>
<trkpt lat="48.062715567648411" lon="-4.689058586955071">
<ele>59</ele>
</trkpt>
<trkpt lat="48.062067897990346" lon="-4.688567910343409">
<ele>59</ele>
</trkpt>
<trkpt lat="48.061412516981363" lon="-4.688581321388483">
<ele>59</ele>
</trkpt>
<trkpt lat="48.061120072379708" lon="-4.689316665753722">
<ele>58</ele>
</trkpt>
<trkpt lat="48.060790579766035" lon="-4.689541971310973">
<ele>58</ele>
</trkpt>
<trkpt lat="48.060784796252847" lon="-4.690012615174055">
<ele>57</ele>
</trkpt>
<trkpt lat="48.060974646359682" lon="-4.690610412508249">
<ele>57</ele>
</trkpt>
<trkpt lat="48.060848917812109" lon="-4.691199660301209">
<ele>57</ele>
</trkpt>
<trkpt lat="48.060806421563029" lon="-4.691530661657453">
<ele>58</ele>
</trkpt>
<trkpt lat="48.061151001602411" lon="-4.69218285754323">
<ele>58</ele>
</trkpt>
<trkpt lat="48.060422362759709" lon="-4.692287379875779">
<ele>59</ele>
</trkpt>
<trkpt lat="48.060062443837523" lon="-4.692643275484443">
<ele>59</ele>
</trkpt>
<trkpt lat="48.059189133346081" lon="-4.692526515573263">
<ele>59</ele>
</trkpt>
<trkpt lat="48.05906742811203" lon="-4.693048959597945">
<ele>60</ele>
</trkpt>
<trkpt lat="48.059608060866594" lon="-4.694569101557136">
<ele>60</ele>
</trkpt>
<trkpt lat="48.059899164363742" lon="-4.694607993587852">
<ele>61</ele>
</trkpt>
<trkpt lat="48.059871336445212" lon="-4.695446100085974">
<ele>61</ele>
</trkpt>
<trkpt lat="48.060087505728006" lon="-4.695980027318001">
<ele>60</ele>
</trkpt>
<trkpt lat="48.06011650711298" lon="-4.696623673662543">
<ele>58</ele>
</trkpt>
<trkpt lat="48.060336699709296" lon="-4.697090880945325">
<ele>57</ele>
</trkpt>
<trkpt lat="48.060814635828137" lon="-4.696649825200439">
<ele>56</ele>
</trkpt>
<trkpt lat="48.060876075178385" lon="-4.697129437699914">
<ele>54</ele>
</trkpt>
<trkpt lat="48.060750346630812" lon="-4.697718685492873">
<ele>53</ele>
</trkpt>
<trkpt lat="48.061037678271532" lon="-4.698194861412048">
<ele>52</ele>
</trkpt>
<trkpt lat="48.061160305514932" lon="-4.698783690109849">
<ele>51</ele>
</trkpt>
<trkpt lat="48.06156531907618" lon="-4.698804225772619">
<ele>49</ele>
</trkpt>
<trkpt lat="48.061687611043453" lon="-4.69902265816927">
<ele>48</ele>
</trkpt>
<trkpt lat="48.061523158103228" lon="-4.699505707249045">
<ele>49</ele>
</trkpt>
<trkpt lat="48.061714852228761" lon="-4.700070144608617">
<ele>50</ele>
</trkpt>
<trkpt lat="48.061308665201068" lon="-4.701194241642952">
<ele>50</ele>
</trkpt>
<trkpt lat="48.061388460919261" lon="-4.701743675395846">
<ele>51</ele>
</trkpt>
<trkpt lat="48.061162820085883" lon="-4.702117508277297">
<ele>52</ele>
</trkpt>
<trkpt lat="48.061269018799067" lon="-4.702603155747056">
<ele>53</ele>
</trkpt>
<trkpt lat="48.061516117304564" lon="-4.703747453168035">
<ele>54</ele>
</trkpt>
<trkpt lat="48.061762964352965" lon="-4.704521270468831">
<ele>54</ele>
</trkpt>
<trkpt lat="48.062017522752285" lon="-4.704791083931923">
<ele>55</ele>
</trkpt>
<trkpt lat="48.062032191082835" lon="-4.705298189073801">
<ele>56</ele>
</trkpt>
<trkpt lat="48.062297394499183" lon="-4.706141827628017">
<ele>56</ele>
</trkpt>
<trkpt lat="48.062438545748591" lon="-4.707170957699418">
<ele>56</ele>
</trkpt>
<trkpt lat="48.062510462477803" lon="-4.708224479109049">
<ele>56</ele>
</trkpt>
<trkpt lat="48.062435779720545" lon="-4.70908991061151">
<ele>56</ele>
</trkpt>
<trkpt lat="48.062554216012359" lon="-4.70974562689662">
<ele>56</ele>
</trkpt>
<trkpt lat="48.062872225418687" lon="-4.710461692884564">
<ele>56</ele>
</trkpt>
<trkpt lat="48.063395759090781" lon="-4.711138028651476">
<ele>56</ele>
</trkpt>
<trkpt lat="48.063719552010298" lon="-4.71138353459537">
<ele>56</ele>
</trkpt>
<trkpt lat="48.063844107091427" lon="-4.711939003318548">
<ele>56</ele>
</trkpt>
<trkpt lat="48.063547974452376" lon="-4.713481944054365">
<ele>56</ele>
</trkpt>
<trkpt lat="48.06324522010982" lon="-4.71438417211175">
<ele>56</ele>
</trkpt>
<trkpt lat="48.063196688890457" lon="-4.714815421029925">
<ele>57</ele>
</trkpt>
<trkpt lat="48.062871135771275" lon="-4.714973755180836">
<ele>58</ele>
</trkpt>
<trkpt lat="48.062608698382974" lon="-4.715207945555449">
<ele>58</ele>
</trkpt>
<trkpt lat="48.061580238863826" lon="-4.714295407757163">
<ele>58</ele>
</trkpt>
<trkpt lat="48.060828549787402" lon="-4.713285388424993">
<ele>59</ele>
</trkpt>
<trkpt lat="48.060290431603789" lon="-4.712102031335235">
<ele>60</ele>
</trkpt>
<trkpt lat="48.059889441356063" lon="-4.712014608085156">
<ele>60</ele>
</trkpt>
<trkpt lat="48.05996211245656" lon="-4.711182536557317">
<ele>60</ele>
</trkpt>
<trkpt lat="48.060440383851528" lon="-4.709542784839869">
<ele>61</ele>
</trkpt>
</trkseg>
</trk>
</gpx>
