<?xml version="1.0" encoding="UTF-8"?>
<gpx version="1.1"
creator="Smartprofil-Office - http://www.rother.de"
xmlns:xsi="http://www.w3.org/2001/XMLSchema-instance"
xmlns="http://www.topografix.com/GPX/1/1"
xsi:schemaLocation="http://www.topografix.com/GPX/1/1 http://www.topografix.com/GPX/1/1/gpx.xsd">
<metadata>

<bounds minlat="39.710072027519345" minlon="2.618935704231262" maxlat="39.732396975159645" maxlon="2.654358968138695"/>
</metadata>
<wpt lat="39.710083091631532" lon="2.620553243905306">
<ele>400</ele>
<name>22_Valldemossa (1)</name>
<cmt></cmt>
<desc></desc>
<sym>Crossing</sym>
</wpt>

<wpt lat="39.716142285615206" lon="2.622933955863118">
<ele>500</ele>
<name>22_(2)</name>
<cmt></cmt>
<desc></desc>
<sym>Crossing</sym>
</wpt>

<wpt lat="39.728251453489065" lon="2.638672487810254">
<ele>908</ele>
<name>22_Pla des Aritges (3)</name>
<cmt></cmt>
<desc></desc>
<sym>Crossing</sym>
</wpt>

<wpt lat="39.731703959405422" lon="2.647220017388463">
<ele>938</ele>
<name>22_Puig Gros (4)</name>
<cmt></cmt>
<desc></desc>
<sym>Crossing</sym>
</wpt>

<wpt lat="39.727097013965249" lon="2.65404699370265">
<ele>774</ele>
<name>22_Refugi de Son Moragues (5)</name>
<cmt></cmt>
<desc></desc>
<sym>Crossing</sym>
</wpt>

<wpt lat="39.725778372958302" lon="2.652721898630261">
<ele>697</ele>
<name>22_Font des Polls (6)</name>
<cmt></cmt>
<desc></desc>
<sym>Crossing</sym>
</wpt>

<trk>
<name>Mal_22_Valldemossa_PuigGros</name>
<trkseg>
<trkpt lat="39.710083091631532" lon="2.620553243905306">
<ele>400</ele>
</trkpt>
<trkpt lat="39.710141262039542" lon="2.620445201173425">
<ele>400</ele>
</trkpt>
<trkpt lat="39.710174454376101" lon="2.620379319414496">
<ele>400</ele>
</trkpt>
<trkpt lat="39.710239162668586" lon="2.620206065475941">
<ele>400</ele>
</trkpt>
<trkpt lat="39.710296662524343" lon="2.620048150420189">
<ele>400</ele>
</trkpt>
<trkpt lat="39.710363131016493" lon="2.619887972250581">
<ele>400</ele>
</trkpt>
<trkpt lat="39.710422391071916" lon="2.619738858193159">
<ele>400</ele>
</trkpt>
<trkpt lat="39.710488859564066" lon="2.619585301727057">
<ele>400</ele>
</trkpt>
<trkpt lat="39.710542755201459" lon="2.619429649785161">
<ele>400</ele>
</trkpt>
<trkpt lat="39.71059849485755" lon="2.619273914024234">
<ele>400</ele>
</trkpt>
<trkpt lat="39.710639817640185" lon="2.619157657027245">
<ele>400</ele>
</trkpt>
<trkpt lat="39.710709806531668" lon="2.619015080854297">
<ele>400</ele>
</trkpt>
<trkpt lat="39.710756158456206" lon="2.618935704231262">
<ele>401</ele>
</trkpt>
<trkpt lat="39.710869314149022" lon="2.618999322876334">
<ele>402</ele>
</trkpt>
<trkpt lat="39.710953803732991" lon="2.619045339524746">
<ele>402</ele>
</trkpt>
<trkpt lat="39.711029240861535" lon="2.619093619287014">
<ele>402</ele>
</trkpt>
<trkpt lat="39.711113646626472" lon="2.619144078344107">
<ele>403</ele>
</trkpt>
<trkpt lat="39.711207104846835" lon="2.619203254580498">
<ele>404</ele>
</trkpt>
<trkpt lat="39.711289750412107" lon="2.619251534342766">
<ele>404</ele>
</trkpt>
<trkpt lat="39.711379604414105" lon="2.619306351989508">
<ele>404</ele>
</trkpt>
<trkpt lat="39.711465854197741" lon="2.619367791339755">
<ele>405</ele>
</trkpt>
<trkpt lat="39.711562832817435" lon="2.619431409984827">
<ele>406</ele>
</trkpt>
<trkpt lat="39.7116544470191" lon="2.619486227631569">
<ele>406</ele>
</trkpt>
<trkpt lat="39.711735332384706" lon="2.619534507393837">
<ele>407</ele>
</trkpt>
<trkpt lat="39.7118323110044" lon="2.619589325040579">
<ele>407</ele>
</trkpt>
<trkpt lat="39.711916800588369" lon="2.619659481570125">
<ele>408</ele>
</trkpt>
<trkpt lat="39.711995087563992" lon="2.619712371379137">
<ele>409</ele>
</trkpt>
<trkpt lat="39.71209030598402" lon="2.619747491553426">
<ele>409</ele>
</trkpt>
<trkpt lat="39.712178315967321" lon="2.619672892615199">
<ele>410</ele>
</trkpt>
<trkpt lat="39.712271774187684" lon="2.619629055261612">
<ele>410</ele>
</trkpt>
<trkpt lat="39.712361544370651" lon="2.619591755792499">
<ele>411</ele>
</trkpt>
<trkpt lat="39.712449638172984" lon="2.619578596204519">
<ele>412</ele>
</trkpt>
<trkpt lat="39.712544856593013" lon="2.619631234556437">
<ele>414</ele>
</trkpt>
<trkpt lat="39.71262389793992" lon="2.619688315317035">
<ele>416</ele>
</trkpt>
<trkpt lat="39.71270109526813" lon="2.619751850143075">
<ele>417</ele>
</trkpt>
<trkpt lat="39.712783740833402" lon="2.619833070784807">
<ele>418</ele>
</trkpt>
<trkpt lat="39.712866386398673" lon="2.619909765198827">
<ele>420</ele>
</trkpt>
<trkpt lat="39.712943667545915" lon="2.619988722726703">
<ele>422</ele>
</trkpt>
<trkpt lat="39.713008375838399" lon="2.62004136107862">
<ele>423</ele>
</trkpt>
<trkpt lat="39.71309102140367" lon="2.620122581720352">
<ele>424</ele>
</trkpt>
<trkpt lat="39.71313594840467" lon="2.620234396308661">
<ele>426</ele>
</trkpt>
<trkpt lat="39.713205518200994" lon="2.620339505374432">
<ele>427</ele>
</trkpt>
<trkpt lat="39.713261257857084" lon="2.620438160374761">
<ele>428</ele>
</trkpt>
<trkpt lat="39.713320517912507" lon="2.620550058782101">
<ele>429</ele>
</trkpt>
<trkpt lat="39.7133744135499" lon="2.620639996603131">
<ele>430</ele>
</trkpt>
<trkpt lat="39.713428309187293" lon="2.62074745260179">
<ele>432</ele>
</trkpt>
<trkpt lat="39.713491257280111" lon="2.62083294801414">
<ele>433</ele>
</trkpt>
<trkpt lat="39.713559485971928" lon="2.62093604542315">
<ele>434</ele>
</trkpt>
<trkpt lat="39.71361874602735" lon="2.62103914283216">
<ele>435</ele>
</trkpt>
<trkpt lat="39.713678089901805" lon="2.621129080653191">
<ele>436</ele>
</trkpt>
<trkpt lat="39.713739193975925" lon="2.621205858886242">
<ele>437</ele>
</trkpt>
<trkpt lat="39.713857714086771" lon="2.621385650709271">
<ele>439</ele>
</trkpt>
<trkpt lat="39.713917057961226" lon="2.621453711763024">
<ele>441</ele>
</trkpt>
<trkpt lat="39.713974473997951" lon="2.621537027880549">
<ele>443</ele>
</trkpt>
<trkpt lat="39.714091317728162" lon="2.621692763641477">
<ele>445</ele>
</trkpt>
<trkpt lat="39.714141609147191" lon="2.62172126211226">
<ele>446</ele>
</trkpt>
<trkpt lat="39.714236157014966" lon="2.621747329831123">
<ele>448</ele>
</trkpt>
<trkpt lat="39.714356521144509" lon="2.621780270710588">
<ele>450</ele>
</trkpt>
<trkpt lat="39.71444453112781" lon="2.621808769181371">
<ele>452</ele>
</trkpt>
<trkpt lat="39.714539749547839" lon="2.621837267652154">
<ele>454</ele>
</trkpt>
<trkpt lat="39.714611666277051" lon="2.621876746416092">
<ele>456</ele>
</trkpt>
<trkpt lat="39.714708644896746" lon="2.621960062533617">
<ele>458</ele>
</trkpt>
<trkpt lat="39.714751811698079" lon="2.622078498825431">
<ele>460</ele>
</trkpt>
<trkpt lat="39.714755332097411" lon="2.62219475582242">
<ele>462</ele>
</trkpt>
<trkpt lat="39.714726665988564" lon="2.622332973405719">
<ele>464</ele>
</trkpt>
<trkpt lat="39.714685343205929" lon="2.622422911226749">
<ele>466</ele>
</trkpt>
<trkpt lat="39.714584676548839" lon="2.622587364166975">
<ele>467</ele>
</trkpt>
<trkpt lat="39.714627843350172" lon="2.62270144186914">
<ele>469</ele>
</trkpt>
<trkpt lat="39.714710488915443" lon="2.622754080221057">
<ele>471</ele>
</trkpt>
<trkpt lat="39.714805707335472" lon="2.622837396338582">
<ele>473</ele>
</trkpt>
<trkpt lat="39.714897321537137" lon="2.622881317511201">
<ele>475</ele>
</trkpt>
<trkpt lat="39.714897321537137" lon="2.622883496806026">
<ele>477</ele>
</trkpt>
<trkpt lat="39.714981727302074" lon="2.622931692749262">
<ele>478</ele>
</trkpt>
<trkpt lat="39.715055404230952" lon="2.622977793216705">
<ele>480</ele>
</trkpt>
<trkpt lat="39.715147018432617" lon="2.622997490689158">
<ele>481</ele>
</trkpt>
<trkpt lat="39.715252798050642" lon="2.62301073409617">
<ele>483</ele>
</trkpt>
<trkpt lat="39.715340808033943" lon="2.622982235625386">
<ele>485</ele>
</trkpt>
<trkpt lat="39.715439630672336" lon="2.622953737154603">
<ele>486</ele>
</trkpt>
<trkpt lat="39.715534849092364" lon="2.622896740213037">
<ele>488</ele>
</trkpt>
<trkpt lat="39.715619254857302" lon="2.622876958921552">
<ele>489</ele>
</trkpt>
<trkpt lat="39.715707348659635" lon="2.622852819040418">
<ele>491</ele>
</trkpt>
<trkpt lat="39.715802567079663" lon="2.622852819040418">
<ele>492</ele>
</trkpt>
<trkpt lat="39.715892421081662" lon="2.622863799333572">
<ele>494</ele>
</trkpt>
<trkpt lat="39.715969618409872" lon="2.622887939214706">
<ele>496</ele>
</trkpt>
<trkpt lat="39.716073805466294" lon="2.622879138216376">
<ele>497</ele>
</trkpt>
<trkpt lat="39.716122336685658" lon="2.622914258390665">
<ele>498</ele>
</trkpt>
<trkpt lat="39.716142285615206" lon="2.622933955863118">
<ele>500</ele>
</trkpt>
<trkpt lat="39.716097190976143" lon="2.623004196211696">
<ele>502</ele>
</trkpt>
<trkpt lat="39.71604329533875" lon="2.623080974444747">
<ele>503</ele>
</trkpt>
<trkpt lat="39.715933743864298" lon="2.623159931972623">
<ele>505</ele>
</trkpt>
<trkpt lat="39.715856462717056" lon="2.623238889500499">
<ele>506</ele>
</trkpt>
<trkpt lat="39.715800723060966" lon="2.62329806573689">
<ele>508</ele>
</trkpt>
<trkpt lat="39.715827712789178" lon="2.623394625261426">
<ele>510</ele>
</trkpt>
<trkpt lat="39.715888816863298" lon="2.623405521735549">
<ele>511</ele>
</trkpt>
<trkpt lat="39.715879848226905" lon="2.623541560024023">
<ele>513</ele>
</trkpt>
<trkpt lat="39.715813295915723" lon="2.623644657433033">
<ele>514</ele>
</trkpt>
<trkpt lat="39.715811535716057" lon="2.623644657433033">
<ele>516</ele>
</trkpt>
<trkpt lat="39.715752275660634" lon="2.623741133138537">
<ele>517</ele>
</trkpt>
<trkpt lat="39.715746827423573" lon="2.623745491728187">
<ele>518</ele>
</trkpt>
<trkpt lat="39.715664181858301" lon="2.623861748725176">
<ele>519</ele>
</trkpt>
<trkpt lat="39.715662421658635" lon="2.623866107314825">
<ele>520</ele>
</trkpt>
<trkpt lat="39.715559994801879" lon="2.623951686546207">
<ele>520</ele>
</trkpt>
<trkpt lat="39.715491766110063" lon="2.624021843075752">
<ele>521</ele>
</trkpt>
<trkpt lat="39.715412640944123" lon="2.624102979898453">
<ele>522</ele>
</trkpt>
<trkpt lat="39.715339047834277" lon="2.624197360128164">
<ele>523</ele>
</trkpt>
<trkpt lat="39.715334689244628" lon="2.624326609075069">
<ele>524</ele>
</trkpt>
<trkpt lat="39.71533284522593" lon="2.624330967664719">
<ele>525</ele>
</trkpt>
<trkpt lat="39.715331085026264" lon="2.624442866072059">
<ele>528</ele>
</trkpt>
<trkpt lat="39.715447844937444" lon="2.624405566602945">
<ele>530</ele>
</trkpt>
<trkpt lat="39.715487407520413" lon="2.624423084780574">
<ele>532</ele>
</trkpt>
<trkpt lat="39.71547843888402" lon="2.624508664011955">
<ele>535</ele>
</trkpt>
<trkpt lat="39.715455053374171" lon="2.624642439186573">
<ele>538</ele>
</trkpt>
<trkpt lat="39.71543887630105" lon="2.6247981749475">
<ele>540</ele>
</trkpt>
<trkpt lat="39.715417334809899" lon="2.624951647594571">
<ele>542</ele>
</trkpt>
<trkpt lat="39.715390345081687" lon="2.62508986517787">
<ele>545</ele>
</trkpt>
<trkpt lat="39.715376012027264" lon="2.625223640352488">
<ele>548</ele>
</trkpt>
<trkpt lat="39.715376012027264" lon="2.625230262055993">
<ele>550</ele>
</trkpt>
<trkpt lat="39.715361595153809" lon="2.625331096351147">
<ele>552</ele>
</trkpt>
<trkpt lat="39.715361595153809" lon="2.625339897349477">
<ele>554</ele>
</trkpt>
<trkpt lat="39.715354470536113" lon="2.625460512936115">
<ele>556</ele>
</trkpt>
<trkpt lat="39.715399313718081" lon="2.625440815463662">
<ele>558</ele>
</trkpt>
<trkpt lat="39.715471230447292" lon="2.625405695289373">
<ele>560</ele>
</trkpt>
<trkpt lat="39.715492771938443" lon="2.625473672524095">
<ele>563</ele>
</trkpt>
<trkpt lat="39.715458657592535" lon="2.625548271462321">
<ele>565</ele>
</trkpt>
<trkpt lat="39.715422699227929" lon="2.625633766874671">
<ele>567</ele>
</trkpt>
<trkpt lat="39.715557480230927" lon="2.625563610345125">
<ele>569</ele>
</trkpt>
<trkpt lat="39.715604167431593" lon="2.625532932579517">
<ele>571</ele>
</trkpt>
<trkpt lat="39.715543063357472" lon="2.625747844576836">
<ele>571</ele>
</trkpt>
<trkpt lat="39.715508949011564" lon="2.625813642516732">
<ele>572</ele>
</trkpt>
<trkpt lat="39.715457987040281" lon="2.625978095456958">
<ele>572</ele>
</trkpt>
<trkpt lat="39.715560330078006" lon="2.626146990805864">
<ele>573</ele>
</trkpt>
<trkpt lat="39.715576507151127" lon="2.626186469569802">
<ele>573</ele>
</trkpt>
<trkpt lat="39.715585559606552" lon="2.626366261392832">
<ele>573</ele>
</trkpt>
<trkpt lat="39.715574746951461" lon="2.62651763856411">
<ele>574</ele>
</trkpt>
<trkpt lat="39.715572986751795" lon="2.626519817858934">
<ele>574</ele>
</trkpt>
<trkpt lat="39.71555320546031" lon="2.626658035442233">
<ele>575</ele>
</trkpt>
<trkpt lat="39.715540632605553" lon="2.626747889444232">
<ele>575</ele>
</trkpt>
<trkpt lat="39.715608861297369" lon="2.626877306029201">
<ele>577</ele>
</trkpt>
<trkpt lat="39.715687902644277" lon="2.626967243850231">
<ele>579</ele>
</trkpt>
<trkpt lat="39.715759819373488" lon="2.627044022083283">
<ele>580</ele>
</trkpt>
<trkpt lat="39.715795693919063" lon="2.627162458375096">
<ele>582</ele>
</trkpt>
<trkpt lat="39.715846069157124" lon="2.627307213842869">
<ele>584</ele>
</trkpt>
<trkpt lat="39.715883787721395" lon="2.627430008724332">
<ele>586</ele>
</trkpt>
<trkpt lat="39.715934079140425" lon="2.62758138589561">
<ele>588</ele>
</trkpt>
<trkpt lat="39.715968780219555" lon="2.62770694680512">
<ele>589</ele>
</trkpt>
<trkpt lat="39.715965176001191" lon="2.62771574780345">
<ele>591</ele>
</trkpt>
<trkpt lat="39.715986717492342" lon="2.627812223508954">
<ele>593</ele>
</trkpt>
<trkpt lat="39.715986717492342" lon="2.62781448662281">
<ele>594</ele>
</trkpt>
<trkpt lat="39.716047821566463" lon="2.628027219325304">
<ele>595</ele>
</trkpt>
<trkpt lat="39.716069363057613" lon="2.628132496029139">
<ele>596</ele>
</trkpt>
<trkpt lat="39.716123258695006" lon="2.628362746909261">
<ele>597</ele>
</trkpt>
<trkpt lat="39.716175394132733" lon="2.628454864025116">
<ele>598</ele>
</trkpt>
<trkpt lat="39.716256279498339" lon="2.628518482670188">
<ele>599</ele>
</trkpt>
<trkpt lat="39.716340685263276" lon="2.628606241196394">
<ele>600</ele>
</trkpt>
<trkpt lat="39.716414362192154" lon="2.628696179017425">
<ele>601</ele>
</trkpt>
<trkpt lat="39.716498767957091" lon="2.628790475428104">
<ele>602</ele>
</trkpt>
<trkpt lat="39.716608403250575" lon="2.628825595602393">
<ele>603</ele>
</trkpt>
<trkpt lat="39.716737736016512" lon="2.628856273368001">
<ele>604</ele>
</trkpt>
<trkpt lat="39.71686027944088" lon="2.628890890628099">
<ele>605</ele>
</trkpt>
<trkpt lat="39.716908810660243" lon="2.628915030509234">
<ele>606</ele>
</trkpt>
<trkpt lat="39.717066558077931" lon="2.628968087956309">
<ele>607</ele>
</trkpt>
<trkpt lat="39.717170745134354" lon="2.629029527306557">
<ele>608</ele>
</trkpt>
<trkpt lat="39.717244086787105" lon="2.629071269184351">
<ele>608</ele>
</trkpt>
<trkpt lat="39.717308040708303" lon="2.629035981371999">
<ele>609</ele>
</trkpt>
<trkpt lat="39.71736503764987" lon="2.628956018015742">
<ele>610</ele>
</trkpt>
<trkpt lat="39.717412982136011" lon="2.628834983333945">
<ele>611</ele>
</trkpt>
<trkpt lat="39.717414993792772" lon="2.628791984170675">
<ele>612</ele>
</trkpt>
<trkpt lat="39.717504009604454" lon="2.628658963367343">
<ele>613</ele>
</trkpt>
<trkpt lat="39.717621020972729" lon="2.628589980304241">
<ele>614</ele>
</trkpt>
<trkpt lat="39.717687992379069" lon="2.628556033596396">
<ele>616</ele>
</trkpt>
<trkpt lat="39.717772984877229" lon="2.628524014726281">
<ele>617</ele>
</trkpt>
<trkpt lat="39.717884967103601" lon="2.628427958115935">
<ele>618</ele>
</trkpt>
<trkpt lat="39.717917991802096" lon="2.628412032499909">
<ele>619</ele>
</trkpt>
<trkpt lat="39.71794699318707" lon="2.628289991989732">
<ele>620</ele>
</trkpt>
<trkpt lat="39.717973982915282" lon="2.628143979236484">
<ele>622</ele>
</trkpt>
<trkpt lat="39.717983035370708" lon="2.628111038357019">
<ele>623</ele>
</trkpt>
<trkpt lat="39.718138016760349" lon="2.627997966483235">
<ele>624</ele>
</trkpt>
<trkpt lat="39.718144973739982" lon="2.628007018938661">
<ele>623</ele>
</trkpt>
<trkpt lat="39.718216974288225" lon="2.628103997558355">
<ele>622</ele>
</trkpt>
<trkpt lat="39.718297021463513" lon="2.628155965358019">
<ele>622</ele>
</trkpt>
<trkpt lat="39.718316970393062" lon="2.628314970061183">
<ele>621</ele>
</trkpt>
<trkpt lat="39.718327028676867" lon="2.628440028056502">
<ele>620</ele>
</trkpt>
<trkpt lat="39.718356030061841" lon="2.628556033596396">
<ele>619</ele>
</trkpt>
<trkpt lat="39.718352006748319" lon="2.628566008061171">
<ele>618</ele>
</trkpt>
<trkpt lat="39.718366004526615" lon="2.628684025257826">
<ele>618</ele>
</trkpt>
<trkpt lat="39.718368016183376" lon="2.628741022199392">
<ele>617</ele>
</trkpt>
<trkpt lat="39.718371033668518" lon="2.628917964175344">
<ele>616</ele>
</trkpt>
<trkpt lat="39.718385031446815" lon="2.629012009128928">
<ele>617</ele>
</trkpt>
<trkpt lat="39.718358041718602" lon="2.629192974418402">
<ele>618</ele>
</trkpt>
<trkpt lat="39.718357035890222" lon="2.629237985238433">
<ele>618</ele>
</trkpt>
<trkpt lat="39.718445967882872" lon="2.629521964117885">
<ele>619</ele>
</trkpt>
<trkpt lat="39.718458037823439" lon="2.629533028230071">
<ele>620</ele>
</trkpt>
<trkpt lat="39.718551998957992" lon="2.629578961059451">
<ele>621</ele>
</trkpt>
<trkpt lat="39.718619976192713" lon="2.629566974937916">
<ele>622</ele>
</trkpt>
<trkpt lat="39.718658030033112" lon="2.629563035443425">
<ele>622</ele>
</trkpt>
<trkpt lat="39.718844024464488" lon="2.629566974937916">
<ele>623</ele>
</trkpt>
<trkpt lat="39.718902027234435" lon="2.629559012129903">
<ele>624</ele>
</trkpt>
<trkpt lat="39.718976961448789" lon="2.629537973552942">
<ele>626</ele>
</trkpt>
<trkpt lat="39.719094978645444" lon="2.629684992134571">
<ele>627</ele>
</trkpt>
<trkpt lat="39.719104031100869" lon="2.629773002117872">
<ele>628</ele>
</trkpt>
<trkpt lat="39.719116017222404" lon="2.629850031808019">
<ele>630</ele>
</trkpt>
<trkpt lat="39.719173014163971" lon="2.629971988499165">
<ele>632</ele>
</trkpt>
<trkpt lat="39.7193010058254" lon="2.630143985152245">
<ele>633</ele>
</trkpt>
<trkpt lat="39.71938599832356" lon="2.630201987922192">
<ele>634</ele>
</trkpt>
<trkpt lat="39.719418017193675" lon="2.630269965156913">
<ele>636</ele>
</trkpt>
<trkpt lat="39.719453975558281" lon="2.630353029817343">
<ele>638</ele>
</trkpt>
<trkpt lat="39.71944903023541" lon="2.630483033135533">
<ele>639</ele>
</trkpt>
<trkpt lat="39.719422040507197" lon="2.63058403506875">
<ele>640</ele>
</trkpt>
<trkpt lat="39.719348028302193" lon="2.630681013688445">
<ele>640</ele>
</trkpt>
<trkpt lat="39.719274016097188" lon="2.63075603172183">
<ele>640</ele>
</trkpt>
<trkpt lat="39.719225987792015" lon="2.63086399063468">
<ele>641</ele>
</trkpt>
<trkpt lat="39.719182988628745" lon="2.630964992567897">
<ele>642</ele>
</trkpt>
<trkpt lat="39.719178965315223" lon="2.631031963974237">
<ele>642</ele>
</trkpt>
<trkpt lat="39.719177037477493" lon="2.631155010312796">
<ele>642</ele>
</trkpt>
<trkpt lat="39.719163961708546" lon="2.631304962560535">
<ele>643</ele>
</trkpt>
<trkpt lat="39.719162033870816" lon="2.631448041647673">
<ele>644</ele>
</trkpt>
<trkpt lat="39.71915197558701" lon="2.631581984460354">
<ele>644</ele>
</trkpt>
<trkpt lat="39.719140995293856" lon="2.63163898140192">
<ele>644</ele>
</trkpt>
<trkpt lat="39.719174019992352" lon="2.631747024133802">
<ele>644</ele>
</trkpt>
<trkpt lat="39.719183994457126" lon="2.63183101080358">
<ele>644</ele>
</trkpt>
<trkpt lat="39.719114005565643" lon="2.631996972486377">
<ele>644</ele>
</trkpt>
<trkpt lat="39.71908500418067" lon="2.632023962214589">
<ele>644</ele>
</trkpt>
<trkpt lat="39.71912900917232" lon="2.632219009101391">
<ele>644</ele>
</trkpt>
<trkpt lat="39.719075029715896" lon="2.632190007716417">
<ele>644</ele>
</trkpt>
<trkpt lat="39.71897603943944" lon="2.63211096636951">
<ele>644</ele>
</trkpt>
<trkpt lat="39.718816028907895" lon="2.632049024105072">
<ele>644</ele>
</trkpt>
<trkpt lat="39.718754002824426" lon="2.63202597387135">
<ele>644</ele>
</trkpt>
<trkpt lat="39.718662975355983" lon="2.632057992741466">
<ele>645</ele>
</trkpt>
<trkpt lat="39.718627016991377" lon="2.632084982469678">
<ele>647</ele>
</trkpt>
<trkpt lat="39.718578988686204" lon="2.632115995511413">
<ele>648</ele>
</trkpt>
<trkpt lat="39.718562979251146" lon="2.632253039628267">
<ele>649</ele>
</trkpt>
<trkpt lat="39.718539007008076" lon="2.632416989654303">
<ele>650</ele>
</trkpt>
<trkpt lat="39.718561973422766" lon="2.632514974102378">
<ele>652</ele>
</trkpt>
<trkpt lat="39.718614025041461" lon="2.632468035444617">
<ele>653</ele>
</trkpt>
<trkpt lat="39.718679990619421" lon="2.632430987432599">
<ele>654</ele>
</trkpt>
<trkpt lat="39.718802031129599" lon="2.632500976324081">
<ele>656</ele>
</trkpt>
<trkpt lat="39.718783004209399" lon="2.632529977709055">
<ele>657</ele>
</trkpt>
<trkpt lat="39.718757020309567" lon="2.632557973265648">
<ele>659</ele>
</trkpt>
<trkpt lat="39.718674961477518" lon="2.632705997675657">
<ele>660</ele>
</trkpt>
<trkpt lat="39.718641014769673" lon="2.632845975458622">
<ele>662</ele>
</trkpt>
<trkpt lat="39.718702035024762" lon="2.632855027914047">
<ele>664</ele>
</trkpt>
<trkpt lat="39.718745034188032" lon="2.632856033742428">
<ele>666</ele>
</trkpt>
<trkpt lat="39.718842012807727" lon="2.632867014035583">
<ele>667</ele>
</trkpt>
<trkpt lat="39.718908984214067" lon="2.632921999320388">
<ele>669</ele>
</trkpt>
<trkpt lat="39.718947960063815" lon="2.632972039282322">
<ele>671</ele>
</trkpt>
<trkpt lat="39.718860033899546" lon="2.633082009851933">
<ele>672</ele>
</trkpt>
<trkpt lat="39.718863973394036" lon="2.633085027337074">
<ele>674</ele>
</trkpt>
<trkpt lat="39.718895992264152" lon="2.633143030107021">
<ele>678</ele>
</trkpt>
<trkpt lat="39.718989031389356" lon="2.633174965158105">
<ele>681</ele>
</trkpt>
<trkpt lat="39.719067988917232" lon="2.633253000676632">
<ele>684</ele>
</trkpt>
<trkpt lat="39.719091961160302" lon="2.633289964869618">
<ele>688</ele>
</trkpt>
<trkpt lat="39.719179971143603" lon="2.633328018710017">
<ele>692</ele>
</trkpt>
<trkpt lat="39.719264041632414" lon="2.633380992338061">
<ele>695</ele>
</trkpt>
<trkpt lat="39.719224981963634" lon="2.63348400592804">
<ele>698</ele>
</trkpt>
<trkpt lat="39.719162033870816" lon="2.633577967062593">
<ele>702</ele>
</trkpt>
<trkpt lat="39.719284996390343" lon="2.63363697566092">
<ele>706</ele>
</trkpt>
<trkpt lat="39.719351967796683" lon="2.633650973439217">
<ele>709</ele>
</trkpt>
<trkpt lat="39.719456993043423" lon="2.6336570084095">
<ele>711</ele>
</trkpt>
<trkpt lat="39.719533016905189" lon="2.633711993694305">
<ele>713</ele>
</trkpt>
<trkpt lat="39.71949303522706" lon="2.63378500007093">
<ele>715</ele>
</trkpt>
<trkpt lat="39.719462022185326" lon="2.633884996175766">
<ele>717</ele>
</trkpt>
<trkpt lat="39.719446012750268" lon="2.633942998945713">
<ele>720</ele>
</trkpt>
<trkpt lat="39.719378035515547" lon="2.634093035012484">
<ele>722</ele>
</trkpt>
<trkpt lat="39.71934400498867" lon="2.634170986711979">
<ele>724</ele>
</trkpt>
<trkpt lat="39.71936403773725" lon="2.634233012795448">
<ele>726</ele>
</trkpt>
<trkpt lat="39.719379963353276" lon="2.634231001138687">
<ele>728</ele>
</trkpt>
<trkpt lat="39.719500998035073" lon="2.634223960340023">
<ele>730</ele>
</trkpt>
<trkpt lat="39.719588002189994" lon="2.634229995310307">
<ele>732</ele>
</trkpt>
<trkpt lat="39.719617003574967" lon="2.634222032502294">
<ele>734</ele>
</trkpt>
<trkpt lat="39.719692021608353" lon="2.634194036945701">
<ele>736</ele>
</trkpt>
<trkpt lat="39.719845997169614" lon="2.634200993925333">
<ele>738</ele>
</trkpt>
<trkpt lat="39.719885978847742" lon="2.634183978661895">
<ele>740</ele>
</trkpt>
<trkpt lat="39.71994599327445" lon="2.63419202528894">
<ele>742</ele>
</trkpt>
<trkpt lat="39.720027968287468" lon="2.634217003360391">
<ele>744</ele>
</trkpt>
<trkpt lat="39.720059987157583" lon="2.63421499170363">
<ele>746</ele>
</trkpt>
<trkpt lat="39.720185967162251" lon="2.63419202528894">
<ele>748</ele>
</trkpt>
<trkpt lat="39.720219997689128" lon="2.634142991155386">
<ele>750</ele>
</trkpt>
<trkpt lat="39.720301972702146" lon="2.634079959243536">
<ele>752</ele>
</trkpt>
<trkpt lat="39.7203319799155" lon="2.634030003100634">
<ele>755</ele>
</trkpt>
<trkpt lat="39.720451002940536" lon="2.633994966745377">
<ele>757</ele>
</trkpt>
<trkpt lat="39.720559967681766" lon="2.633993038907647">
<ele>760</ele>
</trkpt>
<trkpt lat="39.720646971836686" lon="2.634009970352054">
<ele>762</ele>
</trkpt>
<trkpt lat="39.720755014568567" lon="2.634037965908647">
<ele>764</ele>
</trkpt>
<trkpt lat="39.720862973481417" lon="2.634026985615492">
<ele>767</ele>
</trkpt>
<trkpt lat="39.72093204036355" lon="2.63408599421382">
<ele>769</ele>
</trkpt>
<trkpt lat="39.721002029255033" lon="2.634079959243536">
<ele>772</ele>
</trkpt>
<trkpt lat="39.7210209723562" lon="2.634031008929014">
<ele>774</ele>
</trkpt>
<trkpt lat="39.721072018146515" lon="2.633887007832527">
<ele>775</ele>
</trkpt>
<trkpt lat="39.721141001209617" lon="2.633781982585788">
<ele>777</ele>
</trkpt>
<trkpt lat="39.721305035054684" lon="2.633766978979111">
<ele>778</ele>
</trkpt>
<trkpt lat="39.721333030611277" lon="2.633766978979111">
<ele>779</ele>
</trkpt>
<trkpt lat="39.721358008682728" lon="2.633748035877943">
<ele>780</ele>
</trkpt>
<trkpt lat="39.721388015896082" lon="2.633628007024527">
<ele>782</ele>
</trkpt>
<trkpt lat="39.721473008394241" lon="2.633579978719354">
<ele>783</ele>
</trkpt>
<trkpt lat="39.721560012549162" lon="2.633585007861257">
<ele>784</ele>
</trkpt>
<trkpt lat="39.721595970913768" lon="2.633553994819522">
<ele>786</ele>
</trkpt>
<trkpt lat="39.721668977290392" lon="2.633457016199827">
<ele>787</ele>
</trkpt>
<trkpt lat="39.72166595980525" lon="2.633253000676632">
<ele>789</ele>
</trkpt>
<trkpt lat="39.721651962026954" lon="2.633194997906685">
<ele>790</ele>
</trkpt>
<trkpt lat="39.721729997545481" lon="2.633078992366791">
<ele>792</ele>
</trkpt>
<trkpt lat="39.721760004758835" lon="2.63309801928699">
<ele>794</ele>
</trkpt>
<trkpt lat="39.721761010587215" lon="2.633100030943751">
<ele>796</ele>
</trkpt>
<trkpt lat="39.721897970885038" lon="2.633255012333393">
<ele>797</ele>
</trkpt>
<trkpt lat="39.72196301445365" lon="2.633288037031889">
<ele>799</ele>
</trkpt>
<trkpt lat="39.72205001860857" lon="2.633326007053256">
<ele>801</ele>
</trkpt>
<trkpt lat="39.722138028591871" lon="2.633360037580133">
<ele>802</ele>
</trkpt>
<trkpt lat="39.72222100943327" lon="2.633394990116358">
<ele>804</ele>
</trkpt>
<trkpt lat="39.722280018031597" lon="2.633403958752751">
<ele>807</ele>
</trkpt>
<trkpt lat="39.722378002479672" lon="2.633379986509681">
<ele>810</ele>
</trkpt>
<trkpt lat="39.722398035228252" lon="2.6333789806813">
<ele>813</ele>
</trkpt>
<trkpt lat="39.722408009693027" lon="2.633357020094991">
<ele>816</ele>
</trkpt>
<trkpt lat="39.722493002191186" lon="2.633422985672951">
<ele>818</ele>
</trkpt>
<trkpt lat="39.722549999132752" lon="2.633499009534717">
<ele>821</ele>
</trkpt>
<trkpt lat="39.722626022994518" lon="2.633638987317681">
<ele>824</ele>
</trkpt>
<trkpt lat="39.722682014107704" lon="2.633759016171098">
<ele>827</ele>
</trkpt>
<trkpt lat="39.722758959978819" lon="2.633792040869594">
<ele>830</ele>
</trkpt>
<trkpt lat="39.722863985225558" lon="2.63384803198278">
<ele>833</ele>
</trkpt>
<trkpt lat="39.722933974117041" lon="2.633734960108995">
<ele>835</ele>
</trkpt>
<trkpt lat="39.723030030727386" lon="2.633777959272265">
<ele>838</ele>
</trkpt>
<trkpt lat="39.723074035719037" lon="2.633788017556071">
<ele>840</ele>
</trkpt>
<trkpt lat="39.723175037652254" lon="2.63380796648562">
<ele>842</ele>
</trkpt>
<trkpt lat="39.723257012665272" lon="2.633853983134031">
<ele>844</ele>
</trkpt>
<trkpt lat="39.723466979339719" lon="2.633843002840877">
<ele>847</ele>
</trkpt>
<trkpt lat="39.723502015694976" lon="2.633845014497638">
<ele>849</ele>
</trkpt>
<trkpt lat="39.723629001528025" lon="2.633909974247217">
<ele>851</ele>
</trkpt>
<trkpt lat="39.723712988197803" lon="2.633961020037532">
<ele>854</ele>
</trkpt>
<trkpt lat="39.723719023168087" lon="2.633968982845545">
<ele>856</ele>
</trkpt>
<trkpt lat="39.723817007616162" lon="2.634167969226837">
<ele>858</ele>
</trkpt>
<trkpt lat="39.723860006779432" lon="2.63419495895505">
<ele>859</ele>
</trkpt>
<trkpt lat="39.723934018984437" lon="2.634261008352041">
<ele>860</ele>
</trkpt>
<trkpt lat="39.724056981503963" lon="2.634283974766731">
<ele>862</ele>
</trkpt>
<trkpt lat="39.724093023687601" lon="2.634368967264891">
<ele>864</ele>
</trkpt>
<trkpt lat="39.72413401119411" lon="2.634433005005121">
<ele>865</ele>
</trkpt>
<trkpt lat="39.724158989265561" lon="2.634600978344679">
<ele>866</ele>
</trkpt>
<trkpt lat="39.724240964278579" lon="2.634732993319631">
<ele>868</ele>
</trkpt>
<trkpt lat="39.724335009232163" lon="2.634712038561702">
<ele>870</ele>
</trkpt>
<trkpt lat="39.724361998960376" lon="2.634768029674888">
<ele>871</ele>
</trkpt>
<trkpt lat="39.724353030323982" lon="2.634859979152679">
<ele>872</ele>
</trkpt>
<trkpt lat="39.724368033930659" lon="2.634870959445834">
<ele>872</ele>
</trkpt>
<trkpt lat="39.724420001730323" lon="2.634942037984729">
<ele>873</ele>
</trkpt>
<trkpt lat="39.724515974521637" lon="2.634983025491238">
<ele>873</ele>
</trkpt>
<trkpt lat="39.724636003375053" lon="2.634971961379051">
<ele>874</ele>
</trkpt>
<trkpt lat="39.724743962287903" lon="2.634982019662857">
<ele>875</ele>
</trkpt>
<trkpt lat="39.724772963672876" lon="2.634971961379051">
<ele>875</ele>
</trkpt>
<trkpt lat="39.724824009463191" lon="2.634912030771375">
<ele>876</ele>
</trkpt>
<trkpt lat="39.724955018609762" lon="2.634882023558021">
<ele>876</ele>
</trkpt>
<trkpt lat="39.724973039701581" lon="2.634841036051512">
<ele>877</ele>
</trkpt>
<trkpt lat="39.725047973915935" lon="2.634785966947675">
<ele>878</ele>
</trkpt>
<trkpt lat="39.725109999999404" lon="2.634809017181397">
<ele>878</ele>
</trkpt>
<trkpt lat="39.725117962807417" lon="2.634780015796423">
<ele>878</ele>
</trkpt>
<trkpt lat="39.725211001932621" lon="2.634747996926308">
<ele>879</ele>
</trkpt>
<trkpt lat="39.725365983322263" lon="2.634733999148011">
<ele>880</ele>
</trkpt>
<trkpt lat="39.725399008020759" lon="2.634760988876224">
<ele>880</ele>
</trkpt>
<trkpt lat="39.725485006347299" lon="2.634843969717622">
<ele>880</ele>
</trkpt>
<trkpt lat="39.725518031045794" lon="2.634862996637821">
<ele>881</ele>
</trkpt>
<trkpt lat="39.725650968030095" lon="2.634985037147999">
<ele>882</ele>
</trkpt>
<trkpt lat="39.725730009377003" lon="2.635085033252835">
<ele>882</ele>
</trkpt>
<trkpt lat="39.725730009377003" lon="2.635152004659176">
<ele>882</ele>
</trkpt>
<trkpt lat="39.725750964134932" lon="2.635273961350322">
<ele>883</ele>
</trkpt>
<trkpt lat="39.725821036845446" lon="2.635357026010752">
<ele>883</ele>
</trkpt>
<trkpt lat="39.725812990218401" lon="2.63535400852561">
<ele>884</ele>
</trkpt>
<trkpt lat="39.725873004645109" lon="2.635437995195389">
<ele>884</ele>
</trkpt>
<trkpt lat="39.725936036556959" lon="2.635415028780699">
<ele>884</ele>
</trkpt>
<trkpt lat="39.725965037941933" lon="2.635411005467176">
<ele>885</ele>
</trkpt>
<trkpt lat="39.726070985198021" lon="2.635387033224106">
<ele>885</ele>
</trkpt>
<trkpt lat="39.726180033758283" lon="2.635363982990384">
<ele>886</ele>
</trkpt>
<trkpt lat="39.726273994892836" lon="2.635359959676862">
<ele>886</ele>
</trkpt>
<trkpt lat="39.726339038461447" lon="2.635314026847482">
<ele>887</ele>
</trkpt>
<trkpt lat="39.726428976282477" lon="2.635296005755663">
<ele>888</ele>
</trkpt>
<trkpt lat="39.72647599875927" lon="2.635276978835464">
<ele>888</ele>
</trkpt>
<trkpt lat="39.726553028449416" lon="2.635337999090552">
<ele>889</ele>
</trkpt>
<trkpt lat="39.726638020947576" lon="2.635435983538628">
<ele>890</ele>
</trkpt>
<trkpt lat="39.726674985140562" lon="2.635577972978354">
<ele>891</ele>
</trkpt>
<trkpt lat="39.726728964596987" lon="2.635700013488531">
<ele>892</ele>
</trkpt>
<trkpt lat="39.726761989295483" lon="2.635819036513567">
<ele>892</ele>
</trkpt>
<trkpt lat="39.726811023429036" lon="2.635920960456133">
<ele>893</ele>
</trkpt>
<trkpt lat="39.726818986237049" lon="2.635952979326248">
<ele>894</ele>
</trkpt>
<trkpt lat="39.72684103064239" lon="2.636138973757625">
<ele>895</ele>
</trkpt>
<trkpt lat="39.7268439643085" lon="2.636324968189001">
<ele>896</ele>
</trkpt>
<trkpt lat="39.726855028420687" lon="2.636454971507192">
<ele>897</ele>
</trkpt>
<trkpt lat="39.726859973743558" lon="2.636558990925551">
<ele>898</ele>
</trkpt>
<trkpt lat="39.726877994835377" lon="2.636711038649082">
<ele>898</ele>
</trkpt>
<trkpt lat="39.72688402980566" lon="2.636757977306843">
<ele>899</ele>
</trkpt>
<trkpt lat="39.727040017023683" lon="2.636849004775286">
<ele>900</ele>
</trkpt>
<trkpt lat="39.727084022015333" lon="2.636873982846737">
<ele>901</ele>
</trkpt>
<trkpt lat="39.727182006463408" lon="2.636918993666768">
<ele>902</ele>
</trkpt>
<trkpt lat="39.727283008396626" lon="2.637102976441383">
<ele>903</ele>
</trkpt>
<trkpt lat="39.727311003953218" lon="2.63715703971684">
<ele>904</ele>
</trkpt>
<trkpt lat="39.727381998673081" lon="2.637252006679773">
<ele>904</ele>
</trkpt>
<trkpt lat="39.727510996162891" lon="2.637486029416323">
<ele>904</ele>
</trkpt>
<trkpt lat="39.727570004761219" lon="2.637586025521159">
<ele>905</ele>
</trkpt>
<trkpt lat="39.727644016966224" lon="2.637693984434009">
<ele>906</ele>
</trkpt>
<trkpt lat="39.727661032229662" lon="2.637706976383925">
<ele>906</ele>
</trkpt>
<trkpt lat="39.727731021121144" lon="2.63784502632916">
<ele>906</ele>
</trkpt>
<trkpt lat="39.727815007790923" lon="2.637979974970222">
<ele>907</ele>
</trkpt>
<trkpt lat="39.727825988084078" lon="2.638002019375563">
<ele>908</ele>
</trkpt>
<trkpt lat="39.727903017774224" lon="2.638127999380231">
<ele>908</ele>
</trkpt>
<trkpt lat="39.727979963645339" lon="2.638247022405267">
<ele>908</ele>
</trkpt>
<trkpt lat="39.728027991950512" lon="2.638309970498085">
<ele>908</ele>
</trkpt>
<trkpt lat="39.728065961971879" lon="2.638382976874709">
<ele>908</ele>
</trkpt>
<trkpt lat="39.728112984448671" lon="2.638484984636307">
<ele>908</ele>
</trkpt>
<trkpt lat="39.728163024410605" lon="2.638566037639976">
<ele>908</ele>
</trkpt>
<trkpt lat="39.728226978331804" lon="2.638638960197568">
<ele>908</ele>
</trkpt>
<trkpt lat="39.728251453489065" lon="2.638672487810254">
<ele>908</ele>
</trkpt>
<trkpt lat="39.728225972503424" lon="2.638751026242971">
<ele>908</ele>
</trkpt>
<trkpt lat="39.728240976110101" lon="2.638839036226273">
<ele>907</ele>
</trkpt>
<trkpt lat="39.728272994980216" lon="2.638956969603896">
<ele>906</ele>
</trkpt>
<trkpt lat="39.728354969993234" lon="2.639132989570499">
<ele>906</ele>
</trkpt>
<trkpt lat="39.728342983871698" lon="2.639196021482348">
<ele>906</ele>
</trkpt>
<trkpt lat="39.728343989700079" lon="2.639290988445282">
<ele>905</ele>
</trkpt>
<trkpt lat="39.728318005800247" lon="2.639455022290349">
<ele>904</ele>
</trkpt>
<trkpt lat="39.728300990536809" lon="2.639618972316384">
<ele>904</ele>
</trkpt>
<trkpt lat="39.728290010243654" lon="2.639707988128066">
<ele>904</ele>
</trkpt>
<trkpt lat="39.7282790299505" lon="2.63988702557981">
<ele>903</ele>
</trkpt>
<trkpt lat="39.728291016072035" lon="2.639992972835898">
<ele>902</ele>
</trkpt>
<trkpt lat="39.728293027728796" lon="2.640171004459262">
<ele>902</ele>
</trkpt>
<trkpt lat="39.728306019678712" lon="2.640303019434214">
<ele>901</ele>
</trkpt>
<trkpt lat="39.728309959173203" lon="2.640393963083625">
<ele>901</ele>
</trkpt>
<trkpt lat="39.728292021900415" lon="2.640508962795138">
<ele>900</ele>
</trkpt>
<trkpt lat="39.728295039385557" lon="2.640537964180112">
<ele>899</ele>
</trkpt>
<trkpt lat="39.728308031335473" lon="2.640636032447219">
<ele>899</ele>
</trkpt>
<trkpt lat="39.728320017457008" lon="2.640864020213485">
<ele>898</ele>
</trkpt>
<trkpt lat="39.728339966386557" lon="2.641041968017817">
<ele>898</ele>
</trkpt>
<trkpt lat="39.72834499552846" lon="2.641073986887932">
<ele>897</ele>
</trkpt>
<trkpt lat="39.728358993306756" lon="2.641250006854534">
<ele>897</ele>
</trkpt>
<trkpt lat="39.72836896777153" lon="2.641451004892588">
<ele>897</ele>
</trkpt>
<trkpt lat="39.728383971378207" lon="2.64154102653265">
<ele>896</ele>
</trkpt>
<trkpt lat="39.728398974984884" lon="2.641762979328632">
<ele>896</ele>
</trkpt>
<trkpt lat="39.728425964713097" lon="2.641863981261849">
<ele>896</ele>
</trkpt>
<trkpt lat="39.728491008281708" lon="2.642050981521606">
<ele>896</ele>
</trkpt>
<trkpt lat="39.728592010214925" lon="2.642260026186705">
<ele>896</ele>
</trkpt>
<trkpt lat="39.728639032691717" lon="2.64238097704947">
<ele>895</ele>
</trkpt>
<trkpt lat="39.72866602241993" lon="2.64246697537601">
<ele>895</ele>
</trkpt>
<trkpt lat="39.728745985776186" lon="2.642656993120909">
<ele>895</ele>
</trkpt>
<trkpt lat="39.728816980496049" lon="2.642829995602369">
<ele>895</ele>
</trkpt>
<trkpt lat="39.728841036558151" lon="2.642889004200697">
<ele>896</ele>
</trkpt>
<trkpt lat="39.728905996307731" lon="2.643040968105197">
<ele>896</ele>
</trkpt>
<trkpt lat="39.728936003521085" lon="2.643120009452105">
<ele>896</ele>
</trkpt>
<trkpt lat="39.729038011282682" lon="2.643373981118202">
<ele>896</ele>
</trkpt>
<trkpt lat="39.729118980467319" lon="2.643572967499495">
<ele>897</ele>
</trkpt>
<trkpt lat="39.729126021265984" lon="2.643606998026371">
<ele>897</ele>
</trkpt>
<trkpt lat="39.72920598462224" lon="2.643715962767601">
<ele>897</ele>
</trkpt>
<trkpt lat="39.729231968522072" lon="2.643761979416013">
<ele>898</ele>
</trkpt>
<trkpt lat="39.729313021525741" lon="2.643834985792637">
<ele>898</ele>
</trkpt>
<trkpt lat="39.729445958510041" lon="2.643897011876106">
<ele>898</ele>
</trkpt>
<trkpt lat="39.729593982920051" lon="2.643920984119177">
<ele>898</ele>
</trkpt>
<trkpt lat="39.729765979573131" lon="2.643882008269429">
<ele>898</ele>
</trkpt>
<trkpt lat="39.729825993999839" lon="2.643921989947557">
<ele>898</ele>
</trkpt>
<trkpt lat="39.729838985949755" lon="2.643950991332531">
<ele>898</ele>
</trkpt>
<trkpt lat="39.729880979284644" lon="2.644232036545873">
<ele>899</ele>
</trkpt>
<trkpt lat="39.729920038953424" lon="2.644358016550541">
<ele>899</ele>
</trkpt>
<trkpt lat="39.729953985661268" lon="2.64435600489378">
<ele>899</ele>
</trkpt>
<trkpt lat="39.730010982602835" lon="2.644300013780594">
<ele>899</ele>
</trkpt>
<trkpt lat="39.730127993971109" lon="2.644476033747196">
<ele>899</ele>
</trkpt>
<trkpt lat="39.730136040598154" lon="2.644533030688763">
<ele>900</ele>
</trkpt>
<trkpt lat="39.730134028941393" lon="2.644622968509793">
<ele>902</ele>
</trkpt>
<trkpt lat="39.730138974264264" lon="2.644650964066386">
<ele>903</ele>
</trkpt>
<trkpt lat="39.730133023113012" lon="2.644690023735166">
<ele>904</ele>
</trkpt>
<trkpt lat="39.730178033933043" lon="2.644903007894754">
<ele>906</ele>
</trkpt>
<trkpt lat="39.730211980640888" lon="2.645005015656352">
<ele>907</ele>
</trkpt>
<trkpt lat="39.730250034481287" lon="2.645069975405932">
<ele>908</ele>
</trkpt>
<trkpt lat="39.730389006435871" lon="2.645214982330799">
<ele>909</ele>
</trkpt>
<trkpt lat="39.730465030297637" lon="2.64536602422595">
<ele>911</ele>
</trkpt>
<trkpt lat="39.730565026402473" lon="2.645529974251986">
<ele>912</ele>
</trkpt>
<trkpt lat="39.730575000867248" lon="2.645673975348473">
<ele>913</ele>
</trkpt>
<trkpt lat="39.730580030009151" lon="2.645715968683362">
<ele>915</ele>
</trkpt>
<trkpt lat="39.730674996972084" lon="2.645863993093371">
<ele>916</ele>
</trkpt>
<trkpt lat="39.73077398724854" lon="2.645960971713066">
<ele>917</ele>
</trkpt>
<trkpt lat="39.730823021382093" lon="2.646013023331761">
<ele>918</ele>
</trkpt>
<trkpt lat="39.730879012495279" lon="2.646082006394863">
<ele>920</ele>
</trkpt>
<trkpt lat="39.730975991114974" lon="2.64620597474277">
<ele>921</ele>
</trkpt>
<trkpt lat="39.730975991114974" lon="2.646209998056293">
<ele>922</ele>
</trkpt>
<trkpt lat="39.731109011918306" lon="2.646280992776156">
<ele>924</ele>
</trkpt>
<trkpt lat="39.731194004416466" lon="2.646385012194514">
<ele>925</ele>
</trkpt>
<trkpt lat="39.731214959174395" lon="2.646401021629572">
<ele>926</ele>
</trkpt>
<trkpt lat="39.731329036876559" lon="2.646466987207532">
<ele>928</ele>
</trkpt>
<trkpt lat="39.731431966647506" lon="2.646522978320718">
<ele>929</ele>
</trkpt>
<trkpt lat="39.731465997174382" lon="2.646571006625891">
<ele>930</ele>
</trkpt>
<trkpt lat="39.731543026864529" lon="2.646901002153754">
<ele>932</ele>
</trkpt>
<trkpt lat="39.731586026027799" lon="2.647064030170441">
<ele>933</ele>
</trkpt>
<trkpt lat="39.731604969128966" lon="2.647178024053574">
<ele>934</ele>
</trkpt>
<trkpt lat="39.731626007705927" lon="2.647270979359746">
<ele>935</ele>
</trkpt>
<trkpt lat="39.7316550090909" lon="2.647247007116675">
<ele>937</ele>
</trkpt>
<trkpt lat="39.731703959405422" lon="2.647220017388463">
<ele>938</ele>
</trkpt>
<trkpt lat="39.731730027124286" lon="2.647244995459914">
<ele>937</ele>
</trkpt>
<trkpt lat="39.731852989643812" lon="2.647337028756738">
<ele>937</ele>
</trkpt>
<trkpt lat="39.731903029605746" lon="2.647376004606485">
<ele>936</ele>
</trkpt>
<trkpt lat="39.731925996020436" lon="2.647426966577768">
<ele>936</ele>
</trkpt>
<trkpt lat="39.731834968551993" lon="2.647598041221499">
<ele>935</ele>
</trkpt>
<trkpt lat="39.731831029057503" lon="2.647607009857893">
<ele>934</ele>
</trkpt>
<trkpt lat="39.73187000490725" lon="2.6477309782058">
<ele>934</ele>
</trkpt>
<trkpt lat="39.731916021555662" lon="2.647784035652876">
<ele>933</ele>
</trkpt>
<trkpt lat="39.732037978246808" lon="2.647869028151035">
<ele>933</ele>
</trkpt>
<trkpt lat="39.732129005715251" lon="2.647928036749363">
<ele>932</ele>
</trkpt>
<trkpt lat="39.732186002656817" lon="2.647974975407124">
<ele>931</ele>
</trkpt>
<trkpt lat="39.732304019853473" lon="2.648086035624147">
<ele>930</ele>
</trkpt>
<trkpt lat="39.732396975159645" lon="2.648154012858868">
<ele>929</ele>
</trkpt>
<trkpt lat="39.732323968783021" lon="2.648247973993421">
<ele>928</ele>
</trkpt>
<trkpt lat="39.732296979054809" lon="2.648264989256859">
<ele>926</ele>
</trkpt>
<trkpt lat="39.7321040276438" lon="2.648404967039824">
<ele>925</ele>
</trkpt>
<trkpt lat="39.732016017660499" lon="2.648500017821789">
<ele>924</ele>
</trkpt>
<trkpt lat="39.732008976861835" lon="2.648504041135311">
<ele>923</ele>
</trkpt>
<trkpt lat="39.7318069729954" lon="2.648603031411767">
<ele>922</ele>
</trkpt>
<trkpt lat="39.731755005195737" lon="2.648623986169696">
<ele>921</ele>
</trkpt>
<trkpt lat="39.731671018525958" lon="2.648658016696572">
<ele>919</ele>
</trkpt>
<trkpt lat="39.731746036559343" lon="2.648865971714258">
<ele>917</ele>
</trkpt>
<trkpt lat="39.731757016852498" lon="2.648944007232785">
<ele>915</ele>
</trkpt>
<trkpt lat="39.731833040714264" lon="2.649139976128936">
<ele>913</ele>
</trkpt>
<trkpt lat="39.731847960501909" lon="2.649207031354308">
<ele>912</ele>
</trkpt>
<trkpt lat="39.731914009898901" lon="2.649401994422078">
<ele>910</ele>
</trkpt>
<trkpt lat="39.731962960213423" lon="2.649559993296862">
<ele>908</ele>
</trkpt>
<trkpt lat="39.731967989355326" lon="2.649582037702203">
<ele>906</ele>
</trkpt>
<trkpt lat="39.732011994346976" lon="2.649764008820057">
<ele>904</ele>
</trkpt>
<trkpt lat="39.732033032923937" lon="2.649897029623389">
<ele>902</ele>
</trkpt>
<trkpt lat="39.732043007388711" lon="2.649936005473137">
<ele>901</ele>
</trkpt>
<trkpt lat="39.732074020430446" lon="2.650081012398005">
<ele>900</ele>
</trkpt>
<trkpt lat="39.732057005167007" lon="2.650298019871116">
<ele>899</ele>
</trkpt>
<trkpt lat="39.732049964368343" lon="2.650401033461094">
<ele>898</ele>
</trkpt>
<trkpt lat="39.732020040974021" lon="2.650588033720851">
<ele>898</ele>
</trkpt>
<trkpt lat="39.732016017660499" lon="2.650623992085457">
<ele>897</ele>
</trkpt>
<trkpt lat="39.731981987133622" lon="2.650805963203311">
<ele>896</ele>
</trkpt>
<trkpt lat="39.731948040425777" lon="2.651003021746874">
<ele>895</ele>
</trkpt>
<trkpt lat="39.731948040425777" lon="2.651018025353551">
<ele>894</ele>
</trkpt>
<trkpt lat="39.731961032375693" lon="2.651078039780259">
<ele>893</ele>
</trkpt>
<trkpt lat="39.731967989355326" lon="2.651223968714476">
<ele>894</ele>
</trkpt>
<trkpt lat="39.731970001012087" lon="2.651236038655043">
<ele>895</ele>
</trkpt>
<trkpt lat="39.731991961598396" lon="2.651437036693096">
<ele>895</ele>
</trkpt>
<trkpt lat="39.731992967426777" lon="2.651486992835999">
<ele>896</ele>
</trkpt>
<trkpt lat="39.731985004618764" lon="2.651739036664367">
<ele>897</ele>
</trkpt>
<trkpt lat="39.731986010447145" lon="2.651785975322127">
<ele>898</ele>
</trkpt>
<trkpt lat="39.731961032375693" lon="2.651916984468699">
<ele>899</ele>
</trkpt>
<trkpt lat="39.731817031279206" lon="2.651998037472367">
<ele>899</ele>
</trkpt>
<trkpt lat="39.731662971898913" lon="2.652072971686721">
<ele>900</ele>
</trkpt>
<trkpt lat="39.731625001877546" lon="2.652095016092062">
<ele>901</ele>
</trkpt>
<trkpt lat="39.73152500577271" lon="2.652142038568854">
<ele>901</ele>
</trkpt>
<trkpt lat="39.731499021872878" lon="2.652165004983544">
<ele>900</ele>
</trkpt>
<trkpt lat="39.731369018554687" lon="2.652303976938129">
<ele>900</ele>
</trkpt>
<trkpt lat="39.731370024383068" lon="2.65230598859489">
<ele>899</ele>
</trkpt>
<trkpt lat="39.731370024383068" lon="2.65230598859489">
<ele>899</ele>
</trkpt>
<trkpt lat="39.731227029114962" lon="2.652335995808244">
<ele>899</ele>
</trkpt>
<trkpt lat="39.731077998876572" lon="2.652245974168181">
<ele>898</ele>
</trkpt>
<trkpt lat="39.730941960588098" lon="2.65217699110508">
<ele>898</ele>
</trkpt>
<trkpt lat="39.730805000290275" lon="2.652101973071694">
<ele>897</ele>
</trkpt>
<trkpt lat="39.730736017227173" lon="2.652082024142146">
<ele>897</ele>
</trkpt>
<trkpt lat="39.730594027787447" lon="2.652004994452">
<ele>895</ele>
</trkpt>
<trkpt lat="39.730448015034199" lon="2.651929976418614">
<ele>894</ele>
</trkpt>
<trkpt lat="39.730317005887628" lon="2.651863005012274">
<ele>892</ele>
</trkpt>
<trkpt lat="39.730179961770773" lon="2.651779018342495">
<ele>890</ele>
</trkpt>
<trkpt lat="39.730160012841225" lon="2.65176703222096">
<ele>888</ele>
</trkpt>
<trkpt lat="39.730054987594485" lon="2.651878008618951">
<ele>887</ele>
</trkpt>
<trkpt lat="39.730005031451583" lon="2.65181003138423">
<ele>885</ele>
</trkpt>
<trkpt lat="39.729998996481299" lon="2.651784969493747">
<ele>883</ele>
</trkpt>
<trkpt lat="39.729958008974791" lon="2.651637028902769">
<ele>882</ele>
</trkpt>
<trkpt lat="39.729938982054591" lon="2.651664018630981">
<ele>880</ele>
</trkpt>
<trkpt lat="39.729928001761436" lon="2.651691008359194">
<ele>878</ele>
</trkpt>
<trkpt lat="39.729838985949755" lon="2.651795027777553">
<ele>876</ele>
</trkpt>
<trkpt lat="39.729745024815202" lon="2.651870967820287">
<ele>874</ele>
</trkpt>
<trkpt lat="39.729704037308693" lon="2.651887983083725">
<ele>872</ele>
</trkpt>
<trkpt lat="39.729685010388494" lon="2.651754040271044">
<ele>870</ele>
</trkpt>
<trkpt lat="39.729680987074971" lon="2.651654966175556">
<ele>868</ele>
</trkpt>
<trkpt lat="39.729547966271639" lon="2.651629988104105">
<ele>866</ele>
</trkpt>
<trkpt lat="39.729517959058285" lon="2.651667036116123">
<ele>864</ele>
</trkpt>
<trkpt lat="39.729379992932081" lon="2.651695031672716">
<ele>862</ele>
</trkpt>
<trkpt lat="39.729313021525741" lon="2.651678016409278">
<ele>860</ele>
</trkpt>
<trkpt lat="39.729239009320736" lon="2.651667036116123">
<ele>857</ele>
</trkpt>
<trkpt lat="39.729143958538771" lon="2.651637028902769">
<ele>853</ele>
</trkpt>
<trkpt lat="39.729109006002545" lon="2.651628982275724">
<ele>850</ele>
</trkpt>
<trkpt lat="39.729010015726089" lon="2.651521023362875">
<ele>847</ele>
</trkpt>
<trkpt lat="39.728957964107394" lon="2.651409963145852">
<ele>844</ele>
</trkpt>
<trkpt lat="39.728885041549802" lon="2.651270991191268">
<ele>840</ele>
</trkpt>
<trkpt lat="39.728880012407899" lon="2.651226986199617">
<ele>837</ele>
</trkpt>
<trkpt lat="39.728781022131443" lon="2.651075022295117">
<ele>834</ele>
</trkpt>
<trkpt lat="39.728700974956155" lon="2.650985000655055">
<ele>830</ele>
</trkpt>
<trkpt lat="39.728683959692717" lon="2.650964967906475">
<ele>827</ele>
</trkpt>
<trkpt lat="39.72858396358788" lon="2.650834964588285">
<ele>826</ele>
</trkpt>
<trkpt lat="39.728512968868017" lon="2.650710996240377">
<ele>825</ele>
</trkpt>
<trkpt lat="39.728485979139805" lon="2.650710996240377">
<ele>824</ele>
</trkpt>
<trkpt lat="39.728396041318774" lon="2.65082499012351">
<ele>823</ele>
</trkpt>
<trkpt lat="39.728312976658344" lon="2.650966979563236">
<ele>822</ele>
</trkpt>
<trkpt lat="39.728262014687061" lon="2.65103898011148">
<ele>822</ele>
</trkpt>
<trkpt lat="39.728185990825295" lon="2.651078961789608">
<ele>821</ele>
</trkpt>
<trkpt lat="39.728177022188902" lon="2.65118901617825">
<ele>820</ele>
</trkpt>
<trkpt lat="39.728197976946831" lon="2.651368975639343">
<ele>819</ele>
</trkpt>
<trkpt lat="39.728199988603592" lon="2.651537032797933">
<ele>818</ele>
</trkpt>
<trkpt lat="39.728205017745495" lon="2.651629988104105">
<ele>817</ele>
</trkpt>
<trkpt lat="39.728205017745495" lon="2.651794021949172">
<ele>816</ele>
</trkpt>
<trkpt lat="39.728232007473707" lon="2.651873985305429">
<ele>816</ele>
</trkpt>
<trkpt lat="39.728211974725127" lon="2.65204899944365">
<ele>815</ele>
</trkpt>
<trkpt lat="39.728197976946831" lon="2.652273969724774">
<ele>814</ele>
</trkpt>
<trkpt lat="39.728223038837314" lon="2.652490977197886">
<ele>813</ele>
</trkpt>
<trkpt lat="39.72819303162396" lon="2.65271401964128">
<ele>812</ele>
</trkpt>
<trkpt lat="39.728188002482057" lon="2.652751989662647">
<ele>812</ele>
</trkpt>
<trkpt lat="39.72819697111845" lon="2.65295097604394">
<ele>811</ele>
</trkpt>
<trkpt lat="39.728210968896747" lon="2.653151974081993">
<ele>810</ele>
</trkpt>
<trkpt lat="39.728266960009933" lon="2.65333796851337">
<ele>811</ele>
</trkpt>
<trkpt lat="39.728267965838313" lon="2.653350038453937">
<ele>812</ele>
</trkpt>
<trkpt lat="39.728339966386557" lon="2.653499990701675">
<ele>813</ele>
</trkpt>
<trkpt lat="39.728349018841982" lon="2.65355296432972">
<ele>814</ele>
</trkpt>
<trkpt lat="39.728396041318774" lon="2.653710963204503">
<ele>816</ele>
</trkpt>
<trkpt lat="39.72843199968338" lon="2.65374499373138">
<ele>817</ele>
</trkpt>
<trkpt lat="39.728505006060004" lon="2.65380903147161">
<ele>818</ele>
</trkpt>
<trkpt lat="39.72858002409339" lon="2.653963007032871">
<ele>819</ele>
</trkpt>
<trkpt lat="39.72858102992177" lon="2.654029978439212">
<ele>820</ele>
</trkpt>
<trkpt lat="39.728552028536797" lon="2.654171967878938">
<ele>821</ele>
</trkpt>
<trkpt lat="39.728549011051655" lon="2.654182026162744">
<ele>819</ele>
</trkpt>
<trkpt lat="39.728514980524778" lon="2.654354022815824">
<ele>817</ele>
</trkpt>
<trkpt lat="39.728455971926451" lon="2.654358968138695">
<ele>815</ele>
</trkpt>
<trkpt lat="39.728414984419942" lon="2.654201975092292">
<ele>813</ele>
</trkpt>
<trkpt lat="39.728355975821614" lon="2.654120000079274">
<ele>810</ele>
</trkpt>
<trkpt lat="39.728297973051667" lon="2.654059985652566">
<ele>808</ele>
</trkpt>
<trkpt lat="39.728209041059017" lon="2.654165010899305">
<ele>806</ele>
</trkpt>
<trkpt lat="39.72819596529007" lon="2.65419501811266">
<ele>804</ele>
</trkpt>
<trkpt lat="39.72810703329742" lon="2.654172973707318">
<ele>802</ele>
</trkpt>
<trkpt lat="39.728050958365202" lon="2.654136009514332">
<ele>800</ele>
</trkpt>
<trkpt lat="39.727850966155529" lon="2.654127040877938">
<ele>798</ele>
</trkpt>
<trkpt lat="39.727678969502449" lon="2.654151013121009">
<ele>796</ele>
</trkpt>
<trkpt lat="39.727619038894773" lon="2.654133997857571">
<ele>794</ele>
</trkpt>
<trkpt lat="39.72756271250546" lon="2.654088316485286">
<ele>791</ele>
</trkpt>
<trkpt lat="39.727476462721825" lon="2.654068619012833">
<ele>789</ele>
</trkpt>
<trkpt lat="39.727426003664732" lon="2.654141960665584">
<ele>787</ele>
</trkpt>
<trkpt lat="39.727337993681431" lon="2.654169034212828">
<ele>785</ele>
</trkpt>
<trkpt lat="39.727283008396626" lon="2.654173979535699">
<ele>783</ele>
</trkpt>
<trkpt lat="39.72714202478528" lon="2.654138021171093">
<ele>780</ele>
</trkpt>
<trkpt lat="39.727109000086784" lon="2.654056968167424">
<ele>778</ele>
</trkpt>
<trkpt lat="39.72709902562201" lon="2.654044982045889">
<ele>776</ele>
</trkpt>
<trkpt lat="39.727097013965249" lon="2.65404699370265">
<ele>774</ele>
</trkpt>
<trkpt lat="39.727097013965249" lon="2.65404699370265">
<ele>773</ele>
</trkpt>
<trkpt lat="39.727097013965249" lon="2.65404699370265">
<ele>772</ele>
</trkpt>
<trkpt lat="39.727097013965249" lon="2.65404699370265">
<ele>771</ele>
</trkpt>
<trkpt lat="39.727134983986616" lon="2.654030984267592">
<ele>770</ele>
</trkpt>
<trkpt lat="39.727208996191621" lon="2.653986979275942">
<ele>769</ele>
</trkpt>
<trkpt lat="39.727383004501462" lon="2.653903998434544">
<ele>768</ele>
</trkpt>
<trkpt lat="39.727463973686099" lon="2.653883965685964">
<ele>767</ele>
</trkpt>
<trkpt lat="39.727518958970904" lon="2.653699982911348">
<ele>766</ele>
</trkpt>
<trkpt lat="39.727470008656383" lon="2.653495967388153">
<ele>765</ele>
</trkpt>
<trkpt lat="39.727366995066404" lon="2.653455985710025">
<ele>764</ele>
</trkpt>
<trkpt lat="39.727325001731515" lon="2.653480963781476">
<ele>761</ele>
</trkpt>
<trkpt lat="39.727211007848382" lon="2.653492027893663">
<ele>758</ele>
</trkpt>
<trkpt lat="39.727149987593293" lon="2.653449028730393">
<ele>755</ele>
</trkpt>
<trkpt lat="39.727138001471758" lon="2.653435030952096">
<ele>752</ele>
</trkpt>
<trkpt lat="39.727003974840045" lon="2.653351966291666">
<ele>748</ele>
</trkpt>
<trkpt lat="39.726939015090466" lon="2.653328999876976">
<ele>745</ele>
</trkpt>
<trkpt lat="39.726871959865093" lon="2.65329304151237">
<ele>742</ele>
</trkpt>
<trkpt lat="39.726738017052412" lon="2.653193967416883">
<ele>739</ele>
</trkpt>
<trkpt lat="39.72671496681869" lon="2.653192961588502">
<ele>736</ele>
</trkpt>
<trkpt lat="39.726570965722203" lon="2.653254987671971">
<ele>733</ele>
</trkpt>
<trkpt lat="39.726515980437398" lon="2.653336962684989">
<ele>731</ele>
</trkpt>
<trkpt lat="39.726407015696168" lon="2.653427990153432">
<ele>729</ele>
</trkpt>
<trkpt lat="39.726356975734234" lon="2.653408041223884">
<ele>727</ele>
</trkpt>
<trkpt lat="39.726354964077473" lon="2.653391025960445">
<ele>725</ele>
</trkpt>
<trkpt lat="39.726379020139575" lon="2.653270997107029">
<ele>724</ele>
</trkpt>
<trkpt lat="39.726392012089491" lon="2.653151974081993">
<ele>722</ele>
</trkpt>
<trkpt lat="39.726416990160942" lon="2.65299397520721">
<ele>720</ele>
</trkpt>
<trkpt lat="39.726392012089491" lon="2.652918035164475">
<ele>718</ele>
</trkpt>
<trkpt lat="39.726350018754601" lon="2.652910994365811">
<ele>716</ele>
</trkpt>
<trkpt lat="39.726196965202689" lon="2.653025994077325">
<ele>714</ele>
</trkpt>
<trkpt lat="39.726162012666464" lon="2.653013002127409">
<ele>712</ele>
</trkpt>
<trkpt lat="39.7261549718678" lon="2.6529720146209">
<ele>710</ele>
</trkpt>
<trkpt lat="39.726216997951269" lon="2.65295198187232">
<ele>708</ele>
</trkpt>
<trkpt lat="39.726199982687831" lon="2.6527130138129">
<ele>706</ele>
</trkpt>
<trkpt lat="39.726190008223057" lon="2.652699016034603">
<ele>705</ele>
</trkpt>
<trkpt lat="39.726051036268473" lon="2.652699016034603">
<ele>703</ele>
</trkpt>
<trkpt lat="39.725969983264804" lon="2.652704967185855">
<ele>701</ele>
</trkpt>
<trkpt lat="39.725855989381671" lon="2.652729023247957">
<ele>699</ele>
</trkpt>
<trkpt lat="39.725778372958302" lon="2.652721898630261">
<ele>697</ele>
</trkpt>
<trkpt lat="39.7257249802351" lon="2.652678983286023">
<ele>696</ele>
</trkpt>
<trkpt lat="39.725766973569989" lon="2.652674037963152">
<ele>695</ele>
</trkpt>
<trkpt lat="39.725766973569989" lon="2.652674037963152">
<ele>694</ele>
</trkpt>
<trkpt lat="39.725835034623742" lon="2.652674959972501">
<ele>693</ele>
</trkpt>
<trkpt lat="39.725934024900198" lon="2.652501035481691">
<ele>692</ele>
</trkpt>
<trkpt lat="39.725936036556959" lon="2.652484020218253">
<ele>690</ele>
</trkpt>
<trkpt lat="39.725775020197034" lon="2.652420988306403">
<ele>689</ele>
</trkpt>
<trkpt lat="39.725755993276834" lon="2.652422999963164">
<ele>688</ele>
</trkpt>
<trkpt lat="39.725663037970662" lon="2.652315041050315">
<ele>687</ele>
</trkpt>
<trkpt lat="39.725671000778675" lon="2.652303976938129">
<ele>686</ele>
</trkpt>
<trkpt lat="39.725678041577339" lon="2.652287967503071">
<ele>684</ele>
</trkpt>
<trkpt lat="39.725753981620073" lon="2.652095016092062">
<ele>683</ele>
</trkpt>
<trkpt lat="39.725719029083848" lon="2.652000971138477">
<ele>681</ele>
</trkpt>
<trkpt lat="39.725620960816741" lon="2.651941040530801">
<ele>679</ele>
</trkpt>
<trkpt lat="39.725526999682188" lon="2.651892006397247">
<ele>678</ele>
</trkpt>
<trkpt lat="39.725476959720254" lon="2.651806008070707">
<ele>676</ele>
</trkpt>
<trkpt lat="39.725371012464166" lon="2.651753034442663">
<ele>674</ele>
</trkpt>
<trkpt lat="39.725370006635785" lon="2.651741970330477">
<ele>672</ele>
</trkpt>
<trkpt lat="39.725391967222095" lon="2.651758985593915">
<ele>671</ele>
</trkpt>
<trkpt lat="39.725433960556984" lon="2.651782035827637">
<ele>669</ele>
</trkpt>
<trkpt lat="39.725435972213745" lon="2.651590006425977">
<ele>666</ele>
</trkpt>
<trkpt lat="39.725388027727604" lon="2.65153200365603">
<ele>662</ele>
</trkpt>
<trkpt lat="39.725347962230444" lon="2.651438964530826">
<ele>659</ele>
</trkpt>
<trkpt lat="39.72518996335566" lon="2.651338968425989">
<ele>655</ele>
</trkpt>
<trkpt lat="39.725178983062506" lon="2.651333017274737">
<ele>652</ele>
</trkpt>
<trkpt lat="39.724955018609762" lon="2.65121097676456">
<ele>649</ele>
</trkpt>
<trkpt lat="39.724921993911266" lon="2.651197984814644">
<ele>645</ele>
</trkpt>
<trkpt lat="39.725025007501245" lon="2.651110980659723">
<ele>642</ele>
</trkpt>
<trkpt lat="39.724870026111603" lon="2.6509740203619">
<ele>638</ele>
</trkpt>
<trkpt lat="39.72484496422112" lon="2.650955999270082">
<ele>635</ele>
</trkpt>
<trkpt lat="39.724742034450173" lon="2.650877041742206">
<ele>633</ele>
</trkpt>
<trkpt lat="39.724725019186735" lon="2.650871006771922">
<ele>631</ele>
</trkpt>
<trkpt lat="39.724637009203434" lon="2.650821972638369">
<ele>629</ele>
</trkpt>
<trkpt lat="39.724579006433487" lon="2.650753995403647">
<ele>627</ele>
</trkpt>
<trkpt lat="39.724509017542005" lon="2.650676965713501">
<ele>624</ele>
</trkpt>
<trkpt lat="39.724445985630155" lon="2.650595996528864">
<ele>622</ele>
</trkpt>
<trkpt lat="39.724383959546685" lon="2.650464987382293">
<ele>620</ele>
</trkpt>
<trkpt lat="39.724352024495602" lon="2.650402961298823">
<ele>618</ele>
</trkpt>
<trkpt lat="39.724239958450198" lon="2.650335989892483">
<ele>616</ele>
</trkpt>
<trkpt lat="39.724225038662553" lon="2.650296008214355">
<ele>614</ele>
</trkpt>
<trkpt lat="39.724150020629168" lon="2.650172961875796">
<ele>611</ele>
</trkpt>
<trkpt lat="39.724023034796119" lon="2.650033989921212">
<ele>608</ele>
</trkpt>
<trkpt lat="39.723942987620831" lon="2.64996400102973">
<ele>605</ele>
</trkpt>
<trkpt lat="39.723859000951052" lon="2.649869034066796">
<ele>602</ele>
</trkpt>
<trkpt lat="39.723794963210821" lon="2.649768032133579">
<ele>599</ele>
</trkpt>
<trkpt lat="39.72374701872468" lon="2.649702988564968">
<ele>596</ele>
</trkpt>
<trkpt lat="39.723646016791463" lon="2.649563010782003">
<ele>593</ele>
</trkpt>
<trkpt lat="39.723621038720012" lon="2.649462008848786">
<ele>590</ele>
</trkpt>
<trkpt lat="39.723583990707994" lon="2.649320019409061">
<ele>587</ele>
</trkpt>
<trkpt lat="39.723545014858246" lon="2.649254975840449">
<ele>584</ele>
</trkpt>
<trkpt lat="39.723476031795144" lon="2.649102006107569">
<ele>582</ele>
</trkpt>
<trkpt lat="39.723420040681958" lon="2.649064958095551">
<ele>579</ele>
</trkpt>
<trkpt lat="39.72331996075809" lon="2.648951970040798">
<ele>576</ele>
</trkpt>
<trkpt lat="39.723268998786807" lon="2.648865971714258">
<ele>574</ele>
</trkpt>
<trkpt lat="39.723140001296997" lon="2.648660028353334">
<ele>572</ele>
</trkpt>
<trkpt lat="39.723089961335063" lon="2.648619040846825">
<ele>569</ele>
</trkpt>
<trkpt lat="39.722977979108691" lon="2.648512003943324">
<ele>566</ele>
</trkpt>
<trkpt lat="39.722966998815536" lon="2.648491971194744">
<ele>564</ele>
</trkpt>
<trkpt lat="39.72276097163558" lon="2.648351993411779">
<ele>562</ele>
</trkpt>
<trkpt lat="39.722726019099355" lon="2.648329026997089">
<ele>559</ele>
</trkpt>
<trkpt lat="39.722560979425907" lon="2.648130040615797">
<ele>558</ele>
</trkpt>
<trkpt lat="39.722558967769146" lon="2.648128028959036">
<ele>556</ele>
</trkpt>
<trkpt lat="39.722364004701376" lon="2.647976987063885">
<ele>554</ele>
</trkpt>
<trkpt lat="39.722290998324752" lon="2.647925019264221">
<ele>553</ele>
</trkpt>
<trkpt lat="39.722192008048296" lon="2.647860981523991">
<ele>552</ele>
</trkpt>
<trkpt lat="39.722183039411902" lon="2.647846983745694">
<ele>550</ele>
</trkpt>
<trkpt lat="39.72202898003161" lon="2.647704994305968">
<ele>548</ele>
</trkpt>
<trkpt lat="39.721980029717088" lon="2.647676998749375">
<ele>547</ele>
</trkpt>
<trkpt lat="39.721891013905406" lon="2.647593012079597">
<ele>546</ele>
</trkpt>
<trkpt lat="39.721823958680034" lon="2.647508019581437">
<ele>544</ele>
</trkpt>
<trkpt lat="39.7217480186373" lon="2.64744901098311">
<ele>542</ele>
</trkpt>
<trkpt lat="39.721681969240308" lon="2.647392014041543">
<ele>541</ele>
</trkpt>
<trkpt lat="39.721611980348825" lon="2.647289000451565">
<ele>540</ele>
</trkpt>
<trkpt lat="39.721501003950834" lon="2.647151034325361">
<ele>538</ele>
</trkpt>
<trkpt lat="39.721466973423958" lon="2.647113986313343">
<ele>536</ele>
</trkpt>
<trkpt lat="39.721345016732812" lon="2.646973002701998">
<ele>535</ele>
</trkpt>
<trkpt lat="39.72125499509275" lon="2.646884992718697">
<ele>534</ele>
</trkpt>
<trkpt lat="39.721225993707776" lon="2.646842999383807">
<ele>532</ele>
</trkpt>
<trkpt lat="39.721172014251351" lon="2.646752977743745">
<ele>530</ele>
</trkpt>
<trkpt lat="39.721076041460037" lon="2.646631021052599">
<ele>529</ele>
</trkpt>
<trkpt lat="39.721007980406284" lon="2.64654703438282">
<ele>527</ele>
</trkpt>
<trkpt lat="39.720924999564886" lon="2.64646296389401">
<ele>526</ele>
</trkpt>
<trkpt lat="39.72082600928843" lon="2.646330026909709">
<ele>524</ele>
</trkpt>
<trkpt lat="39.720811005681753" lon="2.646306976675987">
<ele>522</ele>
</trkpt>
<trkpt lat="39.720673961564898" lon="2.646164987236261">
<ele>520</ele>
</trkpt>
<trkpt lat="39.720641020685434" lon="2.64614000916481">
<ele>519</ele>
</trkpt>
<trkpt lat="39.720550999045372" lon="2.646017968654633">
<ele>517</ele>
</trkpt>
<trkpt lat="39.720480004325509" lon="2.645955020561814">
<ele>515</ele>
</trkpt>
<trkpt lat="39.720397023484111" lon="2.64588100835681">
<ele>514</ele>
</trkpt>
<trkpt lat="39.720402974635363" lon="2.645829040557146">
<ele>512</ele>
</trkpt>
<trkpt lat="39.720402974635363" lon="2.645828034728766">
<ele>511</ele>
</trkpt>
<trkpt lat="39.720386965200305" lon="2.645799033343792">
<ele>510</ele>
</trkpt>
<trkpt lat="39.720242964103818" lon="2.645670035853982">
<ele>509</ele>
</trkpt>
<trkpt lat="39.720128970220685" lon="2.645568028092384">
<ele>508</ele>
</trkpt>
<trkpt lat="39.719994021579623" lon="2.645550007000566">
<ele>506</ele>
</trkpt>
<trkpt lat="39.719941969960928" lon="2.645510025322437">
<ele>505</ele>
</trkpt>
<trkpt lat="39.719905005767941" lon="2.645501978695393">
<ele>504</ele>
</trkpt>
<trkpt lat="39.719740971922874" lon="2.645429978147149">
<ele>503</ele>
</trkpt>
<trkpt lat="39.719681041315198" lon="2.645377004519105">
<ele>502</ele>
</trkpt>
<trkpt lat="39.719598982483149" lon="2.645329982042313">
<ele>501</ele>
</trkpt>
<trkpt lat="39.719481971114874" lon="2.645268039777875">
<ele>500</ele>
</trkpt>
<trkpt lat="39.719461016356945" lon="2.645244989544153">
<ele>499</ele>
</trkpt>
<trkpt lat="39.719368983060122" lon="2.645144993439317">
<ele>497</ele>
</trkpt>
<trkpt lat="39.719340987503529" lon="2.645118003711104">
<ele>496</ele>
</trkpt>
<trkpt lat="39.719249038025737" lon="2.64502102509141">
<ele>495</ele>
</trkpt>
<trkpt lat="39.719187011942267" lon="2.644942989572883">
<ele>494</ele>
</trkpt>
<trkpt lat="39.719093972817063" lon="2.644853973761201">
<ele>493</ele>
</trkpt>
<trkpt lat="39.719025995582342" lon="2.644788008183241">
<ele>491</ele>
</trkpt>
<trkpt lat="39.718917030841112" lon="2.644693041220307">
<ele>490</ele>
</trkpt>
<trkpt lat="39.718902027234435" lon="2.644663034006953">
<ele>489</ele>
</trkpt>
<trkpt lat="39.718744028359652" lon="2.644520960748196">
<ele>488</ele>
</trkpt>
<trkpt lat="39.718708992004395" lon="2.644481984898448">
<ele>487</ele>
</trkpt>
<trkpt lat="39.718627016991377" lon="2.644410990178585">
<ele>487</ele>
</trkpt>
<trkpt lat="39.718563985079527" lon="2.644341001287103">
<ele>486</ele>
</trkpt>
<trkpt lat="39.718460971489549" lon="2.644279981032014">
<ele>485</ele>
</trkpt>
<trkpt lat="39.718349995091558" lon="2.6441649813205">
<ele>484</ele>
</trkpt>
<trkpt lat="39.718310013413429" lon="2.644138997420669">
<ele>483</ele>
</trkpt>
<trkpt lat="39.718224015086889" lon="2.644015029072762">
<ele>483</ele>
</trkpt>
<trkpt lat="39.718196019530296" lon="2.64392601326108">
<ele>482</ele>
</trkpt>
<trkpt lat="39.718156959861517" lon="2.64384001493454">
<ele>481</ele>
</trkpt>
<trkpt lat="39.718271037563682" lon="2.643826017156243">
<ele>482</ele>
</trkpt>
<trkpt lat="39.718394000083208" lon="2.643924001604319">
<ele>482</ele>
</trkpt>
<trkpt lat="39.718568008393049" lon="2.643976975232363">
<ele>483</ele>
</trkpt>
<trkpt lat="39.71863497979939" lon="2.643987033516169">
<ele>484</ele>
</trkpt>
<trkpt lat="39.718751991167665" lon="2.644013017416">
<ele>484</ele>
</trkpt>
<trkpt lat="39.718791972845793" lon="2.644017962738872">
<ele>485</ele>
</trkpt>
<trkpt lat="39.718875037506223" lon="2.644040007144213">
<ele>486</ele>
</trkpt>
<trkpt lat="39.718977967277169" lon="2.644074959680438">
<ele>487</ele>
</trkpt>
<trkpt lat="39.719025995582342" lon="2.644058028236032">
<ele>487</ele>
</trkpt>
<trkpt lat="39.719054996967316" lon="2.64392701908946">
<ele>488</ele>
</trkpt>
<trkpt lat="39.719023983925581" lon="2.64381998218596">
<ele>487</ele>
</trkpt>
<trkpt lat="39.718970004469156" lon="2.643793998286128">
<ele>486</ele>
</trkpt>
<trkpt lat="39.718830026686192" lon="2.643720991909504">
<ele>485</ele>
</trkpt>
<trkpt lat="39.718653000891209" lon="2.643715040758252">
<ele>484</ele>
</trkpt>
<trkpt lat="39.718633973971009" lon="2.643714034929872">
<ele>482</ele>
</trkpt>
<trkpt lat="39.718539007008076" lon="2.643634993582964">
<ele>481</ele>
</trkpt>
<trkpt lat="39.71850598230958" lon="2.643609009683132">
<ele>480</ele>
</trkpt>
<trkpt lat="39.718358963727951" lon="2.64349996112287">
<ele>479</ele>
</trkpt>
<trkpt lat="39.718223009258509" lon="2.643370041623712">
<ele>478</ele>
</trkpt>
<trkpt lat="39.718138016760349" lon="2.643244983628392">
<ele>477</ele>
</trkpt>
<trkpt lat="39.718113960698247" lon="2.643199972808361">
<ele>476</ele>
</trkpt>
<trkpt lat="39.718037014827132" lon="2.643108023330569">
<ele>475</ele>
</trkpt>
<trkpt lat="39.717973982915282" lon="2.64302303083241">
<ele>474</ele>
</trkpt>
<trkpt lat="39.71792503260076" lon="2.642969973385334">
<ele>473</ele>
</trkpt>
<trkpt lat="39.717854037880898" lon="2.64287400059402">
<ele>472</ele>
</trkpt>
<trkpt lat="39.71777499653399" lon="2.642761012539268">
<ele>472</ele>
</trkpt>
<trkpt lat="39.717721017077565" lon="2.642685994505882">
<ele>471</ele>
</trkpt>
<trkpt lat="39.717658990994096" lon="2.642556997016072">
<ele>470</ele>
</trkpt>
<trkpt lat="39.717566035687923" lon="2.642525983974338">
<ele>469</ele>
</trkpt>
<trkpt lat="39.717479031533003" lon="2.642365973442793">
<ele>468</ele>
</trkpt>
<trkpt lat="39.717404013499618" lon="2.642252985388041">
<ele>468</ele>
</trkpt>
<trkpt lat="39.717347016558051" lon="2.642199005931616">
<ele>469</ele>
</trkpt>
<trkpt lat="39.717343999072909" lon="2.642166987061501">
<ele>469</ele>
</trkpt>
<trkpt lat="39.717264035716653" lon="2.642017034813762">
<ele>469</ele>
</trkpt>
<trkpt lat="39.71715004183352" lon="2.641855012625456">
<ele>470</ele>
</trkpt>
<trkpt lat="39.717141995206475" lon="2.641845960170031">
<ele>470</ele>
</trkpt>
<trkpt lat="39.716997994109988" lon="2.641655020415783">
<ele>470</ele>
</trkpt>
<trkpt lat="39.716918030753732" lon="2.641540020704269">
<ele>470</ele>
</trkpt>
<trkpt lat="39.716861033812165" lon="2.641352014616132">
<ele>471</ele>
</trkpt>
<trkpt lat="39.716858016327024" lon="2.641307003796101">
<ele>471</ele>
</trkpt>
<trkpt lat="39.716794984415174" lon="2.64111296273768">
<ele>470</ele>
</trkpt>
<trkpt lat="39.716696999967098" lon="2.640870977193117">
<ele>470</ele>
</trkpt>
<trkpt lat="39.716661041602492" lon="2.640773998573422">
<ele>469</ele>
</trkpt>
<trkpt lat="39.716651989147067" lon="2.640548022463918">
<ele>469</ele>
</trkpt>
<trkpt lat="39.716643020510674" lon="2.640498988330364">
<ele>468</ele>
</trkpt>
<trkpt lat="39.716649977490306" lon="2.640344006940723">
<ele>467</ele>
</trkpt>
<trkpt lat="39.716638997197151" lon="2.640194976702333">
<ele>467</ele>
</trkpt>
<trkpt lat="39.716603038832545" lon="2.640018034726381">
<ele>466</ele>
</trkpt>
<trkpt lat="39.716579988598824" lon="2.639964977279306">
<ele>466</ele>
</trkpt>
<trkpt lat="39.716548975557089" lon="2.639802033081651">
<ele>465</ele>
</trkpt>
<trkpt lat="39.716493990272284" lon="2.639704970642924">
<ele>464</ele>
</trkpt>
<trkpt lat="39.716451996937394" lon="2.639674041420221">
<ele>463</ele>
</trkpt>
<trkpt lat="39.716403968632221" lon="2.639562981203198">
<ele>462</ele>
</trkpt>
<trkpt lat="39.716341020539403" lon="2.639410011470318">
<ele>461</ele>
</trkpt>
<trkpt lat="39.716288968920708" lon="2.639250000938773">
<ele>460</ele>
</trkpt>
<trkpt lat="39.716259967535734" lon="2.63911597430706">
<ele>460</ele>
</trkpt>
<trkpt lat="39.716238006949425" lon="2.638979014009237">
<ele>459</ele>
</trkpt>
<trkpt lat="39.716213028877974" lon="2.638885974884033">
<ele>458</ele>
</trkpt>
<trkpt lat="39.716152008622885" lon="2.638750020414591">
<ele>457</ele>
</trkpt>
<trkpt lat="39.716119989752769" lon="2.638583974912763">
<ele>456</ele>
</trkpt>
<trkpt lat="39.716095011681318" lon="2.638391023501754">
<ele>456</ele>
</trkpt>
<trkpt lat="39.716053018346429" lon="2.638207962736487">
<ele>455</ele>
</trkpt>
<trkpt lat="39.716046983376145" lon="2.638199999928474">
<ele>455</ele>
</trkpt>
<trkpt lat="39.715994009748101" lon="2.638046024367213">
<ele>454</ele>
</trkpt>
<trkpt lat="39.715956039726734" lon="2.637939993292093">
<ele>454</ele>
</trkpt>
<trkpt lat="39.715954028069973" lon="2.6379310246557">
<ele>454</ele>
</trkpt>
<trkpt lat="39.715898958966136" lon="2.63769700191915">
<ele>453</ele>
</trkpt>
<trkpt lat="39.715889990329742" lon="2.63763296417892">
<ele>453</ele>
</trkpt>
<trkpt lat="39.715880015864968" lon="2.637471025809646">
<ele>452</ele>
</trkpt>
<trkpt lat="39.71584003418684" lon="2.637233985587955">
<ele>452</ele>
</trkpt>
<trkpt lat="39.715837016701698" lon="2.637111023068428">
<ele>452</ele>
</trkpt>
<trkpt lat="39.71584296785295" lon="2.637022007256746">
<ele>452</ele>
</trkpt>
<trkpt lat="39.71584296785295" lon="2.637022007256746">
<ele>452</ele>
</trkpt>
<trkpt lat="39.715813966467977" lon="2.636814974248409">
<ele>452</ele>
</trkpt>
<trkpt lat="39.715817989781499" lon="2.636616993695498">
<ele>452</ele>
</trkpt>
<trkpt lat="39.715818995609879" lon="2.636485984548926">
<ele>453</ele>
</trkpt>
<trkpt lat="39.715804997831583" lon="2.636289009824395">
<ele>453</ele>
</trkpt>
<trkpt lat="39.715803992003202" lon="2.636266965419054">
<ele>453</ele>
</trkpt>
<trkpt lat="39.715802986174822" lon="2.636016011238098">
<ele>453</ele>
</trkpt>
<trkpt lat="39.715788988396525" lon="2.63599899597466">
<ele>453</ele>
</trkpt>
<trkpt lat="39.715787982568145" lon="2.635807972401381">
<ele>452</ele>
</trkpt>
<trkpt lat="39.715812038630247" lon="2.635690961033106">
<ele>450</ele>
</trkpt>
<trkpt lat="39.715823018923402" lon="2.635604040697217">
<ele>449</ele>
</trkpt>
<trkpt lat="39.715768033638597" lon="2.635359037667513">
<ele>448</ele>
</trkpt>
<trkpt lat="39.71575696952641" lon="2.635282007977366">
<ele>446</ele>
</trkpt>
<trkpt lat="39.715722016990185" lon="2.635112022981048">
<ele>445</ele>
</trkpt>
<trkpt lat="39.715641969814897" lon="2.634913036599755">
<ele>444</ele>
</trkpt>
<trkpt lat="39.715599976480007" lon="2.634899038821459">
<ele>443</ele>
</trkpt>
<trkpt lat="39.715564018115401" lon="2.634803988039494">
<ele>441</ele>
</trkpt>
<trkpt lat="39.715421022847295" lon="2.634562002494931">
<ele>440</ele>
</trkpt>
<trkpt lat="39.715409958735108" lon="2.634540041908622">
<ele>442</ele>
</trkpt>
<trkpt lat="39.715337036177516" lon="2.634325968101621">
<ele>443</ele>
</trkpt>
<trkpt lat="39.715318009257317" lon="2.63425899669528">
<ele>444</ele>
</trkpt>
<trkpt lat="39.715372994542122" lon="2.633992033079267">
<ele>446</ele>
</trkpt>
<trkpt lat="39.715437032282352" lon="2.633906034752727">
<ele>448</ele>
</trkpt>
<trkpt lat="39.715491011738777" lon="2.633737977594137">
<ele>449</ele>
</trkpt>
<trkpt lat="39.715484976768494" lon="2.633640998974443">
<ele>450</ele>
</trkpt>
<trkpt lat="39.715494029223919" lon="2.633601017296314">
<ele>452</ele>
</trkpt>
<trkpt lat="39.715459998697042" lon="2.633493980392814">
<ele>454</ele>
</trkpt>
<trkpt lat="39.715443989261985" lon="2.633467996492982">
<ele>455</ele>
</trkpt>
<trkpt lat="39.715311974287033" lon="2.633331036195159">
<ele>454</ele>
</trkpt>
<trkpt lat="39.715136960148811" lon="2.633169014006853">
<ele>452</ele>
</trkpt>
<trkpt lat="39.714999999850988" lon="2.633075974881649">
<ele>451</ele>
</trkpt>
<trkpt lat="39.714911989867687" lon="2.632858967408538">
<ele>449</ele>
</trkpt>
<trkpt lat="39.714904027059674" lon="2.632830971851945">
<ele>448</ele>
</trkpt>
<trkpt lat="39.714863961562514" lon="2.632566019892693">
<ele>447</ele>
</trkpt>
<trkpt lat="39.71485298126936" lon="2.63249502517283">
<ele>445</ele>
</trkpt>
<trkpt lat="39.714819034561515" lon="2.632358986884356">
<ele>444</ele>
</trkpt>
<trkpt lat="39.714807970449328" lon="2.632300984114409">
<ele>442</ele>
</trkpt>
<trkpt lat="39.71476698294282" lon="2.632186990231276">
<ele>441</ele>
</trkpt>
<trkpt lat="39.71472398377955" lon="2.631999989971519">
<ele>442</ele>
</trkpt>
<trkpt lat="39.714674027636647" lon="2.631863029673696">
<ele>442</ele>
</trkpt>
<trkpt lat="39.714621976017952" lon="2.631755992770195">
<ele>443</ele>
</trkpt>
<trkpt lat="39.714566990733147" lon="2.63152901083231">
<ele>444</ele>
</trkpt>
<trkpt lat="39.714546035975218" lon="2.631485005840659">
<ele>444</ele>
</trkpt>
<trkpt lat="39.714549975469708" lon="2.631366988644004">
<ele>445</ele>
</trkpt>
<trkpt lat="39.714562967419624" lon="2.631296999752522">
<ele>446</ele>
</trkpt>
<trkpt lat="39.71463899128139" lon="2.631107987836003">
<ele>447</ele>
</trkpt>
<trkpt lat="39.71468199044466" lon="2.630963986739516">
<ele>447</ele>
</trkpt>
<trkpt lat="39.714696994051337" lon="2.630819985643029">
<ele>448</ele>
</trkpt>
<trkpt lat="39.714655000716448" lon="2.6306919939816">
<ele>446</ele>
</trkpt>
<trkpt lat="39.714601021260023" lon="2.630633991211653">
<ele>443</ele>
</trkpt>
<trkpt lat="39.714390970766544" lon="2.630590992048383">
<ele>440</ele>
</trkpt>
<trkpt lat="39.714257027953863" lon="2.630464006215334">
<ele>438</ele>
</trkpt>
<trkpt lat="39.714232971891761" lon="2.630422012880445">
<ele>436</ele>
</trkpt>
<trkpt lat="39.71416600048542" lon="2.630331991240382">
<ele>433</ele>
</trkpt>
<trkpt lat="39.714012024924159" lon="2.630168963223696">
<ele>430</ele>
</trkpt>
<trkpt lat="39.713898031041026" lon="2.629969976842403">
<ele>428</ele>
</trkpt>
<trkpt lat="39.713885961100459" lon="2.629977017641068">
<ele>426</ele>
</trkpt>
<trkpt lat="39.71388503909111" lon="2.629977017641068">
<ele>423</ele>
</trkpt>
<trkpt lat="39.713876992464066" lon="2.629953967407346">
<ele>424</ele>
</trkpt>
<trkpt lat="39.713761992752552" lon="2.629707958549261">
<ele>424</ele>
</trkpt>
<trkpt lat="39.7137560416013" lon="2.629694966599345">
<ele>425</ele>
</trkpt>
<trkpt lat="39.71375796943903" lon="2.629475025460124">
<ele>426</ele>
</trkpt>
<trkpt lat="39.713768027722836" lon="2.629370000213385">
<ele>426</ele>
</trkpt>
<trkpt lat="39.713762998580933" lon="2.629162967205048">
<ele>427</ele>
</trkpt>
<trkpt lat="39.713727962225676" lon="2.62897496111691">
<ele>428</ele>
</trkpt>
<trkpt lat="39.713723016902804" lon="2.628944031894207">
<ele>429</ele>
</trkpt>
<trkpt lat="39.713680017739534" lon="2.628790978342295">
<ele>429</ele>
</trkpt>
<trkpt lat="39.71367197111249" lon="2.628774968907237">
<ele>430</ele>
</trkpt>
<trkpt lat="39.713554959744215" lon="2.62856500223279">
<ele>429</ele>
</trkpt>
<trkpt lat="39.713463010266423" lon="2.628380013629794">
<ele>429</ele>
</trkpt>
<trkpt lat="39.713350022211671" lon="2.628204999491572">
<ele>428</ele>
</trkpt>
<trkpt lat="39.713234016671777" lon="2.628110032528639">
<ele>427</ele>
</trkpt>
<trkpt lat="39.713185988366604" lon="2.628072984516621">
<ele>426</ele>
</trkpt>
<trkpt lat="39.713045004755259" lon="2.627937030047178">
<ele>426</ele>
</trkpt>
<trkpt lat="39.713033018633723" lon="2.62787701562047">
<ele>425</ele>
</trkpt>
<trkpt lat="39.712993958964944" lon="2.627735026180744">
<ele>424</ele>
</trkpt>
<trkpt lat="39.712989013642073" lon="2.627603011205792">
<ele>424</ele>
</trkpt>
<trkpt lat="39.713010974228382" lon="2.627410981804133">
<ele>423</ele>
</trkpt>
<trkpt lat="39.713006028905511" lon="2.627283995971084">
<ele>423</ele>
</trkpt>
<trkpt lat="39.713006028905511" lon="2.627200009301305">
<ele>423</ele>
</trkpt>
<trkpt lat="39.713022038340569" lon="2.62706003151834">
<ele>423</ele>
</trkpt>
<trkpt lat="39.713023966178298" lon="2.626987025141716">
<ele>423</ele>
</trkpt>
<trkpt lat="39.713036036118865" lon="2.626788038760424">
<ele>422</ele>
</trkpt>
<trkpt lat="39.712932016700506" lon="2.626519985496998">
<ele>422</ele>
</trkpt>
<trkpt lat="39.712925981730223" lon="2.626506993547082">
<ele>422</ele>
</trkpt>
<trkpt lat="39.712657006457448" lon="2.626246986910701">
<ele>422</ele>
</trkpt>
<trkpt lat="39.712568996474147" lon="2.626069039106369">
<ele>422</ele>
</trkpt>
<trkpt lat="39.712521973997355" lon="2.625873992219567">
<ele>422</ele>
</trkpt>
<trkpt lat="39.712523985654116" lon="2.625799980014563">
<ele>422</ele>
</trkpt>
<trkpt lat="39.712494984269142" lon="2.62562102638185">
<ele>423</ele>
</trkpt>
<trkpt lat="39.712495990097523" lon="2.625589007511735">
<ele>423</ele>
</trkpt>
<trkpt lat="39.712461959570646" lon="2.62547099031508">
<ele>424</ele>
</trkpt>
<trkpt lat="39.712463971227407" lon="2.625391026958823">
<ele>424</ele>
</trkpt>
<trkpt lat="39.712451985105872" lon="2.625267980620265">
<ele>424</ele>
</trkpt>
<trkpt lat="39.712438993155956" lon="2.62519002892077">
<ele>425</ele>
</trkpt>
<trkpt lat="39.712407980114222" lon="2.624990958720446">
<ele>425</ele>
</trkpt>
<trkpt lat="39.71240303479135" lon="2.624937985092402">
<ele>426</ele>
</trkpt>
<trkpt lat="39.712378978729248" lon="2.624703962355852">
<ele>426</ele>
</trkpt>
<trkpt lat="39.712348971515894" lon="2.62450497597456">
<ele>425</ele>
</trkpt>
<trkpt lat="39.712343020364642" lon="2.624477986246347">
<ele>424</ele>
</trkpt>
<trkpt lat="39.71231896430254" lon="2.624214962124825">
<ele>424</ele>
</trkpt>
<trkpt lat="39.712292980402708" lon="2.624078001827002">
<ele>423</ele>
</trkpt>
<trkpt lat="39.712299015372992" lon="2.624008012935519">
<ele>422</ele>
</trkpt>
<trkpt lat="39.712277976796031" lon="2.623906005173922">
<ele>421</ele>
</trkpt>
<trkpt lat="39.712261967360973" lon="2.62381799519062">
<ele>420</ele>
</trkpt>
<trkpt lat="39.712234977632761" lon="2.623686986044049">
<ele>420</ele>
</trkpt>
<trkpt lat="39.712258027866483" lon="2.623526975512505">
<ele>419</ele>
</trkpt>
<trkpt lat="39.712293986231089" lon="2.623388003557921">
<ele>418</ele>
</trkpt>
<trkpt lat="39.712288035079837" lon="2.623370988294482">
<ele>418</ele>
</trkpt>
<trkpt lat="39.712280994281173" lon="2.623312985524535">
<ele>417</ele>
</trkpt>
<trkpt lat="39.712246963754296" lon="2.623150963336229">
<ele>416</ele>
</trkpt>
<trkpt lat="39.712204970419407" lon="2.622963041067123">
<ele>416</ele>
</trkpt>
<trkpt lat="39.712188038975" lon="2.622798001393676">
<ele>416</ele>
</trkpt>
<trkpt lat="39.712184015661478" lon="2.622759025543928">
<ele>415</ele>
</trkpt>
<trkpt lat="39.712142022326589" lon="2.622581999748945">
<ele>414</ele>
</trkpt>
<trkpt lat="39.712129030376673" lon="2.622544029727578">
<ele>414</ele>
</trkpt>
<trkpt lat="39.712114026769996" lon="2.622402040287852">
<ele>414</ele>
</trkpt>
<trkpt lat="39.712107991799712" lon="2.622375972568989">
<ele>413</ele>
</trkpt>
<trkpt lat="39.711896013468504" lon="2.622459037229419">
<ele>412</ele>
</trkpt>
<trkpt lat="39.711872963234782" lon="2.622472029179335">
<ele>411</ele>
</trkpt>
<trkpt lat="39.711753018200397" lon="2.622525002807379">
<ele>411</ele>
</trkpt>
<trkpt lat="39.711626032367349" lon="2.622375972568989">
<ele>410</ele>
</trkpt>
<trkpt lat="39.711540034040809" lon="2.622228031978011">
<ele>409</ele>
</trkpt>
<trkpt lat="39.711441965773702" lon="2.622098028659821">
<ele>408</ele>
</trkpt>
<trkpt lat="39.711420005187392" lon="2.622068021446466">
<ele>407</ele>
</trkpt>
<trkpt lat="39.711357979103923" lon="2.621991997584701">
<ele>407</ele>
</trkpt>
<trkpt lat="39.711216995492578" lon="2.621823018416762">
<ele>406</ele>
</trkpt>
<trkpt lat="39.711170978844166" lon="2.621777001768351">
<ele>405</ele>
</trkpt>
<trkpt lat="39.710992025211453" lon="2.62162696570158">
<ele>405</ele>
</trkpt>
<trkpt lat="39.710954977199435" lon="2.621591007336974">
<ele>404</ele>
</trkpt>
<trkpt lat="39.710844000801444" lon="2.621485982090235">
<ele>404</ele>
</trkpt>
<trkpt lat="39.710738975554705" lon="2.621405012905598">
<ele>403</ele>
</trkpt>
<trkpt lat="39.710623975843191" lon="2.621283978223801">
<ele>403</ele>
</trkpt>
<trkpt lat="39.710534038022161" lon="2.62123896740377">
<ele>403</ele>
</trkpt>
<trkpt lat="39.710464971140027" lon="2.621190017089248">
<ele>402</ele>
</trkpt>
<trkpt lat="39.710382996127009" lon="2.621099995449185">
<ele>402</ele>
</trkpt>
<trkpt lat="39.710244024172425" lon="2.621026989072561">
<ele>401</ele>
</trkpt>
<trkpt lat="39.710084013640881" lon="2.62083001434803">
<ele>401</ele>
</trkpt>
<trkpt lat="39.710072027519345" lon="2.620717026293278">
<ele>401</ele>
</trkpt>
<trkpt lat="39.710107985883951" lon="2.620653994381428">
<ele>401</ele>
</trkpt>
<trkpt lat="39.710107985883951" lon="2.620653994381428">
<ele>400</ele>
</trkpt>
<trkpt lat="39.710093988105655" lon="2.620619041845202">
<ele>400</ele>
</trkpt>
<trkpt lat="39.710083091631532" lon="2.620553243905306">
<ele>400</ele>
</trkpt>
</trkseg>
</trk>
</gpx>
