<?xml version="1.0" encoding="UTF-8"?>
<gpx version="1.1"
creator="Smartprofil-Office - http://www.rother.de"
xmlns:xsi="http://www.w3.org/2001/XMLSchema-instance"
xmlns="http://www.topografix.com/GPX/1/1"
xsi:schemaLocation="http://www.topografix.com/GPX/1/1 http://www.topografix.com/GPX/1/1/gpx.xsd">
<metadata>

<bounds minlat="39.735632976517081" minlon="3.324317028746009" maxlat="39.749760925769806" maxlon="3.353829039260745"/>
</metadata>
<wpt lat="39.736515004187822" lon="3.334723999723792">
<ele>220</ele>
<name>62_s’Alqueria Vella (1)</name>
<cmt></cmt>
<desc></desc>
<sym>Crossing</sym>
</wpt>

<wpt lat="39.740490959957242" lon="3.350464962422848">
<ele>304</ele>
<name>62_Coll des Verger (2)</name>
<cmt></cmt>
<desc></desc>
<sym>Crossing</sym>
</wpt>

<wpt lat="39.746123012155294" lon="3.348206039518118">
<ele>365</ele>
<name>62_Campament dels Soldats (3)</name>
<cmt></cmt>
<desc></desc>
<sym>Crossing</sym>
</wpt>

<wpt lat="39.749591024592519" lon="3.352927984669805">
<ele>491</ele>
<name>62_Puig des Porrassar (4)</name>
<cmt></cmt>
<desc></desc>
<sym>Crossing</sym>
</wpt>

<wpt lat="39.740040013566613" lon="3.33733999170363">
<ele>233</ele>
<name>62_Sínies (5)</name>
<cmt></cmt>
<desc></desc>
<sym>Crossing</sym>
</wpt>

<wpt lat="39.742945013567805" lon="3.324902001768351">
<ele>385</ele>
<name>62_Mirador (6)</name>
<cmt></cmt>
<desc></desc>
<sym>Crossing</sym>
</wpt>

<trk>
<name>Mal_62_Parc_Natural_Llevant_1</name>
<trkseg>
<trkpt lat="39.736515004187822" lon="3.334723999723792">
<ele>220</ele>
</trkpt>
<trkpt lat="39.736516010016203" lon="3.334723999723792">
<ele>220</ele>
</trkpt>
<trkpt lat="39.736516010016203" lon="3.334723999723792">
<ele>220</ele>
</trkpt>
<trkpt lat="39.736502012237906" lon="3.334710001945496">
<ele>220</ele>
</trkpt>
<trkpt lat="39.736489020287991" lon="3.334690975025296">
<ele>220</ele>
</trkpt>
<trkpt lat="39.736259020864964" lon="3.334807986393571">
<ele>220</ele>
</trkpt>
<trkpt lat="39.736176962032914" lon="3.334860960021615">
<ele>221</ele>
</trkpt>
<trkpt lat="39.736049976199865" lon="3.33493497222662">
<ele>221</ele>
</trkpt>
<trkpt lat="39.736023992300034" lon="3.334951987490058">
<ele>221</ele>
</trkpt>
<trkpt lat="39.73593195900321" lon="3.335019964724779">
<ele>221</ele>
</trkpt>
<trkpt lat="39.73582299426198" lon="3.335117027163506">
<ele>221</ele>
</trkpt>
<trkpt lat="39.735658038407564" lon="3.335205037146807">
<ele>221</ele>
</trkpt>
<trkpt lat="39.735632976517081" lon="3.335289023816586">
<ele>222</ele>
</trkpt>
<trkpt lat="39.735679998993874" lon="3.335419027134776">
<ele>222</ele>
</trkpt>
<trkpt lat="39.735744958743453" lon="3.335574008524418">
<ele>222</ele>
</trkpt>
<trkpt lat="39.735812013968825" lon="3.335715997964144">
<ele>222</ele>
</trkpt>
<trkpt lat="39.735833974555135" lon="3.335827980190516">
<ele>223</ele>
</trkpt>
<trkpt lat="39.735877979546785" lon="3.336006011813879">
<ele>223</ele>
</trkpt>
<trkpt lat="39.735878985375166" lon="3.336015986278653">
<ele>223</ele>
</trkpt>
<trkpt lat="39.735974036157131" lon="3.336183959618211">
<ele>224</ele>
</trkpt>
<trkpt lat="39.736032960936427" lon="3.336298037320375">
<ele>224</ele>
</trkpt>
<trkpt lat="39.736036984249949" lon="3.336314968764782">
<ele>225</ele>
</trkpt>
<trkpt lat="39.736109990626574" lon="3.336466010659933">
<ele>225</ele>
</trkpt>
<trkpt lat="39.736192971467972" lon="3.336752001196146">
<ele>226</ele>
</trkpt>
<trkpt lat="39.736246028915048" lon="3.336837999522686">
<ele>226</ele>
</trkpt>
<trkpt lat="39.736363962292671" lon="3.337080990895629">
<ele>227</ele>
</trkpt>
<trkpt lat="39.736368991434574" lon="3.337094988673925">
<ele>228</ele>
</trkpt>
<trkpt lat="39.736438980326056" lon="3.337304033339024">
<ele>228</ele>
</trkpt>
<trkpt lat="39.736517015844584" lon="3.337484998628497">
<ele>229</ele>
</trkpt>
<trkpt lat="39.736567977815866" lon="3.33755498751998">
<ele>229</ele>
</trkpt>
<trkpt lat="39.736620029434562" lon="3.337661018595099">
<ele>230</ele>
</trkpt>
<trkpt lat="39.736663028597832" lon="3.337794039398432">
<ele>231</ele>
</trkpt>
<trkpt lat="39.736663028597832" lon="3.337794039398432">
<ele>231</ele>
</trkpt>
<trkpt lat="39.736751038581133" lon="3.337960001081228">
<ele>232</ele>
</trkpt>
<trkpt lat="39.736800994724035" lon="3.338038958609104">
<ele>232</ele>
</trkpt>
<trkpt lat="39.736866960301995" lon="3.338197963312268">
<ele>233</ele>
</trkpt>
<trkpt lat="39.736896967515349" lon="3.338267030194402">
<ele>234</ele>
</trkpt>
<trkpt lat="39.73693803884089" lon="3.338353028520942">
<ele>234</ele>
</trkpt>
<trkpt lat="39.73702403716743" lon="3.338521001860499">
<ele>235</ele>
</trkpt>
<trkpt lat="39.737036023288965" lon="3.338562995195389">
<ele>235</ele>
</trkpt>
<trkpt lat="39.737068964168429" lon="3.33863097243011">
<ele>236</ele>
</trkpt>
<trkpt lat="39.737128978595138" lon="3.338764999061823">
<ele>237</ele>
</trkpt>
<trkpt lat="39.737149011343718" lon="3.338831970468164">
<ele>238</ele>
</trkpt>
<trkpt lat="39.737179018557072" lon="3.338948981836438">
<ele>239</ele>
</trkpt>
<trkpt lat="39.737222017720342" lon="3.339070016518235">
<ele>240</ele>
</trkpt>
<trkpt lat="39.737275829538703" lon="3.339217370375991">
<ele>241</ele>
</trkpt>
<trkpt lat="39.737298963591456" lon="3.339284006506205">
<ele>242</ele>
</trkpt>
<trkpt lat="39.737376999109983" lon="3.339459020644426">
<ele>243</ele>
</trkpt>
<trkpt lat="39.737389991059899" lon="3.339479975402355">
<ele>244</ele>
</trkpt>
<trkpt lat="39.737440031021833" lon="3.339606961235404">
<ele>245</ele>
</trkpt>
<trkpt lat="39.737479006871581" lon="3.33979002200067">
<ele>246</ele>
</trkpt>
<trkpt lat="39.737553019076586" lon="3.340006023645401">
<ele>248</ele>
</trkpt>
<trkpt lat="39.737561987712979" lon="3.340053968131542">
<ele>249</ele>
</trkpt>
<trkpt lat="39.737608004361391" lon="3.340253960341215">
<ele>250</ele>
</trkpt>
<trkpt lat="39.73762703128159" lon="3.340356973931193">
<ele>252</ele>
</trkpt>
<trkpt lat="39.737642034888268" lon="3.340471973642707">
<ele>254</ele>
</trkpt>
<trkpt lat="39.737653015181422" lon="3.340533999726176">
<ele>255</ele>
</trkpt>
<trkpt lat="39.737676987424493" lon="3.340651011094451">
<ele>256</ele>
</trkpt>
<trkpt lat="39.73769199103117" lon="3.340716976672411">
<ele>258</ele>
</trkpt>
<trkpt lat="39.737680004909635" lon="3.340862989425659">
<ele>260</ele>
</trkpt>
<trkpt lat="39.737686039879918" lon="3.340924009680748">
<ele>261</ele>
</trkpt>
<trkpt lat="39.737729039043188" lon="3.34112199023366">
<ele>262</ele>
</trkpt>
<trkpt lat="39.737753011286259" lon="3.341197008267045">
<ele>264</ele>
</trkpt>
<trkpt lat="39.737766003236175" lon="3.341403035447002">
<ele>265</ele>
</trkpt>
<trkpt lat="39.737785030156374" lon="3.341563967987895">
<ele>267</ele>
</trkpt>
<trkpt lat="39.737797016277909" lon="3.341633034870029">
<ele>268</ele>
</trkpt>
<trkpt lat="39.73782199434936" lon="3.341792961582542">
<ele>269</ele>
</trkpt>
<trkpt lat="39.737833980470896" lon="3.34193998016417">
<ele>271</ele>
</trkpt>
<trkpt lat="39.737867005169392" lon="3.342157993465662">
<ele>272</ele>
</trkpt>
<trkpt lat="39.737873962149024" lon="3.342313980683684">
<ele>274</ele>
</trkpt>
<trkpt lat="39.737902041524649" lon="3.342481032013893">
<ele>275</ele>
</trkpt>
<trkpt lat="39.737902963533998" lon="3.34249603562057">
<ele>275</ele>
</trkpt>
<trkpt lat="39.737891983240843" lon="3.342700973153114">
<ele>275</ele>
</trkpt>
<trkpt lat="39.737916961312294" lon="3.342870958149433">
<ele>275</ele>
</trkpt>
<trkpt lat="39.737918972969055" lon="3.342884033918381">
<ele>275</ele>
</trkpt>
<trkpt lat="39.737939005717635" lon="3.343004984781146">
<ele>274</ele>
</trkpt>
<trkpt lat="39.737957026809454" lon="3.343063993379474">
<ele>274</ele>
</trkpt>
<trkpt lat="39.737980999052525" lon="3.343230960890651">
<ele>274</ele>
</trkpt>
<trkpt lat="39.738010000437498" lon="3.343296004459262">
<ele>274</ele>
</trkpt>
<trkpt lat="39.73807998932898" lon="3.343404969200492">
<ele>274</ele>
</trkpt>
<trkpt lat="39.738117037340999" lon="3.343533966690302">
<ele>274</ele>
</trkpt>
<trkpt lat="39.738154001533985" lon="3.343600016087294">
<ele>274</ele>
</trkpt>
<trkpt lat="39.738118965178728" lon="3.343693977221847">
<ele>273</ele>
</trkpt>
<trkpt lat="39.738104967400432" lon="3.343820963054895">
<ele>273</ele>
</trkpt>
<trkpt lat="39.738129023462534" lon="3.34391500800848">
<ele>273</ele>
</trkpt>
<trkpt lat="39.73816498182714" lon="3.344167973846197">
<ele>272</ele>
</trkpt>
<trkpt lat="39.738178979605436" lon="3.34419496357441">
<ele>272</ele>
</trkpt>
<trkpt lat="39.738203035667539" lon="3.344311974942684">
<ele>272</ele>
</trkpt>
<trkpt lat="39.738285010680556" lon="3.34445295855403">
<ele>272</ele>
</trkpt>
<trkpt lat="39.738348964601755" lon="3.344596959650517">
<ele>271</ele>
</trkpt>
<trkpt lat="39.73835801705718" lon="3.344638030976057">
<ele>271</ele>
</trkpt>
<trkpt lat="39.738418031483889" lon="3.344779014587402">
<ele>271</ele>
</trkpt>
<trkpt lat="39.738420965149999" lon="3.344809021800757">
<ele>272</ele>
</trkpt>
<trkpt lat="39.73844401538372" lon="3.344876999035478">
<ele>272</ele>
</trkpt>
<trkpt lat="39.738477962091565" lon="3.344980012625456">
<ele>273</ele>
</trkpt>
<trkpt lat="39.73855298012495" lon="3.345130970701575">
<ele>273</ele>
</trkpt>
<trkpt lat="39.738579969853163" lon="3.345171036198735">
<ele>273</ele>
</trkpt>
<trkpt lat="39.738644091412425" lon="3.345306990668178">
<ele>274</ele>
</trkpt>
<trkpt lat="39.738642247393727" lon="3.345313612371683">
<ele>274</ele>
</trkpt>
<trkpt lat="39.738699747249484" lon="3.34546054713428">
<ele>275</ele>
</trkpt>
<trkpt lat="39.738721959292889" lon="3.345545958727598">
<ele>275</ele>
</trkpt>
<trkpt lat="39.738774010911584" lon="3.345666993409395">
<ele>275</ele>
</trkpt>
<trkpt lat="39.738811980932951" lon="3.345823986455798">
<ele>275</ele>
</trkpt>
<trkpt lat="39.738861015066504" lon="3.345975028350949">
<ele>276</ele>
</trkpt>
<trkpt lat="39.73889596760273" lon="3.346040993928909">
<ele>276</ele>
</trkpt>
<trkpt lat="39.738968973979354" lon="3.346204021945596">
<ele>276</ele>
</trkpt>
<trkpt lat="39.738990012556314" lon="3.346287002786994">
<ele>276</ele>
</trkpt>
<trkpt lat="39.73906897008419" lon="3.346541980281472">
<ele>276</ele>
</trkpt>
<trkpt lat="39.73910903558135" lon="3.346669971942902">
<ele>277</ele>
</trkpt>
<trkpt lat="39.739118004217744" lon="3.346697967499495">
<ele>277</ele>
</trkpt>
<trkpt lat="39.739161003381014" lon="3.346808021888137">
<ele>277</ele>
</trkpt>
<trkpt lat="39.739233003929257" lon="3.346969038248062">
<ele>278</ele>
</trkpt>
<trkpt lat="39.739252030849457" lon="3.347011031582952">
<ele>279</ele>
</trkpt>
<trkpt lat="39.739335011690855" lon="3.347281012684107">
<ele>280</ele>
</trkpt>
<trkpt lat="39.739363007247448" lon="3.347429959103465">
<ele>281</ele>
</trkpt>
<trkpt lat="39.739394020289183" lon="3.347487961873412">
<ele>282</ele>
</trkpt>
<trkpt lat="39.739446993917227" lon="3.34758996963501">
<ele>282</ele>
</trkpt>
<trkpt lat="39.739512037485838" lon="3.347714021801949">
<ele>283</ele>
</trkpt>
<trkpt lat="39.739529974758625" lon="3.347834972664714">
<ele>284</ele>
</trkpt>
<trkpt lat="39.73958496004343" lon="3.347981991246343">
<ele>285</ele>
</trkpt>
<trkpt lat="39.739587977528572" lon="3.347994983196259">
<ele>286</ele>
</trkpt>
<trkpt lat="39.73962401971221" lon="3.348108977079392">
<ele>287</ele>
</trkpt>
<trkpt lat="39.739675987511873" lon="3.348222970962524">
<ele>288</ele>
</trkpt>
<trkpt lat="39.739712029695511" lon="3.348293965682387">
<ele>288</ele>
</trkpt>
<trkpt lat="39.73975301720202" lon="3.348395973443985">
<ele>289</ele>
</trkpt>
<trkpt lat="39.739806996658444" lon="3.348563024774194">
<ele>290</ele>
</trkpt>
<trkpt lat="39.739812025800347" lon="3.348593031987548">
<ele>291</ele>
</trkpt>
<trkpt lat="39.739888971671462" lon="3.348798975348473">
<ele>292</ele>
</trkpt>
<trkpt lat="39.739892994984984" lon="3.348848009482026">
<ele>292</ele>
</trkpt>
<trkpt lat="39.739935994148254" lon="3.348944988101721">
<ele>293</ele>
</trkpt>
<trkpt lat="39.739962983876467" lon="3.349027968943119">
<ele>294</ele>
</trkpt>
<trkpt lat="39.740006988868117" lon="3.34913500584662">
<ele>295</ele>
</trkpt>
<trkpt lat="39.740030039101839" lon="3.349262997508049">
<ele>295</ele>
</trkpt>
<trkpt lat="39.74005501717329" lon="3.349312031641603">
<ele>296</ele>
</trkpt>
<trkpt lat="39.740112014114857" lon="3.349439017474651">
<ele>297</ele>
</trkpt>
<trkpt lat="39.740159958600998" lon="3.349574971944094">
<ele>298</ele>
</trkpt>
<trkpt lat="39.740190971642733" lon="3.34963096305728">
<ele>298</ele>
</trkpt>
<trkpt lat="39.740245034918189" lon="3.349753003567457">
<ele>299</ele>
</trkpt>
<trkpt lat="39.740289961919188" lon="3.349901027977467">
<ele>300</ele>
</trkpt>
<trkpt lat="39.740329021587968" lon="3.350024996325374">
<ele>300</ele>
</trkpt>
<trkpt lat="39.740345031023026" lon="3.350084004923701">
<ele>301</ele>
</trkpt>
<trkpt lat="39.740404961630702" lon="3.350247032940388">
<ele>302</ele>
</trkpt>
<trkpt lat="39.740431029349566" lon="3.350297994911671">
<ele>303</ele>
</trkpt>
<trkpt lat="39.740470005199313" lon="3.35042498074472">
<ele>303</ele>
</trkpt>
<trkpt lat="39.740490959957242" lon="3.350464962422848">
<ele>304</ele>
</trkpt>
<trkpt lat="39.740490959957242" lon="3.350464962422848">
<ele>304</ele>
</trkpt>
<trkpt lat="39.740491965785623" lon="3.350465968251228">
<ele>303</ele>
</trkpt>
<trkpt lat="39.740492971614003" lon="3.350463034585118">
<ele>302</ele>
</trkpt>
<trkpt lat="39.740499006584287" lon="3.350469991564751">
<ele>302</ele>
</trkpt>
<trkpt lat="39.740531025454402" lon="3.350521037355065">
<ele>302</ele>
</trkpt>
<trkpt lat="39.740599002689123" lon="3.350598989054561">
<ele>301</ele>
</trkpt>
<trkpt lat="39.740631021559238" lon="3.350651962682605">
<ele>300</ele>
</trkpt>
<trkpt lat="39.740683995187283" lon="3.350792024284601">
<ele>300</ele>
</trkpt>
<trkpt lat="39.740732023492455" lon="3.350959997624159">
<ele>300</ele>
</trkpt>
<trkpt lat="39.740753984078765" lon="3.351055970415473">
<ele>299</ele>
</trkpt>
<trkpt lat="39.740763958543539" lon="3.351153032854199">
<ele>297</ele>
</trkpt>
<trkpt lat="39.740769993513823" lon="3.351289993152022">
<ele>296</ele>
</trkpt>
<trkpt lat="39.740792959928513" lon="3.351418990641832">
<ele>294</ele>
</trkpt>
<trkpt lat="39.740845011547208" lon="3.351519992575049">
<ele>292</ele>
</trkpt>
<trkpt lat="39.74085096269846" lon="3.351544970646501">
<ele>290</ele>
</trkpt>
<trkpt lat="39.74091399461031" lon="3.351762983947992">
<ele>289</ele>
</trkpt>
<trkpt lat="39.740922963246703" lon="3.351775975897908">
<ele>287</ele>
</trkpt>
<trkpt lat="39.740968979895115" lon="3.351871026679874">
<ele>285</ele>
</trkpt>
<trkpt lat="39.7410439979285" lon="3.352030031383038">
<ele>284</ele>
</trkpt>
<trkpt lat="39.741075010970235" lon="3.352127010002732">
<ele>282</ele>
</trkpt>
<trkpt lat="39.741170983761549" lon="3.352296994999051">
<ele>281</ele>
</trkpt>
<trkpt lat="39.741209037601948" lon="3.352242009714246">
<ele>279</ele>
</trkpt>
<trkpt lat="39.741339962929487" lon="3.352148970589042">
<ele>278</ele>
</trkpt>
<trkpt lat="39.741378016769886" lon="3.352136984467506">
<ele>277</ele>
</trkpt>
<trkpt lat="39.741496033966541" lon="3.352190963923931">
<ele>276</ele>
</trkpt>
<trkpt lat="39.741569962352514" lon="3.352314010262489">
<ele>274</ele>
</trkpt>
<trkpt lat="39.741600975394249" lon="3.352346029132605">
<ele>273</ele>
</trkpt>
<trkpt lat="39.741686638444662" lon="3.352439906448126">
<ele>272</ele>
</trkpt>
<trkpt lat="39.741745982319117" lon="3.352534202858806">
<ele>270</ele>
</trkpt>
<trkpt lat="39.741779007017612" lon="3.352596983313561">
<ele>269</ele>
</trkpt>
<trkpt lat="39.741885038092732" lon="3.352684993296862">
<ele>269</ele>
</trkpt>
<trkpt lat="39.741968018934131" lon="3.352731009945273">
<ele>269</ele>
</trkpt>
<trkpt lat="39.741968018934131" lon="3.35274500772357">
<ele>269</ele>
</trkpt>
<trkpt lat="39.742115959525108" lon="3.352838968858123">
<ele>269</ele>
</trkpt>
<trkpt lat="39.742136998102069" lon="3.352845003828406">
<ele>269</ele>
</trkpt>
<trkpt lat="39.74226800724864" lon="3.352936031296849">
<ele>269</ele>
</trkpt>
<trkpt lat="39.74229097366333" lon="3.35293703712523">
<ele>269</ele>
</trkpt>
<trkpt lat="39.742436986416578" lon="3.353014988824725">
<ele>269</ele>
</trkpt>
<trkpt lat="39.742544023320079" lon="3.35306997410953">
<ele>269</ele>
</trkpt>
<trkpt lat="39.742647958919406" lon="3.353132000193">
<ele>269</ele>
</trkpt>
<trkpt lat="39.742751978337765" lon="3.353161001577973">
<ele>271</ele>
</trkpt>
<trkpt lat="39.742820961400867" lon="3.353191008791328">
<ele>272</ele>
</trkpt>
<trkpt lat="39.742919029667974" lon="3.353182962164283">
<ele>274</ele>
</trkpt>
<trkpt lat="39.742962028831244" lon="3.353196959942579">
<ele>276</ele>
</trkpt>
<trkpt lat="39.743021037429571" lon="3.353233002126217">
<ele>278</ele>
</trkpt>
<trkpt lat="39.743112986907363" lon="3.3532839640975">
<ele>279</ele>
</trkpt>
<trkpt lat="39.743181969970465" lon="3.353379014879465">
<ele>281</ele>
</trkpt>
<trkpt lat="39.743258999660611" lon="3.35345696657896">
<ele>283</ele>
</trkpt>
<trkpt lat="39.743306022137403" lon="3.353470964357257">
<ele>284</ele>
</trkpt>
<trkpt lat="39.743389002978802" lon="3.35358596406877">
<ele>286</ele>
</trkpt>
<trkpt lat="39.7434719838202" lon="3.35364899598062">
<ele>288</ele>
</trkpt>
<trkpt lat="39.743576003238559" lon="3.353761984035373">
<ele>290</ele>
</trkpt>
<trkpt lat="39.743659989908338" lon="3.353829039260745">
<ele>291</ele>
</trkpt>
<trkpt lat="39.743624031543732" lon="3.353630974888802">
<ele>293</ele>
</trkpt>
<trkpt lat="39.743619002401829" lon="3.353579007089138">
<ele>295</ele>
</trkpt>
<trkpt lat="39.743619002401829" lon="3.353511029854417">
<ele>297</ele>
</trkpt>
<trkpt lat="39.74362101405859" lon="3.353396030142903">
<ele>299</ele>
</trkpt>
<trkpt lat="39.743605004623532" lon="3.353294022381306">
<ele>300</ele>
</trkpt>
<trkpt lat="39.743596035987139" lon="3.353225039318204">
<ele>302</ele>
</trkpt>
<trkpt lat="39.743615984916687" lon="3.353086989372969">
<ele>304</ele>
</trkpt>
<trkpt lat="39.743653032928705" lon="3.353100987151265">
<ele>305</ele>
</trkpt>
<trkpt lat="39.743628976866603" lon="3.352955980226398">
<ele>306</ele>
</trkpt>
<trkpt lat="39.743654038757086" lon="3.352900994941592">
<ele>307</ele>
</trkpt>
<trkpt lat="39.743663007393479" lon="3.352839974686503">
<ele>308</ele>
</trkpt>
<trkpt lat="39.743730984628201" lon="3.352890014648438">
<ele>309</ele>
</trkpt>
<trkpt lat="39.743757974356413" lon="3.352797981351614">
<ele>310</ele>
</trkpt>
<trkpt lat="39.743766020983458" lon="3.352816002443433">
<ele>311</ele>
</trkpt>
<trkpt lat="39.743785969913006" lon="3.352807033807039">
<ele>312</ele>
</trkpt>
<trkpt lat="39.743767026811838" lon="3.35281097330153">
<ele>313</ele>
</trkpt>
<trkpt lat="39.743753029033542" lon="3.352809967473149">
<ele>314</ele>
</trkpt>
<trkpt lat="39.743766020983458" lon="3.352811979129911">
<ele>315</ele>
</trkpt>
<trkpt lat="39.743783958256245" lon="3.352805022150278">
<ele>317</ele>
</trkpt>
<trkpt lat="39.743842966854572" lon="3.352804016321898">
<ele>318</ele>
</trkpt>
<trkpt lat="39.743942962959409" lon="3.352757999673486">
<ele>319</ele>
</trkpt>
<trkpt lat="39.744014041498303" lon="3.352640988305211">
<ele>320</ele>
</trkpt>
<trkpt lat="39.74405201151967" lon="3.352559013292193">
<ele>322</ele>
</trkpt>
<trkpt lat="39.744061985984445" lon="3.352483995258808">
<ele>323</ele>
</trkpt>
<trkpt lat="39.744076989591122" lon="3.352321973070502">
<ele>324</ele>
</trkpt>
<trkpt lat="39.74409501068294" lon="3.35225198417902">
<ele>326</ele>
</trkpt>
<trkpt lat="39.744108002632856" lon="3.352190963923931">
<ele>327</ele>
</trkpt>
<trkpt lat="39.744201963767409" lon="3.351969011127949">
<ele>329</ele>
</trkpt>
<trkpt lat="39.744270024821162" lon="3.35180195979774">
<ele>330</ele>
</trkpt>
<trkpt lat="39.744301037862897" lon="3.351719984784722">
<ele>332</ele>
</trkpt>
<trkpt lat="39.74435300566256" lon="3.351542958989739">
<ele>334</ele>
</trkpt>
<trkpt lat="39.744349988177419" lon="3.35141496732831">
<ele>336</ele>
</trkpt>
<trkpt lat="39.744358034804463" lon="3.351338021457195">
<ele>337</ele>
</trkpt>
<trkpt lat="39.744344959035516" lon="3.351280018687248">
<ele>339</ele>
</trkpt>
<trkpt lat="39.744383012875915" lon="3.351203994825482">
<ele>341</ele>
</trkpt>
<trkpt lat="39.744402039796114" lon="3.351131994277239">
<ele>342</ele>
</trkpt>
<trkpt lat="39.744444033131003" lon="3.351029986515641">
<ele>344</ele>
</trkpt>
<trkpt lat="39.744508992880583" lon="3.350860001519322">
<ele>346</ele>
</trkpt>
<trkpt lat="39.74456699565053" lon="3.350743995979428">
<ele>348</ele>
</trkpt>
<trkpt lat="39.74456800147891" lon="3.350576022639871">
<ele>350</ele>
</trkpt>
<trkpt lat="39.744592979550362" lon="3.3504450134933">
<ele>352</ele>
</trkpt>
<trkpt lat="39.744641007855535" lon="3.350307969376445">
<ele>354</ele>
</trkpt>
<trkpt lat="39.744680989533663" lon="3.350179977715015">
<ele>355</ele>
</trkpt>
<trkpt lat="39.744688030332327" lon="3.350084004923701">
<ele>357</ele>
</trkpt>
<trkpt lat="39.744658023118973" lon="3.349855011329055">
<ele>359</ele>
</trkpt>
<trkpt lat="39.74465399980545" lon="3.349759038537741">
<ele>361</ele>
</trkpt>
<trkpt lat="39.744658023118973" lon="3.349600033834577">
<ele>363</ele>
</trkpt>
<trkpt lat="39.744672020897269" lon="3.34956499747932">
<ele>364</ele>
</trkpt>
<trkpt lat="39.74467696622014" lon="3.349541025236249">
<ele>365</ele>
</trkpt>
<trkpt lat="39.744701022282243" lon="3.349379003047943">
<ele>366</ele>
</trkpt>
<trkpt lat="39.74469599314034" lon="3.34928696975112">
<ele>367</ele>
</trkpt>
<trkpt lat="39.744646036997437" lon="3.349171970039606">
<ele>368</ele>
</trkpt>
<trkpt lat="39.744691969826818" lon="3.348982036113739">
<ele>369</ele>
</trkpt>
<trkpt lat="39.744702028110623" lon="3.348965020850301">
<ele>370</ele>
</trkpt>
<trkpt lat="39.744751984253526" lon="3.348910035565496">
<ele>371</ele>
</trkpt>
<trkpt lat="39.744776962324977" lon="3.348853960633278">
<ele>372</ele>
</trkpt>
<trkpt lat="39.744959017261863" lon="3.348756982013583">
<ele>373</ele>
</trkpt>
<trkpt lat="39.745006961748004" lon="3.348734015598893">
<ele>372</ele>
</trkpt>
<trkpt lat="39.745176024734974" lon="3.348687998950481">
<ele>372</ele>
</trkpt>
<trkpt lat="39.745291024446487" lon="3.348660003393889">
<ele>371</ele>
</trkpt>
<trkpt lat="39.745421027764678" lon="3.348655980080366">
<ele>371</ele>
</trkpt>
<trkpt lat="39.745514988899231" lon="3.348636031150818">
<ele>370</ele>
</trkpt>
<trkpt lat="39.745612973347306" lon="3.348632007837296">
<ele>370</ele>
</trkpt>
<trkpt lat="39.745726967230439" lon="3.348568975925446">
<ele>369</ele>
</trkpt>
<trkpt lat="39.74574901163578" lon="3.348548021167517">
<ele>368</ele>
</trkpt>
<trkpt lat="39.745923019945621" lon="3.348526982590556">
<ele>368</ele>
</trkpt>
<trkpt lat="39.745941963046789" lon="3.348502004519105">
<ele>367</ele>
</trkpt>
<trkpt lat="39.745978005230427" lon="3.348413994535804">
<ele>367</ele>
</trkpt>
<trkpt lat="39.746031984686852" lon="3.348352974280715">
<ele>366</ele>
</trkpt>
<trkpt lat="39.746099039912224" lon="3.348238980397582">
<ele>366</ele>
</trkpt>
<trkpt lat="39.746123012155294" lon="3.348206039518118">
<ele>365</ele>
</trkpt>
<trkpt lat="39.746123012155294" lon="3.348206039518118">
<ele>366</ele>
</trkpt>
<trkpt lat="39.74617900326848" lon="3.348122974857688">
<ele>366</ele>
</trkpt>
<trkpt lat="39.746226025745273" lon="3.348071007058024">
<ele>366</ele>
</trkpt>
<trkpt lat="39.746325016021729" lon="3.347960030660033">
<ele>367</ele>
</trkpt>
<trkpt lat="39.746419982984662" lon="3.34793102927506">
<ele>368</ele>
</trkpt>
<trkpt lat="39.746481003239751" lon="3.34791099652648">
<ele>368</ele>
</trkpt>
<trkpt lat="39.74649902433157" lon="3.347961036488414">
<ele>368</ele>
</trkpt>
<trkpt lat="39.746488966047764" lon="3.348035970702767">
<ele>369</ele>
</trkpt>
<trkpt lat="39.746503969654441" lon="3.348130015656352">
<ele>370</ele>
</trkpt>
<trkpt lat="39.746503969654441" lon="3.348131021484733">
<ele>370</ele>
</trkpt>
<trkpt lat="39.746637996286154" lon="3.348226994276047">
<ele>372</ele>
</trkpt>
<trkpt lat="39.746744027361274" lon="3.348292959854007">
<ele>374</ele>
</trkpt>
<trkpt lat="39.746832959353924" lon="3.34834098815918">
<ele>376</ele>
</trkpt>
<trkpt lat="39.746914012357593" lon="3.348397985100746">
<ele>378</ele>
</trkpt>
<trkpt lat="39.746962040662766" lon="3.348488006740809">
<ele>380</ele>
</trkpt>
<trkpt lat="39.747065976262093" lon="3.34864198230207">
<ele>381</ele>
</trkpt>
<trkpt lat="39.747086009010673" lon="3.34864298813045">
<ele>383</ele>
</trkpt>
<trkpt lat="39.747115010395646" lon="3.348652040585876">
<ele>385</ele>
</trkpt>
<trkpt lat="39.747246019542217" lon="3.348789000883699">
<ele>387</ele>
</trkpt>
<trkpt lat="39.747322965413332" lon="3.348870975896716">
<ele>389</ele>
</trkpt>
<trkpt lat="39.747417010366917" lon="3.348954962566495">
<ele>391</ele>
</trkpt>
<trkpt lat="39.747490016743541" lon="3.349039033055306">
<ele>392</ele>
</trkpt>
<trkpt lat="39.747579032555223" lon="3.349123019725084">
<ele>394</ele>
</trkpt>
<trkpt lat="39.747625971212983" lon="3.349204994738102">
<ele>396</ele>
</trkpt>
<trkpt lat="39.74768003448844" lon="3.349242964759469">
<ele>398</ele>
</trkpt>
<trkpt lat="39.747771983966231" lon="3.349268026649952">
<ele>399</ele>
</trkpt>
<trkpt lat="39.747838033363223" lon="3.349374979734421">
<ele>401</ele>
</trkpt>
<trkpt lat="39.74791799671948" lon="3.3494589664042">
<ele>403</ele>
</trkpt>
<trkpt lat="39.747986979782581" lon="3.349572038277984">
<ele>404</ele>
</trkpt>
<trkpt lat="39.74807096645236" lon="3.349642027169466">
<ele>406</ele>
</trkpt>
<trkpt lat="39.748130980879068" lon="3.349656024947763">
<ele>408</ele>
</trkpt>
<trkpt lat="39.748289985582232" lon="3.349728025496006">
<ele>410</ele>
</trkpt>
<trkpt lat="39.74836902692914" lon="3.349812012165785">
<ele>412</ele>
</trkpt>
<trkpt lat="39.748425018042326" lon="3.349864985793829">
<ele>414</ele>
</trkpt>
<trkpt lat="39.748525014147162" lon="3.349960958585143">
<ele>416</ele>
</trkpt>
<trkpt lat="39.748609000816941" lon="3.350021978840232">
<ele>418</ele>
</trkpt>
<trkpt lat="39.74864998832345" lon="3.350048968568444">
<ele>420</ele>
</trkpt>
<trkpt lat="39.748727018013597" lon="3.350131027400494">
<ele>422</ele>
</trkpt>
<trkpt lat="39.748751996085048" lon="3.350205961614847">
<ele>424</ele>
</trkpt>
<trkpt lat="39.748826008290052" lon="3.350306041538715">
<ele>426</ele>
</trkpt>
<trkpt lat="39.748862972483039" lon="3.350365972146392">
<ele>430</ele>
</trkpt>
<trkpt lat="39.748946959152818" lon="3.35055397823453">
<ele>433</ele>
</trkpt>
<trkpt lat="39.748989036306739" lon="3.350608041509986">
<ele>437</ele>
</trkpt>
<trkpt lat="39.749070005491376" lon="3.350758999586105">
<ele>441</ele>
</trkpt>
<trkpt lat="39.749107975512743" lon="3.350831000134349">
<ele>444</ele>
</trkpt>
<trkpt lat="39.749191962182522" lon="3.350955974310637">
<ele>448</ele>
</trkpt>
<trkpt lat="39.749211994931102" lon="3.35111296735704">
<ele>452</ele>
</trkpt>
<trkpt lat="39.749278966337442" lon="3.351256968453527">
<ele>456</ele>
</trkpt>
<trkpt lat="39.749314002692699" lon="3.351362999528647">
<ele>459</ele>
</trkpt>
<trkpt lat="39.749402012676001" lon="3.351499037817121">
<ele>463</ele>
</trkpt>
<trkpt lat="39.749455992132425" lon="3.351629041135311">
<ele>465</ele>
</trkpt>
<trkpt lat="39.749480970203876" lon="3.351755021139979">
<ele>468</ele>
</trkpt>
<trkpt lat="39.749533021822572" lon="3.351886030286551">
<ele>470</ele>
</trkpt>
<trkpt lat="39.749563029035926" lon="3.351959036663175">
<ele>472</ele>
</trkpt>
<trkpt lat="39.749611979350448" lon="3.352103959769011">
<ele>474</ele>
</trkpt>
<trkpt lat="39.749633017927408" lon="3.352192975580692">
<ele>477</ele>
</trkpt>
<trkpt lat="39.749596975743771" lon="3.352313004434109">
<ele>479</ele>
</trkpt>
<trkpt lat="39.749657995998859" lon="3.352450970560312">
<ele>481</ele>
</trkpt>
<trkpt lat="39.74967903457582" lon="3.352500004693866">
<ele>484</ele>
</trkpt>
<trkpt lat="39.74968196824193" lon="3.35253001190722">
<ele>486</ele>
</trkpt>
<trkpt lat="39.749698983505368" lon="3.352677030488849">
<ele>487</ele>
</trkpt>
<trkpt lat="39.749732008203864" lon="3.352719023823738">
<ele>487</ele>
</trkpt>
<trkpt lat="39.749741982668638" lon="3.352805022150278">
<ele>488</ele>
</trkpt>
<trkpt lat="39.749717004597187" lon="3.352966960519552">
<ele>489</ele>
</trkpt>
<trkpt lat="39.749705018475652" lon="3.353029992431402">
<ele>490</ele>
</trkpt>
<trkpt lat="39.749620025977492" lon="3.3529610093683">
<ele>490</ele>
</trkpt>
<trkpt lat="39.749591024592519" lon="3.352927984669805">
<ele>491</ele>
</trkpt>
<trkpt lat="39.749629748985171" lon="3.352981461212039">
<ele>490</ele>
</trkpt>
<trkpt lat="39.749644165858626" lon="3.353012138977647">
<ele>489</ele>
</trkpt>
<trkpt lat="39.749674675986171" lon="3.353031920269132">
<ele>488</ele>
</trkpt>
<trkpt lat="39.749715998768806" lon="3.352972660213709">
<ele>487</ele>
</trkpt>
<trkpt lat="39.749746508896351" lon="3.35287400521338">
<ele>486</ele>
</trkpt>
<trkpt lat="39.749760925769806" lon="3.352775266394019">
<ele>486</ele>
</trkpt>
<trkpt lat="39.749694457277656" lon="3.352632690221071">
<ele>485</ele>
</trkpt>
<trkpt lat="39.749669311568141" lon="3.352580051869154">
<ele>484</ele>
</trkpt>
<trkpt lat="39.749663863331079" lon="3.352450719103217">
<ele>483</ele>
</trkpt>
<trkpt lat="39.749568644911051" lon="3.352336641401053">
<ele>482</ele>
</trkpt>
<trkpt lat="39.74960820749402" lon="3.352242344990373">
<ele>480</ele>
</trkpt>
<trkpt lat="39.749636957421899" lon="3.352189706638455">
<ele>478</ele>
</trkpt>
<trkpt lat="39.749579457566142" lon="3.352044951170683">
<ele>476</ele>
</trkpt>
<trkpt lat="39.749565040692687" lon="3.351970352232456">
<ele>474</ele>
</trkpt>
<trkpt lat="39.749537045136094" lon="3.351893071085215">
<ele>472</ele>
</trkpt>
<trkpt lat="39.74945624358952" lon="3.351711099967361">
<ele>470</ele>
</trkpt>
<trkpt lat="39.749459847807884" lon="3.351625520735979">
<ele>468</ele>
</trkpt>
<trkpt lat="39.749458003789186" lon="3.351629879325628">
<ele>466</ele>
</trkpt>
<trkpt lat="39.749413076788187" lon="3.351559722796083">
<ele>464</ele>
</trkpt>
<trkpt lat="39.749413076788187" lon="3.351561902090907">
<ele>462</ele>
</trkpt>
<trkpt lat="39.749380722641945" lon="3.351456625387073">
<ele>458</ele>
</trkpt>
<trkpt lat="39.749326827004552" lon="3.351393006742001">
<ele>455</ele>
</trkpt>
<trkpt lat="39.749253233894706" lon="3.351189075037837">
<ele>451</ele>
</trkpt>
<trkpt lat="39.749213671311736" lon="3.35112327709794">
<ele>448</ele>
</trkpt>
<trkpt lat="39.749192129820585" lon="3.350954381749034">
<ele>444</ele>
</trkpt>
<trkpt lat="39.749147202819586" lon="3.350877603515983">
<ele>440</ele>
</trkpt>
<trkpt lat="39.749032203108072" lon="3.350702170282602">
<ele>437</ele>
</trkpt>
<trkpt lat="39.748990880325437" lon="3.350614411756396">
<ele>433</ele>
</trkpt>
<trkpt lat="39.748911838978529" lon="3.35044551640749">
<ele>430</ele>
</trkpt>
<trkpt lat="39.748863307759166" lon="3.350371001288295">
<ele>426</ele>
</trkpt>
<trkpt lat="39.748757360503078" lon="3.350223982706666">
<ele>424</ele>
</trkpt>
<trkpt lat="39.748650575056672" lon="3.350050812587142">
<ele>422</ele>
</trkpt>
<trkpt lat="39.748587626963854" lon="3.350011333823204">
<ele>420</ele>
</trkpt>
<trkpt lat="39.748456533998251" lon="3.349875379353762">
<ele>418</ele>
</trkpt>
<trkpt lat="39.748425940051675" lon="3.349866578355432">
<ele>416</ele>
</trkpt>
<trkpt lat="39.748341534286737" lon="3.349787620827556">
<ele>413</ele>
</trkpt>
<trkpt lat="39.748273221775889" lon="3.349713021889329">
<ele>411</ele>
</trkpt>
<trkpt lat="39.748147493228316" lon="3.349647223949432">
<ele>409</ele>
</trkpt>
<trkpt lat="39.748066607862711" lon="3.349642865359783">
<ele>407</ele>
</trkpt>
<trkpt lat="39.747985806316137" lon="3.349572708830237">
<ele>405</ele>
</trkpt>
<trkpt lat="39.747924702242017" lon="3.349480591714382">
<ele>404</ele>
</trkpt>
<trkpt lat="39.74790676496923" lon="3.349449830129743">
<ele>402</ele>
</trkpt>
<trkpt lat="39.747833088040352" lon="3.349368693307042">
<ele>400</ele>
</trkpt>
<trkpt lat="39.747771983966231" lon="3.349272217601538">
<ele>399</ele>
</trkpt>
<trkpt lat="39.747682129964232" lon="3.349250257015228">
<ele>398</ele>
</trkpt>
<trkpt lat="39.747630078345537" lon="3.349212957546115">
<ele>396</ele>
</trkpt>
<trkpt lat="39.747479455545545" lon="3.349032998085022">
<ele>394</ele>
</trkpt>
<trkpt lat="39.747423799708486" lon="3.348962841555476">
<ele>393</ele>
</trkpt>
<trkpt lat="39.747321372851729" lon="3.34887508302927">
<ele>392</ele>
</trkpt>
<trkpt lat="39.747238727286458" lon="3.348787408322096">
<ele>390</ele>
</trkpt>
<trkpt lat="39.747181227430701" lon="3.34869084879756">
<ele>388</ele>
</trkpt>
<trkpt lat="39.747118363156915" lon="3.348651370033622">
<ele>386</ele>
</trkpt>
<trkpt lat="39.746992634609342" lon="3.348559252917767">
<ele>384</ele>
</trkpt>
<trkpt lat="39.746958436444402" lon="3.348484737798572">
<ele>382</ele>
</trkpt>
<trkpt lat="39.746827343478799" lon="3.348344340920448">
<ele>380</ele>
</trkpt>
<trkpt lat="39.746744697913527" lon="3.348291702568531">
<ele>379</ele>
</trkpt>
<trkpt lat="39.746638666838408" lon="3.348230263218284">
<ele>377</ele>
</trkpt>
<trkpt lat="39.746591979637742" lon="3.348210565745831">
<ele>375</ele>
</trkpt>
<trkpt lat="39.746489552780986" lon="3.348046028986573">
<ele>373</ele>
</trkpt>
<trkpt lat="39.746487708762288" lon="3.347907895222306">
<ele>371</ele>
</trkpt>
<trkpt lat="39.74667202681303" lon="3.347743023186922">
<ele>370</ele>
</trkpt>
<trkpt lat="39.746707985177636" lon="3.347688037902117">
<ele>370</ele>
</trkpt>
<trkpt lat="39.746784009039402" lon="3.347608996555209">
<ele>369</ele>
</trkpt>
<trkpt lat="39.746791971847415" lon="3.347599022090435">
<ele>368</ele>
</trkpt>
<trkpt lat="39.746683007106185" lon="3.347574966028333">
<ele>368</ele>
</trkpt>
<trkpt lat="39.746577981859446" lon="3.34771896712482">
<ele>367</ele>
</trkpt>
<trkpt lat="39.746461976319551" lon="3.34778300486505">
<ele>366</ele>
</trkpt>
<trkpt lat="39.746348988264799" lon="3.347774036228657">
<ele>366</ele>
</trkpt>
<trkpt lat="39.746123012155294" lon="3.348206039518118">
<ele>365</ele>
</trkpt>
<trkpt lat="39.746239017695189" lon="3.347722990438342">
<ele>364</ele>
</trkpt>
<trkpt lat="39.74617900326848" lon="3.347662976011634">
<ele>364</ele>
</trkpt>
<trkpt lat="39.746161988005042" lon="3.347624000161886">
<ele>363</ele>
</trkpt>
<trkpt lat="39.746129969134927" lon="3.347446974366903">
<ele>363</ele>
</trkpt>
<trkpt lat="39.746113959699869" lon="3.347423002123833">
<ele>362</ele>
</trkpt>
<trkpt lat="39.746016981080174" lon="3.347380002960563">
<ele>361</ele>
</trkpt>
<trkpt lat="39.745971970260143" lon="3.347356030717492">
<ele>361</ele>
</trkpt>
<trkpt lat="39.745930982753634" lon="3.34728604182601">
<ele>360</ele>
</trkpt>
<trkpt lat="39.745867028832436" lon="3.347164001315832">
<ele>360</ele>
</trkpt>
<trkpt lat="39.745844984427094" lon="3.347057970240712">
<ele>359</ele>
</trkpt>
<trkpt lat="39.745815983042121" lon="3.346926039084792">
<ele>358</ele>
</trkpt>
<trkpt lat="39.74581103771925" lon="3.346903994679451">
<ele>356</ele>
</trkpt>
<trkpt lat="39.745752029120922" lon="3.346753036603332">
<ele>354</ele>
</trkpt>
<trkpt lat="39.74570500664413" lon="3.346635019406676">
<ele>353</ele>
</trkpt>
<trkpt lat="39.745659995824099" lon="3.346508033573628">
<ele>352</ele>
</trkpt>
<trkpt lat="39.745610039681196" lon="3.3464490249753">
<ele>350</ele>
</trkpt>
<trkpt lat="39.74564298056066" lon="3.346339976415038">
<ele>348</ele>
</trkpt>
<trkpt lat="39.745672987774014" lon="3.346311980858445">
<ele>347</ele>
</trkpt>
<trkpt lat="39.745634011924267" lon="3.346225982531905">
<ele>346</ele>
</trkpt>
<trkpt lat="39.745566034689546" lon="3.346160016953945">
<ele>344</ele>
</trkpt>
<trkpt lat="39.745454974472523" lon="3.345991037786007">
<ele>343</ele>
</trkpt>
<trkpt lat="39.745412981137633" lon="3.345856005325913">
<ele>341</ele>
</trkpt>
<trkpt lat="39.745322959497571" lon="3.345782998949289">
<ele>340</ele>
</trkpt>
<trkpt lat="39.745265962556005" lon="3.345717033371329">
<ele>339</ele>
</trkpt>
<trkpt lat="39.745245007798076" lon="3.345675962045789">
<ele>338</ele>
</trkpt>
<trkpt lat="39.745264034718275" lon="3.345515029504895">
<ele>336</ele>
</trkpt>
<trkpt lat="39.745250958949327" lon="3.345395000651479">
<ele>335</ele>
</trkpt>
<trkpt lat="39.745166972279549" lon="3.345239013433456">
<ele>334</ele>
</trkpt>
<trkpt lat="39.745177030563354" lon="3.345168018713594">
<ele>332</ele>
</trkpt>
<trkpt lat="39.745178958401084" lon="3.345071962103248">
<ele>331</ele>
</trkpt>
<trkpt lat="39.745164038613439" lon="3.344930978491902">
<ele>330</ele>
</trkpt>
<trkpt lat="39.745173007249832" lon="3.344829976558685">
<ele>329</ele>
</trkpt>
<trkpt lat="39.745161021128297" lon="3.344676000997424">
<ele>327</ele>
</trkpt>
<trkpt lat="39.745150040835142" lon="3.344507021829486">
<ele>326</ele>
</trkpt>
<trkpt lat="39.745130008086562" lon="3.344442984089255">
<ele>325</ele>
</trkpt>
<trkpt lat="39.745097989216447" lon="3.3443439938128">
<ele>324</ele>
</trkpt>
<trkpt lat="39.745049038901925" lon="3.344248021021485">
<ele>323</ele>
</trkpt>
<trkpt lat="39.745000004768372" lon="3.344120029360056">
<ele>321</ele>
</trkpt>
<trkpt lat="39.744897997006774" lon="3.344007963314652">
<ele>320</ele>
</trkpt>
<trkpt lat="39.744830019772053" lon="3.343918025493622">
<ele>319</ele>
</trkpt>
<trkpt lat="39.744810992851853" lon="3.343837978318334">
<ele>318</ele>
</trkpt>
<trkpt lat="39.744793977588415" lon="3.34372297860682">
<ele>317</ele>
</trkpt>
<trkpt lat="39.744818033650517" lon="3.343677967786789">
<ele>317</ele>
</trkpt>
<trkpt lat="39.744776040315628" lon="3.34357000887394">
<ele>316</ele>
</trkpt>
<trkpt lat="39.744763970375061" lon="3.343546036630869">
<ele>315</ele>
</trkpt>
<trkpt lat="39.744663974270225" lon="3.343383008614183">
<ele>314</ele>
</trkpt>
<trkpt lat="39.744629021733999" lon="3.343298016116023">
<ele>313</ele>
</trkpt>
<trkpt lat="39.744584010913968" lon="3.343083020299673">
<ele>313</ele>
</trkpt>
<trkpt lat="39.744521984830499" lon="3.342946982011199">
<ele>312</ele>
</trkpt>
<trkpt lat="39.744442021474242" lon="3.34284002892673">
<ele>311</ele>
</trkpt>
<trkpt lat="39.74441897124052" lon="3.34266996011138">
<ele>310</ele>
</trkpt>
<trkpt lat="39.74441796541214" lon="3.342516990378499">
<ele>309</ele>
</trkpt>
<trkpt lat="39.74441897124052" lon="3.342482959851623">
<ele>307</ele>
</trkpt>
<trkpt lat="39.744426012039185" lon="3.342447001487017">
<ele>306</ele>
</trkpt>
<trkpt lat="39.744362980127335" lon="3.342295959591866">
<ele>305</ele>
</trkpt>
<trkpt lat="39.744260972365737" lon="3.342156987637281">
<ele>304</ele>
</trkpt>
<trkpt lat="39.744238005951047" lon="3.34213100373745">
<ele>303</ele>
</trkpt>
<trkpt lat="39.744175979867578" lon="3.341933023184538">
<ele>301</ele>
</trkpt>
<trkpt lat="39.744097022339702" lon="3.341847024857998">
<ele>300</ele>
</trkpt>
<trkpt lat="39.74403097294271" lon="3.341784998774529">
<ele>299</ele>
</trkpt>
<trkpt lat="39.743947992101312" lon="3.341673016548157">
<ele>298</ele>
</trkpt>
<trkpt lat="39.743872974067926" lon="3.341562962159514">
<ele>296</ele>
</trkpt>
<trkpt lat="39.743774989619851" lon="3.341475035995245">
<ele>294</ele>
</trkpt>
<trkpt lat="39.743736013770103" lon="3.341404041275382">
<ele>293</ele>
</trkpt>
<trkpt lat="39.743634006008506" lon="3.341219974681735">
<ele>292</ele>
</trkpt>
<trkpt lat="39.743545996025205" lon="3.341095000505447">
<ele>290</ele>
</trkpt>
<trkpt lat="39.743502996861935" lon="3.341020988300443">
<ele>288</ele>
</trkpt>
<trkpt lat="39.743416998535395" lon="3.340943036600947">
<ele>287</ele>
</trkpt>
<trkpt lat="39.743295041844249" lon="3.340832982212305">
<ele>286</ele>
</trkpt>
<trkpt lat="39.743200996890664" lon="3.34071203134954">
<ele>284</ele>
</trkpt>
<trkpt lat="39.743194039911032" lon="3.340657968074083">
<ele>282</ele>
</trkpt>
<trkpt lat="39.743177024647593" lon="3.340458981692791">
<ele>281</ele>
</trkpt>
<trkpt lat="39.743054984137416" lon="3.340320009738207">
<ele>279</ele>
</trkpt>
<trkpt lat="39.743050960823894" lon="3.340302994474769">
<ele>277</ele>
</trkpt>
<trkpt lat="39.742974014952779" lon="3.340195035561919">
<ele>276</ele>
</trkpt>
<trkpt lat="39.742944007739425" lon="3.340181959792972">
<ele>274</ele>
</trkpt>
<trkpt lat="39.742843005806208" lon="3.340104008093476">
<ele>272</ele>
</trkpt>
<trkpt lat="39.74276103079319" lon="3.339994037523866">
<ele>270</ele>
</trkpt>
<trkpt lat="39.742668997496367" lon="3.339916002005339">
<ele>269</ele>
</trkpt>
<trkpt lat="39.742567995563149" lon="3.339837966486812">
<ele>267</ele>
</trkpt>
<trkpt lat="39.742562966421247" lon="3.339830003678799">
<ele>266</ele>
</trkpt>
<trkpt lat="39.742475962266326" lon="3.339719027280808">
<ele>265</ele>
</trkpt>
<trkpt lat="39.742406979203224" lon="3.339650966227055">
<ele>264</ele>
</trkpt>
<trkpt lat="39.742348976433277" lon="3.3396399859339">
<ele>263</ele>
</trkpt>
<trkpt lat="39.74211797118187" lon="3.339585000649095">
<ele>262</ele>
</trkpt>
<trkpt lat="39.742027027532458" lon="3.339540995657444">
<ele>261</ele>
</trkpt>
<trkpt lat="39.741942035034299" lon="3.339504031464458">
<ele>260</ele>
</trkpt>
<trkpt lat="39.741857964545488" lon="3.339472012594342">
<ele>259</ele>
</trkpt>
<trkpt lat="39.741689991205931" lon="3.339413003996015">
<ele>258</ele>
</trkpt>
<trkpt lat="39.741637017577887" lon="3.339401017874479">
<ele>257</ele>
</trkpt>
<trkpt lat="39.741543978452682" lon="3.339380985125899">
<ele>256</ele>
</trkpt>
<trkpt lat="39.741446999832988" lon="3.339333040639758">
<ele>256</ele>
</trkpt>
<trkpt lat="39.74134499207139" lon="3.339276965707541">
<ele>255</ele>
</trkpt>
<trkpt lat="39.741328982636333" lon="3.339272020384669">
<ele>255</ele>
</trkpt>
<trkpt lat="39.741222029551864" lon="3.339234972372651">
<ele>254</ele>
</trkpt>
<trkpt lat="39.74115296266973" lon="3.339215023443103">
<ele>253</ele>
</trkpt>
<trkpt lat="39.741059001535177" lon="3.339190967381001">
<ele>253</ele>
</trkpt>
<trkpt lat="39.74102396517992" lon="3.339156014844775">
<ele>252</ele>
</trkpt>
<trkpt lat="39.74093796685338" lon="3.33910396322608">
<ele>252</ele>
</trkpt>
<trkpt lat="39.740835037082434" lon="3.339074039831758">
<ele>251</ele>
</trkpt>
<trkpt lat="39.7407659702003" lon="3.339040009304881">
<ele>250</ele>
</trkpt>
<trkpt lat="39.740682989358902" lon="3.338959040120244">
<ele>249</ele>
</trkpt>
<trkpt lat="39.74065700545907" lon="3.338859966024756">
<ele>247</ele>
</trkpt>
<trkpt lat="39.740600008517504" lon="3.338769022375345">
<ele>246</ele>
</trkpt>
<trkpt lat="39.740706961601973" lon="3.338645976036787">
<ele>245</ele>
</trkpt>
<trkpt lat="39.740793965756893" lon="3.338579004630446">
<ele>244</ele>
</trkpt>
<trkpt lat="39.740890022367239" lon="3.33849904127419">
<ele>243</ele>
</trkpt>
<trkpt lat="39.740982977673411" lon="3.338384041562676">
<ele>241</ele>
</trkpt>
<trkpt lat="39.741078028455377" lon="3.338306006044149">
<ele>240</ele>
</trkpt>
<trkpt lat="39.741177018731833" lon="3.338237022981048">
<ele>239</ele>
</trkpt>
<trkpt lat="39.741199985146523" lon="3.338207015767694">
<ele>238</ele>
</trkpt>
<trkpt lat="39.741323031485081" lon="3.338110959157348">
<ele>238</ele>
</trkpt>
<trkpt lat="39.74140701815486" lon="3.33802898414433">
<ele>238</ele>
</trkpt>
<trkpt lat="39.741427972912788" lon="3.338012974709272">
<ele>237</ele>
</trkpt>
<trkpt lat="39.741315990686417" lon="3.337846007198095">
<ele>236</ele>
</trkpt>
<trkpt lat="39.74119202233851" lon="3.337814994156361">
<ele>236</ele>
</trkpt>
<trkpt lat="39.741094037890434" lon="3.337803008034825">
<ele>236</ele>
</trkpt>
<trkpt lat="39.740971997380257" lon="3.337826980277896">
<ele>235</ele>
</trkpt>
<trkpt lat="39.740910977125168" lon="3.337838966399431">
<ele>234</ele>
</trkpt>
<trkpt lat="39.7407849971205" lon="3.337832009419799">
<ele>234</ele>
</trkpt>
<trkpt lat="39.740674020722508" lon="3.337809965014458">
<ele>234</ele>
</trkpt>
<trkpt lat="39.740532031282783" lon="3.337792027741671">
<ele>234</ele>
</trkpt>
<trkpt lat="39.740508981049061" lon="3.337786998599768">
<ele>234</ele>
</trkpt>
<trkpt lat="39.740402027964592" lon="3.337742993608117">
<ele>234</ele>
</trkpt>
<trkpt lat="39.740315023809671" lon="3.337693037465215">
<ele>234</ele>
</trkpt>
<trkpt lat="39.740217961370945" lon="3.337650960311294">
<ele>233</ele>
</trkpt>
<trkpt lat="39.740118971094489" lon="3.337609972804785">
<ele>233</ele>
</trkpt>
<trkpt lat="39.74007798358798" lon="3.33751198835671">
<ele>233</ele>
</trkpt>
<trkpt lat="39.740071026608348" lon="3.337460020557046">
<ele>233</ele>
</trkpt>
<trkpt lat="39.740040013566613" lon="3.33733999170363">
<ele>233</ele>
</trkpt>
<trkpt lat="39.740087036043406" lon="3.337365975603461">
<ele>233</ele>
</trkpt>
<trkpt lat="39.740115031599998" lon="3.337356001138687">
<ele>233</ele>
</trkpt>
<trkpt lat="39.740146966651082" lon="3.337347032502294">
<ele>234</ele>
</trkpt>
<trkpt lat="39.740294991061091" lon="3.337260028347373">
<ele>234</ele>
</trkpt>
<trkpt lat="39.740338996052742" lon="3.337236978113651">
<ele>234</ele>
</trkpt>
<trkpt lat="39.740513004362583" lon="3.337161038070917">
<ele>234</ele>
</trkpt>
<trkpt lat="39.740620041266084" lon="3.337084008380771">
<ele>234</ele>
</trkpt>
<trkpt lat="39.740663962438703" lon="3.337028017267585">
<ele>235</ele>
</trkpt>
<trkpt lat="39.740693969652057" lon="3.336914023384452">
<ele>235</ele>
</trkpt>
<trkpt lat="39.74071903154254" lon="3.336839005351067">
<ele>235</ele>
</trkpt>
<trkpt lat="39.740816010162234" lon="3.33669601008296">
<ele>236</ele>
</trkpt>
<trkpt lat="39.740885999053717" lon="3.336574975401163">
<ele>238</ele>
</trkpt>
<trkpt lat="39.740907959640026" lon="3.336397027596831">
<ele>239</ele>
</trkpt>
<trkpt lat="39.740947019308805" lon="3.336283033713698">
<ele>241</ele>
</trkpt>
<trkpt lat="39.740951964631677" lon="3.336214972659946">
<ele>242</ele>
</trkpt>
<trkpt lat="39.741050032898784" lon="3.336142972111702">
<ele>243</ele>
</trkpt>
<trkpt lat="39.741049027070403" lon="3.335916996002197">
<ele>245</ele>
</trkpt>
<trkpt lat="39.741019019857049" lon="3.335812976583839">
<ele>246</ele>
</trkpt>
<trkpt lat="39.74099999293685" lon="3.335626982152462">
<ele>248</ele>
</trkpt>
<trkpt lat="39.740944001823664" lon="3.335521034896374">
<ele>249</ele>
</trkpt>
<trkpt lat="39.740925980731845" lon="3.335411986336112">
<ele>251</ele>
</trkpt>
<trkpt lat="39.74089396186173" lon="3.335295980796218">
<ele>253</ele>
</trkpt>
<trkpt lat="39.740869989618659" lon="3.335177963599563">
<ele>255</ele>
</trkpt>
<trkpt lat="39.740994041785598" lon="3.335248036310077">
<ele>257</ele>
</trkpt>
<trkpt lat="39.741038968786597" lon="3.335220040753484">
<ele>259</ele>
</trkpt>
<trkpt lat="39.741062019020319" lon="3.335076039656997">
<ele>261</ele>
</trkpt>
<trkpt lat="39.741123961284757" lon="3.334951987490058">
<ele>263</ele>
</trkpt>
<trkpt lat="39.741221023723483" lon="3.334945030510426">
<ele>265</ele>
</trkpt>
<trkpt lat="39.741240972653031" lon="3.334794994443655">
<ele>267</ele>
</trkpt>
<trkpt lat="39.741299981251359" lon="3.334700027480722">
<ele>269</ele>
</trkpt>
<trkpt lat="39.741339040920138" lon="3.334606988355517">
<ele>271</ele>
</trkpt>
<trkpt lat="39.741462003439665" lon="3.334571029990912">
<ele>273</ele>
</trkpt>
<trkpt lat="39.741527969017625" lon="3.334467010572553">
<ele>276</ele>
</trkpt>
<trkpt lat="39.74155998788774" lon="3.334336001425982">
<ele>278</ele>
</trkpt>
<trkpt lat="39.741529980674386" lon="3.334162998944521">
<ele>280</ele>
</trkpt>
<trkpt lat="39.741584965959191" lon="3.334045987576246">
<ele>282</ele>
</trkpt>
<trkpt lat="39.741597035899758" lon="3.334018997848034">
<ele>284</ele>
</trkpt>
<trkpt lat="39.741661995649338" lon="3.333916990086436">
<ele>287</ele>
</trkpt>
<trkpt lat="39.741673981770873" lon="3.333863010630012">
<ele>289</ele>
</trkpt>
<trkpt lat="39.74173198454082" lon="3.333696965128183">
<ele>291</ele>
</trkpt>
<trkpt lat="39.741740031167865" lon="3.333640974014998">
<ele>293</ele>
</trkpt>
<trkpt lat="39.74177397787571" lon="3.333521028980613">
<ele>294</ele>
</trkpt>
<trkpt lat="39.741839021444321" lon="3.333290023729205">
<ele>296</ele>
</trkpt>
<trkpt lat="39.741825023666024" lon="3.333164965733886">
<ele>298</ele>
</trkpt>
<trkpt lat="39.74183801561594" lon="3.3331089746207">
<ele>300</ele>
</trkpt>
<trkpt lat="39.741846984252334" lon="3.333051977679133">
<ele>301</ele>
</trkpt>
<trkpt lat="39.741949997842312" lon="3.332928009331226">
<ele>303</ele>
</trkpt>
<trkpt lat="39.742035996168852" lon="3.332852991297841">
<ele>305</ele>
</trkpt>
<trkpt lat="39.741994002833962" lon="3.332744026556611">
<ele>306</ele>
</trkpt>
<trkpt lat="39.742015963420272" lon="3.332703961059451">
<ele>308</ele>
</trkpt>
<trkpt lat="39.742040019482374" lon="3.332591978833079">
<ele>309</ele>
</trkpt>
<trkpt lat="39.742110008373857" lon="3.332490976899862">
<ele>310</ele>
</trkpt>
<trkpt lat="39.741960978135467" lon="3.332375977188349">
<ele>312</ele>
</trkpt>
<trkpt lat="39.741932982578874" lon="3.332290984690189">
<ele>313</ele>
</trkpt>
<trkpt lat="39.741975981742144" lon="3.332186965271831">
<ele>314</ele>
</trkpt>
<trkpt lat="39.742012023925781" lon="3.332071965560317">
<ele>315</ele>
</trkpt>
<trkpt lat="39.742110008373857" lon="3.332041958346963">
<ele>316</ele>
</trkpt>
<trkpt lat="39.742016969248652" lon="3.331894017755985">
<ele>318</ele>
</trkpt>
<trkpt lat="39.742058040574193" lon="3.331772983074188">
<ele>319</ele>
</trkpt>
<trkpt lat="39.742021998390555" lon="3.331686984747648">
<ele>320</ele>
</trkpt>
<trkpt lat="39.741977993398905" lon="3.331578020006418">
<ele>321</ele>
</trkpt>
<trkpt lat="39.741977993398905" lon="3.331478023901582">
<ele>322</ele>
</trkpt>
<trkpt lat="39.741984028369188" lon="3.331372998654842">
<ele>323</ele>
</trkpt>
<trkpt lat="39.741968018934131" lon="3.331295968964696">
<ele>324</ele>
</trkpt>
<trkpt lat="39.741999031975865" lon="3.331179041415453">
<ele>324</ele>
</trkpt>
<trkpt lat="39.742021998390555" lon="3.331064963713288">
<ele>325</ele>
</trkpt>
<trkpt lat="39.742037001997232" lon="3.330962033942342">
<ele>326</ele>
</trkpt>
<trkpt lat="39.742028033360839" lon="3.330838987603784">
<ele>327</ele>
</trkpt>
<trkpt lat="39.742052005603909" lon="3.330732034519315">
<ele>328</ele>
</trkpt>
<trkpt lat="39.742103973403573" lon="3.330683000385761">
<ele>329</ele>
</trkpt>
<trkpt lat="39.742199024185538" lon="3.330632960423827">
<ele>330</ele>
</trkpt>
<trkpt lat="39.742258032783866" lon="3.330603037029505">
<ele>332</ele>
</trkpt>
<trkpt lat="39.742375966161489" lon="3.33050798624754">
<ele>333</ele>
</trkpt>
<trkpt lat="39.742480991408229" lon="3.330499017611146">
<ele>335</ele>
</trkpt>
<trkpt lat="39.742535976693034" lon="3.330447971820831">
<ele>336</ele>
</trkpt>
<trkpt lat="39.742727000266314" lon="3.330416958779097">
<ele>337</ele>
</trkpt>
<trkpt lat="39.742734963074327" lon="3.330413019284606">
<ele>339</ele>
</trkpt>
<trkpt lat="39.742806041613221" lon="3.330239010974765">
<ele>340</ele>
</trkpt>
<trkpt lat="39.74284996278584" lon="3.33018503151834">
<ele>342</ele>
</trkpt>
<trkpt lat="39.742931015789509" lon="3.330104984343052">
<ele>343</ele>
</trkpt>
<trkpt lat="39.742988012731075" lon="3.330017980188131">
<ele>344</ele>
</trkpt>
<trkpt lat="39.742945013567805" lon="3.329828968271613">
<ele>345</ele>
</trkpt>
<trkpt lat="39.743002010509372" lon="3.329764008522034">
<ele>346</ele>
</trkpt>
<trkpt lat="39.743149029091001" lon="3.32973500713706">
<ele>347</ele>
</trkpt>
<trkpt lat="39.743199991062284" lon="3.329687984660268">
<ele>348</ele>
</trkpt>
<trkpt lat="39.743145005777478" lon="3.329516993835568">
<ele>350</ele>
</trkpt>
<trkpt lat="39.743087003007531" lon="3.32945697940886">
<ele>351</ele>
</trkpt>
<trkpt lat="39.743159003555775" lon="3.329353965818882">
<ele>352</ele>
</trkpt>
<trkpt lat="39.743151962757111" lon="3.329334016889334">
<ele>353</ele>
</trkpt>
<trkpt lat="39.74314802326262" lon="3.329285988584161">
<ele>354</ele>
</trkpt>
<trkpt lat="39.743038974702358" lon="3.329102005809546">
<ele>355</ele>
</trkpt>
<trkpt lat="39.743018019944429" lon="3.329012989997864">
<ele>356</ele>
</trkpt>
<trkpt lat="39.742889022454619" lon="3.328944006934762">
<ele>357</ele>
</trkpt>
<trkpt lat="39.742777962237597" lon="3.328900001943111">
<ele>358</ele>
</trkpt>
<trkpt lat="39.742735968902707" lon="3.328819032758474">
<ele>358</ele>
</trkpt>
<trkpt lat="39.742680983617902" lon="3.328761029988527">
<ele>359</ele>
</trkpt>
<trkpt lat="39.742664974182844" lon="3.328603031113744">
<ele>360</ele>
</trkpt>
<trkpt lat="39.742692969739437" lon="3.328417036682367">
<ele>361</ele>
</trkpt>
<trkpt lat="39.742709985002875" lon="3.328322991728783">
<ele>362</ele>
</trkpt>
<trkpt lat="39.742828002199531" lon="3.328301031142473">
<ele>363</ele>
</trkpt>
<trkpt lat="39.742875024676323" lon="3.328259959816933">
<ele>364</ele>
</trkpt>
<trkpt lat="39.742917018011212" lon="3.32823297008872">
<ele>365</ele>
</trkpt>
<trkpt lat="39.743016008287668" lon="3.328243028372526">
<ele>366</ele>
</trkpt>
<trkpt lat="39.74301902577281" lon="3.328237999230623">
<ele>367</ele>
</trkpt>
<trkpt lat="39.742977032437921" lon="3.328082012012601">
<ele>368</ele>
</trkpt>
<trkpt lat="39.742974014952779" lon="3.328068014234304">
<ele>368</ele>
</trkpt>
<trkpt lat="39.742919029667974" lon="3.32790900953114">
<ele>369</ele>
</trkpt>
<trkpt lat="39.742894973605871" lon="3.327781017869711">
<ele>370</ele>
</trkpt>
<trkpt lat="39.742897991091013" lon="3.327766014263034">
<ele>371</ele>
</trkpt>
<trkpt lat="39.742889022454619" lon="3.327744975686073">
<ele>372</ele>
</trkpt>
<trkpt lat="39.742843005806208" lon="3.327623018994927">
<ele>374</ele>
</trkpt>
<trkpt lat="39.742843005806208" lon="3.327613966539502">
<ele>375</ele>
</trkpt>
<trkpt lat="39.742888016626239" lon="3.327419003471732">
<ele>376</ele>
</trkpt>
<trkpt lat="39.742967979982495" lon="3.327314984053373">
<ele>378</ele>
</trkpt>
<trkpt lat="39.743049032986164" lon="3.327216999605298">
<ele>380</ele>
</trkpt>
<trkpt lat="39.743177024647593" lon="3.327118009328842">
<ele>381</ele>
</trkpt>
<trkpt lat="39.743156991899014" lon="3.326995968818665">
<ele>382</ele>
</trkpt>
<trkpt lat="39.743163026869297" lon="3.326864037662745">
<ele>384</ele>
</trkpt>
<trkpt lat="39.743151040747762" lon="3.326837969943881">
<ele>386</ele>
</trkpt>
<trkpt lat="39.743147017434239" lon="3.326809974387288">
<ele>387</ele>
</trkpt>
<trkpt lat="39.743146011605859" lon="3.326615011319518">
<ele>388</ele>
</trkpt>
<trkpt lat="39.743146011605859" lon="3.326592966914177">
<ele>389</ele>
</trkpt>
<trkpt lat="39.743177024647593" lon="3.326436979696155">
<ele>390</ele>
</trkpt>
<trkpt lat="39.743177024647593" lon="3.326388029381633">
<ele>391</ele>
</trkpt>
<trkpt lat="39.743108963593841" lon="3.326284009963274">
<ele>392</ele>
</trkpt>
<trkpt lat="39.743108963593841" lon="3.326275041326881">
<ele>392</ele>
</trkpt>
<trkpt lat="39.743058001622558" lon="3.326084017753601">
<ele>393</ele>
</trkpt>
<trkpt lat="39.743063030764461" lon="3.325905986130238">
<ele>394</ele>
</trkpt>
<trkpt lat="39.743053978309035" lon="3.325712028890848">
<ele>395</ele>
</trkpt>
<trkpt lat="39.743035035207868" lon="3.325627036392689">
<ele>396</ele>
</trkpt>
<trkpt lat="39.743031011894345" lon="3.325526034459472">
<ele>395</ele>
</trkpt>
<trkpt lat="39.743010979145765" lon="3.325407011434436">
<ele>393</ele>
</trkpt>
<trkpt lat="39.743023971095681" lon="3.325239038094878">
<ele>392</ele>
</trkpt>
<trkpt lat="39.743010979145765" lon="3.325180029496551">
<ele>390</ele>
</trkpt>
<trkpt lat="39.742959011346102" lon="3.325091013684869">
<ele>389</ele>
</trkpt>
<trkpt lat="39.742932021617889" lon="3.324965033680201">
<ele>388</ele>
</trkpt>
<trkpt lat="39.742937972769141" lon="3.324935026466847">
<ele>386</ele>
</trkpt>
<trkpt lat="39.742945013567805" lon="3.324902001768351">
<ele>385</ele>
</trkpt>
<trkpt lat="39.742926741018891" lon="3.324995962902904">
<ele>386</ele>
</trkpt>
<trkpt lat="39.742910983040929" lon="3.324998980388045">
<ele>386</ele>
</trkpt>
<trkpt lat="39.742877958342433" lon="3.324982970952988">
<ele>387</ele>
</trkpt>
<trkpt lat="39.742822973057628" lon="3.324948018416762">
<ele>388</ele>
</trkpt>
<trkpt lat="39.74276103079319" lon="3.324919017031789">
<ele>388</ele>
</trkpt>
<trkpt lat="39.742678971961141" lon="3.324891021475196">
<ele>389</ele>
</trkpt>
<trkpt lat="39.742605965584517" lon="3.324919017031789">
<ele>390</ele>
</trkpt>
<trkpt lat="39.742547040805221" lon="3.324990011751652">
<ele>391</ele>
</trkpt>
<trkpt lat="39.742475962266326" lon="3.32505295984447">
<ele>391</ele>
</trkpt>
<trkpt lat="39.742364985868335" lon="3.325143987312913">
<ele>392</ele>
</trkpt>
<trkpt lat="39.742291979491711" lon="3.325195033103228">
<ele>391</ele>
</trkpt>
<trkpt lat="39.7421820089221" lon="3.325279019773006">
<ele>390</ele>
</trkpt>
<trkpt lat="39.742049993947148" lon="3.325214982032776">
<ele>389</ele>
</trkpt>
<trkpt lat="39.74198997952044" lon="3.325268039479852">
<ele>388</ele>
</trkpt>
<trkpt lat="39.741939017549157" lon="3.325297962874174">
<ele>386</ele>
</trkpt>
<trkpt lat="39.741847990080714" lon="3.325254041701555">
<ele>385</ele>
</trkpt>
<trkpt lat="39.741828963160515" lon="3.325248006731272">
<ele>384</ele>
</trkpt>
<trkpt lat="39.741669958457351" lon="3.325167037546635">
<ele>383</ele>
</trkpt>
<trkpt lat="39.741667024791241" lon="3.325156979262829">
<ele>382</ele>
</trkpt>
<trkpt lat="39.74155998788774" lon="3.325164020061493">
<ele>381</ele>
</trkpt>
<trkpt lat="39.741511037573218" lon="3.325168965384364">
<ele>380</ele>
</trkpt>
<trkpt lat="39.74143099039793" lon="3.325149016454816">
<ele>379</ele>
</trkpt>
<trkpt lat="39.741329988464713" lon="3.325080033391714">
<ele>378</ele>
</trkpt>
<trkpt lat="39.741243990138173" lon="3.325039967894554">
<ele>377</ele>
</trkpt>
<trkpt lat="39.741179030388594" lon="3.325003003701568">
<ele>376</ele>
</trkpt>
<trkpt lat="39.741121027618647" lon="3.324963022023439">
<ele>375</ele>
</trkpt>
<trkpt lat="39.7410630248487" lon="3.324884986504912">
<ele>374</ele>
</trkpt>
<trkpt lat="39.741002004593611" lon="3.324811980128288">
<ele>373</ele>
</trkpt>
<trkpt lat="39.740948025137186" lon="3.324790019541979">
<ele>372</ele>
</trkpt>
<trkpt lat="39.740820033475757" lon="3.324678037315607">
<ele>371</ele>
</trkpt>
<trkpt lat="39.740809975191951" lon="3.324669990688562">
<ele>370</ele>
</trkpt>
<trkpt lat="39.740716014057398" lon="3.32460000179708">
<ele>369</ele>
</trkpt>
<trkpt lat="39.740648958832026" lon="3.324506040662527">
<ele>367</ele>
</trkpt>
<trkpt lat="39.740509986877441" lon="3.324433034285903">
<ele>366</ele>
</trkpt>
<trkpt lat="39.74039800465107" lon="3.324447032064199">
<ele>365</ele>
</trkpt>
<trkpt lat="39.740388030186296" lon="3.324460024014115">
<ele>364</ele>
</trkpt>
<trkpt lat="39.74028903990984" lon="3.324372014030814">
<ele>363</ele>
</trkpt>
<trkpt lat="39.740177979692817" lon="3.324317028746009">
<ele>361</ele>
</trkpt>
<trkpt lat="39.740071948617697" lon="3.324399422854185">
<ele>360</ele>
</trkpt>
<trkpt lat="39.740132968872786" lon="3.324525989592075">
<ele>359</ele>
</trkpt>
<trkpt lat="39.740200024098158" lon="3.324650963768363">
<ele>359</ele>
</trkpt>
<trkpt lat="39.740274036303163" lon="3.32474903203547">
<ele>359</ele>
</trkpt>
<trkpt lat="39.740324998274446" lon="3.324855985119939">
<ele>358</ele>
</trkpt>
<trkpt lat="39.740331033244729" lon="3.324863025918603">
<ele>358</ele>
</trkpt>
<trkpt lat="39.740459024906158" lon="3.325077015906572">
<ele>358</ele>
</trkpt>
<trkpt lat="39.740514010190964" lon="3.325178017839789">
<ele>358</ele>
</trkpt>
<trkpt lat="39.740580981597304" lon="3.325290000066161">
<ele>358</ele>
</trkpt>
<trkpt lat="39.740595985203981" lon="3.325312966480851">
<ele>357</ele>
</trkpt>
<trkpt lat="39.740667985752225" lon="3.325431989505887">
<ele>357</ele>
</trkpt>
<trkpt lat="39.740714002400637" lon="3.32550298422575">
<ele>357</ele>
</trkpt>
<trkpt lat="39.740778962150216" lon="3.325601974502206">
<ele>357</ele>
</trkpt>
<trkpt lat="39.740858003497124" lon="3.325728038325906">
<ele>357</ele>
</trkpt>
<trkpt lat="39.740899996832013" lon="3.325815964490175">
<ele>357</ele>
</trkpt>
<trkpt lat="39.740975014865398" lon="3.325926018878818">
<ele>357</ele>
</trkpt>
<trkpt lat="39.740996975451708" lon="3.32595300860703">
<ele>358</ele>
</trkpt>
<trkpt lat="39.741084985435009" lon="3.326111007481813">
<ele>358</ele>
</trkpt>
<trkpt lat="39.741118010133505" lon="3.326212009415031">
<ele>358</ele>
</trkpt>
<trkpt lat="39.74115002900362" lon="3.326255008578301">
<ele>358</ele>
</trkpt>
<trkpt lat="39.741251030936837" lon="3.326391968876123">
<ele>358</ele>
</trkpt>
<trkpt lat="39.741262011229992" lon="3.326410995796323">
<ele>358</ele>
</trkpt>
<trkpt lat="39.741272991523147" lon="3.326438991352916">
<ele>357</ele>
</trkpt>
<trkpt lat="39.741404000669718" lon="3.32664099521935">
<ele>357</ele>
</trkpt>
<trkpt lat="39.741464015096426" lon="3.326778039336205">
<ele>356</ele>
</trkpt>
<trkpt lat="39.741510031744838" lon="3.326863031834364">
<ele>355</ele>
</trkpt>
<trkpt lat="39.741624025627971" lon="3.327041985467076">
<ele>354</ele>
</trkpt>
<trkpt lat="39.741626959294081" lon="3.327046008780599">
<ele>354</ele>
</trkpt>
<trkpt lat="39.741535009816289" lon="3.327124966308475">
<ele>353</ele>
</trkpt>
<trkpt lat="39.741500979289412" lon="3.327125972136855">
<ele>352</ele>
</trkpt>
<trkpt lat="39.741349015384912" lon="3.327149022370577">
<ele>352</ele>
</trkpt>
<trkpt lat="39.74127902649343" lon="3.327153967693448">
<ele>351</ele>
</trkpt>
<trkpt lat="39.741233009845018" lon="3.327225968241692">
<ele>350</ele>
</trkpt>
<trkpt lat="39.741240972653031" lon="3.327420009300113">
<ele>348</ele>
</trkpt>
<trkpt lat="39.741259999573231" lon="3.327569961547852">
<ele>347</ele>
</trkpt>
<trkpt lat="39.741277014836669" lon="3.32769300788641">
<ele>345</ele>
</trkpt>
<trkpt lat="39.74127802066505" lon="3.327713962644339">
<ele>344</ele>
</trkpt>
<trkpt lat="39.741282965987921" lon="3.327894005924463">
<ele>343</ele>
</trkpt>
<trkpt lat="39.741270979866385" lon="3.328027026727796">
<ele>341</ele>
</trkpt>
<trkpt lat="39.741206020116806" lon="3.328044964000583">
<ele>340</ele>
</trkpt>
<trkpt lat="39.741133013740182" lon="3.328009005635977">
<ele>338</ele>
</trkpt>
<trkpt lat="39.741054978221655" lon="3.327976986765862">
<ele>337</ele>
</trkpt>
<trkpt lat="39.740920029580593" lon="3.327900040894747">
<ele>336</ele>
</trkpt>
<trkpt lat="39.740778040140867" lon="3.327812030911446">
<ele>334</ele>
</trkpt>
<trkpt lat="39.740717019885778" lon="3.327791998162866">
<ele>333</ele>
</trkpt>
<trkpt lat="39.740618029609323" lon="3.327750004827976">
<ele>332</ele>
</trkpt>
<trkpt lat="39.740585004910827" lon="3.327817982062697">
<ele>330</ele>
</trkpt>
<trkpt lat="39.740604031831026" lon="3.327942034229636">
<ele>329</ele>
</trkpt>
<trkpt lat="39.740605959668756" lon="3.327999031171203">
<ele>328</ele>
</trkpt>
<trkpt lat="39.740622974932194" lon="3.328172033652663">
<ele>327</ele>
</trkpt>
<trkpt lat="39.740628004074097" lon="3.3282720297575">
<ele>325</ele>
</trkpt>
<trkpt lat="39.740631021559238" lon="3.328421982005239">
<ele>324</ele>
</trkpt>
<trkpt lat="39.740651976317167" lon="3.328605964779854">
<ele>322</ele>
</trkpt>
<trkpt lat="39.740646025165915" lon="3.328691963106394">
<ele>320</ele>
</trkpt>
<trkpt lat="39.740637978538871" lon="3.328769998624921">
<ele>318</ele>
</trkpt>
<trkpt lat="39.740540999919176" lon="3.328816015273333">
<ele>316</ele>
</trkpt>
<trkpt lat="39.74046397022903" lon="3.328855996951461">
<ele>314</ele>
</trkpt>
<trkpt lat="39.740349976345897" lon="3.328884998336434">
<ele>312</ele>
</trkpt>
<trkpt lat="39.740237994119525" lon="3.328904025256634">
<ele>310</ele>
</trkpt>
<trkpt lat="39.740110002458096" lon="3.328949036076665">
<ele>308</ele>
</trkpt>
<trkpt lat="39.739993996918201" lon="3.328978959470987">
<ele>306</ele>
</trkpt>
<trkpt lat="39.73988302052021" lon="3.329039979726076">
<ele>304</ele>
</trkpt>
<trkpt lat="39.739833986386657" lon="3.329192027449608">
<ele>303</ele>
</trkpt>
<trkpt lat="39.739812025800347" lon="3.32932798191905">
<ele>301</ele>
</trkpt>
<trkpt lat="39.739779001101851" lon="3.329451028257608">
<ele>300</ele>
</trkpt>
<trkpt lat="39.739768020808697" lon="3.329545995220542">
<ele>299</ele>
</trkpt>
<trkpt lat="39.739765003323555" lon="3.32967096939683">
<ele>298</ele>
</trkpt>
<trkpt lat="39.739815965294838" lon="3.329832991585136">
<ele>296</ele>
</trkpt>
<trkpt lat="39.739802973344922" lon="3.329932987689972">
<ele>295</ele>
</trkpt>
<trkpt lat="39.739746982231736" lon="3.329892000183463">
<ele>294</ele>
</trkpt>
<trkpt lat="39.73973399028182" lon="3.330028960481286">
<ele>292</ele>
</trkpt>
<trkpt lat="39.739771960303187" lon="3.330217972397804">
<ele>291</ele>
</trkpt>
<trkpt lat="39.73977698944509" lon="3.330232976004481">
<ele>290</ele>
</trkpt>
<trkpt lat="39.739814037457108" lon="3.330365996807814">
<ele>288</ele>
</trkpt>
<trkpt lat="39.739854019135237" lon="3.330479990690947">
<ele>287</ele>
</trkpt>
<trkpt lat="39.739911016076803" lon="3.330608988180757">
<ele>286</ele>
</trkpt>
<trkpt lat="39.73992601968348" lon="3.330759024247527">
<ele>284</ele>
</trkpt>
<trkpt lat="39.739932976663113" lon="3.330899002030492">
<ele>283</ele>
</trkpt>
<trkpt lat="39.739892994984984" lon="3.331102011725307">
<ele>282</ele>
</trkpt>
<trkpt lat="39.739853013306856" lon="3.331222040578723">
<ele>281</ele>
</trkpt>
<trkpt lat="39.739828035235405" lon="3.331336034461856">
<ele>279</ele>
</trkpt>
<trkpt lat="39.739788975566626" lon="3.331439970061183">
<ele>278</ele>
</trkpt>
<trkpt lat="39.739744970574975" lon="3.33158397115767">
<ele>276</ele>
</trkpt>
<trkpt lat="39.739697026088834" lon="3.331651026383042">
<ele>274</ele>
</trkpt>
<trkpt lat="39.739615973085165" lon="3.331758985295892">
<ele>272</ele>
</trkpt>
<trkpt lat="39.739543972536922" lon="3.331830985844135">
<ele>270</ele>
</trkpt>
<trkpt lat="39.739489993080497" lon="3.331908015534282">
<ele>268</ele>
</trkpt>
<trkpt lat="39.739436013624072" lon="3.331995019689202">
<ele>265</ele>
</trkpt>
<trkpt lat="39.73936703056097" lon="3.332102978602052">
<ele>263</ele>
</trkpt>
<trkpt lat="39.739267034456134" lon="3.332087974995375">
<ele>261</ele>
</trkpt>
<trkpt lat="39.739157985895872" lon="3.331978004425764">
<ele>259</ele>
</trkpt>
<trkpt lat="39.739129990339279" lon="3.331953026354313">
<ele>257</ele>
</trkpt>
<trkpt lat="39.739019013941288" lon="3.332035001367331">
<ele>256</ele>
</trkpt>
<trkpt lat="39.738988000899553" lon="3.332129968330264">
<ele>254</ele>
</trkpt>
<trkpt lat="39.73900199867785" lon="3.332309005782008">
<ele>253</ele>
</trkpt>
<trkpt lat="39.739011973142624" lon="3.332356028258801">
<ele>251</ele>
</trkpt>
<trkpt lat="39.739035023376346" lon="3.33244102075696">
<ele>250</ele>
</trkpt>
<trkpt lat="39.739052960649133" lon="3.332602959126234">
<ele>249</ele>
</trkpt>
<trkpt lat="39.73906796425581" lon="3.332757018506527">
<ele>247</ele>
</trkpt>
<trkpt lat="39.739083973690867" lon="3.332834970206022">
<ele>246</ele>
</trkpt>
<trkpt lat="39.738985989242792" lon="3.332904037088156">
<ele>244</ele>
</trkpt>
<trkpt lat="39.738913988694549" lon="3.332972014322877">
<ele>243</ele>
</trkpt>
<trkpt lat="39.738813992589712" lon="3.333011996001005">
<ele>242</ele>
</trkpt>
<trkpt lat="39.738669991493225" lon="3.33312900736928">
<ele>240</ele>
</trkpt>
<trkpt lat="39.738533031195402" lon="3.333221962675452">
<ele>239</ele>
</trkpt>
<trkpt lat="39.738491959869862" lon="3.33325901068747">
<ele>237</ele>
</trkpt>
<trkpt lat="39.738381989300251" lon="3.333332017064095">
<ele>236</ele>
</trkpt>
<trkpt lat="39.738230025395751" lon="3.333470989018679">
<ele>235</ele>
</trkpt>
<trkpt lat="39.738176967948675" lon="3.33349596709013">
<ele>233</ele>
</trkpt>
<trkpt lat="39.738074038177729" lon="3.333549024537206">
<ele>232</ele>
</trkpt>
<trkpt lat="39.737963983789086" lon="3.333627982065082">
<ele>230</ele>
</trkpt>
<trkpt lat="39.737862981855869" lon="3.333690008148551">
<ele>229</ele>
</trkpt>
<trkpt lat="39.737810008227825" lon="3.33375496789813">
<ele>228</ele>
</trkpt>
<trkpt lat="39.737694002687931" lon="3.333820011466742">
<ele>228</ele>
</trkpt>
<trkpt lat="39.737588977441192" lon="3.333900980651379">
<ele>227</ele>
</trkpt>
<trkpt lat="39.737560981884599" lon="3.333928976207972">
<ele>227</ele>
</trkpt>
<trkpt lat="39.737394014373422" lon="3.33403198979795">
<ele>226</ele>
</trkpt>
<trkpt lat="39.737298963591456" lon="3.334094015881419">
<ele>225</ele>
</trkpt>
<trkpt lat="39.737197961658239" lon="3.334158975630999">
<ele>225</ele>
</trkpt>
<trkpt lat="39.737098971381783" lon="3.334242962300777">
<ele>224</ele>
</trkpt>
<trkpt lat="39.73698397167027" lon="3.334324015304446">
<ele>224</ele>
</trkpt>
<trkpt lat="39.736914988607168" lon="3.334388975054026">
<ele>223</ele>
</trkpt>
<trkpt lat="39.736831001937389" lon="3.334451001137495">
<ele>222</ele>
</trkpt>
<trkpt lat="39.736763024702668" lon="3.334491988644004">
<ele>222</ele>
</trkpt>
<trkpt lat="39.736674008890986" lon="3.334556026384234">
<ele>222</ele>
</trkpt>
<trkpt lat="39.736657999455929" lon="3.334579998627305">
<ele>221</ele>
</trkpt>
<trkpt lat="39.736535036936402" lon="3.334688963368535">
<ele>220</ele>
</trkpt>
<trkpt lat="39.736515004187822" lon="3.334723999723792">
<ele>220</ele>
</trkpt>
</trkseg>
</trk>
</gpx>
