<?xml version="1.0" encoding="UTF-8"?>
<gpx version="1.1"
creator="Smartprofil-Office - http://www.rother.de"
xmlns:xsi="http://www.w3.org/2001/XMLSchema-instance"
xmlns="http://www.topografix.com/GPX/1/1"
xsi:schemaLocation="http://www.topografix.com/GPX/1/1 http://www.topografix.com/GPX/1/1/gpx.xsd">
<metadata>

<bounds minlat="39.790851194411516" minlon="2.725083455443382" maxlat="39.840763667598367" maxlon="2.776407105848193"/>
</metadata>
<wpt lat="39.790851194411516" lon="2.725083455443382">
<ele>400</ele>
<name>32_Mirador de ses Barques (1)</name>
<cmt></cmt>
<desc></desc>
<sym>Crossing</sym>
</wpt>

<wpt lat="39.803165551275015" lon="2.728090211749077">
<ele>400</ele>
<name>32_Bàlitx d'Amunt (2)</name>
<cmt></cmt>
<desc></desc>
<sym>Crossing</sym>
</wpt>

<wpt lat="39.814212815836072" lon="2.741272011771798">
<ele>155</ele>
<name>32_Bàlitx d’Avall (3)</name>
<cmt></cmt>
<desc></desc>
<sym>Crossing</sym>
</wpt>

<wpt lat="39.821749990805984" lon="2.744575990363956">
<ele>365</ele>
<name>32_Coll de Biniamar (4)</name>
<cmt></cmt>
<desc></desc>
<sym>Crossing</sym>
</wpt>

<wpt lat="39.838089002296329" lon="2.770183039829135">
<ele>140</ele>
<name>32_Coll de na Polla (5)</name>
<cmt></cmt>
<desc></desc>
<sym>Crossing</sym>
</wpt>

<wpt lat="39.840763667598367" lon="2.776403836905956">
<ele>1</ele>
<name>32_Cala Tuent (6)</name>
<cmt></cmt>
<desc></desc>
<sym>Crossing</sym>
</wpt>

<trk>
<name>Mal_32_Cala_Tuent</name>
<trkseg>
<trkpt lat="39.790851194411516" lon="2.725083455443382">
<ele>400</ele>
</trkpt>
<trkpt lat="39.790874579921365" lon="2.725092256441712">
<ele>402</ele>
</trkpt>
<trkpt lat="39.790941048413515" lon="2.7251360937953">
<ele>405</ele>
</trkpt>
<trkpt lat="39.791054204106331" lon="2.725195353850722">
<ele>408</ele>
</trkpt>
<trkpt lat="39.791131485253572" lon="2.725243549793959">
<ele>410</ele>
</trkpt>
<trkpt lat="39.791192589327693" lon="2.725307168439031">
<ele>412</ele>
</trkpt>
<trkpt lat="39.79127699509263" lon="2.725467262789607">
<ele>415</ele>
</trkpt>
<trkpt lat="39.791241036728024" lon="2.725675636902452">
<ele>418</ele>
</trkpt>
<trkpt lat="39.791223099455237" lon="2.725730454549193">
<ele>420</ele>
</trkpt>
<trkpt lat="39.791377577930689" lon="2.725875210016966">
<ele>422</ele>
</trkpt>
<trkpt lat="39.791433988139033" lon="2.725990964099765">
<ele>425</ele>
</trkpt>
<trkpt lat="39.791475981473923" lon="2.726099006831646">
<ele>426</ele>
</trkpt>
<trkpt lat="39.791485536843538" lon="2.726175785064697">
<ele>428</ele>
</trkpt>
<trkpt lat="39.791591484099627" lon="2.726386338472366">
<ele>429</ele>
</trkpt>
<trkpt lat="39.791710004210472" lon="2.726554982364178">
<ele>430</ele>
</trkpt>
<trkpt lat="39.791779993101954" lon="2.726654978469014">
<ele>432</ele>
</trkpt>
<trkpt lat="39.79181301780045" lon="2.726692026481032">
<ele>433</ele>
</trkpt>
<trkpt lat="39.791930029168725" lon="2.726825969293714">
<ele>434</ele>
</trkpt>
<trkpt lat="39.792005969211459" lon="2.726909033954144">
<ele>435</ele>
</trkpt>
<trkpt lat="39.792089033871889" lon="2.726982040330768">
<ele>437</ele>
</trkpt>
<trkpt lat="39.792160028591752" lon="2.727059992030263">
<ele>438</ele>
</trkpt>
<trkpt lat="39.792267484590411" lon="2.727147163823247">
<ele>438</ele>
</trkpt>
<trkpt lat="39.792375275865197" lon="2.727223942056298">
<ele>438</ele>
</trkpt>
<trkpt lat="39.792459765449166" lon="2.72728756070137">
<ele>437</ele>
</trkpt>
<trkpt lat="39.792461525648832" lon="2.72728756070137">
<ele>437</ele>
</trkpt>
<trkpt lat="39.792628660798073" lon="2.7272963616997">
<ele>437</ele>
</trkpt>
<trkpt lat="39.792682556435466" lon="2.727263420820236">
<ele>437</ele>
</trkpt>
<trkpt lat="39.792784983292222" lon="2.727294098585844">
<ele>437</ele>
</trkpt>
<trkpt lat="39.792883722111583" lon="2.727338019758463">
<ele>436</ele>
</trkpt>
<trkpt lat="39.792987825348973" lon="2.727364422753453">
<ele>436</ele>
</trkpt>
<trkpt lat="39.793115397915244" lon="2.727351263165474">
<ele>436</ele>
</trkpt>
<trkpt lat="39.793226793408394" lon="2.727307425811887">
<ele>436</ele>
</trkpt>
<trkpt lat="39.793224949389696" lon="2.727307425811887">
<ele>435</ele>
</trkpt>
<trkpt lat="39.793341793119907" lon="2.727243807166815">
<ele>435</ele>
</trkpt>
<trkpt lat="39.793454948812723" lon="2.727180188521743">
<ele>435</ele>
</trkpt>
<trkpt lat="39.793456709012389" lon="2.727182367816567">
<ele>434</ele>
</trkpt>
<trkpt lat="39.7935735527426" lon="2.727118749171495">
<ele>434</ele>
</trkpt>
<trkpt lat="39.793693916872144" lon="2.72704859264195">
<ele>434</ele>
</trkpt>
<trkpt lat="39.793789135292172" lon="2.726987153291702">
<ele>434</ele>
</trkpt>
<trkpt lat="39.793893322348595" lon="2.726897215470672">
<ele>433</ele>
</trkpt>
<trkpt lat="39.79400647804141" lon="2.726840218529105">
<ele>433</ele>
</trkpt>
<trkpt lat="39.79400647804141" lon="2.726838039234281">
<ele>432</ele>
</trkpt>
<trkpt lat="39.794105300679803" lon="2.726761261001229">
<ele>431</ele>
</trkpt>
<trkpt lat="39.794243015348911" lon="2.72665137425065">
<ele>430</ele>
</trkpt>
<trkpt lat="39.794401098042727" lon="2.726568058133125">
<ele>429</ele>
</trkpt>
<trkpt lat="39.794508889317513" lon="2.726568058133125">
<ele>428</ele>
</trkpt>
<trkpt lat="39.794538980349898" lon="2.726573003455997">
<ele>428</ele>
</trkpt>
<trkpt lat="39.794642999768257" lon="2.726608961820602">
<ele>427</ele>
</trkpt>
<trkpt lat="39.794656997546554" lon="2.726619020104408">
<ele>426</ele>
</trkpt>
<trkpt lat="39.794822037220001" lon="2.726674005389214">
<ele>425</ele>
</trkpt>
<trkpt lat="39.794915998354554" lon="2.726705018430948">
<ele>424</ele>
</trkpt>
<trkpt lat="39.794933013617992" lon="2.726723961532116">
<ele>423</ele>
</trkpt>
<trkpt lat="39.795113978907466" lon="2.726867962628603">
<ele>423</ele>
</trkpt>
<trkpt lat="39.795176004990935" lon="2.726937029510737">
<ele>422</ele>
</trkpt>
<trkpt lat="39.795206012204289" lon="2.726970976218581">
<ele>422</ele>
</trkpt>
<trkpt lat="39.795398041605949" lon="2.726964019238949">
<ele>421</ele>
</trkpt>
<trkpt lat="39.795527039095759" lon="2.726921020075679">
<ele>420</ele>
</trkpt>
<trkpt lat="39.795682020485401" lon="2.726865028962493">
<ele>420</ele>
</trkpt>
<trkpt lat="39.795799031853676" lon="2.726842984557152">
<ele>419</ele>
</trkpt>
<trkpt lat="39.795920988544822" lon="2.726824963465333">
<ele>419</ele>
</trkpt>
<trkpt lat="39.796026013791561" lon="2.726801997050643">
<ele>418</ele>
</trkpt>
<trkpt lat="39.796037999913096" lon="2.726798979565501">
<ele>418</ele>
</trkpt>
<trkpt lat="39.796158028766513" lon="2.72679596208036">
<ele>418</ele>
</trkpt>
<trkpt lat="39.796222988516092" lon="2.726787999272347">
<ele>418</ele>
</trkpt>
<trkpt lat="39.796336982399225" lon="2.726761009544134">
<ele>418</ele>
</trkpt>
<trkpt lat="39.796371012926102" lon="2.726752040907741">
<ele>418</ele>
</trkpt>
<trkpt lat="39.796514008194208" lon="2.726735025644302">
<ele>418</ele>
</trkpt>
<trkpt lat="39.796596989035606" lon="2.726705018430948">
<ele>418</ele>
</trkpt>
<trkpt lat="39.79677502065897" lon="2.72664500400424">
<ele>418</ele>
</trkpt>
<trkpt lat="39.796949028968811" lon="2.726621031761169">
<ele>418</ele>
</trkpt>
<trkpt lat="39.797068974003196" lon="2.726608039811254">
<ele>418</ele>
</trkpt>
<trkpt lat="39.797242982313037" lon="2.726589012891054">
<ele>417</ele>
</trkpt>
<trkpt lat="39.797330992296338" lon="2.726604016497731">
<ele>417</ele>
</trkpt>
<trkpt lat="39.797478010877967" lon="2.726632012054324">
<ele>416</ele>
</trkpt>
<trkpt lat="39.79750701226294" lon="2.726637963205576">
<ele>415</ele>
</trkpt>
<trkpt lat="39.797710021957755" lon="2.726705018430948">
<ele>414</ele>
</trkpt>
<trkpt lat="39.797842958942056" lon="2.726752040907741">
<ele>414</ele>
</trkpt>
<trkpt lat="39.797996012493968" lon="2.726809037849307">
<ele>413</ele>
</trkpt>
<trkpt lat="39.798160968348384" lon="2.726878020912409">
<ele>412</ele>
</trkpt>
<trkpt lat="39.798185024410486" lon="2.726895036175847">
<ele>412</ele>
</trkpt>
<trkpt lat="39.798318967223167" lon="2.726933006197214">
<ele>411</ele>
</trkpt>
<trkpt lat="39.798445031046867" lon="2.726972987875342">
<ele>411</ele>
</trkpt>
<trkpt lat="39.798532035201788" lon="2.726971982046962">
<ele>410</ele>
</trkpt>
<trkpt lat="39.798670001327991" lon="2.72700903005898">
<ele>410</ele>
</trkpt>
<trkpt lat="39.798715012148023" lon="2.727022022008896">
<ele>410</ele>
</trkpt>
<trkpt lat="39.798879968002439" lon="2.727088993415237">
<ele>410</ele>
</trkpt>
<trkpt lat="39.798993039876223" lon="2.727137021720409">
<ele>409</ele>
</trkpt>
<trkpt lat="39.799040984362364" lon="2.72716099396348">
<ele>409</ele>
</trkpt>
<trkpt lat="39.799234019592404" lon="2.727251015603542">
<ele>409</ele>
</trkpt>
<trkpt lat="39.799366034567356" lon="2.72733299061656">
<ele>408</ele>
</trkpt>
<trkpt lat="39.799521015956998" lon="2.727428041398525">
<ele>408</ele>
</trkpt>
<trkpt lat="39.7995899990201" lon="2.727458970621228">
<ele>408</ele>
</trkpt>
<trkpt lat="39.799684965983033" lon="2.727496018633246">
<ele>407</ele>
</trkpt>
<trkpt lat="39.799809018149972" lon="2.727546980604529">
<ele>407</ele>
</trkpt>
<trkpt lat="39.799865009263158" lon="2.727572964504361">
<ele>407</ele>
</trkpt>
<trkpt lat="39.799975985661149" lon="2.727642031386495">
<ele>406</ele>
</trkpt>
<trkpt lat="39.800098026171327" lon="2.727730041369796">
<ele>406</ele>
</trkpt>
<trkpt lat="39.800245966762304" lon="2.727787038311362">
<ele>406</ele>
</trkpt>
<trkpt lat="39.800287038087845" lon="2.727814028039575">
<ele>406</ele>
</trkpt>
<trkpt lat="39.800431039184332" lon="2.727882005274296">
<ele>405</ele>
</trkpt>
<trkpt lat="39.800589960068464" lon="2.727929027751088">
<ele>405</ele>
</trkpt>
<trkpt lat="39.800610998645425" lon="2.727941013872623">
<ele>405</ele>
</trkpt>
<trkpt lat="39.800719041377306" lon="2.728029023855925">
<ele>404</ele>
</trkpt>
<trkpt lat="39.800850972533226" lon="2.728104963898659">
<ele>404</ele>
</trkpt>
<trkpt lat="39.801006037741899" lon="2.728175036609173">
<ele>404</ele>
</trkpt>
<trkpt lat="39.801127994433045" lon="2.728246031329036">
<ele>404</ele>
</trkpt>
<trkpt lat="39.80126797221601" lon="2.728350972756743">
<ele>403</ele>
</trkpt>
<trkpt lat="39.80128800496459" lon="2.728362958878279">
<ele>403</ele>
</trkpt>
<trkpt lat="39.801388001069427" lon="2.728455998003483">
<ele>403</ele>
</trkpt>
<trkpt lat="39.801489003002644" lon="2.728586001321673">
<ele>402</ele>
</trkpt>
<trkpt lat="39.801600985229015" lon="2.728703012689948">
<ele>402</ele>
</trkpt>
<trkpt lat="39.801716990768909" lon="2.728714998811483">
<ele>402</ele>
</trkpt>
<trkpt lat="39.801745992153883" lon="2.728705024346709">
<ele>401</ele>
</trkpt>
<trkpt lat="39.801800977438688" lon="2.728679962456226">
<ele>401</ele>
</trkpt>
<trkpt lat="39.801914971321821" lon="2.72862296551466">
<ele>401</ele>
</trkpt>
<trkpt lat="39.801935004070401" lon="2.728613996878266">
<ele>400</ele>
</trkpt>
<trkpt lat="39.802046986296773" lon="2.728547025471926">
<ele>400</ele>
</trkpt>
<trkpt lat="39.802159974351525" lon="2.728497991338372">
<ele>400</ele>
</trkpt>
<trkpt lat="39.802195010706782" lon="2.728483993560076">
<ele>400</ele>
</trkpt>
<trkpt lat="39.802473038434982" lon="2.728408975526691">
<ele>399</ele>
</trkpt>
<trkpt lat="39.802591977640986" lon="2.728381985798478">
<ele>399</ele>
</trkpt>
<trkpt lat="39.802640005946159" lon="2.728377962484956">
<ele>399</ele>
</trkpt>
<trkpt lat="39.802755005657673" lon="2.728366982191801">
<ele>399</ele>
</trkpt>
<trkpt lat="39.802877968177199" lon="2.728314008563757">
<ele>399</ele>
</trkpt>
<trkpt lat="39.802972013130784" lon="2.728262962773442">
<ele>400</ele>
</trkpt>
<trkpt lat="39.803021969273686" lon="2.728228010237217">
<ele>400</ele>
</trkpt>
<trkpt lat="39.803104028105736" lon="2.728152992203832">
<ele>400</ele>
</trkpt>
<trkpt lat="39.803165551275015" lon="2.728090211749077">
<ele>400</ele>
</trkpt>
<trkpt lat="39.803334027528763" lon="2.728112004697323">
<ele>399</ele>
</trkpt>
<trkpt lat="39.803363112732768" lon="2.728163218125701">
<ele>398</ele>
</trkpt>
<trkpt lat="39.803309217095375" lon="2.728475779294968">
<ele>398</ele>
</trkpt>
<trkpt lat="39.803290357813239" lon="2.728712651878595">
<ele>397</ele>
</trkpt>
<trkpt lat="39.803260685876012" lon="2.728985734283924">
<ele>396</ele>
</trkpt>
<trkpt lat="39.803244508802891" lon="2.729173237457871">
<ele>395</ele>
</trkpt>
<trkpt lat="39.803268732503057" lon="2.729344312101603">
<ele>394</ele>
</trkpt>
<trkpt lat="39.803303768858314" lon="2.729525277391076">
<ele>394</ele>
</trkpt>
<trkpt lat="39.803352300077677" lon="2.729686461389065">
<ele>393</ele>
</trkpt>
<trkpt lat="39.803414326161146" lon="2.729762149974704">
<ele>392</ele>
</trkpt>
<trkpt lat="39.803597554564476" lon="2.729795007035136">
<ele>391</ele>
</trkpt>
<trkpt lat="39.80376192368567" lon="2.729804897680879">
<ele>390</ele>
</trkpt>
<trkpt lat="39.803896704688668" lon="2.72984110750258">
<ele>389</ele>
</trkpt>
<trkpt lat="39.804004495963454" lon="2.729900283738971">
<ele>388</ele>
</trkpt>
<trkpt lat="39.804044896736741" lon="2.729949653148651">
<ele>388</ele>
</trkpt>
<trkpt lat="39.804128464311361" lon="2.730064820498228">
<ele>387</ele>
</trkpt>
<trkpt lat="39.804190406575799" lon="2.730216113850474">
<ele>386</ele>
</trkpt>
<trkpt lat="39.804233573377132" lon="2.730278642848134">
<ele>385</ele>
</trkpt>
<trkpt lat="39.804295431822538" lon="2.73042700253427">
<ele>384</ele>
</trkpt>
<trkpt lat="39.804387129843235" lon="2.730551976710558">
<ele>383</ele>
</trkpt>
<trkpt lat="39.804459884762764" lon="2.730677034705877">
<ele>384</ele>
</trkpt>
<trkpt lat="39.804532639682293" lon="2.730779042467475">
<ele>384</ele>
</trkpt>
<trkpt lat="39.804635066539049" lon="2.73087115958333">
<ele>384</ele>
</trkpt>
<trkpt lat="39.804713185876608" lon="2.731022452935576">
<ele>385</ele>
</trkpt>
<trkpt lat="39.804732045158744" lon="2.731111301109195">
<ele>386</ele>
</trkpt>
<trkpt lat="39.804764399304986" lon="2.731209956109524">
<ele>386</ele>
</trkpt>
<trkpt lat="39.80474554002285" lon="2.73140081204474">
<ele>386</ele>
</trkpt>
<trkpt lat="39.804737409576774" lon="2.731565264984965">
<ele>387</ele>
</trkpt>
<trkpt lat="39.804748222231865" lon="2.731736339628696">
<ele>388</ele>
</trkpt>
<trkpt lat="39.80475626885891" lon="2.731963405385613">
<ele>388</ele>
</trkpt>
<trkpt lat="39.804783258587122" lon="2.732173958793283">
<ele>388</ele>
</trkpt>
<trkpt lat="39.804759034886956" lon="2.732504038140178">
<ele>388</ele>
</trkpt>
<trkpt lat="39.804783007130027" lon="2.732606967911124">
<ele>387</ele>
</trkpt>
<trkpt lat="39.804829023778439" lon="2.732692966237664">
<ele>387</ele>
</trkpt>
<trkpt lat="39.804889038205147" lon="2.732812995091081">
<ele>387</ele>
</trkpt>
<trkpt lat="39.804901024326682" lon="2.732840990647674">
<ele>387</ele>
</trkpt>
<trkpt lat="39.805034967139363" lon="2.732953978702426">
<ele>387</ele>
</trkpt>
<trkpt lat="39.805050976574421" lon="2.732968982309103">
<ele>386</ele>
</trkpt>
<trkpt lat="39.805094981566072" lon="2.73304601199925">
<ele>386</ele>
</trkpt>
<trkpt lat="39.805179974064231" lon="2.733208034187555">
<ele>386</ele>
</trkpt>
<trkpt lat="39.805290028452873" lon="2.733365027233958">
<ele>386</ele>
</trkpt>
<trkpt lat="39.805324980989099" lon="2.733397968113422">
<ele>386</ele>
</trkpt>
<trkpt lat="39.80539103038609" lon="2.733522020280361">
<ele>385</ele>
</trkpt>
<trkpt lat="39.805440986528993" lon="2.733653029426932">
<ele>385</ele>
</trkpt>
<trkpt lat="39.805475017055869" lon="2.733766017481685">
<ele>385</ele>
</trkpt>
<trkpt lat="39.805501000955701" lon="2.733836006373167">
<ele>385</ele>
</trkpt>
<trkpt lat="39.805565038695931" lon="2.733989981934428">
<ele>385</ele>
</trkpt>
<trkpt lat="39.805638967081904" lon="2.734086960554123">
<ele>384</ele>
</trkpt>
<trkpt lat="39.805660005658865" lon="2.734098024666309">
<ele>384</ele>
</trkpt>
<trkpt lat="39.805732006207108" lon="2.734222998842597">
<ele>384</ele>
</trkpt>
<trkpt lat="39.805771987885237" lon="2.734289970248938">
<ele>383</ele>
</trkpt>
<trkpt lat="39.805841976776719" lon="2.734478982165456">
<ele>383</ele>
</trkpt>
<trkpt lat="39.805852035060525" lon="2.734523992985487">
<ele>382</ele>
</trkpt>
<trkpt lat="39.805915988981724" lon="2.734649972990155">
<ele>382</ele>
</trkpt>
<trkpt lat="39.805925041437149" lon="2.734667994081974">
<ele>381</ele>
</trkpt>
<trkpt lat="39.806016907095909" lon="2.734836721792817">
<ele>380</ele>
</trkpt>
<trkpt lat="39.806103073060513" lon="2.734978124499321">
<ele>380</ele>
</trkpt>
<trkpt lat="39.806162416934967" lon="2.735086753964424">
<ele>379</ele>
</trkpt>
<trkpt lat="39.806154286488891" lon="2.735277526080608">
<ele>379</ele>
</trkpt>
<trkpt lat="39.806186640635133" lon="2.735349945724011">
<ele>378</ele>
</trkpt>
<trkpt lat="39.806289067491889" lon="2.735297307372093">
<ele>377</ele>
</trkpt>
<trkpt lat="39.806364504620433" lon="2.735057082027197">
<ele>375</ele>
</trkpt>
<trkpt lat="39.80639417655766" lon="2.734823562204838">
<ele>374</ele>
</trkpt>
<trkpt lat="39.806445389986038" lon="2.734530698508024">
<ele>373</ele>
</trkpt>
<trkpt lat="39.806499285623431" lon="2.734333304688335">
<ele>372</ele>
</trkpt>
<trkpt lat="39.806553181260824" lon="2.734126020222902">
<ele>370</ele>
</trkpt>
<trkpt lat="39.806510014459491" lon="2.733954945579171">
<ele>369</ele>
</trkpt>
<trkpt lat="39.806569023057818" lon="2.733903983607888">
<ele>368</ele>
</trkpt>
<trkpt lat="39.806611016392708" lon="2.733971038833261">
<ele>366</ele>
</trkpt>
<trkpt lat="39.806628031656146" lon="2.733991993591189">
<ele>365</ele>
</trkpt>
<trkpt lat="39.806607998907566" lon="2.734146974980831">
<ele>365</ele>
</trkpt>
<trkpt lat="39.806601963937283" lon="2.734388960525394">
<ele>364</ele>
</trkpt>
<trkpt lat="39.806626019999385" lon="2.734513012692332">
<ele>364</ele>
</trkpt>
<trkpt lat="39.80663800612092" lon="2.73457202129066">
<ele>363</ele>
</trkpt>
<trkpt lat="39.806710006669164" lon="2.734765978530049">
<ele>363</ele>
</trkpt>
<trkpt lat="39.806716041639447" lon="2.734776036813855">
<ele>363</ele>
</trkpt>
<trkpt lat="39.806788293644786" lon="2.734927330166102">
<ele>362</ele>
</trkpt>
<trkpt lat="39.806826012209058" lon="2.73508851416409">
<ele>362</ele>
</trkpt>
<trkpt lat="39.806826012209058" lon="2.735091866925359">
<ele>361</ele>
</trkpt>
<trkpt lat="39.80680170468986" lon="2.735322117805481">
<ele>361</ele>
</trkpt>
<trkpt lat="39.80671277269721" lon="2.73548330180347">
<ele>360</ele>
</trkpt>
<trkpt lat="39.806693913415074" lon="2.735591931268573">
<ele>359</ele>
</trkpt>
<trkpt lat="39.806734398007393" lon="2.735809022560716">
<ele>359</ele>
</trkpt>
<trkpt lat="39.806737080216408" lon="2.735809022560716">
<ele>358</ele>
</trkpt>
<trkpt lat="39.806699361652136" lon="2.735989987850189">
<ele>357</ele>
</trkpt>
<trkpt lat="39.806699361652136" lon="2.735993256792426">
<ele>356</ele>
</trkpt>
<trkpt lat="39.806672371923923" lon="2.736154524609447">
<ele>355</ele>
</trkpt>
<trkpt lat="39.806747809052467" lon="2.73622359149158">
<ele>355</ele>
</trkpt>
<trkpt lat="39.806858282536268" lon="2.736154524609447">
<ele>354</ele>
</trkpt>
<trkpt lat="39.806920308619738" lon="2.736045895144343">
<ele>353</ele>
</trkpt>
<trkpt lat="39.806963391602039" lon="2.735865013673902">
<ele>351</ele>
</trkpt>
<trkpt lat="39.807003038004041" lon="2.735911030322313">
<ele>349</ele>
</trkpt>
<trkpt lat="39.807032039389014" lon="2.736083026975393">
<ele>346</ele>
</trkpt>
<trkpt lat="39.807076966390014" lon="2.736220993101597">
<ele>344</ele>
</trkpt>
<trkpt lat="39.807123988866806" lon="2.736331969499588">
<ele>342</ele>
</trkpt>
<trkpt lat="39.807205963879824" lon="2.736390978097916">
<ele>340</ele>
</trkpt>
<trkpt lat="39.807229014113545" lon="2.73646398447454">
<ele>338</ele>
</trkpt>
<trkpt lat="39.807295985519886" lon="2.73661402054131">
<ele>335</ele>
</trkpt>
<trkpt lat="39.807342002168298" lon="2.736720973625779">
<ele>333</ele>
</trkpt>
<trkpt lat="39.80734895914793" lon="2.736731031909585">
<ele>331</ele>
</trkpt>
<trkpt lat="39.807538976892829" lon="2.73674301803112">
<ele>329</ele>
</trkpt>
<trkpt lat="39.807584993541241" lon="2.736704964190722">
<ele>326</ele>
</trkpt>
<trkpt lat="39.807646013796329" lon="2.73682901635766">
<ele>324</ele>
</trkpt>
<trkpt lat="39.807673003524542" lon="2.736913003027439">
<ele>322</ele>
</trkpt>
<trkpt lat="39.807739974930882" lon="2.736985003575683">
<ele>320</ele>
</trkpt>
<trkpt lat="39.807804012671113" lon="2.73702297359705">
<ele>317</ele>
</trkpt>
<trkpt lat="39.807822033762932" lon="2.737091034650803">
<ele>315</ele>
</trkpt>
<trkpt lat="39.807920018211007" lon="2.737175021320581">
<ele>313</ele>
</trkpt>
<trkpt lat="39.808012973517179" lon="2.737110983580351">
<ele>310</ele>
</trkpt>
<trkpt lat="39.808037029579282" lon="2.737080976366997">
<ele>308</ele>
</trkpt>
<trkpt lat="39.808087991550565" lon="2.737143002450466">
<ele>308</ele>
</trkpt>
<trkpt lat="39.808116992935538" lon="2.737164041027427">
<ele>307</ele>
</trkpt>
<trkpt lat="39.808069216087461" lon="2.737316843122244">
<ele>306</ele>
</trkpt>
<trkpt lat="39.807977601885796" lon="2.737339809536934">
<ele>306</ele>
</trkpt>
<trkpt lat="39.807837456464767" lon="2.737376019358635">
<ele>306</ele>
</trkpt>
<trkpt lat="39.807797055691481" lon="2.737540556117892">
<ele>305</ele>
</trkpt>
<trkpt lat="39.807899482548237" lon="2.737672151997685">
<ele>304</ele>
</trkpt>
<trkpt lat="39.807899482548237" lon="2.737675420939922">
<ele>304</ele>
</trkpt>
<trkpt lat="39.808001909404993" lon="2.737790588289499">
<ele>304</ele>
</trkpt>
<trkpt lat="39.808058487251401" lon="2.738027460873127">
<ele>303</ele>
</trkpt>
<trkpt lat="39.808088075369596" lon="2.73824455216527">
<ele>302</ele>
</trkpt>
<trkpt lat="39.808142054826021" lon="2.738415626809001">
<ele>301</ele>
</trkpt>
<trkpt lat="39.808203997090459" lon="2.738580163568258">
<ele>301</ele>
</trkpt>
<trkpt lat="39.808290246874094" lon="2.738724919036031">
<ele>300</ele>
</trkpt>
<trkpt lat="39.808416897431016" lon="2.738902531564236">
<ele>299</ele>
</trkpt>
<trkpt lat="39.808535501360893" lon="2.739063799381256">
<ele>298</ele>
</trkpt>
<trkpt lat="39.808640610426664" lon="2.739185504615307">
<ele>297</ele>
</trkpt>
<trkpt lat="39.808788634836674" lon="2.739320704713464">
<ele>297</ele>
</trkpt>
<trkpt lat="39.808788634836674" lon="2.739323973655701">
<ele>296</ele>
</trkpt>
<trkpt lat="39.808926098048687" lon="2.739432519301772">
<ele>295</ele>
</trkpt>
<trkpt lat="39.809098513796926" lon="2.739495048299432">
<ele>294</ele>
</trkpt>
<trkpt lat="39.80925751850009" lon="2.739557577297092">
<ele>293</ele>
</trkpt>
<trkpt lat="39.809367991983891" lon="2.739603593945503">
<ele>292</ele>
</trkpt>
<trkpt lat="39.809454241767526" lon="2.739692442119122">
<ele>291</ele>
</trkpt>
<trkpt lat="39.809448877349496" lon="2.73969579488039">
<ele>290</ele>
</trkpt>
<trkpt lat="39.809526996687055" lon="2.739778021350503">
<ele>290</ele>
</trkpt>
<trkpt lat="39.809594387188554" lon="2.739751702174544">
<ele>289</ele>
</trkpt>
<trkpt lat="39.809659095481038" lon="2.739699063822627">
<ele>288</ele>
</trkpt>
<trkpt lat="39.809745345264673" lon="2.73978129029274">
<ele>287</ele>
</trkpt>
<trkpt lat="39.809826146811247" lon="2.739863516762853">
<ele>286</ele>
</trkpt>
<trkpt lat="39.809909714385867" lon="2.73996552452445">
<ele>284</ele>
</trkpt>
<trkpt lat="39.809995964169502" lon="2.74007742293179">
<ele>283</ele>
</trkpt>
<trkpt lat="39.810095624998212" lon="2.740192506462336">
<ele>281</ele>
</trkpt>
<trkpt lat="39.810168463736773" lon="2.740304404869676">
<ele>280</ele>
</trkpt>
<trkpt lat="39.810260077938437" lon="2.740406412631273">
<ele>278</ele>
</trkpt>
<trkpt lat="39.810365019366145" lon="2.740475898608565">
<ele>276</ele>
</trkpt>
<trkpt lat="39.810354206711054" lon="2.740475898608565">
<ele>275</ele>
</trkpt>
<trkpt lat="39.810526706278324" lon="2.740505486726761">
<ele>273</ele>
</trkpt>
<trkpt lat="39.810621002689004" lon="2.740410100668669">
<ele>272</ele>
</trkpt>
<trkpt lat="39.810726111754775" lon="2.740475898608565">
<ele>270</ele>
</trkpt>
<trkpt lat="39.810839351266623" lon="2.740574553608894">
<ele>269</ele>
</trkpt>
<trkpt lat="39.810968684032559" lon="2.740663401782513">
<ele>267</ele>
</trkpt>
<trkpt lat="39.811071110889316" lon="2.740758787840605">
<ele>266</ele>
</trkpt>
<trkpt lat="39.81114118359983" lon="2.740877224132419">
<ele>264</ele>
</trkpt>
<trkpt lat="39.811227349564433" lon="2.740972610190511">
<ele>263</ele>
</trkpt>
<trkpt lat="39.811224667355418" lon="2.740972610190511">
<ele>262</ele>
</trkpt>
<trkpt lat="39.811310917139053" lon="2.74103513918817">
<ele>260</ele>
</trkpt>
<trkpt lat="39.811437567695975" lon="2.740969341248274">
<ele>259</ele>
</trkpt>
<trkpt lat="39.811437567695975" lon="2.740975962951779">
<ele>257</ele>
</trkpt>
<trkpt lat="39.811550807207823" lon="2.740903543308377">
<ele>256</ele>
</trkpt>
<trkpt lat="39.811658598482609" lon="2.74085090495646">
<ele>253</ele>
</trkpt>
<trkpt lat="39.81167477555573" lon="2.740906812250614">
<ele>250</ele>
</trkpt>
<trkpt lat="39.811833780258894" lon="2.740883845835924">
<ele>247</ele>
</trkpt>
<trkpt lat="39.811831014230847" lon="2.740883845835924">
<ele>244</ele>
</trkpt>
<trkpt lat="39.81195230036974" lon="2.740791896358132">
<ele>241</ele>
</trkpt>
<trkpt lat="39.812140977010131" lon="2.740775467827916">
<ele>238</ele>
</trkpt>
<trkpt lat="39.812140977010131" lon="2.740772198885679">
<ele>235</ele>
</trkpt>
<trkpt lat="39.812270309776068" lon="2.740791896358132">
<ele>232</ele>
</trkpt>
<trkpt lat="39.812326887622476" lon="2.74084453471005">
<ele>229</ele>
</trkpt>
<trkpt lat="39.812453538179398" lon="2.740969592705369">
<ele>226</ele>
</trkpt>
<trkpt lat="39.812453538179398" lon="2.740972861647606">
<ele>224</ele>
</trkpt>
<trkpt lat="39.812588319182396" lon="2.740946542471647">
<ele>223</ele>
</trkpt>
<trkpt lat="39.812604496255517" lon="2.740986021235585">
<ele>222</ele>
</trkpt>
<trkpt lat="39.812604496255517" lon="2.740989290177822">
<ele>220</ele>
</trkpt>
<trkpt lat="39.812472397461534" lon="2.741120886057615">
<ele>218</ele>
</trkpt>
<trkpt lat="39.812626037746668" lon="2.741117617115378">
<ele>217</ele>
</trkpt>
<trkpt lat="39.812545152381063" lon="2.741259103640914">
<ele>216</ele>
</trkpt>
<trkpt lat="39.812434678897262" lon="2.741377539932728">
<ele>214</ele>
</trkpt>
<trkpt lat="39.812351195141673" lon="2.741459766402841">
<ele>212</ele>
</trkpt>
<trkpt lat="39.812375418841839" lon="2.741499245166779">
<ele>211</ele>
</trkpt>
<trkpt lat="39.812550600618124" lon="2.741459766402841">
<ele>208</ele>
</trkpt>
<trkpt lat="39.81275805272162" lon="2.741446606814861">
<ele>206</ele>
</trkpt>
<trkpt lat="39.812968270853162" lon="2.741380808874965">
<ele>203</ele>
</trkpt>
<trkpt lat="39.813068015500903" lon="2.74122616276145">
<ele>200</ele>
</trkpt>
<trkpt lat="39.813124593347311" lon="2.741114348173142">
<ele>198</ele>
</trkpt>
<trkpt lat="39.813162311911583" lon="2.741130776703358">
<ele>195</ele>
</trkpt>
<trkpt lat="39.813164994120598" lon="2.741265641525388">
<ele>192</ele>
</trkpt>
<trkpt lat="39.813154265284538" lon="2.741324901580811">
<ele>189</ele>
</trkpt>
<trkpt lat="39.813243197277188" lon="2.741219624876976">
<ele>187</ele>
</trkpt>
<trkpt lat="39.813288962468505" lon="2.741140583530068">
<ele>184</ele>
</trkpt>
<trkpt lat="39.813369764015079" lon="2.740992559120059">
<ele>182</ele>
</trkpt>
<trkpt lat="39.81338057667017" lon="2.741124154999852">
<ele>180</ele>
</trkpt>
<trkpt lat="39.813466826453805" lon="2.741272179409862">
<ele>178</ele>
</trkpt>
<trkpt lat="39.813466826453805" lon="2.741275448352099">
<ele>176</ele>
</trkpt>
<trkpt lat="39.813523404300213" lon="2.741120886057615">
<ele>174</ele>
</trkpt>
<trkpt lat="39.813588112592697" lon="2.7409662399441">
<ele>171</ele>
</trkpt>
<trkpt lat="39.813698586076498" lon="2.74091687053442">
<ele>169</ele>
</trkpt>
<trkpt lat="39.81373630464077" lon="2.741150474175811">
<ele>167</ele>
</trkpt>
<trkpt lat="39.813768658787012" lon="2.741377456113696">
<ele>165</ele>
</trkpt>
<trkpt lat="39.813803695142269" lon="2.741564959287643">
<ele>163</ele>
</trkpt>
<trkpt lat="39.81383060105145" lon="2.741686748340726">
<ele>162</ele>
</trkpt>
<trkpt lat="39.813903355970979" lon="2.741706445813179">
<ele>161</ele>
</trkpt>
<trkpt lat="39.813981559127569" lon="2.741644000634551">
<ele>160</ele>
</trkpt>
<trkpt lat="39.814024642109871" lon="2.741453144699335">
<ele>158</ele>
</trkpt>
<trkpt lat="39.814056996256113" lon="2.7413116581738">
<ele>157</ele>
</trkpt>
<trkpt lat="39.814145928248763" lon="2.741242591291666">
<ele>156</ele>
</trkpt>
<trkpt lat="39.814212815836072" lon="2.741272011771798">
<ele>155</ele>
</trkpt>
<trkpt lat="39.814170151948929" lon="2.741420203819871">
<ele>155</ele>
</trkpt>
<trkpt lat="39.814159423112869" lon="2.741561690345407">
<ele>155</ele>
</trkpt>
<trkpt lat="39.814159423112869" lon="2.74155842140317">
<ele>155</ele>
</trkpt>
<trkpt lat="39.814199823886156" lon="2.741673588752747">
<ele>155</ele>
</trkpt>
<trkpt lat="39.814234860241413" lon="2.741719605401158">
<ele>156</ele>
</trkpt>
<trkpt lat="39.814350781962276" lon="2.741768974810839">
<ele>156</ele>
</trkpt>
<trkpt lat="39.814453125" lon="2.741768974810839">
<ele>156</ele>
</trkpt>
<trkpt lat="39.814571728929877" lon="2.741824882104993">
<ele>156</ele>
</trkpt>
<trkpt lat="39.814676837995648" lon="2.741969637572765">
<ele>156</ele>
</trkpt>
<trkpt lat="39.814763087779284" lon="2.742117745801806">
<ele>156</ele>
</trkpt>
<trkpt lat="39.814886804670095" lon="2.742312289774418">
<ele>158</ele>
</trkpt>
<trkpt lat="39.814983867108822" lon="2.742476742714644">
<ele>159</ele>
</trkpt>
<trkpt lat="39.81506735086441" lon="2.742631388828158">
<ele>160</ele>
</trkpt>
<trkpt lat="39.815105153247714" lon="2.742720237001777">
<ele>162</ele>
</trkpt>
<trkpt lat="39.815207496285439" lon="2.742772875353694">
<ele>164</ele>
</trkpt>
<trkpt lat="39.815288381651044" lon="2.742940681055188">
<ele>165</ele>
</trkpt>
<trkpt lat="39.815342277288437" lon="2.743121646344662">
<ele>166</ele>
</trkpt>
<trkpt lat="39.815420396625996" lon="2.743180822581053">
<ele>168</ele>
</trkpt>
<trkpt lat="39.815576719120145" lon="2.743223570287228">
<ele>170</ele>
</trkpt>
<trkpt lat="39.815549813210964" lon="2.743391375988722">
<ele>171</ele>
</trkpt>
<trkpt lat="39.815557859838009" lon="2.743450636044145">
<ele>173</ele>
</trkpt>
<trkpt lat="39.815681828185916" lon="2.743457173928618">
<ele>175</ele>
</trkpt>
<trkpt lat="39.815803114324808" lon="2.743555912747979">
<ele>177</ele>
</trkpt>
<trkpt lat="39.815897410735488" lon="2.743667727336288">
<ele>179</ele>
</trkpt>
<trkpt lat="39.815932447090745" lon="2.743796054273844">
<ele>180</ele>
</trkpt>
<trkpt lat="39.815986342728138" lon="2.743792785331607">
<ele>182</ele>
</trkpt>
<trkpt lat="39.816059097647667" lon="2.743907868862152">
<ele>184</ele>
</trkpt>
<trkpt lat="39.816121123731136" lon="2.743977019563317">
<ele>186</ele>
</trkpt>
<trkpt lat="39.816190861165524" lon="2.744062850251794">
<ele>188</ele>
</trkpt>
<trkpt lat="39.81629865244031" lon="2.744089169427753">
<ele>190</ele>
</trkpt>
<trkpt lat="39.81629865244031" lon="2.744095791131258">
<ele>192</ele>
</trkpt>
<trkpt lat="39.816349865868688" lon="2.744217496365309">
<ele>194</ele>
</trkpt>
<trkpt lat="39.816409209743142" lon="2.744122110307217">
<ele>197</ele>
</trkpt>
<trkpt lat="39.81647651642561" lon="2.744184639304876">
<ele>199</ele>
</trkpt>
<trkpt lat="39.816500823944807" lon="2.74432604201138">
<ele>201</ele>
</trkpt>
<trkpt lat="39.81656008400023" lon="2.744391839951277">
<ele>203</ele>
</trkpt>
<trkpt lat="39.816684052348137" lon="2.74438857100904">
<ele>205</ele>
</trkpt>
<trkpt lat="39.816775666549802" lon="2.744447831064463">
<ele>208</ele>
</trkpt>
<trkpt lat="39.816781114786863" lon="2.744457637891173">
<ele>210</ele>
</trkpt>
<trkpt lat="39.816880775615573" lon="2.744460990652442">
<ele>212</ele>
</trkpt>
<trkpt lat="39.816918494179845" lon="2.744539948180318">
<ele>216</ele>
</trkpt>
<trkpt lat="39.817029051482677" lon="2.744559645652771">
<ele>219</ele>
</trkpt>
<trkpt lat="39.817142207175493" lon="2.744668191298842">
<ele>222</ele>
</trkpt>
<trkpt lat="39.817228456959128" lon="2.744704401120544">
<ele>226</ele>
</trkpt>
<trkpt lat="39.817347060889006" lon="2.744914954528213">
<ele>230</ele>
</trkpt>
<trkpt lat="39.817414367571473" lon="2.744911685585976">
<ele>233</ele>
</trkpt>
<trkpt lat="39.817484440281987" lon="2.744868937879801">
<ele>236</ele>
</trkpt>
<trkpt lat="39.817589549347758" lon="2.744980752468109">
<ele>240</ele>
</trkpt>
<trkpt lat="39.817670434713364" lon="2.745132129639387">
<ele>244</ele>
</trkpt>
<trkpt lat="39.817721648141742" lon="2.745211087167263">
<ele>247</ele>
</trkpt>
<trkpt lat="39.817858943715692" lon="2.745161801576614">
<ele>250</ele>
</trkpt>
<trkpt lat="39.818050302565098" lon="2.745102541521192">
<ele>253</ele>
</trkpt>
<trkpt lat="39.818249708041549" lon="2.745086112990975">
<ele>257</ele>
</trkpt>
<trkpt lat="39.818241661414504" lon="2.745109163224697">
<ele>260</ele>
</trkpt>
<trkpt lat="39.818419525399804" lon="2.745092650875449">
<ele>263</ele>
</trkpt>
<trkpt lat="39.818419525399804" lon="2.745096003636718">
<ele>266</ele>
</trkpt>
<trkpt lat="39.818543493747711" lon="2.74514202028513">
<ele>269</ele>
</trkpt>
<trkpt lat="39.818664696067572" lon="2.745171608403325">
<ele>273</ele>
</trkpt>
<trkpt lat="39.818831831216812" lon="2.745115701109171">
<ele>276</ele>
</trkpt>
<trkpt lat="39.818980023264885" lon="2.745115701109171">
<ele>279</ele>
</trkpt>
<trkpt lat="39.81897734105587" lon="2.745115701109171">
<ele>282</ele>
</trkpt>
<trkpt lat="39.819098627194762" lon="2.74507949128747">
<ele>285</ele>
</trkpt>
<trkpt lat="39.819265678524971" lon="2.744987374171615">
<ele>288</ele>
</trkpt>
<trkpt lat="39.819335751235485" lon="2.744951248168945">
<ele>291</ele>
</trkpt>
<trkpt lat="39.819475896656513" lon="2.745000533759594">
<ele>294</ele>
</trkpt>
<trkpt lat="39.819475896656513" lon="2.744997264817357">
<ele>297</ele>
</trkpt>
<trkpt lat="39.819582011550665" lon="2.74491679854691">
<ele>300</ele>
</trkpt>
<trkpt lat="39.819700615480542" lon="2.744870698079467">
<ele>303</ele>
</trkpt>
<trkpt lat="39.819824583828449" lon="2.744824681431055">
<ele>306</ele>
</trkpt>
<trkpt lat="39.819964645430446" lon="2.744742454960942">
<ele>309</ele>
</trkpt>
<trkpt lat="39.820026671513915" lon="2.744538439437747">
<ele>312</ele>
</trkpt>
<trkpt lat="39.820104790851474" lon="2.744373986497521">
<ele>314</ele>
</trkpt>
<trkpt lat="39.82021258212626" lon="2.744321348145604">
<ele>316</ele>
</trkpt>
<trkpt lat="39.820344680920243" lon="2.744268709793687">
<ele>319</ele>
</trkpt>
<trkpt lat="39.820436295121908" lon="2.744232499971986">
<ele>322</ele>
</trkpt>
<trkpt lat="39.820527909323573" lon="2.744245659559965">
<ele>324</ele>
</trkpt>
<trkpt lat="39.820546768605709" lon="2.744347667321563">
<ele>326</ele>
</trkpt>
<trkpt lat="39.820538721978664" lon="2.744413465261459">
<ele>329</ele>
</trkpt>
<trkpt lat="39.820616841316223" lon="2.74442327208817">
<ele>332</ele>
</trkpt>
<trkpt lat="39.820711221545935" lon="2.744314726442099">
<ele>334</ele>
</trkpt>
<trkpt lat="39.820808200165629" lon="2.744262088090181">
<ele>336</ele>
</trkpt>
<trkpt lat="39.820875590667129" lon="2.744265357032418">
<ele>339</ele>
</trkpt>
<trkpt lat="39.820951027795672" lon="2.744176592677832">
<ele>341</ele>
</trkpt>
<trkpt lat="39.8209806997329" lon="2.744245659559965">
<ele>343</ele>
</trkpt>
<trkpt lat="39.8209806997329" lon="2.7443509362638">
<ele>346</ele>
</trkpt>
<trkpt lat="39.821039792150259" lon="2.744459481909871">
<ele>348</ele>
</trkpt>
<trkpt lat="39.821171807125211" lon="2.744390415027738">
<ele>350</ele>
</trkpt>
<trkpt lat="39.821309270337224" lon="2.744406843557954">
<ele>352</ele>
</trkpt>
<trkpt lat="39.821454780176282" lon="2.744331154972315">
<ele>355</ele>
</trkpt>
<trkpt lat="39.821454780176282" lon="2.744334507733584">
<ele>357</ele>
</trkpt>
<trkpt lat="39.821573384106159" lon="2.74428840726614">
<ele>359</ele>
</trkpt>
<trkpt lat="39.82160565443337" lon="2.744334507733584">
<ele>360</ele>
</trkpt>
<trkpt lat="39.821619149297476" lon="2.744403574615717">
<ele>362</ele>
</trkpt>
<trkpt lat="39.82168922200799" lon="2.744512120261788">
<ele>363</ele>
</trkpt>
<trkpt lat="39.821749990805984" lon="2.744575990363956">
<ele>365</ele>
</trkpt>
<trkpt lat="39.821790978312492" lon="2.744571967050433">
<ele>363</ele>
</trkpt>
<trkpt lat="39.821798019111156" lon="2.744572972878814">
<ele>362</ele>
</trkpt>
<trkpt lat="39.821888962760568" lon="2.74462603032589">
<ele>360</ele>
</trkpt>
<trkpt lat="39.822054924443364" lon="2.744716722518206">
<ele>359</ele>
</trkpt>
<trkpt lat="39.822192303836346" lon="2.744825268164277">
<ele>357</ele>
</trkpt>
<trkpt lat="39.822289366275072" lon="2.744887797161937">
<ele>355</ele>
</trkpt>
<trkpt lat="39.82244024053216" lon="2.744904225692153">
<ele>354</ele>
</trkpt>
<trkpt lat="39.822472594678402" lon="2.744953595101833">
<ele>352</ele>
</trkpt>
<trkpt lat="39.822432193905115" lon="2.74504235945642">
<ele>351</ele>
</trkpt>
<trkpt lat="39.822367485612631" lon="2.745072031393647">
<ele>349</ele>
</trkpt>
<trkpt lat="39.822275871410966" lon="2.745111510157585">
<ele>348</ele>
</trkpt>
<trkpt lat="39.822281235828996" lon="2.745170686393976">
<ele>346</ele>
</trkpt>
<trkpt lat="39.822397157549858" lon="2.745134476572275">
<ele>344</ele>
</trkpt>
<trkpt lat="39.822496902197599" lon="2.745111510157585">
<ele>343</ele>
</trkpt>
<trkpt lat="39.82252917252481" lon="2.745141098275781">
<ele>342</ele>
</trkpt>
<trkpt lat="39.822526490315795" lon="2.745197005569935">
<ele>340</ele>
</trkpt>
<trkpt lat="39.822442922741175" lon="2.745275963097811">
<ele>338</ele>
</trkpt>
<trkpt lat="39.8224295116961" lon="2.745368080213666">
<ele>337</ele>
</trkpt>
<trkpt lat="39.822615422308445" lon="2.745433878153563">
<ele>336</ele>
</trkpt>
<trkpt lat="39.822750203311443" lon="2.745341761037707">
<ele>334</ele>
</trkpt>
<trkpt lat="39.822860676795244" lon="2.745397668331862">
<ele>331</ele>
</trkpt>
<trkpt lat="39.822893030941486" lon="2.745489869266748">
<ele>327</ele>
</trkpt>
<trkpt lat="39.822871489450336" lon="2.745624734088779">
<ele>324</ele>
</trkpt>
<trkpt lat="39.822857994586229" lon="2.745730010792613">
<ele>320</ele>
</trkpt>
<trkpt lat="39.822871489450336" lon="2.745891194790602">
<ele>317</ele>
</trkpt>
<trkpt lat="39.82294156216085" lon="2.746131336316466">
<ele>314</ele>
</trkpt>
<trkpt lat="39.823020016774535" lon="2.746385978534818">
<ele>310</ele>
</trkpt>
<trkpt lat="39.823126886039972" lon="2.746675238013268">
<ele>307</ele>
</trkpt>
<trkpt lat="39.823205089196563" lon="2.746915379539132">
<ele>303</ele>
</trkpt>
<trkpt lat="39.823285890743136" lon="2.747066672891378">
<ele>300</ele>
</trkpt>
<trkpt lat="39.823390999808908" lon="2.747270688414574">
<ele>297</ele>
</trkpt>
<trkpt lat="39.823450343683362" lon="2.747221319004893">
<ele>295</ele>
</trkpt>
<trkpt lat="39.823490744456649" lon="2.746977908536792">
<ele>292</ele>
</trkpt>
<trkpt lat="39.823517734184861" lon="2.746977908536792">
<ele>290</ele>
</trkpt>
<trkpt lat="39.823582358658314" lon="2.747165411710739">
<ele>287</ele>
</trkpt>
<trkpt lat="39.823673972859979" lon="2.747244369238615">
<ele>284</ele>
</trkpt>
<trkpt lat="39.823749493807554" lon="2.747204890474677">
<ele>282</ele>
</trkpt>
<trkpt lat="39.823719821870327" lon="2.746915379539132">
<ele>279</ele>
</trkpt>
<trkpt lat="39.823760222643614" lon="2.746767355129123">
<ele>277</ele>
</trkpt>
<trkpt lat="39.823762904852629" lon="2.746764002367854">
<ele>274</ele>
</trkpt>
<trkpt lat="39.823886873200536" lon="2.747000874951482">
<ele>271</ele>
</trkpt>
<trkpt lat="39.823886873200536" lon="2.74700422771275">
<ele>268</ele>
</trkpt>
<trkpt lat="39.824072867631912" lon="2.747099613770843">
<ele>266</ele>
</trkpt>
<trkpt lat="39.824293814599514" lon="2.74719575420022">
<ele>263</ele>
</trkpt>
<trkpt lat="39.824336897581816" lon="2.747126687318087">
<ele>260</ele>
</trkpt>
<trkpt lat="39.824436642229557" lon="2.747166166082025">
<ele>257</ele>
</trkpt>
<trkpt lat="39.824614506214857" lon="2.747215451672673">
<ele>254</ele>
</trkpt>
<trkpt lat="39.824719615280628" lon="2.747287871316075">
<ele>252</ele>
</trkpt>
<trkpt lat="39.82479102909565" lon="2.747434135526419">
<ele>249</ele>
</trkpt>
<trkpt lat="39.824847606942058" lon="2.747615100815892">
<ele>246</ele>
</trkpt>
<trkpt lat="39.824909633025527" lon="2.74778944440186">
<ele>244</ele>
</trkpt>
<trkpt lat="39.824955398216844" lon="2.747917771339417">
<ele>243</ele>
</trkpt>
<trkpt lat="39.825100991874933" lon="2.748134862631559">
<ele>241</ele>
</trkpt>
<trkpt lat="39.825168298557401" lon="2.748250029981136">
<ele>240</ele>
</trkpt>
<trkpt lat="39.825214147567749" lon="2.74836846627295">
<ele>238</ele>
</trkpt>
<trkpt lat="39.82522496022284" lon="2.748529650270939">
<ele>236</ele>
</trkpt>
<trkpt lat="39.825208447873592" lon="2.748697875067592">
<ele>235</ele>
</trkpt>
<trkpt lat="39.825138375163078" lon="2.748905159533024">
<ele>233</ele>
</trkpt>
<trkpt lat="39.82514382340014" lon="2.749135410413146">
<ele>232</ele>
</trkpt>
<trkpt lat="39.825162682682276" lon="2.749322997406125">
<ele>230</ele>
</trkpt>
<trkpt lat="39.825192270800471" lon="2.749573029577732">
<ele>230</ele>
</trkpt>
<trkpt lat="39.825224624946713" lon="2.749773692339659">
<ele>230</ele>
</trkpt>
<trkpt lat="39.82523275539279" lon="2.75001710280776">
<ele>231</ele>
</trkpt>
<trkpt lat="39.825268294662237" lon="2.750245006754994">
<ele>231</ele>
</trkpt>
<trkpt lat="39.825260248035192" lon="2.750389762222767">
<ele>231</ele>
</trkpt>
<trkpt lat="39.825225211679935" lon="2.750567374750972">
<ele>231</ele>
</trkpt>
<trkpt lat="39.825160503387451" lon="2.750738449394703">
<ele>231</ele>
</trkpt>
<trkpt lat="39.825082384049892" lon="2.750935843214393">
<ele>232</ele>
</trkpt>
<trkpt lat="39.825020357966423" lon="2.751166177913547">
<ele>232</ele>
</trkpt>
<trkpt lat="39.825017675757408" lon="2.751166177913547">
<ele>232</ele>
</trkpt>
<trkpt lat="39.825020357966423" lon="2.751356950029731">
<ele>231</ele>
</trkpt>
<trkpt lat="39.824950285255909" lon="2.75148200802505">
<ele>230</ele>
</trkpt>
<trkpt lat="39.824950285255909" lon="2.75149516761303">
<ele>230</ele>
</trkpt>
<trkpt lat="39.824928743764758" lon="2.751682670786977">
<ele>229</ele>
</trkpt>
<trkpt lat="39.824958415701985" lon="2.751781409606338">
<ele>228</ele>
</trkpt>
<trkpt lat="39.824982555583119" lon="2.751853996887803">
<ele>227</ele>
</trkpt>
<trkpt lat="39.825125383213162" lon="2.751985592767596">
<ele>226</ele>
</trkpt>
<trkpt lat="39.825216997414827" lon="2.752219196408987">
<ele>226</ele>
</trkpt>
<trkpt lat="39.825233174487948" lon="2.7523014228791">
<ele>225</ele>
</trkpt>
<trkpt lat="39.825289752334356" lon="2.752574505284429">
<ele>224</ele>
</trkpt>
<trkpt lat="39.825349096208811" lon="2.752742310985923">
<ele>221</ele>
</trkpt>
<trkpt lat="39.825411038473248" lon="2.752913385629654">
<ele>218</ele>
</trkpt>
<trkpt lat="39.825413720682263" lon="2.752913385629654">
<ele>215</ele>
</trkpt>
<trkpt lat="39.825602397322655" lon="2.753051519393921">
<ele>212</ele>
</trkpt>
<trkpt lat="39.825793756172061" lon="2.753186468034983">
<ele>208</ele>
</trkpt>
<trkpt lat="39.826006069779396" lon="2.753345053642988">
<ele>205</ele>
</trkpt>
<trkpt lat="39.826103132218122" lon="2.753456868231297">
<ele>202</ele>
</trkpt>
<trkpt lat="39.826181251555681" lon="2.753621404990554">
<ele>199</ele>
</trkpt>
<trkpt lat="39.826289042830467" lon="2.753611514344811">
<ele>196</ele>
</trkpt>
<trkpt lat="39.826348386704922" lon="2.753456868231297">
<ele>193</ele>
</trkpt>
<trkpt lat="39.826437318697572" lon="2.753476649522781">
<ele>190</ele>
</trkpt>
<trkpt lat="39.826448047533631" lon="2.753604976460338">
<ele>187</ele>
</trkpt>
<trkpt lat="39.826466906815767" lon="2.753697093576193">
<ele>184</ele>
</trkpt>
<trkpt lat="39.826572015881538" lon="2.753779320046306">
<ele>181</ele>
</trkpt>
<trkpt lat="39.826695984229445" lon="2.753983335569501">
<ele>178</ele>
</trkpt>
<trkpt lat="39.826687937602401" lon="2.754174107685685">
<ele>175</ele>
</trkpt>
<trkpt lat="39.826687937602401" lon="2.754177376627922">
<ele>172</ele>
</trkpt>
<trkpt lat="39.826744515448809" lon="2.754447190091014">
<ele>169</ele>
</trkpt>
<trkpt lat="39.826893964782357" lon="2.754576019942761">
<ele>166</ele>
</trkpt>
<trkpt lat="39.827037965878844" lon="2.754651959985495">
<ele>163</ele>
</trkpt>
<trkpt lat="39.827064033597708" lon="2.754703005775809">
<ele>163</ele>
</trkpt>
<trkpt lat="39.827030003070831" lon="2.754810964688659">
<ele>163</ele>
</trkpt>
<trkpt lat="39.826980968937278" lon="2.754971981048584">
<ele>163</ele>
</trkpt>
<trkpt lat="39.826993960887194" lon="2.755063008517027">
<ele>163</ele>
</trkpt>
<trkpt lat="39.827022962272167" lon="2.75515403598547">
<ele>162</ele>
</trkpt>
<trkpt lat="39.827064033597708" lon="2.755260989069939">
<ele>162</ele>
</trkpt>
<trkpt lat="39.827065961435437" lon="2.755296025425196">
<ele>162</ele>
</trkpt>
<trkpt lat="39.827124970033765" lon="2.755450000986457">
<ele>162</ele>
</trkpt>
<trkpt lat="39.8271559830755" lon="2.755526024848223">
<ele>162</ele>
</trkpt>
<trkpt lat="39.827238041907549" lon="2.755750995129347">
<ele>162</ele>
</trkpt>
<trkpt lat="39.827247010543942" lon="2.755899019539356">
<ele>161</ele>
</trkpt>
<trkpt lat="39.827270982787013" lon="2.755973031744361">
<ele>160</ele>
</trkpt>
<trkpt lat="39.827383970841765" lon="2.75608099065721">
<ele>159</ele>
</trkpt>
<trkpt lat="39.827444991096854" lon="2.75618601590395">
<ele>158</ele>
</trkpt>
<trkpt lat="39.827449014410377" lon="2.756309984251857">
<ele>158</ele>
</trkpt>
<trkpt lat="39.82752101495862" lon="2.756408974528313">
<ele>157</ele>
</trkpt>
<trkpt lat="39.827579017728567" lon="2.756501007825136">
<ele>156</ele>
</trkpt>
<trkpt lat="39.827626962214708" lon="2.756578037515283">
<ele>155</ele>
</trkpt>
<trkpt lat="39.827708015218377" lon="2.756679961457849">
<ele>154</ele>
</trkpt>
<trkpt lat="39.827673984691501" lon="2.75681097060442">
<ele>153</ele>
</trkpt>
<trkpt lat="39.827671973034739" lon="2.756864028051496">
<ele>155</ele>
</trkpt>
<trkpt lat="39.827686976641417" lon="2.757081035524607">
<ele>157</ele>
</trkpt>
<trkpt lat="39.827684964984655" lon="2.757094027474523">
<ele>159</ele>
</trkpt>
<trkpt lat="39.827675996348262" lon="2.757128980010748">
<ele>161</ele>
</trkpt>
<trkpt lat="39.827658981084824" lon="2.757465010508895">
<ele>162</ele>
</trkpt>
<trkpt lat="39.827658981084824" lon="2.75754002854228">
<ele>164</ele>
</trkpt>
<trkpt lat="39.827661998569965" lon="2.757550003007054">
<ele>166</ele>
</trkpt>
<trkpt lat="39.827668033540249" lon="2.757709007710218">
<ele>168</ele>
</trkpt>
<trkpt lat="39.827665016055107" lon="2.757717976346612">
<ele>170</ele>
</trkpt>
<trkpt lat="39.827665016055107" lon="2.757717976346612">
<ele>172</ele>
</trkpt>
<trkpt lat="39.827749421820045" lon="2.757929032668471">
<ele>171</ele>
</trkpt>
<trkpt lat="39.827803988009691" lon="2.758037997409701">
<ele>170</ele>
</trkpt>
<trkpt lat="39.8278449755162" lon="2.758145034313202">
<ele>170</ele>
</trkpt>
<trkpt lat="39.827924016863108" lon="2.75833697989583">
<ele>169</ele>
</trkpt>
<trkpt lat="39.827966010197997" lon="2.758394982665777">
<ele>168</ele>
</trkpt>
<trkpt lat="39.828046979382634" lon="2.758559016510844">
<ele>167</ele>
</trkpt>
<trkpt lat="39.828180084004998" lon="2.75881290435791">
<ele>166</ele>
</trkpt>
<trkpt lat="39.828282510861754" lon="2.759026726707816">
<ele>166</ele>
</trkpt>
<trkpt lat="39.828225933015347" lon="2.759243901818991">
<ele>165</ele>
</trkpt>
<trkpt lat="39.828196261078119" lon="2.759467614814639">
<ele>164</ele>
</trkpt>
<trkpt lat="39.828182850033045" lon="2.759658386930823">
<ele>164</ele>
</trkpt>
<trkpt lat="39.828355265781283" lon="2.75992157869041">
<ele>164</ele>
</trkpt>
<trkpt lat="39.828527765348554" lon="2.759964410215616">
<ele>164</ele>
</trkpt>
<trkpt lat="39.82863555662334" lon="2.760017048567534">
<ele>164</ele>
</trkpt>
<trkpt lat="39.828720968216658" lon="2.760139005258679">
<ele>164</ele>
</trkpt>
<trkpt lat="39.828774025663733" lon="2.760278983041644">
<ele>164</ele>
</trkpt>
<trkpt lat="39.828825993463397" lon="2.760336985811591">
<ele>164</ele>
</trkpt>
<trkpt lat="39.828904028981924" lon="2.760480986908078">
<ele>164</ele>
</trkpt>
<trkpt lat="39.828910985961556" lon="2.760605039075017">
<ele>164</ele>
</trkpt>
<trkpt lat="39.829006036743522" lon="2.760693971067667">
<ele>164</ele>
</trkpt>
<trkpt lat="39.829026991501451" lon="2.760693971067667">
<ele>164</ele>
</trkpt>
<trkpt lat="39.829103015363216" lon="2.760790027678013">
<ele>163</ele>
</trkpt>
<trkpt lat="39.829204017296433" lon="2.760965963825584">
<ele>163</ele>
</trkpt>
<trkpt lat="39.829266965389252" lon="2.761133015155792">
<ele>162</ele>
</trkpt>
<trkpt lat="39.829273000359535" lon="2.761251032352448">
<ele>162</ele>
</trkpt>
<trkpt lat="39.829280963167548" lon="2.761336024850607">
<ele>162</ele>
</trkpt>
<trkpt lat="39.829350030049682" lon="2.761423029005528">
<ele>161</ele>
</trkpt>
<trkpt lat="39.829432005062699" lon="2.761481031775475">
<ele>161</ele>
</trkpt>
<trkpt lat="39.829464023932815" lon="2.761615980416536">
<ele>160</ele>
</trkpt>
<trkpt lat="39.829432927072048" lon="2.761837346479297">
<ele>160</ele>
</trkpt>
<trkpt lat="39.829430244863033" lon="2.761837346479297">
<ele>158</ele>
</trkpt>
<trkpt lat="39.829505681991577" lon="2.76201831176877">
<ele>157</ele>
</trkpt>
<trkpt lat="39.829591931775212" lon="2.762064412236214">
<ele>156</ele>
</trkpt>
<trkpt lat="39.82964850962162" lon="2.762209167703986">
<ele>154</ele>
</trkpt>
<trkpt lat="39.829651191830635" lon="2.762205814942718">
<ele>152</ele>
</trkpt>
<trkpt lat="39.829691676422954" lon="2.762357192113996">
<ele>151</ele>
</trkpt>
<trkpt lat="39.829858727753162" lon="2.762446040287614">
<ele>150</ele>
</trkpt>
<trkpt lat="39.830006919801235" lon="2.762564476579428">
<ele>148</ele>
</trkpt>
<trkpt lat="39.830157877877355" lon="2.762686181813479">
<ele>146</ele>
</trkpt>
<trkpt lat="39.83024949207902" lon="2.762804618105292">
<ele>145</ele>
</trkpt>
<trkpt lat="39.83033842407167" lon="2.762926323339343">
<ele>144</ele>
</trkpt>
<trkpt lat="39.830478569492698" lon="2.762988852337003">
<ele>143</ele>
</trkpt>
<trkpt lat="39.830481251701713" lon="2.762988852337003">
<ele>142</ele>
</trkpt>
<trkpt lat="39.830556688830256" lon="2.76310401968658">
<ele>141</ele>
</trkpt>
<trkpt lat="39.830642938613892" lon="2.763255313038826">
<ele>140</ele>
</trkpt>
<trkpt lat="39.830645620822906" lon="2.763258665800095">
<ele>138</ele>
</trkpt>
<trkpt lat="39.830750729888678" lon="2.763360589742661">
<ele>137</ele>
</trkpt>
<trkpt lat="39.830823484808207" lon="2.763456059619784">
<ele>136</ele>
</trkpt>
<trkpt lat="39.830974023789167" lon="2.763667032122612">
<ele>135</ele>
</trkpt>
<trkpt lat="39.831049963831902" lon="2.763765016570687">
<ele>134</ele>
</trkpt>
<trkpt lat="39.83108701184392" lon="2.763817990198731">
<ele>133</ele>
</trkpt>
<trkpt lat="39.831180972978473" lon="2.763956040143967">
<ele>131</ele>
</trkpt>
<trkpt lat="39.831225983798504" lon="2.764037009328604">
<ele>130</ele>
</trkpt>
<trkpt lat="39.831326985731721" lon="2.76420196518302">
<ele>129</ele>
</trkpt>
<trkpt lat="39.831383982673287" lon="2.764275977388024">
<ele>128</ele>
</trkpt>
<trkpt lat="39.83151700347662" lon="2.76441402733326">
<ele>126</ele>
</trkpt>
<trkpt lat="39.83166603371501" lon="2.764619970694184">
<ele>125</ele>
</trkpt>
<trkpt lat="39.831729987636209" lon="2.764686020091176">
<ele>124</ele>
</trkpt>
<trkpt lat="39.831957975402474" lon="2.764800013974309">
<ele>122</ele>
</trkpt>
<trkpt lat="39.832012038677931" lon="2.764830021187663">
<ele>121</ele>
</trkpt>
<trkpt lat="39.832135001197457" lon="2.764839995652437">
<ele>121</ele>
</trkpt>
<trkpt lat="39.832168025895953" lon="2.764832032844424">
<ele>120</ele>
</trkpt>
<trkpt lat="39.832242960110307" lon="2.76486698538065">
<ele>120</ele>
</trkpt>
<trkpt lat="39.832352008670568" lon="2.764975028112531">
<ele>120</ele>
</trkpt>
<trkpt lat="39.832472037523985" lon="2.765101008117199">
<ele>120</ele>
</trkpt>
<trkpt lat="39.832495003938675" lon="2.765106037259102">
<ele>119</ele>
</trkpt>
<trkpt lat="39.832567004486918" lon="2.76523101143539">
<ele>119</ele>
</trkpt>
<trkpt lat="39.832581002265215" lon="2.765249032527208">
<ele>119</ele>
</trkpt>
<trkpt lat="39.8326560202986" lon="2.765349028632045">
<ele>118</ele>
</trkpt>
<trkpt lat="39.832683010026813" lon="2.765350034460425">
<ele>118</ele>
</trkpt>
<trkpt lat="39.832800021395087" lon="2.765530999749899">
<ele>118</ele>
</trkpt>
<trkpt lat="39.832823993638158" lon="2.765580033883452">
<ele>117</ele>
</trkpt>
<trkpt lat="39.832927007228136" lon="2.765664020553231">
<ele>117</ele>
</trkpt>
<trkpt lat="39.832973023876548" lon="2.76576996780932">
<ele>116</ele>
</trkpt>
<trkpt lat="39.833036977797747" lon="2.765835011377931">
<ele>116</ele>
</trkpt>
<trkpt lat="39.833115851506591" lon="2.765979934483767">
<ele>116</ele>
</trkpt>
<trkpt lat="39.833242502063513" lon="2.766029303893447">
<ele>115</ele>
</trkpt>
<trkpt lat="39.833379965275526" lon="2.766256285831332">
<ele>115</ele>
</trkpt>
<trkpt lat="39.833509298041463" lon="2.766486620530486">
<ele>114</ele>
</trkpt>
<trkpt lat="39.833506615832448" lon="2.766486620530486">
<ele>114</ele>
</trkpt>
<trkpt lat="39.833673667162657" lon="2.766601704061031">
<ele>116</ele>
</trkpt>
<trkpt lat="39.833813812583685" lon="2.766785938292742">
<ele>117</ele>
</trkpt>
<trkpt lat="39.833962088450789" lon="2.767042592167854">
<ele>119</ele>
</trkpt>
<trkpt lat="39.834056384861469" lon="2.76718407869339">
<ele>120</ele>
</trkpt>
<trkpt lat="39.834056384861469" lon="2.767187347635627">
<ele>122</ele>
</trkpt>
<trkpt lat="39.83414338901639" lon="2.767319530248642">
<ele>124</ele>
</trkpt>
<trkpt lat="39.834224190562963" lon="2.767431428655982">
<ele>125</ele>
</trkpt>
<trkpt lat="39.834283534437418" lon="2.767592612653971">
<ele>127</ele>
</trkpt>
<trkpt lat="39.834334664046764" lon="2.767763687297702">
<ele>128</ele>
</trkpt>
<trkpt lat="39.834394007921219" lon="2.767970971763134">
<ele>130</ele>
</trkpt>
<trkpt lat="39.834574554115534" lon="2.767994021996856">
<ele>130</ele>
</trkpt>
<trkpt lat="39.834553012624383" lon="2.768053198233247">
<ele>131</ele>
</trkpt>
<trkpt lat="39.834760464727879" lon="2.768115727230907">
<ele>132</ele>
</trkpt>
<trkpt lat="39.834922235459089" lon="2.768224272876978">
<ele>132</ele>
</trkpt>
<trkpt lat="39.834879068657756" lon="2.768293423578143">
<ele>132</ele>
</trkpt>
<trkpt lat="39.834935646504164" lon="2.768319742754102">
<ele>133</ele>
</trkpt>
<trkpt lat="39.835000354796648" lon="2.768257213756442">
<ele>134</ele>
</trkpt>
<trkpt lat="39.835091968998313" lon="2.768349330872297">
<ele>134</ele>
</trkpt>
<trkpt lat="39.835159359499812" lon="2.768490817397833">
<ele>134</ele>
</trkpt>
<trkpt lat="39.835253655910492" lon="2.768569774925709">
<ele>135</ele>
</trkpt>
<trkpt lat="39.835517769679427" lon="2.768635572865605">
<ele>134</ele>
</trkpt>
<trkpt lat="39.83557166531682" lon="2.768771024420857">
<ele>134</ele>
</trkpt>
<trkpt lat="39.835652550682425" lon="2.768863141536713">
<ele>133</ele>
</trkpt>
<trkpt lat="39.83565523289144" lon="2.76886641047895">
<ele>133</ele>
</trkpt>
<trkpt lat="39.835781883448362" lon="2.768945368006825">
<ele>132</ele>
</trkpt>
<trkpt lat="39.835935523733497" lon="2.768922317773104">
<ele>131</ele>
</trkpt>
<trkpt lat="39.836064856499434" lon="2.768922317773104">
<ele>131</ele>
</trkpt>
<trkpt lat="39.836245402693748" lon="2.76897830888629">
<ele>130</ele>
</trkpt>
<trkpt lat="39.836248168721795" lon="2.76897830888629">
<ele>130</ele>
</trkpt>
<trkpt lat="39.836471797898412" lon="2.76900127530098">
<ele>129</ele>
</trkpt>
<trkpt lat="39.836652344092727" lon="2.76905064471066">
<ele>130</ele>
</trkpt>
<trkpt lat="39.836800619959831" lon="2.769103283062577">
<ele>131</ele>
</trkpt>
<trkpt lat="39.836932634934783" lon="2.769198752939701">
<ele>131</ele>
</trkpt>
<trkpt lat="39.836929952725768" lon="2.769198752939701">
<ele>132</ele>
</trkpt>
<trkpt lat="39.837118377909064" lon="2.769363541156054">
<ele>133</ele>
</trkpt>
<trkpt lat="39.837339408695698" lon="2.769508296623826">
<ele>134</ele>
</trkpt>
<trkpt lat="39.837509142234921" lon="2.769623463973403">
<ele>134</ele>
</trkpt>
<trkpt lat="39.837692454457283" lon="2.769748438149691">
<ele>135</ele>
</trkpt>
<trkpt lat="39.837848693132401" lon="2.769847176969051">
<ele>136</ele>
</trkpt>
<trkpt lat="39.837851459160447" lon="2.769847176969051">
<ele>137</ele>
</trkpt>
<trkpt lat="39.837972661480308" lon="2.769912974908948">
<ele>138</ele>
</trkpt>
<trkpt lat="39.838061593472958" lon="2.769952453672886">
<ele>138</ele>
</trkpt>
<trkpt lat="39.838091265410185" lon="2.770014982670546">
<ele>139</ele>
</trkpt>
<trkpt lat="39.838089002296329" lon="2.770183039829135">
<ele>140</ele>
</trkpt>
<trkpt lat="39.838115489110351" lon="2.770370291545987">
<ele>138</ele>
</trkpt>
<trkpt lat="39.838120937347412" lon="2.77053801342845">
<ele>137</ele>
</trkpt>
<trkpt lat="39.838077770546079" lon="2.770738760009408">
<ele>135</ele>
</trkpt>
<trkpt lat="39.837937625125051" lon="2.771008741110563">
<ele>133</ele>
</trkpt>
<trkpt lat="39.837703183293343" lon="2.771153496578336">
<ele>132</ele>
</trkpt>
<trkpt lat="39.837541496381164" lon="2.771229185163975">
<ele>130</ele>
</trkpt>
<trkpt lat="39.837377043440938" lon="2.771327923983336">
<ele>128</ele>
</trkpt>
<trkpt lat="39.837522553279996" lon="2.771403612568975">
<ele>126</ele>
</trkpt>
<trkpt lat="39.837379725649953" lon="2.771459519863129">
<ele>125</ele>
</trkpt>
<trkpt lat="39.837172273546457" lon="2.771515427157283">
<ele>123</ele>
</trkpt>
<trkpt lat="39.837172273546457" lon="2.77151869609952">
<ele>122</ele>
</trkpt>
<trkpt lat="39.837067164480686" lon="2.771758921444416">
<ele>121</ele>
</trkpt>
<trkpt lat="39.836851581931114" lon="2.772157229483128">
<ele>120</ele>
</trkpt>
<trkpt lat="39.836751837283373" lon="2.772367782890797">
<ele>119</ele>
</trkpt>
<trkpt lat="39.83670330606401" lon="2.772492840886116">
<ele>118</ele>
</trkpt>
<trkpt lat="39.836684446781874" lon="2.772640865296125">
<ele>116</ele>
</trkpt>
<trkpt lat="39.836687128990889" lon="2.772851418703795">
<ele>115</ele>
</trkpt>
<trkpt lat="39.836746472865343" lon="2.773032383993268">
<ele>114</ele>
</trkpt>
<trkpt lat="39.836821909993887" lon="2.773193567991257">
<ele>113</ele>
</trkpt>
<trkpt lat="39.836902795359492" lon="2.773321894928813">
<ele>112</ele>
</trkpt>
<trkpt lat="39.837002456188202" lon="2.773440331220627">
<ele>110</ele>
</trkpt>
<trkpt lat="39.837080659344792" lon="2.773525826632977">
<ele>108</ele>
</trkpt>
<trkpt lat="39.837174955755472" lon="2.773423902690411">
<ele>107</ele>
</trkpt>
<trkpt lat="39.837335972115397" lon="2.773520043119788">
<ele>105</ele>
</trkpt>
<trkpt lat="39.837338654324412" lon="2.773523312062025">
<ele>103</ele>
</trkpt>
<trkpt lat="39.83745189383626" lon="2.77362858876586">
<ele>101</ele>
</trkpt>
<trkpt lat="39.837454576045275" lon="2.773631941527128">
<ele>99</ele>
</trkpt>
<trkpt lat="39.837527330964804" lon="2.773710899055004">
<ele>98</ele>
</trkpt>
<trkpt lat="39.837594721466303" lon="2.77378985658288">
<ele>96</ele>
</trkpt>
<trkpt lat="39.837680971249938" lon="2.773881973698735">
<ele>94</ele>
</trkpt>
<trkpt lat="39.837680971249938" lon="2.773885242640972">
<ele>93</ele>
</trkpt>
<trkpt lat="39.837845340371132" lon="2.773845763877034">
<ele>91</ele>
</trkpt>
<trkpt lat="39.838001662865281" lon="2.773822713643313">
<ele>90</ele>
</trkpt>
<trkpt lat="39.838125631213188" lon="2.773803016170859">
<ele>89</ele>
</trkpt>
<trkpt lat="39.838195703923702" lon="2.773849032819271">
<ele>88</ele>
</trkpt>
<trkpt lat="39.838152537122369" lon="2.773977359756827">
<ele>86</ele>
</trkpt>
<trkpt lat="39.838036699220538" lon="2.774128736928105">
<ele>85</ele>
</trkpt>
<trkpt lat="39.837910048663616" lon="2.774266870692372">
<ele>84</ele>
</trkpt>
<trkpt lat="39.837910048663616" lon="2.774270139634609">
<ele>82</ele>
</trkpt>
<trkpt lat="39.837804939597845" lon="2.774355718865991">
<ele>81</ele>
</trkpt>
<trkpt lat="39.83762975782156" lon="2.774464264512062">
<ele>79</ele>
</trkpt>
<trkpt lat="39.837592039257288" lon="2.774474155157805">
<ele>77</ele>
</trkpt>
<trkpt lat="39.837605450302362" lon="2.774569541215897">
<ele>75</ele>
</trkpt>
<trkpt lat="39.837732184678316" lon="2.774589322507381">
<ele>73</ele>
</trkpt>
<trkpt lat="39.837942318990827" lon="2.774572810158134">
<ele>72</ele>
</trkpt>
<trkpt lat="39.838117500767112" lon="2.774536684155464">
<ele>70</ele>
</trkpt>
<trkpt lat="39.838292682543397" lon="2.774464264512062">
<ele>68</ele>
</trkpt>
<trkpt lat="39.838295364752412" lon="2.774464264512062">
<ele>66</ele>
</trkpt>
<trkpt lat="39.838384464383125" lon="2.774401986971498">
<ele>64</ele>
</trkpt>
<trkpt lat="39.838575823232532" lon="2.774306600913405">
<ele>62</ele>
</trkpt>
<trkpt lat="39.838686296716332" lon="2.774342810735107">
<ele>59</ele>
</trkpt>
<trkpt lat="39.838780676946044" lon="2.774329651147127">
<ele>57</ele>
</trkpt>
<trkpt lat="39.838783359155059" lon="2.774329651147127">
<ele>54</ele>
</trkpt>
<trkpt lat="39.838866926729679" lon="2.774234265089035">
<ele>51</ele>
</trkpt>
<trkpt lat="39.838915374130011" lon="2.774132257327437">
<ele>48</ele>
</trkpt>
<trkpt lat="39.839031295850873" lon="2.774247424677014">
<ele>46</ele>
</trkpt>
<trkpt lat="39.839055519551039" lon="2.774053299799562">
<ele>43</ele>
</trkpt>
<trkpt lat="39.839087873697281" lon="2.7740927785635">
<ele>40</ele>
</trkpt>
<trkpt lat="39.839139087125659" lon="2.774040140211582">
<ele>38</ele>
</trkpt>
<trkpt lat="39.83924419619143" lon="2.7740927785635">
<ele>35</ele>
</trkpt>
<trkpt lat="39.839289961382747" lon="2.774155307561159">
<ele>33</ele>
</trkpt>
<trkpt lat="39.839394818991423" lon="2.774106021970511">
<ele>30</ele>
</trkpt>
<trkpt lat="39.839437901973724" lon="2.774250777438283">
<ele>28</ele>
</trkpt>
<trkpt lat="39.839489115402102" lon="2.774411961436272">
<ele>25</ele>
</trkpt>
<trkpt lat="39.839572682976723" lon="2.77450080960989">
<ele>23</ele>
</trkpt>
<trkpt lat="39.83963998965919" lon="2.774464599788189">
<ele>21</ele>
</trkpt>
<trkpt lat="39.839747780933976" lon="2.774435011669993">
<ele>18</ele>
</trkpt>
<trkpt lat="39.839750546962023" lon="2.774431742727757">
<ele>16</ele>
</trkpt>
<trkpt lat="39.839623812586069" lon="2.77456333860755">
<ele>13</ele>
</trkpt>
<trkpt lat="39.839559188112617" lon="2.774648834019899">
<ele>11</ele>
</trkpt>
<trkpt lat="39.839591542258859" lon="2.774796942248941">
<ele>9</ele>
</trkpt>
<trkpt lat="39.839596906676888" lon="2.774915378540754">
<ele>8</ele>
</trkpt>
<trkpt lat="39.839569916948676" lon="2.775020655244589">
<ele>6</ele>
</trkpt>
<trkpt lat="39.839626578614116" lon="2.77512920089066">
<ele>5</ele>
</trkpt>
<trkpt lat="39.839604282751679" lon="2.775287367403507">
<ele>3</ele>
</trkpt>
<trkpt lat="39.839603025466204" lon="2.77528996579349">
<ele>1</ele>
</trkpt>
<trkpt lat="39.839706961065531" lon="2.775418041273952">
<ele>0</ele>
</trkpt>
<trkpt lat="39.839737974107265" lon="2.775514014065266">
<ele>-2</ele>
</trkpt>
<trkpt lat="39.839782984927297" lon="2.775642005726695">
<ele>-3</ele>
</trkpt>
<trkpt lat="39.839813997969031" lon="2.775714006274939">
<ele>-5</ele>
</trkpt>
<trkpt lat="39.839870994910598" lon="2.775820037350059">
<ele>-4</ele>
</trkpt>
<trkpt lat="39.840054977685213" lon="2.776065040379763">
<ele>-4</ele>
</trkpt>
<trkpt lat="39.840168971568346" lon="2.77618900872767">
<ele>-3</ele>
</trkpt>
<trkpt lat="39.840296041220427" lon="2.776265032589436">
<ele>-2</ele>
</trkpt>
<trkpt lat="39.84039100818336" lon="2.776333009824157">
<ele>-2</ele>
</trkpt>
<trkpt lat="39.840398970991373" lon="2.776339966803789">
<ele>-1</ele>
</trkpt>
<trkpt lat="39.84057230874896" lon="2.776384055614471">
<ele>0</ele>
</trkpt>
<trkpt lat="39.840682782232761" lon="2.776407105848193">
<ele>0</ele>
</trkpt>
<trkpt lat="39.840763667598367" lon="2.776403836905956">
<ele>1</ele>
</trkpt>
</trkseg>
</trk>
</gpx>
