<?xml version="1.0" encoding="UTF-8"?>
<gpx version="1.1"
creator="Smartprofil-Office - http://www.rother.de"
xmlns:xsi="http://www.w3.org/2001/XMLSchema-instance"
xmlns="http://www.topografix.com/GPX/1/1"
xsi:schemaLocation="http://www.topografix.com/GPX/1/1 http://www.topografix.com/GPX/1/1/gpx.xsd">
<metadata>

<bounds minlat="39.657126981765032" minlon="2.562198014929891" maxlat="39.664409011602402" maxlon="2.575353998690844"/>
</metadata>
<wpt lat="39.662892976775765" lon="2.573702009394765">
<ele>287</ele>
<name>13_Son Trias (1)</name>
<cmt></cmt>
<desc></desc>
<sym>Crossing</sym>
</wpt>

<wpt lat="39.657127987593412" lon="2.573558008298278">
<ele>322</ele>
<name>13_Coll de s’Heura (2)</name>
<cmt></cmt>
<desc></desc>
<sym>Crossing</sym>
</wpt>

<wpt lat="39.660457028076053" lon="2.562198014929891">
<ele>578</ele>
<name>13_Ermita de Maristella (3)</name>
<cmt></cmt>
<desc></desc>
<sym>Crossing</sym>
</wpt>

<wpt lat="39.662990961223841" lon="2.567341988906264">
<ele>499</ele>
<name>13_Cor de Jesús (4)</name>
<cmt></cmt>
<desc></desc>
<sym>Crossing</sym>
</wpt>

<trk>
<name>Mal_13_Ermita de Maristella</name>
<trkseg>
<trkpt lat="39.662892976775765" lon="2.573702009394765">
<ele>287</ele>
</trkpt>
<trkpt lat="39.662892976775765" lon="2.573702009394765">
<ele>286</ele>
</trkpt>
<trkpt lat="39.66285802423954" lon="2.573770992457867">
<ele>284</ele>
</trkpt>
<trkpt lat="39.662745036184788" lon="2.573877023532987">
<ele>283</ele>
</trkpt>
<trkpt lat="39.662717040628195" lon="2.57388599216938">
<ele>281</ele>
</trkpt>
<trkpt lat="39.662554012611508" lon="2.574085984379053">
<ele>280</ele>
</trkpt>
<trkpt lat="39.662498021498322" lon="2.574257981032133">
<ele>279</ele>
</trkpt>
<trkpt lat="39.662497015669942" lon="2.57429201155901">
<ele>277</ele>
</trkpt>
<trkpt lat="39.662487041205168" lon="2.574468031525612">
<ele>276</ele>
</trkpt>
<trkpt lat="39.662472037598491" lon="2.574553024023771">
<ele>274</ele>
</trkpt>
<trkpt lat="39.662467008456588" lon="2.574673974886537">
<ele>273</ele>
</trkpt>
<trkpt lat="39.662445969879627" lon="2.574794003739953">
<ele>272</ele>
</trkpt>
<trkpt lat="39.662445969879627" lon="2.574815964326263">
<ele>271</ele>
</trkpt>
<trkpt lat="39.662426020950079" lon="2.57489500567317">
<ele>269</ele>
</trkpt>
<trkpt lat="39.662421997636557" lon="2.574969017878175">
<ele>268</ele>
</trkpt>
<trkpt lat="39.662420991808176" lon="2.575054010376334">
<ele>267</ele>
</trkpt>
<trkpt lat="39.662405988201499" lon="2.575180996209383">
<ele>266</ele>
</trkpt>
<trkpt lat="39.662405988201499" lon="2.575180996209383">
<ele>265</ele>
</trkpt>
<trkpt lat="39.662353014573455" lon="2.575279986485839">
<ele>263</ele>
</trkpt>
<trkpt lat="39.662356032058597" lon="2.575276969000697">
<ele>262</ele>
</trkpt>
<trkpt lat="39.662356032058597" lon="2.575276969000697">
<ele>261</ele>
</trkpt>
<trkpt lat="39.6622159704566" lon="2.575353998690844">
<ele>260</ele>
</trkpt>
<trkpt lat="39.662175988778472" lon="2.575347041711211">
<ele>259</ele>
</trkpt>
<trkpt lat="39.66199703514576" lon="2.575343018397689">
<ele>258</ele>
</trkpt>
<trkpt lat="39.661921011283994" lon="2.575333965942264">
<ele>257</ele>
</trkpt>
<trkpt lat="39.661833001300693" lon="2.575342012569308">
<ele>256</ele>
</trkpt>
<trkpt lat="39.661748008802533" lon="2.575322985649109">
<ele>255</ele>
</trkpt>
<trkpt lat="39.661740968003869" lon="2.575317034497857">
<ele>254</ele>
</trkpt>
<trkpt lat="39.661606019362807" lon="2.575179990381002">
<ele>253</ele>
</trkpt>
<trkpt lat="39.661510968580842" lon="2.575069013983011">
<ele>252</ele>
</trkpt>
<trkpt lat="39.661437040194869" lon="2.574991984292865">
<ele>251</ele>
</trkpt>
<trkpt lat="39.661334026604891" lon="2.574841026216745">
<ele>253</ele>
</trkpt>
<trkpt lat="39.661285998299718" lon="2.574737006798387">
<ele>255</ele>
</trkpt>
<trkpt lat="39.661218021064997" lon="2.574586970731616">
<ele>257</ele>
</trkpt>
<trkpt lat="39.66116001829505" lon="2.574427966028452">
<ele>259</ele>
</trkpt>
<trkpt lat="39.661114001646638" lon="2.574328975751996">
<ele>261</ele>
</trkpt>
<trkpt lat="39.661101009696722" lon="2.574181035161018">
<ele>263</ele>
</trkpt>
<trkpt lat="39.661115007475019" lon="2.574046002700925">
<ele>265</ele>
</trkpt>
<trkpt lat="39.661120036616921" lon="2.573900995776057">
<ele>267</ele>
</trkpt>
<trkpt lat="39.661081982776523" lon="2.573832012712956">
<ele>269</ele>
</trkpt>
<trkpt lat="39.661066979169846" lon="2.573778033256531">
<ele>271</ele>
</trkpt>
<trkpt lat="39.661042001098394" lon="2.573535041883588">
<ele>273</ele>
</trkpt>
<trkpt lat="39.660987015813589" lon="2.573379976674914">
<ele>274</ele>
</trkpt>
<trkpt lat="39.660965977236629" lon="2.573345024138689">
<ele>276</ele>
</trkpt>
<trkpt lat="39.66088199056685" lon="2.57321996614337">
<ele>277</ele>
</trkpt>
<trkpt lat="39.660825999453664" lon="2.573127010837197">
<ele>279</ele>
</trkpt>
<trkpt lat="39.660736983641982" lon="2.573014022782445">
<ele>281</ele>
</trkpt>
<trkpt lat="39.660652996972203" lon="2.572887958958745">
<ele>282</ele>
</trkpt>
<trkpt lat="39.66058200225234" lon="2.572784023359418">
<ele>284</ele>
</trkpt>
<trkpt lat="39.660511007532477" lon="2.572657959535718">
<ele>285</ele>
</trkpt>
<trkpt lat="39.660463985055685" lon="2.572587970644236">
<ele>287</ele>
</trkpt>
<trkpt lat="39.660371029749513" lon="2.572452016174793">
<ele>288</ele>
</trkpt>
<trkpt lat="39.66030003502965" lon="2.572353025898337">
<ele>289</ele>
</trkpt>
<trkpt lat="39.660198027268052" lon="2.572284964844585">
<ele>291</ele>
</trkpt>
<trkpt lat="39.660147987306118" lon="2.57227499037981">
<ele>292</ele>
</trkpt>
<trkpt lat="39.660053020343184" lon="2.572339028120041">
<ele>293</ele>
</trkpt>
<trkpt lat="39.659961992874742" lon="2.572407005354762">
<ele>294</ele>
</trkpt>
<trkpt lat="39.659927040338516" lon="2.572441035881639">
<ele>295</ele>
</trkpt>
<trkpt lat="39.65980801731348" lon="2.572533991187811">
<ele>297</ele>
</trkpt>
<trkpt lat="39.659724030643702" lon="2.572581013664603">
<ele>298</ele>
</trkpt>
<trkpt lat="39.659667033702135" lon="2.572620995342732">
<ele>299</ele>
</trkpt>
<trkpt lat="39.659567959606647" lon="2.572654020041227">
<ele>300</ele>
</trkpt>
<trkpt lat="39.659412978217006" lon="2.572772037237883">
<ele>301</ele>
</trkpt>
<trkpt lat="39.659280041232705" lon="2.572841020300984">
<ele>302</ele>
</trkpt>
<trkpt lat="39.659147020429373" lon="2.5728730391711">
<ele>303</ele>
</trkpt>
<trkpt lat="39.659039983525872" lon="2.572894999757409">
<ele>304</ele>
</trkpt>
<trkpt lat="39.658962031826377" lon="2.572902962565422">
<ele>305</ele>
</trkpt>
<trkpt lat="39.658780982717872" lon="2.572881001979113">
<ele>306</ele>
</trkpt>
<trkpt lat="39.658636981621385" lon="2.572870021685958">
<ele>307</ele>
</trkpt>
<trkpt lat="39.658466996625066" lon="2.572881001979113">
<ele>308</ele>
</trkpt>
<trkpt lat="39.65830497443676" lon="2.572929030284286">
<ele>309</ele>
</trkpt>
<trkpt lat="39.658171031624079" lon="2.572987033054233">
<ele>310</ele>
</trkpt>
<trkpt lat="39.658029964193702" lon="2.573084011673927">
<ele>311</ele>
</trkpt>
<trkpt lat="39.657920999452472" lon="2.573161041364074">
<ele>312</ele>
</trkpt>
<trkpt lat="39.657869031652808" lon="2.573213009163737">
<ele>313</ele>
</trkpt>
<trkpt lat="39.657714972272515" lon="2.57332599721849">
<ele>314</ele>
</trkpt>
<trkpt lat="39.657562002539635" lon="2.573442002758384">
<ele>316</ele>
</trkpt>
<trkpt lat="39.657434010878205" lon="2.57354199886322">
<ele>317</ele>
</trkpt>
<trkpt lat="39.657318005338311" lon="2.573600001633167">
<ele>318</ele>
</trkpt>
<trkpt lat="39.657220020890236" lon="2.573558008298278">
<ele>319</ele>
</trkpt>
<trkpt lat="39.657196970656514" lon="2.573536969721317">
<ele>320</ele>
</trkpt>
<trkpt lat="39.657126981765032" lon="2.573558008298278">
<ele>321</ele>
</trkpt>
<trkpt lat="39.657127987593412" lon="2.573558008298278">
<ele>322</ele>
</trkpt>
<trkpt lat="39.657147014513612" lon="2.57356496527791">
<ele>322</ele>
</trkpt>
<trkpt lat="39.657153971493244" lon="2.573563037440181">
<ele>321</ele>
</trkpt>
<trkpt lat="39.657161012291908" lon="2.573544010519981">
<ele>320</ele>
</trkpt>
<trkpt lat="39.657221026718616" lon="2.573338989168406">
<ele>320</ele>
</trkpt>
<trkpt lat="39.657226977869868" lon="2.57332700304687">
<ele>320</ele>
</trkpt>
<trkpt lat="39.657301995903254" lon="2.57315400056541">
<ele>319</ele>
</trkpt>
<trkpt lat="39.657324962317944" lon="2.572992984205484">
<ele>318</ele>
</trkpt>
<trkpt lat="39.657365027815104" lon="2.572816964238882">
<ele>318</ele>
</trkpt>
<trkpt lat="39.657433005049825" lon="2.572754016146064">
<ele>318</ele>
</trkpt>
<trkpt lat="39.657528977841139" lon="2.572665000334382">
<ele>317</ele>
</trkpt>
<trkpt lat="39.657582035288215" lon="2.5725759845227">
<ele>319</ele>
</trkpt>
<trkpt lat="39.657601984217763" lon="2.572480011731386">
<ele>321</ele>
</trkpt>
<trkpt lat="39.657592009752989" lon="2.572315977886319">
<ele>323</ele>
</trkpt>
<trkpt lat="39.657591003924608" lon="2.572183040902019">
<ele>325</ele>
</trkpt>
<trkpt lat="39.657636014744639" lon="2.572152027860284">
<ele>326</ele>
</trkpt>
<trkpt lat="39.657708015292883" lon="2.572076003998518">
<ele>328</ele>
</trkpt>
<trkpt lat="39.657786972820759" lon="2.572014983743429">
<ele>330</ele>
</trkpt>
<trkpt lat="39.657882023602724" lon="2.571918005123735">
<ele>332</ele>
</trkpt>
<trkpt lat="39.657913958653808" lon="2.571878023445606">
<ele>334</ele>
</trkpt>
<trkpt lat="39.658041028305888" lon="2.571775009855628">
<ele>336</ele>
</trkpt>
<trkpt lat="39.658141024410725" lon="2.571682976558805">
<ele>337</ele>
</trkpt>
<trkpt lat="39.658245965838432" lon="2.571613993495703">
<ele>338</ele>
</trkpt>
<trkpt lat="39.658293994143605" lon="2.571536041796207">
<ele>339</ele>
</trkpt>
<trkpt lat="39.658205984160304" lon="2.571502011269331">
<ele>340</ele>
</trkpt>
<trkpt lat="39.658113028854132" lon="2.57148097269237">
<ele>341</ele>
</trkpt>
<trkpt lat="39.658019989728928" lon="2.571462029591203">
<ele>342</ele>
</trkpt>
<trkpt lat="39.657942960038781" lon="2.571455994620919">
<ele>343</ele>
</trkpt>
<trkpt lat="39.657928962260485" lon="2.571398997679353">
<ele>344</ele>
</trkpt>
<trkpt lat="39.657939020544291" lon="2.571352981030941">
<ele>345</ele>
</trkpt>
<trkpt lat="39.657856961712241" lon="2.571306964382529">
<ele>346</ele>
</trkpt>
<trkpt lat="39.65776601806283" lon="2.571276035159826">
<ele>349</ele>
</trkpt>
<trkpt lat="39.657701980322599" lon="2.571240998804569">
<ele>351</ele>
</trkpt>
<trkpt lat="39.657588992267847" lon="2.571133961901069">
<ele>354</ele>
</trkpt>
<trkpt lat="39.657486984506249" lon="2.570952996611595">
<ele>356</ele>
</trkpt>
<trkpt lat="39.657567031681538" lon="2.570900022983551">
<ele>359</ele>
</trkpt>
<trkpt lat="39.657569965347648" lon="2.570889964699745">
<ele>362</ele>
</trkpt>
<trkpt lat="39.657695023342967" lon="2.57076901383698">
<ele>364</ele>
</trkpt>
<trkpt lat="39.657737016677856" lon="2.570762978866696">
<ele>367</ele>
</trkpt>
<trkpt lat="39.657859979197383" lon="2.570638004690409">
<ele>369</ele>
</trkpt>
<trkpt lat="39.657866014167666" lon="2.570562986657023">
<ele>372</ele>
</trkpt>
<trkpt lat="39.658006997779012" lon="2.57049098610878">
<ele>374</ele>
</trkpt>
<trkpt lat="39.658044967800379" lon="2.570495009422302">
<ele>377</ele>
</trkpt>
<trkpt lat="39.658130966126919" lon="2.570457039400935">
<ele>379</ele>
</trkpt>
<trkpt lat="39.658135995268822" lon="2.570375986397266">
<ele>381</ele>
</trkpt>
<trkpt lat="39.658142030239105" lon="2.570346985012293">
<ele>384</ele>
</trkpt>
<trkpt lat="39.658278990536928" lon="2.570375986397266">
<ele>386</ele>
</trkpt>
<trkpt lat="39.658370018005371" lon="2.570266015827656">
<ele>388</ele>
</trkpt>
<trkpt lat="39.658417040482163" lon="2.57021002471447">
<ele>390</ele>
</trkpt>
<trkpt lat="39.658500021323562" lon="2.570172976702452">
<ele>393</ele>
</trkpt>
<trkpt lat="39.658575039356947" lon="2.570168031379581">
<ele>395</ele>
</trkpt>
<trkpt lat="39.658572021871805" lon="2.570155039429665">
<ele>398</ele>
</trkpt>
<trkpt lat="39.658512007445097" lon="2.570132995024324">
<ele>401</ele>
</trkpt>
<trkpt lat="39.658485017716885" lon="2.570053031668067">
<ele>404</ele>
</trkpt>
<trkpt lat="39.658681992441416" lon="2.570068035274744">
<ele>407</ele>
</trkpt>
<trkpt lat="39.658730020746589" lon="2.570026963949204">
<ele>410</ele>
</trkpt>
<trkpt lat="39.658758016303182" lon="2.570014977827668">
<ele>414</ele>
</trkpt>
<trkpt lat="39.658900005742908" lon="2.569971978664398">
<ele>417</ele>
</trkpt>
<trkpt lat="39.658960020169616" lon="2.569813979789615">
<ele>420</ele>
</trkpt>
<trkpt lat="39.658984998241067" lon="2.569666039198637">
<ele>423</ele>
</trkpt>
<trkpt lat="39.659006958827376" lon="2.569553973153234">
<ele>426</ele>
</trkpt>
<trkpt lat="39.659017017111182" lon="2.569488007575274">
<ele>430</ele>
</trkpt>
<trkpt lat="39.659066973254085" lon="2.569324979558587">
<ele>433</ele>
</trkpt>
<trkpt lat="39.659060016274452" lon="2.569207968190312">
<ele>437</ele>
</trkpt>
<trkpt lat="39.659107960760593" lon="2.56911501288414">
<ele>440</ele>
</trkpt>
<trkpt lat="39.659113995730877" lon="2.56905198097229">
<ele>444</ele>
</trkpt>
<trkpt lat="39.659149032086134" lon="2.568861041218042">
<ele>448</ele>
</trkpt>
<trkpt lat="39.659211980178952" lon="2.568731959909201">
<ele>451</ele>
</trkpt>
<trkpt lat="39.659258332103491" lon="2.568619474768639">
<ele>455</ele>
</trkpt>
<trkpt lat="39.65930862352252" lon="2.568537332117558">
<ele>458</ele>
</trkpt>
<trkpt lat="39.659331003203988" lon="2.568527022376657">
<ele>462</ele>
</trkpt>
<trkpt lat="39.65942395851016" lon="2.568541020154953">
<ele>464</ele>
</trkpt>
<trkpt lat="39.659491013735533" lon="2.56853498518467">
<ele>465</ele>
</trkpt>
<trkpt lat="39.659515991806984" lon="2.568516964092851">
<ele>467</ele>
</trkpt>
<trkpt lat="39.659606013447046" lon="2.568437000736594">
<ele>469</ele>
</trkpt>
<trkpt lat="39.659610958769917" lon="2.568429037928581">
<ele>470</ele>
</trkpt>
<trkpt lat="39.65972201898694" lon="2.568281013518572">
<ele>472</ele>
</trkpt>
<trkpt lat="39.65974498540163" lon="2.568112034350634">
<ele>474</ele>
</trkpt>
<trkpt lat="39.659756971523166" lon="2.56804003380239">
<ele>476</ele>
</trkpt>
<trkpt lat="39.6597879845649" lon="2.567920004948974">
<ele>477</ele>
</trkpt>
<trkpt lat="39.659838024526834" lon="2.567835012450814">
<ele>479</ele>
</trkpt>
<trkpt lat="39.659852022305131" lon="2.567714983597398">
<ele>480</ele>
</trkpt>
<trkpt lat="39.659870965406299" lon="2.567582968622446">
<ele>481</ele>
</trkpt>
<trkpt lat="39.659932991489768" lon="2.567408960312605">
<ele>482</ele>
</trkpt>
<trkpt lat="39.659926034510136" lon="2.56724601611495">
<ele>483</ele>
</trkpt>
<trkpt lat="39.659914970397949" lon="2.567223971709609">
<ele>484</ele>
</trkpt>
<trkpt lat="39.659926034510136" lon="2.567105032503605">
<ele>486</ele>
</trkpt>
<trkpt lat="39.659966016188264" lon="2.567033031955361">
<ele>487</ele>
</trkpt>
<trkpt lat="39.660017983987927" lon="2.566913003101945">
<ele>488</ele>
</trkpt>
<trkpt lat="39.660072969272733" lon="2.566867992281914">
<ele>489</ele>
</trkpt>
<trkpt lat="39.660179000347853" lon="2.566962037235498">
<ele>490</ele>
</trkpt>
<trkpt lat="39.660261981189251" lon="2.566913003101945">
<ele>490</ele>
</trkpt>
<trkpt lat="39.660353008657694" lon="2.566872015595436">
<ele>490</ele>
</trkpt>
<trkpt lat="39.660448981449008" lon="2.566804038360715">
<ele>489</ele>
</trkpt>
<trkpt lat="39.660503966733813" lon="2.566787023097277">
<ele>489</ele>
</trkpt>
<trkpt lat="39.660597005859017" lon="2.566789034754038">
<ele>489</ele>
</trkpt>
<trkpt lat="39.660673029720783" lon="2.566784005612135">
<ele>489</ele>
</trkpt>
<trkpt lat="39.660720974206924" lon="2.566767996177077">
<ele>489</ele>
</trkpt>
<trkpt lat="39.660927001386881" lon="2.566690966486931">
<ele>488</ele>
</trkpt>
<trkpt lat="39.660952985286713" lon="2.566671017557383">
<ele>488</ele>
</trkpt>
<trkpt lat="39.661047030240297" lon="2.566636987030506">
<ele>488</ele>
</trkpt>
<trkpt lat="39.661110984161496" lon="2.566627012565732">
<ele>488</ele>
</trkpt>
<trkpt lat="39.661293039098382" lon="2.566684009507299">
<ele>489</ele>
</trkpt>
<trkpt lat="39.661369984969497" lon="2.566735977306962">
<ele>489</ele>
</trkpt>
<trkpt lat="39.661474004387856" lon="2.566761961206794">
<ele>490</ele>
</trkpt>
<trkpt lat="39.661521026864648" lon="2.566757015883923">
<ele>490</ele>
</trkpt>
<trkpt lat="39.661552039906383" lon="2.566756010055542">
<ele>490</ele>
</trkpt>
<trkpt lat="39.661694029346108" lon="2.566733965650201">
<ele>491</ele>
</trkpt>
<trkpt lat="39.661759994924068" lon="2.566759027540684">
<ele>491</ele>
</trkpt>
<trkpt lat="39.661963004618883" lon="2.566728014498949">
<ele>492</ele>
</trkpt>
<trkpt lat="39.661967027932405" lon="2.566701024770737">
<ele>492</ele>
</trkpt>
<trkpt lat="39.661971973255277" lon="2.566685015335679">
<ele>494</ele>
</trkpt>
<trkpt lat="39.66195797547698" lon="2.566646039485931">
<ele>495</ele>
</trkpt>
<trkpt lat="39.661865020170808" lon="2.566492985934019">
<ele>497</ele>
</trkpt>
<trkpt lat="39.661826966330409" lon="2.566406987607479">
<ele>498</ele>
</trkpt>
<trkpt lat="39.661810034886003" lon="2.566305985674262">
<ele>500</ele>
</trkpt>
<trkpt lat="39.661770975217223" lon="2.566171959042549">
<ele>502</ele>
</trkpt>
<trkpt lat="39.66172001324594" lon="2.566071962937713">
<ele>503</ele>
</trkpt>
<trkpt lat="39.661667039617896" lon="2.565982025116682">
<ele>505</ele>
</trkpt>
<trkpt lat="39.661658992990851" lon="2.565953023731709">
<ele>506</ele>
</trkpt>
<trkpt lat="39.66174197383225" lon="2.565912958234549">
<ele>508</ele>
</trkpt>
<trkpt lat="39.661916987970471" lon="2.566027035936713">
<ele>510</ele>
</trkpt>
<trkpt lat="39.661988988518715" lon="2.566012032330036">
<ele>512</ele>
</trkpt>
<trkpt lat="39.662017989903688" lon="2.565951012074947">
<ele>513</ele>
</trkpt>
<trkpt lat="39.662081021815538" lon="2.565766023471952">
<ele>515</ele>
</trkpt>
<trkpt lat="39.662117986008525" lon="2.565648006275296">
<ele>517</ele>
</trkpt>
<trkpt lat="39.662131983786821" lon="2.565547004342079">
<ele>519</ele>
</trkpt>
<trkpt lat="39.662176994606853" lon="2.565406020730734">
<ele>521</ele>
</trkpt>
<trkpt lat="39.662200966849923" lon="2.565282974392176">
<ele>522</ele>
</trkpt>
<trkpt lat="39.662229968234897" lon="2.565185995772481">
<ele>524</ele>
</trkpt>
<trkpt lat="39.662280008196831" lon="2.565089017152786">
<ele>526</ele>
</trkpt>
<trkpt lat="39.662310015410185" lon="2.56494702771306">
<ele>527</ele>
</trkpt>
<trkpt lat="39.662338010966778" lon="2.564788023009896">
<ele>528</ele>
</trkpt>
<trkpt lat="39.662226028740406" lon="2.564760027453303">
<ele>529</ele>
</trkpt>
<trkpt lat="39.662173977121711" lon="2.564783999696374">
<ele>530</ele>
</trkpt>
<trkpt lat="39.662029976025224" lon="2.564837979152799">
<ele>532</ele>
</trkpt>
<trkpt lat="39.661916987970471" lon="2.564872009679675">
<ele>533</ele>
</trkpt>
<trkpt lat="39.6617859788239" lon="2.564898999407888">
<ele>534</ele>
</trkpt>
<trkpt lat="39.661642983555794" lon="2.564921965822578">
<ele>535</ele>
</trkpt>
<trkpt lat="39.661560002714396" lon="2.564897993579507">
<ele>536</ele>
</trkpt>
<trkpt lat="39.66156997717917" lon="2.564836973324418">
<ele>537</ele>
</trkpt>
<trkpt lat="39.661618005484343" lon="2.564729014411569">
<ele>539</ele>
</trkpt>
<trkpt lat="39.66169604100287" lon="2.564660031348467">
<ele>541</ele>
</trkpt>
<trkpt lat="39.661706015467644" lon="2.564643016085029">
<ele>543</ele>
</trkpt>
<trkpt lat="39.661788996309042" lon="2.564492980018258">
<ele>545</ele>
</trkpt>
<trkpt lat="39.661662010475993" lon="2.564307991415262">
<ele>548</ele>
</trkpt>
<trkpt lat="39.66156997717917" lon="2.564244037494063">
<ele>550</ele>
</trkpt>
<trkpt lat="39.661523960530758" lon="2.564186034724116">
<ele>552</ele>
</trkpt>
<trkpt lat="39.661426981911063" lon="2.564099030569196">
<ele>554</ele>
</trkpt>
<trkpt lat="39.66133201494813" lon="2.564042033627629">
<ele>556</ele>
</trkpt>
<trkpt lat="39.661212991923094" lon="2.563951006159186">
<ele>558</ele>
</trkpt>
<trkpt lat="39.661133028566837" lon="2.563868025317788">
<ele>559</ele>
</trkpt>
<trkpt lat="39.661095980554819" lon="2.563832988962531">
<ele>560</ele>
</trkpt>
<trkpt lat="39.660990033298731" lon="2.563749002292752">
<ele>560</ele>
</trkpt>
<trkpt lat="39.660892970860004" lon="2.563665015622973">
<ele>561</ele>
</trkpt>
<trkpt lat="39.660824993625283" lon="2.563598966225982">
<ele>562</ele>
</trkpt>
<trkpt lat="39.660765985026956" lon="2.56348698399961">
<ele>563</ele>
</trkpt>
<trkpt lat="39.660708988085389" lon="2.563366033136845">
<ele>564</ele>
</trkpt>
<trkpt lat="39.660658026114106" lon="2.563252961263061">
<ele>564</ele>
</trkpt>
<trkpt lat="39.660617960616946" lon="2.563111977651715">
<ele>565</ele>
</trkpt>
<trkpt lat="39.660590970888734" lon="2.562992032617331">
<ele>566</ele>
</trkpt>
<trkpt lat="39.660562975332141" lon="2.562867980450392">
<ele>567</ele>
</trkpt>
<trkpt lat="39.660594994202256" lon="2.562763961032033">
<ele>568</ele>
</trkpt>
<trkpt lat="39.660523999482393" lon="2.562659019604325">
<ele>570</ele>
</trkpt>
<trkpt lat="39.660417968407273" lon="2.562581989914179">
<ele>571</ele>
</trkpt>
<trkpt lat="39.660403970628977" lon="2.562528010457754">
<ele>572</ele>
</trkpt>
<trkpt lat="39.660438001155853" lon="2.562398007139564">
<ele>573</ele>
</trkpt>
<trkpt lat="39.660443030297756" lon="2.562375962734222">
<ele>574</ele>
</trkpt>
<trkpt lat="39.660448981449008" lon="2.562341010197997">
<ele>576</ele>
</trkpt>
<trkpt lat="39.66045300476253" lon="2.562202038243413">
<ele>577</ele>
</trkpt>
<trkpt lat="39.660457028076053" lon="2.562198014929891">
<ele>578</ele>
</trkpt>
<trkpt lat="39.660461721941829" lon="2.562214694917202">
<ele>578</ele>
</trkpt>
<trkpt lat="39.660448310896754" lon="2.562271021306515">
<ele>577</ele>
</trkpt>
<trkpt lat="39.660442862659693" lon="2.562344949692488">
<ele>576</ele>
</trkpt>
<trkpt lat="39.660405144095421" lon="2.562475120648742">
<ele>576</ele>
</trkpt>
<trkpt lat="39.660415956750512" lon="2.562587773427367">
<ele>576</ele>
</trkpt>
<trkpt lat="39.660439006984234" lon="2.562318965792656">
<ele>575</ele>
</trkpt>
<trkpt lat="39.660433977842331" lon="2.562404964119196">
<ele>574</ele>
</trkpt>
<trkpt lat="39.660418974235654" lon="2.562475958839059">
<ele>574</ele>
</trkpt>
<trkpt lat="39.660413023084402" lon="2.562643010169268">
<ele>574</ele>
</trkpt>
<trkpt lat="39.660508995875716" lon="2.562703024595976">
<ele>573</ele>
</trkpt>
<trkpt lat="39.660554006695747" lon="2.562759015709162">
<ele>572</ele>
</trkpt>
<trkpt lat="39.660548977553844" lon="2.562901005148888">
<ele>571</ele>
</trkpt>
<trkpt lat="39.660576973110437" lon="2.562974011525512">
<ele>571</ele>
</trkpt>
<trkpt lat="39.660590970888734" lon="2.563054980710149">
<ele>570</ele>
</trkpt>
<trkpt lat="39.660654421895742" lon="2.563274670392275">
<ele>569</ele>
</trkpt>
<trkpt lat="39.660702953115106" lon="2.56337558850646">
<ele>568</ele>
</trkpt>
<trkpt lat="39.660765817388892" lon="2.563499892130494">
<ele>567</ele>
</trkpt>
<trkpt lat="39.660823317244649" lon="2.563610197976232">
<ele>567</ele>
</trkpt>
<trkpt lat="39.660888025537133" lon="2.563664177432656">
<ele>566</ele>
</trkpt>
<trkpt lat="39.660988608375192" lon="2.56375570781529">
<ele>565</ele>
</trkpt>
<trkpt lat="39.661092795431614" lon="2.563830809667707">
<ele>564</ele>
</trkpt>
<trkpt lat="39.661126909777522" lon="2.563875401392579">
<ele>562</ele>
</trkpt>
<trkpt lat="39.661211399361491" lon="2.563962154090405">
<ele>560</ele>
</trkpt>
<trkpt lat="39.661303013563156" lon="2.564009092748165">
<ele>559</ele>
</trkpt>
<trkpt lat="39.661385659128428" lon="2.564072459936142">
<ele>558</ele>
</trkpt>
<trkpt lat="39.661452127620578" lon="2.564126439392567">
<ele>556</ele>
</trkpt>
<trkpt lat="39.661556314677" lon="2.564236745238304">
<ele>554</ele>
</trkpt>
<trkpt lat="39.661640804260969" lon="2.564295418560505">
<ele>553</ele>
</trkpt>
<trkpt lat="39.661700064316392" lon="2.564363479614258">
<ele>552</ele>
</trkpt>
<trkpt lat="39.66177374124527" lon="2.564457273110747">
<ele>550</ele>
</trkpt>
<trkpt lat="39.661578442901373" lon="2.564751477912068">
<ele>548</ele>
</trkpt>
<trkpt lat="39.661533515900373" lon="2.564927414059639">
<ele>547</ele>
</trkpt>
<trkpt lat="39.661686234176159" lon="2.56490402854979">
<ele>545</ele>
</trkpt>
<trkpt lat="39.661901816725731" lon="2.56485708989203">
<ele>544</ele>
</trkpt>
<trkpt lat="39.66208596713841" lon="2.564798416569829">
<ele>542</ele>
</trkpt>
<trkpt lat="39.662198284640908" lon="2.564763212576509">
<ele>540</ele>
</trkpt>
<trkpt lat="39.662274643778801" lon="2.564798416569829">
<ele>539</ele>
</trkpt>
<trkpt lat="39.662310602143407" lon="2.564827753230929">
<ele>537</ele>
</trkpt>
<trkpt lat="39.662234243005514" lon="2.565121036022902">
<ele>536</ele>
</trkpt>
<trkpt lat="39.662193758413196" lon="2.565279453992844">
<ele>534</ele>
</trkpt>
<trkpt lat="39.662148831412196" lon="2.565455390140414">
<ele>532</ele>
</trkpt>
<trkpt lat="39.662112956866622" lon="2.565625542774797">
<ele>530</ele>
</trkpt>
<trkpt lat="39.662090493366122" lon="2.565760491415858">
<ele>528</ele>
</trkpt>
<trkpt lat="39.662023102864623" lon="2.56600096821785">
<ele>526</ele>
</trkpt>
<trkpt lat="39.661960238590837" lon="2.56601270288229">
<ele>524</ele>
</trkpt>
<trkpt lat="39.661870384588838" lon="2.56601270288229">
<ele>522</ele>
</trkpt>
<trkpt lat="39.661785056814551" lon="2.56598923355341">
<ele>520</ele>
</trkpt>
<trkpt lat="39.661681707948446" lon="2.56601270288229">
<ele>518</ele>
</trkpt>
<trkpt lat="39.661762593314052" lon="2.566212192177773">
<ele>516</ele>
</trkpt>
<trkpt lat="39.661811962723732" lon="2.566393995657563">
<ele>514</ele>
</trkpt>
<trkpt lat="39.66189737431705" lon="2.566558280959725">
<ele>514</ele>
</trkpt>
<trkpt lat="39.661973733454943" lon="2.566663892939687">
<ele>513</ele>
</trkpt>
<trkpt lat="39.661973733454943" lon="2.566734300926328">
<ele>513</ele>
</trkpt>
<trkpt lat="39.662139862775803" lon="2.566822227090597">
<ele>513</ele>
</trkpt>
<trkpt lat="39.662279086187482" lon="2.566775372251868">
<ele>512</ele>
</trkpt>
<trkpt lat="39.662467762827873" lon="2.566757770255208">
<ele>512</ele>
</trkpt>
<trkpt lat="39.662625007331371" lon="2.566751902922988">
<ele>512</ele>
</trkpt>
<trkpt lat="39.662678902968764" lon="2.566763637587428">
<ele>512</ele>
</trkpt>
<trkpt lat="39.662733972072601" lon="2.56679498590529">
<ele>511</ele>
</trkpt>
<trkpt lat="39.662761967629194" lon="2.566903028637171">
<ele>511</ele>
</trkpt>
<trkpt lat="39.662826005369425" lon="2.567037977278233">
<ele>509</ele>
</trkpt>
<trkpt lat="39.66288099065423" lon="2.567078964784741">
<ele>508</ele>
</trkpt>
<trkpt lat="39.662956008687615" lon="2.567153982818127">
<ele>506</ele>
</trkpt>
<trkpt lat="39.663011999800801" lon="2.567322039976716">
<ele>504</ele>
</trkpt>
<trkpt lat="39.662990039214492" lon="2.56733201444149">
<ele>502</ele>
</trkpt>
<trkpt lat="39.662989033386111" lon="2.567339977249503">
<ele>501</ele>
</trkpt>
<trkpt lat="39.662990961223841" lon="2.567341988906264">
<ele>499</ele>
</trkpt>
<trkpt lat="39.662990961223841" lon="2.567341988906264">
<ele>501</ele>
</trkpt>
<trkpt lat="39.662991967052221" lon="2.567342994734645">
<ele>502</ele>
</trkpt>
<trkpt lat="39.662991967052221" lon="2.567342994734645">
<ele>504</ele>
</trkpt>
<trkpt lat="39.662993811070919" lon="2.567219445481896">
<ele>505</ele>
</trkpt>
<trkpt lat="39.662961456924677" lon="2.567146774381399">
<ele>507</ele>
</trkpt>
<trkpt lat="39.662918373942375" lon="2.567090447992086">
<ele>509</ele>
</trkpt>
<trkpt lat="39.66282139532268" lon="2.56703881546855">
<ele>510</ele>
</trkpt>
<trkpt lat="39.662767499685287" lon="2.566886264830828">
<ele>512</ele>
</trkpt>
<trkpt lat="39.662745874375105" lon="2.56678769364953">
<ele>513</ele>
</trkpt>
<trkpt lat="39.662812007591128" lon="2.56673002615571">
<ele>515</ele>
</trkpt>
<trkpt lat="39.662889959290624" lon="2.566660037264228">
<ele>514</ele>
</trkpt>
<trkpt lat="39.663000013679266" lon="2.56657999008894">
<ele>512</ele>
</trkpt>
<trkpt lat="39.663091963157058" lon="2.566533973440528">
<ele>511</ele>
</trkpt>
<trkpt lat="39.663215009495616" lon="2.566482005640864">
<ele>509</ele>
</trkpt>
<trkpt lat="39.663236970081925" lon="2.566435988992453">
<ele>508</ele>
</trkpt>
<trkpt lat="39.663339983671904" lon="2.566352002322674">
<ele>507</ele>
</trkpt>
<trkpt lat="39.663427993655205" lon="2.566362982615829">
<ele>505</ele>
</trkpt>
<trkpt lat="39.663477027788758" lon="2.566382009536028">
<ele>504</ele>
</trkpt>
<trkpt lat="39.663522038608789" lon="2.566341022029519">
<ele>502</ele>
</trkpt>
<trkpt lat="39.663547016680241" lon="2.566326018422842">
<ele>501</ele>
</trkpt>
<trkpt lat="39.663637960329652" lon="2.56645099259913">
<ele>499</ele>
</trkpt>
<trkpt lat="39.663646006956697" lon="2.566496003419161">
<ele>497</ele>
</trkpt>
<trkpt lat="39.663707027211785" lon="2.566418973729014">
<ele>495</ele>
</trkpt>
<trkpt lat="39.663797970861197" lon="2.566373040899634">
<ele>493</ele>
</trkpt>
<trkpt lat="39.66386703774333" lon="2.566413022577763">
<ele>490</ele>
</trkpt>
<trkpt lat="39.66393300332129" lon="2.566458033397794">
<ele>488</ele>
</trkpt>
<trkpt lat="39.663969967514277" lon="2.566510001197457">
<ele>486</ele>
</trkpt>
<trkpt lat="39.664000980556011" lon="2.566559035331011">
<ele>484</ele>
</trkpt>
<trkpt lat="39.664001986384392" lon="2.56656096316874">
<ele>482</ele>
</trkpt>
<trkpt lat="39.664003998041153" lon="2.566564986482263">
<ele>480</ele>
</trkpt>
<trkpt lat="39.664008021354675" lon="2.566565992310643">
<ele>478</ele>
</trkpt>
<trkpt lat="39.664015984162688" lon="2.566597005352378">
<ele>476</ele>
</trkpt>
<trkpt lat="39.66403903439641" lon="2.566698007285595">
<ele>474</ele>
</trkpt>
<trkpt lat="39.663978014141321" lon="2.566833961755037">
<ele>472</ele>
</trkpt>
<trkpt lat="39.663990000262856" lon="2.566866986453533">
<ele>470</ele>
</trkpt>
<trkpt lat="39.663992011919618" lon="2.566910991445184">
<ele>467</ele>
</trkpt>
<trkpt lat="39.66408496722579" lon="2.566946027800441">
<ele>465</ele>
</trkpt>
<trkpt lat="39.664156967774034" lon="2.566887019202113">
<ele>463</ele>
</trkpt>
<trkpt lat="39.664241960272193" lon="2.566990032792091">
<ele>461</ele>
</trkpt>
<trkpt lat="39.664241960272193" lon="2.566990032792091">
<ele>459</ele>
</trkpt>
<trkpt lat="39.664324019104242" lon="2.566950973123312">
<ele>457</ele>
</trkpt>
<trkpt lat="39.664371963590384" lon="2.566968994215131">
<ele>454</ele>
</trkpt>
<trkpt lat="39.664399037137628" lon="2.567049041390419">
<ele>452</ele>
</trkpt>
<trkpt lat="39.664381016045809" lon="2.567222965881228">
<ele>450</ele>
</trkpt>
<trkpt lat="39.664409011602402" lon="2.567273005843163">
<ele>448</ele>
</trkpt>
<trkpt lat="39.664409011602402" lon="2.567273005843163">
<ele>445</ele>
</trkpt>
<trkpt lat="39.664299041032791" lon="2.567438967525959">
<ele>443</ele>
</trkpt>
<trkpt lat="39.664238020777702" lon="2.567457994446158">
<ele>441</ele>
</trkpt>
<trkpt lat="39.664143975824118" lon="2.567613981664181">
<ele>438</ele>
</trkpt>
<trkpt lat="39.664059989154339" lon="2.567744990810752">
<ele>436</ele>
</trkpt>
<trkpt lat="39.664077004417777" lon="2.567778015509248">
<ele>435</ele>
</trkpt>
<trkpt lat="39.664085973054171" lon="2.567785978317261">
<ele>434</ele>
</trkpt>
<trkpt lat="39.664045991376042" lon="2.567948000505567">
<ele>432</ele>
</trkpt>
<trkpt lat="39.663965022191405" lon="2.568073980510235">
<ele>431</ele>
</trkpt>
<trkpt lat="39.663923028856516" lon="2.568122008815408">
<ele>430</ele>
</trkpt>
<trkpt lat="39.663830995559692" lon="2.568299034610391">
<ele>429</ele>
</trkpt>
<trkpt lat="39.66374097391963" lon="2.56842702627182">
<ele>428</ele>
</trkpt>
<trkpt lat="39.663651958107948" lon="2.568504977971315">
<ele>426</ele>
</trkpt>
<trkpt lat="39.663642989471555" lon="2.568510007113218">
<ele>425</ele>
</trkpt>
<trkpt lat="39.663545005023479" lon="2.568672029301524">
<ele>424</ele>
</trkpt>
<trkpt lat="39.663483984768391" lon="2.568758027628064">
<ele>422</ele>
</trkpt>
<trkpt lat="39.663493959233165" lon="2.568866992369294">
<ele>419</ele>
</trkpt>
<trkpt lat="39.663531007245183" lon="2.568910997360945">
<ele>417</ele>
</trkpt>
<trkpt lat="39.663629997521639" lon="2.568902028724551">
<ele>415</ele>
</trkpt>
<trkpt lat="39.663662016391754" lon="2.568899011239409">
<ele>412</ele>
</trkpt>
<trkpt lat="39.663760000839829" lon="2.568802032619715">
<ele>410</ele>
</trkpt>
<trkpt lat="39.663815991953015" lon="2.568746963515878">
<ele>408</ele>
</trkpt>
<trkpt lat="39.663936020806432" lon="2.568716034293175">
<ele>406</ele>
</trkpt>
<trkpt lat="39.663995029404759" lon="2.568735983222723">
<ele>403</ele>
</trkpt>
<trkpt lat="39.663948006927967" lon="2.568781999871135">
<ele>401</ele>
</trkpt>
<trkpt lat="39.663907019421458" lon="2.568808989599347">
<ele>400</ele>
</trkpt>
<trkpt lat="39.66384700499475" lon="2.569030020385981">
<ele>398</ele>
</trkpt>
<trkpt lat="39.663758995011449" lon="2.569148959591985">
<ele>397</ele>
</trkpt>
<trkpt lat="39.663656987249851" lon="2.569169998168945">
<ele>396</ele>
</trkpt>
<trkpt lat="39.663573000580072" lon="2.569248033687472">
<ele>394</ele>
</trkpt>
<trkpt lat="39.663517009466887" lon="2.569374013692141">
<ele>393</ele>
</trkpt>
<trkpt lat="39.663479961454868" lon="2.569487001746893">
<ele>392</ele>
</trkpt>
<trkpt lat="39.663454983383417" lon="2.569595966488123">
<ele>391</ele>
</trkpt>
<trkpt lat="39.663412990048528" lon="2.569713983684778">
<ele>389</ele>
</trkpt>
<trkpt lat="39.66341701336205" lon="2.569798976182938">
<ele>388</ele>
</trkpt>
<trkpt lat="39.663394968956709" lon="2.56986896507442">
<ele>387</ele>
</trkpt>
<trkpt lat="39.663380971178412" lon="2.569877011701465">
<ele>386</ele>
</trkpt>
<trkpt lat="39.663277035579085" lon="2.569927973672748">
<ele>385</ele>
</trkpt>
<trkpt lat="39.663189025595784" lon="2.570029981434345">
<ele>384</ele>
</trkpt>
<trkpt lat="39.663107972592115" lon="2.570112040266395">
<ele>384</ele>
</trkpt>
<trkpt lat="39.663013005629182" lon="2.570200972259045">
<ele>383</ele>
</trkpt>
<trkpt lat="39.66292298398912" lon="2.570304991677404">
<ele>382</ele>
</trkpt>
<trkpt lat="39.662830028682947" lon="2.57036198861897">
<ele>381</ele>
</trkpt>
<trkpt lat="39.662714023143053" lon="2.570446981117129">
<ele>380</ele>
</trkpt>
<trkpt lat="39.662702959030867" lon="2.570458967238665">
<ele>379</ele>
</trkpt>
<trkpt lat="39.662586031481624" lon="2.570519987493753">
<ele>377</ele>
</trkpt>
<trkpt lat="39.662496009841561" lon="2.570495009422302">
<ele>375</ele>
</trkpt>
<trkpt lat="39.662457033991814" lon="2.570520993322134">
<ele>372</ele>
</trkpt>
<trkpt lat="39.66238796710968" lon="2.57066298276186">
<ele>370</ele>
</trkpt>
<trkpt lat="39.662357959896326" lon="2.570729032158852">
<ele>368</ele>
</trkpt>
<trkpt lat="39.662315966561437" lon="2.570835985243321">
<ele>366</ele>
</trkpt>
<trkpt lat="39.662293000146747" lon="2.570870015770197">
<ele>364</ele>
</trkpt>
<trkpt lat="39.662244971841574" lon="2.571042012423277">
<ele>361</ele>
</trkpt>
<trkpt lat="39.662216976284981" lon="2.571115018799901">
<ele>359</ele>
</trkpt>
<trkpt lat="39.662204990163445" lon="2.571238987147808">
<ele>357</ele>
</trkpt>
<trkpt lat="39.662259975448251" lon="2.571180984377861">
<ele>356</ele>
</trkpt>
<trkpt lat="39.662353014573455" lon="2.571076964959502">
<ele>354</ele>
</trkpt>
<trkpt lat="39.662424009293318" lon="2.570991972461343">
<ele>352</ele>
</trkpt>
<trkpt lat="39.662454016506672" lon="2.571061039343476">
<ele>351</ele>
</trkpt>
<trkpt lat="39.662446975708008" lon="2.57111401297152">
<ele>350</ele>
</trkpt>
<trkpt lat="39.66242803260684" lon="2.571239992976189">
<ele>348</ele>
</trkpt>
<trkpt lat="39.662401964887977" lon="2.57135096937418">
<ele>346</ele>
</trkpt>
<trkpt lat="39.662381010130048" lon="2.571424981579185">
<ele>345</ele>
</trkpt>
<trkpt lat="39.662286965176463" lon="2.57156596519053">
<ele>344</ele>
</trkpt>
<trkpt lat="39.662263998761773" lon="2.57160603068769">
<ele>342</ele>
</trkpt>
<trkpt lat="39.66216903179884" lon="2.571705020964146">
<ele>339</ele>
</trkpt>
<trkpt lat="39.662142964079976" lon="2.571727987378836">
<ele>336</ele>
</trkpt>
<trkpt lat="39.662022013217211" lon="2.571793030947447">
<ele>333</ele>
</trkpt>
<trkpt lat="39.661983959376812" lon="2.571982964873314">
<ele>330</ele>
</trkpt>
<trkpt lat="39.661979014053941" lon="2.572002997621894">
<ele>328</ele>
</trkpt>
<trkpt lat="39.661939032375813" lon="2.572257975116372">
<ele>325</ele>
</trkpt>
<trkpt lat="39.661921011283994" lon="2.572343973442912">
<ele>322</ele>
</trkpt>
<trkpt lat="39.66191103681922" lon="2.572534997016192">
<ele>319</ele>
</trkpt>
<trkpt lat="39.66191397048533" lon="2.572750998660922">
<ele>316</ele>
</trkpt>
<trkpt lat="39.661915982142091" lon="2.57276801392436">
<ele>313</ele>
</trkpt>
<trkpt lat="39.661950012668967" lon="2.572893993929029">
<ele>314</ele>
</trkpt>
<trkpt lat="39.662014972418547" lon="2.572990972548723">
<ele>314</ele>
</trkpt>
<trkpt lat="39.662059983238578" lon="2.573073031380773">
<ele>314</ele>
</trkpt>
<trkpt lat="39.662155034020543" lon="2.573059033602476">
<ele>315</ele>
</trkpt>
<trkpt lat="39.66221303679049" lon="2.572930958122015">
<ele>316</ele>
</trkpt>
<trkpt lat="39.662250000983477" lon="2.572878990322352">
<ele>316</ele>
</trkpt>
<trkpt lat="39.66234396211803" lon="2.57281101308763">
<ele>316</ele>
</trkpt>
<trkpt lat="39.662388972938061" lon="2.572771031409502">
<ele>317</ele>
</trkpt>
<trkpt lat="39.662462985143065" lon="2.572611020877957">
<ele>318</ele>
</trkpt>
<trkpt lat="39.66257999651134" lon="2.572396025061607">
<ele>318</ele>
</trkpt>
<trkpt lat="39.662668006494641" lon="2.57235998287797">
<ele>316</ele>
</trkpt>
<trkpt lat="39.662674041464925" lon="2.572357971221209">
<ele>314</ele>
</trkpt>
<trkpt lat="39.662763979285955" lon="2.572355037555099">
<ele>312</ele>
</trkpt>
<trkpt lat="39.662881996482611" lon="2.572322012856603">
<ele>310</ele>
</trkpt>
<trkpt lat="39.662893982604146" lon="2.572310026735067">
<ele>308</ele>
</trkpt>
<trkpt lat="39.663018034771085" lon="2.572312960401177">
<ele>306</ele>
</trkpt>
<trkpt lat="39.663101015612483" lon="2.572296028956771">
<ele>304</ele>
</trkpt>
<trkpt lat="39.663166981190443" lon="2.572306003421545">
<ele>302</ele>
</trkpt>
<trkpt lat="39.663231018930674" lon="2.572331987321377">
<ele>300</ele>
</trkpt>
<trkpt lat="39.663292961195111" lon="2.572440030053258">
<ele>298</ele>
</trkpt>
<trkpt lat="39.663207968696952" lon="2.572592999786139">
<ele>297</ele>
</trkpt>
<trkpt lat="39.663177039474249" lon="2.572702970355749">
<ele>296</ele>
</trkpt>
<trkpt lat="39.663119958713651" lon="2.57281000725925">
<ele>295</ele>
</trkpt>
<trkpt lat="39.663062961772084" lon="2.572992984205484">
<ele>294</ele>
</trkpt>
<trkpt lat="39.663064973428845" lon="2.573129022493959">
<ele>292</ele>
</trkpt>
<trkpt lat="39.663062039762735" lon="2.573215020820499">
<ele>291</ele>
</trkpt>
<trkpt lat="39.663042007014155" lon="2.57330596446991">
<ele>290</ele>
</trkpt>
<trkpt lat="39.663033960387111" lon="2.573444014415145">
<ele>289</ele>
</trkpt>
<trkpt lat="39.662996996194124" lon="2.573516014963388">
<ele>288</ele>
</trkpt>
<trkpt lat="39.662892976775765" lon="2.573702009394765">
<ele>287</ele>
</trkpt>
</trkseg>
</trk>
</gpx>
