<?xml version="1.0" encoding="UTF-8"?>
<gpx version="1.1"
creator="Smartprofil-Office - http://www.rother.de"
xmlns:xsi="http://www.w3.org/2001/XMLSchema-instance"
xmlns="http://www.topografix.com/GPX/1/1"
xsi:schemaLocation="http://www.topografix.com/GPX/1/1 http://www.topografix.com/GPX/1/1/gpx.xsd">
<metadata>

<bounds minlat="39.458189969882369" minlon="2.519126934930682" maxlat="39.472168972715735" maxlon="2.523321742191911"/>
</metadata>
<wpt lat="39.472168972715735" lon="2.520592007786036">
<ele>1</ele>
<name>03_Portals Vells (1)</name>
<cmt></cmt>
<desc></desc>
<sym>Crossing</sym>
</wpt>

<wpt lat="39.465295979753137" lon="2.521374961361289">
<ele>20</ele>
<name>03_Cala en Beltrán (2)</name>
<cmt></cmt>
<desc></desc>
<sym>Crossing</sym>
</wpt>

<wpt lat="39.462736984714866" lon="2.519161971285939">
<ele>1</ele>
<name>03_Cala Figuera (3)</name>
<cmt></cmt>
<desc></desc>
<sym>Crossing</sym>
</wpt>

<wpt lat="39.45872800424695" lon="2.522165039554238">
<ele>25</ele>
<name>03_Cap de Cala Figuera (4)</name>
<cmt></cmt>
<desc></desc>
<sym>Crossing</sym>
</wpt>

<trk>
<name>Mal_03_PortalsVells</name>
<trkseg>
<trkpt lat="39.472168972715735" lon="2.520592007786036">
<ele>1</ele>
</trkpt>
<trkpt lat="39.472115579992533" lon="2.520551607012749">
<ele>1</ele>
</trkpt>
<trkpt lat="39.472072497010231" lon="2.520650262013078">
<ele>1</ele>
</trkpt>
<trkpt lat="39.472027570009232" lon="2.520759981125593">
<ele>2</ele>
</trkpt>
<trkpt lat="39.471952132880688" lon="2.520887134596705">
<ele>2</ele>
</trkpt>
<trkpt lat="39.471903601661325" lon="2.520981514826417">
<ele>2</ele>
</trkpt>
<trkpt lat="39.471831768751144" lon="2.521106489002705">
<ele>2</ele>
</trkpt>
<trkpt lat="39.471763456240296" lon="2.521218387410045">
<ele>2</ele>
</trkpt>
<trkpt lat="39.471707800403237" lon="2.521306062117219">
<ele>3</ele>
</trkpt>
<trkpt lat="39.471600009128451" lon="2.521367501467466">
<ele>3</ele>
</trkpt>
<trkpt lat="39.471531696617603" lon="2.521415781229734">
<ele>3</ele>
</trkpt>
<trkpt lat="39.471461791545153" lon="2.521452996879816">
<ele>3</ele>
</trkpt>
<trkpt lat="39.471483249217272" lon="2.521718954667449">
<ele>4</ele>
</trkpt>
<trkpt lat="39.471498085185885" lon="2.521743178367615">
<ele>4</ele>
</trkpt>
<trkpt lat="39.471503449603915" lon="2.521914253011346">
<ele>4</ele>
</trkpt>
<trkpt lat="39.471524991095066" lon="2.522026151418686">
<ele>4</ele>
</trkpt>
<trkpt lat="39.471546616405249" lon="2.522100666537881">
<ele>5</ele>
</trkpt>
<trkpt lat="39.47159506380558" lon="2.52223008312285">
<ele>5</ele>
</trkpt>
<trkpt lat="39.471648959442973" lon="2.522315662354231">
<ele>5</ele>
</trkpt>
<trkpt lat="39.471724480390549" lon="2.522392440587282">
<ele>6</ele>
</trkpt>
<trkpt lat="39.471798073500395" lon="2.522436277940869">
<ele>6</ele>
</trkpt>
<trkpt lat="39.471796313300729" lon="2.5225262157619">
<ele>6</ele>
</trkpt>
<trkpt lat="39.471794553101063" lon="2.522686310112476">
<ele>6</ele>
</trkpt>
<trkpt lat="39.471796313300729" lon="2.522822264581919">
<ele>7</ele>
</trkpt>
<trkpt lat="39.471791535615921" lon="2.522679520770907">
<ele>7</ele>
</trkpt>
<trkpt lat="39.471798744052649" lon="2.522525964304805">
<ele>7</ele>
</trkpt>
<trkpt lat="39.471800504252315" lon="2.522436110302806">
<ele>7</ele>
</trkpt>
<trkpt lat="39.471705285832286" lon="2.522370312362909">
<ele>7</ele>
</trkpt>
<trkpt lat="39.471649629995227" lon="2.522308873012662">
<ele>8</ele>
</trkpt>
<trkpt lat="39.471588525921106" lon="2.522221114486456">
<ele>8</ele>
</trkpt>
<trkpt lat="39.471539994701743" lon="2.522082980722189">
<ele>8</ele>
</trkpt>
<trkpt lat="39.471516609191895" lon="2.52197552472353">
<ele>10</ele>
</trkpt>
<trkpt lat="39.471500432118773" lon="2.521819788962603">
<ele>11</ele>
</trkpt>
<trkpt lat="39.47148266248405" lon="2.52170579507947">
<ele>13</ele>
</trkpt>
<trkpt lat="39.471474280580878" lon="2.52175860106945">
<ele>14</ele>
</trkpt>
<trkpt lat="39.471443770453334" lon="2.521806126460433">
<ele>16</ele>
</trkpt>
<trkpt lat="39.471377301961184" lon="2.521939901635051">
<ele>18</ele>
</trkpt>
<trkpt lat="39.471319802105427" lon="2.522058337926865">
<ele>19</ele>
</trkpt>
<trkpt lat="39.471285687759519" lon="2.522196555510163">
<ele>21</ele>
</trkpt>
<trkpt lat="39.471242604777217" lon="2.522295210510492">
<ele>22</ele>
</trkpt>
<trkpt lat="39.471168927848339" lon="2.522330330684781">
<ele>24</ele>
</trkpt>
<trkpt lat="39.471132969483733" lon="2.522413646802306">
<ele>24</ele>
</trkpt>
<trkpt lat="39.471059292554855" lon="2.522538704797626">
<ele>24</ele>
</trkpt>
<trkpt lat="39.47115090675652" lon="2.522617662325501">
<ele>23</ele>
</trkpt>
<trkpt lat="39.471231792122126" lon="2.522727297618985">
<ele>23</ele>
</trkpt>
<trkpt lat="39.47132877074182" lon="2.522863335907459">
<ele>23</ele>
</trkpt>
<trkpt lat="39.47132877074182" lon="2.523001469671726">
<ele>23</ele>
</trkpt>
<trkpt lat="39.471318041905761" lon="2.523161564022303">
<ele>23</ele>
</trkpt>
<trkpt lat="39.471273114904761" lon="2.523242784664035">
<ele>22</ele>
</trkpt>
<trkpt lat="39.471215615049005" lon="2.523297602310777">
<ele>22</ele>
</trkpt>
<trkpt lat="39.471125761047006" lon="2.523321742191911">
<ele>22</ele>
</trkpt>
<trkpt lat="39.471046719700098" lon="2.523262482136488">
<ele>24</ele>
</trkpt>
<trkpt lat="39.471014365553856" lon="2.523190146312118">
<ele>25</ele>
</trkpt>
<trkpt lat="39.470976646989584" lon="2.523091407492757">
<ele>26</ele>
</trkpt>
<trkpt lat="39.470908166840672" lon="2.522990321740508">
<ele>28</ele>
</trkpt>
<trkpt lat="39.470832729712129" lon="2.522911364212632">
<ele>30</ele>
</trkpt>
<trkpt lat="39.470726698637009" lon="2.522900467738509">
<ele>31</ele>
</trkpt>
<trkpt lat="39.470645897090435" lon="2.522814888507128">
<ele>32</ele>
</trkpt>
<trkpt lat="39.470568615943193" lon="2.522874148562551">
<ele>34</ele>
</trkpt>
<trkpt lat="39.470468033105135" lon="2.522955285385251">
<ele>36</ele>
</trkpt>
<trkpt lat="39.470369210466743" lon="2.523010103031993">
<ele>37</ele>
</trkpt>
<trkpt lat="39.470286564901471" lon="2.522964002564549">
<ele>37</ele>
</trkpt>
<trkpt lat="39.470191346481442" lon="2.52286970615387">
<ele>38</ele>
</trkpt>
<trkpt lat="39.470063773915172" lon="2.522788569331169">
<ele>38</ele>
</trkpt>
<trkpt lat="39.469927232712507" lon="2.522746911272407">
<ele>39</ele>
</trkpt>
<trkpt lat="39.469817681238055" lon="2.522707097232342">
<ele>39</ele>
</trkpt>
<trkpt lat="39.46969186887145" lon="2.522676419466734">
<ele>39</ele>
</trkpt>
<trkpt lat="39.469603858888149" lon="2.522647920995951">
<ele>40</ele>
</trkpt>
<trkpt lat="39.469503276050091" lon="2.522544823586941">
<ele>40</ele>
</trkpt>
<trkpt lat="39.469424234703183" lon="2.52247684635222">
<ele>41</ele>
</trkpt>
<trkpt lat="39.469346953555942" lon="2.522422028705478">
<ele>41</ele>
</trkpt>
<trkpt lat="39.4692696724087" lon="2.522356230765581">
<ele>41</ele>
</trkpt>
<trkpt lat="39.469134975224733" lon="2.522268472239375">
<ele>41</ele>
</trkpt>
<trkpt lat="39.469039756804705" lon="2.522213654592633">
<ele>42</ele>
</trkpt>
<trkpt lat="39.468931965529919" lon="2.522128075361252">
<ele>42</ele>
</trkpt>
<trkpt lat="39.468827694654465" lon="2.522134697064757">
<ele>42</ele>
</trkpt>
<trkpt lat="39.468718143180013" lon="2.522156573832035">
<ele>42</ele>
</trkpt>
<trkpt lat="39.468585541471839" lon="2.522132014855743">
<ele>42</ele>
</trkpt>
<trkpt lat="39.468520833179355" lon="2.522110138088465">
<ele>43</ele>
</trkpt>
<trkpt lat="39.468414802104235" lon="2.522072838619351">
<ele>43</ele>
</trkpt>
<trkpt lat="39.468296281993389" lon="2.522096978500485">
<ele>43</ele>
</trkpt>
<trkpt lat="39.468161500990391" lon="2.522059679031372">
<ele>42</ele>
</trkpt>
<trkpt lat="39.468053709715605" lon="2.521985080093145">
<ele>41</ele>
</trkpt>
<trkpt lat="39.467936949804425" lon="2.521936800330877">
<ele>40</ele>
</trkpt>
<trkpt lat="39.467836283147335" lon="2.521886341273785">
<ele>39</ele>
</trkpt>
<trkpt lat="39.467742908746004" lon="2.521783327683806">
<ele>38</ele>
</trkpt>
<trkpt lat="39.467671075835824" lon="2.52178106456995">
<ele>37</ele>
</trkpt>
<trkpt lat="39.467570409178734" lon="2.521763546392322">
<ele>36</ele>
</trkpt>
<trkpt lat="39.467405118048191" lon="2.521785506978631">
<ele>35</ele>
</trkpt>
<trkpt lat="39.467366309836507" lon="2.521774778142571">
<ele>34</ele>
</trkpt>
<trkpt lat="39.467260362580419" lon="2.521759439259768">
<ele>33</ele>
</trkpt>
<trkpt lat="39.467143518850207" lon="2.521722139790654">
<ele>33</ele>
</trkpt>
<trkpt lat="39.467023154720664" lon="2.521735299378634">
<ele>32</ele>
</trkpt>
<trkpt lat="39.46688124909997" lon="2.521737478673458">
<ele>32</ele>
</trkpt>
<trkpt lat="39.466741103678942" lon="2.521746279671788">
<ele>31</ele>
</trkpt>
<trkpt lat="39.466622499749064" lon="2.521772598847747">
<ele>31</ele>
</trkpt>
<trkpt lat="39.466489562764764" lon="2.52171996049583">
<ele>31</ele>
</trkpt>
<trkpt lat="39.466363834217191" lon="2.521669501438737">
<ele>30</ele>
</trkpt>
<trkpt lat="39.466249169781804" lon="2.521627927199006">
<ele>30</ele>
</trkpt>
<trkpt lat="39.466127045452595" lon="2.521584089845419">
<ele>29</ele>
</trkpt>
<trkpt lat="39.465979691594839" lon="2.521527092903853">
<ele>29</ele>
</trkpt>
<trkpt lat="39.465880868956447" lon="2.521511754021049">
<ele>28</ele>
</trkpt>
<trkpt lat="39.465782046318054" lon="2.521529272198677">
<ele>28</ele>
</trkpt>
<trkpt lat="39.465663526207209" lon="2.521564392372966">
<ele>27</ele>
</trkpt>
<trkpt lat="39.465494630858302" lon="2.521632369607687">
<ele>26</ele>
</trkpt>
<trkpt lat="39.465352641418576" lon="2.521706884726882">
<ele>25</ele>
</trkpt>
<trkpt lat="39.46528441272676" lon="2.521757343783975">
<ele>24</ele>
</trkpt>
<trkpt lat="39.465180225670338" lon="2.52177712507546">
<ele>24</ele>
</trkpt>
<trkpt lat="39.465221548452973" lon="2.521645529195666">
<ele>23</ele>
</trkpt>
<trkpt lat="39.465291621163487" lon="2.521584089845419">
<ele>22</ele>
</trkpt>
<trkpt lat="39.465352641418576" lon="2.521480992436409">
<ele>22</ele>
</trkpt>
<trkpt lat="39.465332943946123" lon="2.521380158141255">
<ele>21</ele>
</trkpt>
<trkpt lat="39.465295979753137" lon="2.521374961361289">
<ele>20</ele>
</trkpt>
<trkpt lat="39.465296985581517" lon="2.521356018260121">
<ele>19</ele>
</trkpt>
<trkpt lat="39.465180225670338" lon="2.52129876986146">
<ele>19</ele>
</trkpt>
<trkpt lat="39.465050892904401" lon="2.521311929449439">
<ele>18</ele>
</trkpt>
<trkpt lat="39.464957434684038" lon="2.521336069330573">
<ele>17</ele>
</trkpt>
<trkpt lat="39.464873028919101" lon="2.521364567801356">
<ele>16</ele>
</trkpt>
<trkpt lat="39.464824497699738" lon="2.521474286913872">
<ele>16</ele>
</trkpt>
<trkpt lat="39.464731123298407" lon="2.521472107619047">
<ele>15</ele>
</trkpt>
<trkpt lat="39.464704133570194" lon="2.521485267207027">
<ele>14</ele>
</trkpt>
<trkpt lat="39.464614279568195" lon="2.521621221676469">
<ele>14</ele>
</trkpt>
<trkpt lat="39.464560383930802" lon="2.521658521145582">
<ele>13</ele>
</trkpt>
<trkpt lat="39.464470613747835" lon="2.52168919891119">
<ele>13</ele>
</trkpt>
<trkpt lat="39.464400541037321" lon="2.521643182262778">
<ele>13</ele>
</trkpt>
<trkpt lat="39.464334072545171" lon="2.521588364616036">
<ele>12</ele>
</trkpt>
<trkpt lat="39.464303478598595" lon="2.521518124267459">
<ele>12</ele>
</trkpt>
<trkpt lat="39.464242374524474" lon="2.521498426795006">
<ele>12</ele>
</trkpt>
<trkpt lat="39.464168781414628" lon="2.521493984386325">
<ele>12</ele>
</trkpt>
<trkpt lat="39.464037604629993" lon="2.521393150091171">
<ele>12</ele>
</trkpt>
<trkpt lat="39.463949594646692" lon="2.521377727389336">
<ele>11</ele>
</trkpt>
<trkpt lat="39.463854376226664" lon="2.521419385448098">
<ele>11</ele>
</trkpt>
<trkpt lat="39.463786063715816" lon="2.521419385448098">
<ele>11</ele>
</trkpt>
<trkpt lat="39.463732168078423" lon="2.521502785384655">
<ele>11</ele>
</trkpt>
<trkpt lat="39.46363334544003" lon="2.521546622738242">
<ele>10</ele>
</trkpt>
<trkpt lat="39.463557908311486" lon="2.521634381264448">
<ele>10</ele>
</trkpt>
<trkpt lat="39.463520189747214" lon="2.521603619679809">
<ele>9</ele>
</trkpt>
<trkpt lat="39.463484231382608" lon="2.521515944972634">
<ele>9</ele>
</trkpt>
<trkpt lat="39.463446512818336" lon="2.521436987444758">
<ele>9</ele>
</trkpt>
<trkpt lat="39.46334408596158" lon="2.521415026858449">
<ele>8</ele>
</trkpt>
<trkpt lat="39.463234534487128" lon="2.521362388506532">
<ele>8</ele>
</trkpt>
<trkpt lat="39.463137472048402" lon="2.521305391564965">
<ele>7</ele>
</trkpt>
<trkpt lat="39.463053066283464" lon="2.521270271390677">
<ele>7</ele>
</trkpt>
<trkpt lat="39.462950639426708" lon="2.521232971921563">
<ele>6</ele>
</trkpt>
<trkpt lat="39.462864389643073" lon="2.521206652745605">
<ele>5</ele>
</trkpt>
<trkpt lat="39.462824910879135" lon="2.521140854805708">
<ele>5</ele>
</trkpt>
<trkpt lat="39.462792556732893" lon="2.5210290402174">
<ele>4</ele>
</trkpt>
<trkpt lat="39.462792556732893" lon="2.520893001928926">
<ele>3</ele>
</trkpt>
<trkpt lat="39.462807225063443" lon="2.520783031359315">
<ele>2</ele>
</trkpt>
<trkpt lat="39.46275869384408" lon="2.5206733122468">
<ele>1</ele>
</trkpt>
<trkpt lat="39.462717371061444" lon="2.520552696660161">
<ele>1</ele>
</trkpt>
<trkpt lat="39.462706558406353" lon="2.520416742190719">
<ele>0</ele>
</trkpt>
<trkpt lat="39.462656266987324" lon="2.520298305898905">
<ele>-1</ele>
</trkpt>
<trkpt lat="39.462605975568295" lon="2.520219348371029">
<ele>-1</ele>
</trkpt>
<trkpt lat="39.462571861222386" lon="2.520100912079215">
<ele>-1</ele>
</trkpt>
<trkpt lat="39.462582590058446" lon="2.519980296492577">
<ele>0</ele>
</trkpt>
<trkpt lat="39.462620308622718" lon="2.519848700612783">
<ele>0</ele>
</trkpt>
<trkpt lat="39.462677808478475" lon="2.519712662324309">
<ele>0</ele>
</trkpt>
<trkpt lat="39.462701193988323" lon="2.519578887149692">
<ele>0</ele>
</trkpt>
<trkpt lat="39.462713766843081" lon="2.519464809447527">
<ele>0</ele>
</trkpt>
<trkpt lat="39.462747881188989" lon="2.519320053979754">
<ele>0</ele>
</trkpt>
<trkpt lat="39.462755089625716" lon="2.519212597981095">
<ele>1</ele>
</trkpt>
<trkpt lat="39.462738912552595" lon="2.519155601039529">
<ele>1</ele>
</trkpt>
<trkpt lat="39.462736984714866" lon="2.519161971285939">
<ele>1</ele>
</trkpt>
<trkpt lat="39.462659871205688" lon="2.519140262156725">
<ele>3</ele>
</trkpt>
<trkpt lat="39.462561719119549" lon="2.51914537511766">
<ele>4</ele>
</trkpt>
<trkpt lat="39.462497094646096" lon="2.519159372895956">
<ele>6</ele>
</trkpt>
<trkpt lat="39.462420903146267" lon="2.519304715096951">
<ele>8</ele>
</trkpt>
<trkpt lat="39.462354434654117" lon="2.519287196919322">
<ele>10</ele>
</trkpt>
<trkpt lat="39.462271789088845" lon="2.519252076745033">
<ele>11</ele>
</trkpt>
<trkpt lat="39.46218553930521" lon="2.519230199977756">
<ele>13</ele>
</trkpt>
<trkpt lat="39.462104737758636" lon="2.519179740920663">
<ele>15</ele>
</trkpt>
<trkpt lat="39.462005998939276" lon="2.519126934930682">
<ele>16</ele>
</trkpt>
<trkpt lat="39.461928801611066" lon="2.51915761269629">
<ele>18</ele>
</trkpt>
<trkpt lat="39.461840707808733" lon="2.519210251048207">
<ele>19</ele>
</trkpt>
<trkpt lat="39.461770635098219" lon="2.51933304592967">
<ele>20</ele>
</trkpt>
<trkpt lat="39.461641302332282" lon="2.519431784749031">
<ele>21</ele>
</trkpt>
<trkpt lat="39.461547844111919" lon="2.519517280161381">
<ele>22</ele>
</trkpt>
<trkpt lat="39.461456229910254" lon="2.519596237689257">
<ele>23</ele>
</trkpt>
<trkpt lat="39.461361011490226" lon="2.519681816920638">
<ele>24</ele>
</trkpt>
<trkpt lat="39.461321532726288" lon="2.519740993157029">
<ele>25</ele>
</trkpt>
<trkpt lat="39.461251460015774" lon="2.519863871857524">
<ele>26</ele>
</trkpt>
<trkpt lat="39.461184991523623" lon="2.519984487444162">
<ele>27</ele>
</trkpt>
<trkpt lat="39.461111314594746" lon="2.52014022320509">
<ele>28</ele>
</trkpt>
<trkpt lat="39.461055574938655" lon="2.520263018086553">
<ele>28</ele>
</trkpt>
<trkpt lat="39.460956836119294" lon="2.520427722483873">
<ele>28</ele>
</trkpt>
<trkpt lat="39.460899336263537" lon="2.520565940067172">
<ele>28</ele>
</trkpt>
<trkpt lat="39.460827503353357" lon="2.520743636414409">
<ele>28</ele>
</trkpt>
<trkpt lat="39.460761034861207" lon="2.520875232294202">
<ele>28</ele>
</trkpt>
<trkpt lat="39.460678389295936" lon="2.521035326644778">
<ele>29</ele>
</trkpt>
<trkpt lat="39.460608316585422" lon="2.52117563970387">
<ele>29</ele>
</trkpt>
<trkpt lat="39.46053639985621" lon="2.521239258348942">
<ele>29</ele>
</trkpt>
<trkpt lat="39.460434056818485" lon="2.52129633910954">
<ele>29</ele>
</trkpt>
<trkpt lat="39.460326181724668" lon="2.521329196169972">
<ele>29</ele>
</trkpt>
<trkpt lat="39.460209421813488" lon="2.52135987393558">
<ele>29</ele>
</trkpt>
<trkpt lat="39.460044130682945" lon="2.521357694640756">
<ele>29</ele>
</trkpt>
<trkpt lat="39.460013620555401" lon="2.521335817873478">
<ele>29</ele>
</trkpt>
<trkpt lat="39.459918402135372" lon="2.521270019933581">
<ele>29</ele>
</trkpt>
<trkpt lat="39.459835924208164" lon="2.52121327444911">
<ele>30</ele>
</trkpt>
<trkpt lat="39.45972628891468" lon="2.521138675510883">
<ele>30</ele>
</trkpt>
<trkpt lat="39.459605924785137" lon="2.521077236160636">
<ele>30</ele>
</trkpt>
<trkpt lat="39.45948732085526" lon="2.52102023921907">
<ele>30</ele>
</trkpt>
<trkpt lat="39.459392353892326" lon="2.520976150408387">
<ele>30</ele>
</trkpt>
<trkpt lat="39.459365364164114" lon="2.520965170115233">
<ele>30</ele>
</trkpt>
<trkpt lat="39.45928355678916" lon="2.521070949733257">
<ele>30</ele>
</trkpt>
<trkpt lat="39.459224212914705" lon="2.521176226437092">
<ele>29</ele>
</trkpt>
<trkpt lat="39.459168557077646" lon="2.521290304139257">
<ele>29</ele>
</trkpt>
<trkpt lat="39.459125390276313" lon="2.521377978846431">
<ele>28</ele>
</trkpt>
<trkpt lat="39.459098484367132" lon="2.521467916667461">
<ele>28</ele>
</trkpt>
<trkpt lat="39.45907149463892" lon="2.521564476191998">
<ele>28</ele>
</trkpt>
<trkpt lat="39.459051797166467" lon="2.521658772602677">
<ele>27</ele>
</trkpt>
<trkpt lat="39.459010474383831" lon="2.521759606897831">
<ele>27</ele>
</trkpt>
<trkpt lat="39.458963703364134" lon="2.521858345717192">
<ele>27</ele>
</trkpt>
<trkpt lat="39.458900839090347" lon="2.521886844187975">
<ele>26</ele>
</trkpt>
<trkpt lat="39.458820037543774" lon="2.521919785067439">
<ele>26</ele>
</trkpt>
<trkpt lat="39.458762537688017" lon="2.522009639069438">
<ele>25</ele>
</trkpt>
<trkpt lat="39.45872800424695" lon="2.522165039554238">
<ele>25</ele>
</trkpt>
<trkpt lat="39.458771757781506" lon="2.521998910233378">
<ele>25</ele>
</trkpt>
<trkpt lat="39.458773601800203" lon="2.522001173347235">
<ele>26</ele>
</trkpt>
<trkpt lat="39.458825653418899" lon="2.521922215819359">
<ele>26</ele>
</trkpt>
<trkpt lat="39.45889757014811" lon="2.521880473941565">
<ele>27</ele>
</trkpt>
<trkpt lat="39.458973007276654" lon="2.521856417879462">
<ele>27</ele>
</trkpt>
<trkpt lat="39.459012569859624" lon="2.521762037649751">
<ele>27</ele>
</trkpt>
<trkpt lat="39.459052048623562" lon="2.521661203354597">
<ele>28</ele>
</trkpt>
<trkpt lat="39.459079038351774" lon="2.521549304947257">
<ele>28</ele>
</trkpt>
<trkpt lat="39.459079038351774" lon="2.521547125652432">
<ele>29</ele>
</trkpt>
<trkpt lat="39.459095215424895" lon="2.521465988829732">
<ele>29</ele>
</trkpt>
<trkpt lat="39.459123965352774" lon="2.521395832300186">
<ele>29</ele>
</trkpt>
<trkpt lat="39.459174256771803" lon="2.521292734891176">
<ele>30</ele>
</trkpt>
<trkpt lat="39.459228236228228" lon="2.521180249750614">
<ele>30</ele>
</trkpt>
<trkpt lat="39.459285736083984" lon="2.521072793751955">
<ele>31</ele>
</trkpt>
<trkpt lat="39.459361173212528" lon="2.520960895344615">
<ele>31</ele>
</trkpt>
<trkpt lat="39.459282131865621" lon="2.520881937816739">
<ele>31</ele>
</trkpt>
<trkpt lat="39.459221111610532" lon="2.520813960582018">
<ele>32</ele>
</trkpt>
<trkpt lat="39.45913846604526" lon="2.52067138440907">
<ele>32</ele>
</trkpt>
<trkpt lat="39.459073757752776" lon="2.520559569820762">
<ele>33</ele>
</trkpt>
<trkpt lat="39.459016257897019" lon="2.520467452704907">
<ele>33</ele>
</trkpt>
<trkpt lat="39.458935540169477" lon="2.520370641723275">
<ele>32</ele>
</trkpt>
<trkpt lat="39.458874436095357" lon="2.520302664488554">
<ele>31</ele>
</trkpt>
<trkpt lat="39.458807967603207" lon="2.520228149369359">
<ele>30</ele>
</trkpt>
<trkpt lat="39.458719957619905" lon="2.520217169076204">
<ele>29</ele>
</trkpt>
<trkpt lat="39.458622979000211" lon="2.520155729725957">
<ele>28</ele>
</trkpt>
<trkpt lat="39.458534885197878" lon="2.520122872665525">
<ele>27</ele>
</trkpt>
<trkpt lat="39.458454083651304" lon="2.520067971199751">
<ele>26</ele>
</trkpt>
<trkpt lat="39.458360625430942" lon="2.520057074725628">
<ele>25</ele>
</trkpt>
<trkpt lat="39.458261802792549" lon="2.520032934844494">
<ele>24</ele>
</trkpt>
<trkpt lat="39.458189969882369" lon="2.520015332847834">
<ele>23</ele>
</trkpt>
<trkpt lat="39.458261802792549" lon="2.520030755549669">
<ele>24</ele>
</trkpt>
<trkpt lat="39.458358865231276" lon="2.520054811611772">
<ele>25</ele>
</trkpt>
<trkpt lat="39.45845584385097" lon="2.520065791904926">
<ele>25</ele>
</trkpt>
<trkpt lat="39.458531280979514" lon="2.520125051960349">
<ele>26</ele>
</trkpt>
<trkpt lat="39.458621134981513" lon="2.520155729725957">
<ele>27</ele>
</trkpt>
<trkpt lat="39.458718197420239" lon="2.520217169076204">
<ele>28</ele>
</trkpt>
<trkpt lat="39.458807967603207" lon="2.520230328664184">
<ele>29</ele>
</trkpt>
<trkpt lat="39.458869071677327" lon="2.520293947309256">
<ele>29</ele>
</trkpt>
<trkpt lat="39.458937384188175" lon="2.520366283133626">
<ele>30</ele>
</trkpt>
<trkpt lat="39.459009217098355" lon="2.520465021952987">
<ele>31</ele>
</trkpt>
<trkpt lat="39.459064872935414" lon="2.520541716367006">
<ele>30</ele>
</trkpt>
<trkpt lat="39.459064872935414" lon="2.520543979480863">
<ele>30</ele>
</trkpt>
<trkpt lat="39.459115415811539" lon="2.520629810169339">
<ele>29</ele>
</trkpt>
<trkpt lat="39.459178363904357" lon="2.520739529281855">
<ele>29</ele>
</trkpt>
<trkpt lat="39.459234019741416" lon="2.52083164639771">
<ele>28</ele>
</trkpt>
<trkpt lat="39.459293279796839" lon="2.520906161516905">
<ele>27</ele>
</trkpt>
<trkpt lat="39.459365196526051" lon="2.520965421572328">
<ele>27</ele>
</trkpt>
<trkpt lat="39.45948732085526" lon="2.52102023921907">
<ele>26</ele>
</trkpt>
<trkpt lat="39.45948732085526" lon="2.52102023921907">
<ele>26</ele>
</trkpt>
<trkpt lat="39.459605924785137" lon="2.521077236160636">
<ele>25</ele>
</trkpt>
<trkpt lat="39.45972628891468" lon="2.521138675510883">
<ele>25</ele>
</trkpt>
<trkpt lat="39.459835924208164" lon="2.52121327444911">
<ele>25</ele>
</trkpt>
<trkpt lat="39.459918402135372" lon="2.521270019933581">
<ele>25</ele>
</trkpt>
<trkpt lat="39.460013620555401" lon="2.521335817873478">
<ele>25</ele>
</trkpt>
<trkpt lat="39.460044130682945" lon="2.521357694640756">
<ele>25</ele>
</trkpt>
<trkpt lat="39.460209421813488" lon="2.52135987393558">
<ele>25</ele>
</trkpt>
<trkpt lat="39.460326181724668" lon="2.521329196169972">
<ele>25</ele>
</trkpt>
<trkpt lat="39.460434056818485" lon="2.52129633910954">
<ele>25</ele>
</trkpt>
<trkpt lat="39.46053639985621" lon="2.521239258348942">
<ele>25</ele>
</trkpt>
<trkpt lat="39.460608316585422" lon="2.52117563970387">
<ele>25</ele>
</trkpt>
<trkpt lat="39.460678389295936" lon="2.521035326644778">
<ele>25</ele>
</trkpt>
<trkpt lat="39.460761034861207" lon="2.520875232294202">
<ele>25</ele>
</trkpt>
<trkpt lat="39.460827503353357" lon="2.520743636414409">
<ele>24</ele>
</trkpt>
<trkpt lat="39.460899336263537" lon="2.520565940067172">
<ele>24</ele>
</trkpt>
<trkpt lat="39.460956836119294" lon="2.520427722483873">
<ele>24</ele>
</trkpt>
<trkpt lat="39.461055574938655" lon="2.520263018086553">
<ele>24</ele>
</trkpt>
<trkpt lat="39.461111314594746" lon="2.52014022320509">
<ele>24</ele>
</trkpt>
<trkpt lat="39.461184991523623" lon="2.519984487444162">
<ele>23</ele>
</trkpt>
<trkpt lat="39.461251460015774" lon="2.519863871857524">
<ele>23</ele>
</trkpt>
<trkpt lat="39.461321532726288" lon="2.519740993157029">
<ele>23</ele>
</trkpt>
<trkpt lat="39.461361011490226" lon="2.519681816920638">
<ele>22</ele>
</trkpt>
<trkpt lat="39.461456229910254" lon="2.519596237689257">
<ele>20</ele>
</trkpt>
<trkpt lat="39.461547844111919" lon="2.519517280161381">
<ele>19</ele>
</trkpt>
<trkpt lat="39.461641302332282" lon="2.519431784749031">
<ele>17</ele>
</trkpt>
<trkpt lat="39.461770635098219" lon="2.51933304592967">
<ele>16</ele>
</trkpt>
<trkpt lat="39.461840707808733" lon="2.519210251048207">
<ele>15</ele>
</trkpt>
<trkpt lat="39.461928801611066" lon="2.51915761269629">
<ele>13</ele>
</trkpt>
<trkpt lat="39.462005998939276" lon="2.519126934930682">
<ele>12</ele>
</trkpt>
<trkpt lat="39.462104737758636" lon="2.519179740920663">
<ele>10</ele>
</trkpt>
<trkpt lat="39.46218553930521" lon="2.519230199977756">
<ele>9</ele>
</trkpt>
<trkpt lat="39.462271789088845" lon="2.519252076745033">
<ele>8</ele>
</trkpt>
<trkpt lat="39.462354434654117" lon="2.519287196919322">
<ele>7</ele>
</trkpt>
<trkpt lat="39.462420903146267" lon="2.519304715096951">
<ele>6</ele>
</trkpt>
<trkpt lat="39.462493490427732" lon="2.519161636009812">
<ele>4</ele>
</trkpt>
<trkpt lat="39.462554594501853" lon="2.519152332097292">
<ele>3</ele>
</trkpt>
<trkpt lat="39.462659871205688" lon="2.519140262156725">
<ele>2</ele>
</trkpt>
<trkpt lat="39.462736984714866" lon="2.519161971285939">
<ele>1</ele>
</trkpt>
<trkpt lat="39.462738912552595" lon="2.519155601039529">
<ele>0</ele>
</trkpt>
<trkpt lat="39.462755089625716" lon="2.519212597981095">
<ele>0</ele>
</trkpt>
<trkpt lat="39.462747881188989" lon="2.519320053979754">
<ele>0</ele>
</trkpt>
<trkpt lat="39.462713766843081" lon="2.519464809447527">
<ele>-1</ele>
</trkpt>
<trkpt lat="39.462701193988323" lon="2.519578887149692">
<ele>-2</ele>
</trkpt>
<trkpt lat="39.462677808478475" lon="2.519712662324309">
<ele>-2</ele>
</trkpt>
<trkpt lat="39.462620308622718" lon="2.519848700612783">
<ele>-2</ele>
</trkpt>
<trkpt lat="39.462582590058446" lon="2.519980296492577">
<ele>-3</ele>
</trkpt>
<trkpt lat="39.462571861222386" lon="2.520100912079215">
<ele>-4</ele>
</trkpt>
<trkpt lat="39.462605975568295" lon="2.520219348371029">
<ele>-4</ele>
</trkpt>
<trkpt lat="39.462656266987324" lon="2.520298305898905">
<ele>-3</ele>
</trkpt>
<trkpt lat="39.462706558406353" lon="2.520416742190719">
<ele>-2</ele>
</trkpt>
<trkpt lat="39.462717371061444" lon="2.520552696660161">
<ele>-1</ele>
</trkpt>
<trkpt lat="39.46275869384408" lon="2.5206733122468">
<ele>0</ele>
</trkpt>
<trkpt lat="39.462807225063443" lon="2.520783031359315">
<ele>1</ele>
</trkpt>
<trkpt lat="39.462792556732893" lon="2.520893001928926">
<ele>2</ele>
</trkpt>
<trkpt lat="39.462792556732893" lon="2.5210290402174">
<ele>3</ele>
</trkpt>
<trkpt lat="39.462824910879135" lon="2.521140854805708">
<ele>4</ele>
</trkpt>
<trkpt lat="39.462864389643073" lon="2.521206652745605">
<ele>5</ele>
</trkpt>
<trkpt lat="39.462950639426708" lon="2.521232971921563">
<ele>6</ele>
</trkpt>
<trkpt lat="39.463053066283464" lon="2.521270271390677">
<ele>6</ele>
</trkpt>
<trkpt lat="39.463137472048402" lon="2.521305391564965">
<ele>7</ele>
</trkpt>
<trkpt lat="39.463234534487128" lon="2.521362388506532">
<ele>8</ele>
</trkpt>
<trkpt lat="39.46334408596158" lon="2.521415026858449">
<ele>8</ele>
</trkpt>
<trkpt lat="39.463446512818336" lon="2.521436987444758">
<ele>8</ele>
</trkpt>
<trkpt lat="39.463484231382608" lon="2.521515944972634">
<ele>9</ele>
</trkpt>
<trkpt lat="39.463520189747214" lon="2.521603619679809">
<ele>10</ele>
</trkpt>
<trkpt lat="39.463557908311486" lon="2.521634381264448">
<ele>10</ele>
</trkpt>
<trkpt lat="39.46363334544003" lon="2.521546622738242">
<ele>10</ele>
</trkpt>
<trkpt lat="39.463732168078423" lon="2.521502785384655">
<ele>11</ele>
</trkpt>
<trkpt lat="39.463786063715816" lon="2.521419385448098">
<ele>11</ele>
</trkpt>
<trkpt lat="39.463854376226664" lon="2.521419385448098">
<ele>11</ele>
</trkpt>
<trkpt lat="39.463949594646692" lon="2.521377727389336">
<ele>12</ele>
</trkpt>
<trkpt lat="39.464037604629993" lon="2.521393150091171">
<ele>12</ele>
</trkpt>
<trkpt lat="39.464168781414628" lon="2.521493984386325">
<ele>12</ele>
</trkpt>
<trkpt lat="39.464242374524474" lon="2.521498426795006">
<ele>12</ele>
</trkpt>
<trkpt lat="39.464303478598595" lon="2.521518124267459">
<ele>12</ele>
</trkpt>
<trkpt lat="39.464334072545171" lon="2.521588364616036">
<ele>13</ele>
</trkpt>
<trkpt lat="39.464400541037321" lon="2.521643182262778">
<ele>13</ele>
</trkpt>
<trkpt lat="39.464470613747835" lon="2.52168919891119">
<ele>13</ele>
</trkpt>
<trkpt lat="39.464560383930802" lon="2.521658521145582">
<ele>14</ele>
</trkpt>
<trkpt lat="39.464614279568195" lon="2.521621221676469">
<ele>14</ele>
</trkpt>
<trkpt lat="39.464704133570194" lon="2.521485267207027">
<ele>15</ele>
</trkpt>
<trkpt lat="39.464731123298407" lon="2.521472107619047">
<ele>16</ele>
</trkpt>
<trkpt lat="39.464824497699738" lon="2.521474286913872">
<ele>16</ele>
</trkpt>
<trkpt lat="39.464873028919101" lon="2.521364567801356">
<ele>17</ele>
</trkpt>
<trkpt lat="39.464957434684038" lon="2.521336069330573">
<ele>18</ele>
</trkpt>
<trkpt lat="39.465050892904401" lon="2.521311929449439">
<ele>19</ele>
</trkpt>
<trkpt lat="39.465180225670338" lon="2.52129876986146">
<ele>19</ele>
</trkpt>
<trkpt lat="39.465295979753137" lon="2.521374961361289">
<ele>20</ele>
</trkpt>
<trkpt lat="39.465332943946123" lon="2.521377895027399">
<ele>20</ele>
</trkpt>
<trkpt lat="39.465332943946123" lon="2.521380158141255">
<ele>21</ele>
</trkpt>
<trkpt lat="39.465352641418576" lon="2.521480992436409">
<ele>22</ele>
</trkpt>
<trkpt lat="39.465291621163487" lon="2.521584089845419">
<ele>22</ele>
</trkpt>
<trkpt lat="39.465221548452973" lon="2.521645529195666">
<ele>22</ele>
</trkpt>
<trkpt lat="39.465180225670338" lon="2.52177712507546">
<ele>23</ele>
</trkpt>
<trkpt lat="39.46528441272676" lon="2.521757343783975">
<ele>24</ele>
</trkpt>
<trkpt lat="39.465352641418576" lon="2.521706884726882">
<ele>24</ele>
</trkpt>
<trkpt lat="39.465494630858302" lon="2.521632369607687">
<ele>24</ele>
</trkpt>
<trkpt lat="39.465663526207209" lon="2.521564392372966">
<ele>25</ele>
</trkpt>
<trkpt lat="39.465782046318054" lon="2.521529272198677">
<ele>26</ele>
</trkpt>
<trkpt lat="39.465880868956447" lon="2.521511754021049">
<ele>26</ele>
</trkpt>
<trkpt lat="39.465979691594839" lon="2.521527092903853">
<ele>27</ele>
</trkpt>
<trkpt lat="39.466127045452595" lon="2.521584089845419">
<ele>27</ele>
</trkpt>
<trkpt lat="39.466249169781804" lon="2.521627927199006">
<ele>28</ele>
</trkpt>
<trkpt lat="39.466363834217191" lon="2.521669501438737">
<ele>29</ele>
</trkpt>
<trkpt lat="39.466489562764764" lon="2.52171996049583">
<ele>29</ele>
</trkpt>
<trkpt lat="39.466622499749064" lon="2.521772598847747">
<ele>30</ele>
</trkpt>
<trkpt lat="39.466741103678942" lon="2.521746279671788">
<ele>30</ele>
</trkpt>
<trkpt lat="39.46688124909997" lon="2.521737478673458">
<ele>31</ele>
</trkpt>
<trkpt lat="39.467023154720664" lon="2.521735299378634">
<ele>32</ele>
</trkpt>
<trkpt lat="39.467143518850207" lon="2.521722139790654">
<ele>33</ele>
</trkpt>
<trkpt lat="39.467260362580419" lon="2.521759439259768">
<ele>34</ele>
</trkpt>
<trkpt lat="39.467366309836507" lon="2.521774778142571">
<ele>35</ele>
</trkpt>
<trkpt lat="39.467405118048191" lon="2.521785506978631">
<ele>36</ele>
</trkpt>
<trkpt lat="39.467570409178734" lon="2.521763546392322">
<ele>36</ele>
</trkpt>
<trkpt lat="39.467671075835824" lon="2.52178106456995">
<ele>37</ele>
</trkpt>
<trkpt lat="39.467742908746004" lon="2.521783327683806">
<ele>38</ele>
</trkpt>
<trkpt lat="39.467836283147335" lon="2.521886341273785">
<ele>39</ele>
</trkpt>
<trkpt lat="39.467936949804425" lon="2.521936800330877">
<ele>40</ele>
</trkpt>
<trkpt lat="39.468053709715605" lon="2.521985080093145">
<ele>40</ele>
</trkpt>
<trkpt lat="39.468161500990391" lon="2.522059679031372">
<ele>41</ele>
</trkpt>
<trkpt lat="39.468296281993389" lon="2.522096978500485">
<ele>41</ele>
</trkpt>
<trkpt lat="39.468414802104235" lon="2.522072838619351">
<ele>42</ele>
</trkpt>
<trkpt lat="39.468520833179355" lon="2.522110138088465">
<ele>42</ele>
</trkpt>
<trkpt lat="39.468585541471839" lon="2.522132014855743">
<ele>42</ele>
</trkpt>
<trkpt lat="39.468718143180013" lon="2.522156573832035">
<ele>43</ele>
</trkpt>
<trkpt lat="39.468827694654465" lon="2.522134697064757">
<ele>43</ele>
</trkpt>
<trkpt lat="39.468931965529919" lon="2.522128075361252">
<ele>44</ele>
</trkpt>
<trkpt lat="39.469039756804705" lon="2.522213654592633">
<ele>44</ele>
</trkpt>
<trkpt lat="39.469134975224733" lon="2.522268472239375">
<ele>42</ele>
</trkpt>
<trkpt lat="39.4692696724087" lon="2.522356230765581">
<ele>41</ele>
</trkpt>
<trkpt lat="39.469346953555942" lon="2.522422028705478">
<ele>40</ele>
</trkpt>
<trkpt lat="39.469424234703183" lon="2.52247684635222">
<ele>38</ele>
</trkpt>
<trkpt lat="39.469503276050091" lon="2.522544823586941">
<ele>36</ele>
</trkpt>
<trkpt lat="39.469603858888149" lon="2.522647920995951">
<ele>35</ele>
</trkpt>
<trkpt lat="39.46969186887145" lon="2.522676419466734">
<ele>34</ele>
</trkpt>
<trkpt lat="39.469817681238055" lon="2.522707097232342">
<ele>32</ele>
</trkpt>
<trkpt lat="39.469927232712507" lon="2.522746911272407">
<ele>30</ele>
</trkpt>
<trkpt lat="39.470063773915172" lon="2.522788569331169">
<ele>29</ele>
</trkpt>
<trkpt lat="39.470191346481442" lon="2.52286970615387">
<ele>29</ele>
</trkpt>
<trkpt lat="39.470286564901471" lon="2.522964002564549">
<ele>29</ele>
</trkpt>
<trkpt lat="39.470369210466743" lon="2.523010103031993">
<ele>29</ele>
</trkpt>
<trkpt lat="39.470468033105135" lon="2.522955285385251">
<ele>29</ele>
</trkpt>
<trkpt lat="39.470568615943193" lon="2.522874148562551">
<ele>30</ele>
</trkpt>
<trkpt lat="39.470645897090435" lon="2.522814888507128">
<ele>30</ele>
</trkpt>
<trkpt lat="39.470726698637009" lon="2.522900467738509">
<ele>30</ele>
</trkpt>
<trkpt lat="39.470832729712129" lon="2.522911364212632">
<ele>30</ele>
</trkpt>
<trkpt lat="39.470908166840672" lon="2.522990321740508">
<ele>30</ele>
</trkpt>
<trkpt lat="39.470976646989584" lon="2.523091407492757">
<ele>30</ele>
</trkpt>
<trkpt lat="39.471014365553856" lon="2.523190146312118">
<ele>30</ele>
</trkpt>
<trkpt lat="39.471046719700098" lon="2.523262482136488">
<ele>30</ele>
</trkpt>
<trkpt lat="39.471125761047006" lon="2.523321742191911">
<ele>29</ele>
</trkpt>
<trkpt lat="39.471215615049005" lon="2.523297602310777">
<ele>29</ele>
</trkpt>
<trkpt lat="39.471273114904761" lon="2.523242784664035">
<ele>29</ele>
</trkpt>
<trkpt lat="39.471318041905761" lon="2.523161564022303">
<ele>29</ele>
</trkpt>
<trkpt lat="39.47132877074182" lon="2.523001469671726">
<ele>29</ele>
</trkpt>
<trkpt lat="39.47132877074182" lon="2.522863335907459">
<ele>28</ele>
</trkpt>
<trkpt lat="39.471231792122126" lon="2.522727297618985">
<ele>28</ele>
</trkpt>
<trkpt lat="39.47115090675652" lon="2.522617662325501">
<ele>28</ele>
</trkpt>
<trkpt lat="39.471059292554855" lon="2.522538704797626">
<ele>26</ele>
</trkpt>
<trkpt lat="39.471132969483733" lon="2.522413646802306">
<ele>23</ele>
</trkpt>
<trkpt lat="39.471168927848339" lon="2.522330330684781">
<ele>21</ele>
</trkpt>
<trkpt lat="39.471242604777217" lon="2.522295210510492">
<ele>19</ele>
</trkpt>
<trkpt lat="39.471285687759519" lon="2.522196555510163">
<ele>16</ele>
</trkpt>
<trkpt lat="39.471319802105427" lon="2.522058337926865">
<ele>14</ele>
</trkpt>
<trkpt lat="39.471377301961184" lon="2.521939901635051">
<ele>12</ele>
</trkpt>
<trkpt lat="39.471443770453334" lon="2.521806126460433">
<ele>10</ele>
</trkpt>
<trkpt lat="39.471499510109425" lon="2.521689869463444">
<ele>7</ele>
</trkpt>
<trkpt lat="39.471461791545153" lon="2.521452996879816">
<ele>5</ele>
</trkpt>
<trkpt lat="39.471531696617603" lon="2.521415781229734">
<ele>5</ele>
</trkpt>
<trkpt lat="39.471600009128451" lon="2.521367501467466">
<ele>4</ele>
</trkpt>
<trkpt lat="39.471707800403237" lon="2.521306062117219">
<ele>4</ele>
</trkpt>
<trkpt lat="39.471763456240296" lon="2.521218387410045">
<ele>4</ele>
</trkpt>
<trkpt lat="39.471831768751144" lon="2.521106489002705">
<ele>3</ele>
</trkpt>
<trkpt lat="39.471903601661325" lon="2.520981514826417">
<ele>3</ele>
</trkpt>
<trkpt lat="39.471952132880688" lon="2.520887134596705">
<ele>2</ele>
</trkpt>
<trkpt lat="39.472027570009232" lon="2.520759981125593">
<ele>2</ele>
</trkpt>
<trkpt lat="39.472072497010231" lon="2.520650262013078">
<ele>2</ele>
</trkpt>
<trkpt lat="39.472115579992533" lon="2.520551607012749">
<ele>1</ele>
</trkpt>
<trkpt lat="39.472168972715735" lon="2.520592007786036">
<ele>1</ele>
</trkpt>
</trkseg>
</trk>
</gpx>
