<?xml version="1.0" encoding="UTF-8"?>
<gpx version="1.1"
creator="Smartprofil-Office - http://www.rother.de"
xmlns:xsi="http://www.w3.org/2001/XMLSchema-instance"
xmlns="http://www.topografix.com/GPX/1/1"
xsi:schemaLocation="http://www.topografix.com/GPX/1/1 http://www.topografix.com/GPX/1/1/gpx.xsd">
<metadata>

<bounds minlat="39.768825983628631" minlon="2.796919969841838" maxlat="39.794189035892487" maxlon="2.832456976175308"/>
</metadata>
<wpt lat="39.787254016846418" lon="2.796919969841838">
<ele>750</ele>
<name>36_Cúber (1)</name>
<cmt></cmt>
<desc></desc>
<sym>Crossing</sym>
</wpt>

<wpt lat="39.784539034590125" lon="2.801805110648274">
<ele>903</ele>
<name>36_Coll de sa Coma des Ases (2)</name>
<cmt></cmt>
<desc></desc>
<sym>Crossing</sym>
</wpt>

<wpt lat="39.774219486862421" lon="2.804052131250501">
<ele>640</ele>
<name>36_Pas Llis (3)</name>
<cmt></cmt>
<desc></desc>
<sym>Crossing</sym>
</wpt>

<wpt lat="39.768828162923455" lon="2.818817105144262">
<ele>540</ele>
<name>36_Refugi de Tossals Verds (4)</name>
<cmt></cmt>
<desc></desc>
<sym>Crossing</sym>
</wpt>

<wpt lat="39.777698060497642" lon="2.830828707665205">
<ele>711</ele>
<name>36_Pou de sa Bassola (5)</name>
<cmt></cmt>
<desc></desc>
<sym>Crossing</sym>
</wpt>

<wpt lat="39.788955962285399" lon="2.825367981567979">
<ele>808</ele>
<name>36_Coll des Coloms (6)</name>
<cmt></cmt>
<desc></desc>
<sym>Crossing</sym>
</wpt>

<trk>
<name>Mal_36_Tossals Verds</name>
<trkseg>
<trkpt lat="39.787254016846418" lon="2.796919969841838">
<ele>750</ele>
</trkpt>
<trkpt lat="39.787127282470465" lon="2.796997837722302">
<ele>750</ele>
</trkpt>
<trkpt lat="39.787046397104859" lon="2.797076795250177">
<ele>751</ele>
</trkpt>
<trkpt lat="39.786961991339922" lon="2.797184251248837">
<ele>752</ele>
</trkpt>
<trkpt lat="39.786920668557286" lon="2.797280726954341">
<ele>752</ele>
</trkpt>
<trkpt lat="39.786820001900196" lon="2.797377202659845">
<ele>752</ele>
</trkpt>
<trkpt lat="39.786764346063137" lon="2.797471582889557">
<ele>753</ele>
</trkpt>
<trkpt lat="39.786785887554288" lon="2.797677693888545">
<ele>754</ele>
</trkpt>
<trkpt lat="39.786825450137258" lon="2.797763273119927">
<ele>754</ele>
</trkpt>
<trkpt lat="39.786793012171984" lon="2.797942981123924">
<ele>754</ele>
</trkpt>
<trkpt lat="39.786709025502205" lon="2.798021016642451">
<ele>755</ele>
</trkpt>
<trkpt lat="39.786628978326917" lon="2.798120006918907">
<ele>758</ele>
</trkpt>
<trkpt lat="39.786574998870492" lon="2.798137022182345">
<ele>762</ele>
</trkpt>
<trkpt lat="39.786487994715571" lon="2.798241041600704">
<ele>765</ele>
</trkpt>
<trkpt lat="39.786353968083858" lon="2.798387976363301">
<ele>768</ele>
</trkpt>
<trkpt lat="39.786254977807403" lon="2.798471041023731">
<ele>772</ele>
</trkpt>
<trkpt lat="39.786155987530947" lon="2.798536000773311">
<ele>775</ele>
</trkpt>
<trkpt lat="39.786102008074522" lon="2.798599032685161">
<ele>778</ele>
</trkpt>
<trkpt lat="39.786010980606079" lon="2.798643037676811">
<ele>781</ele>
</trkpt>
<trkpt lat="39.785973010584712" lon="2.798755019903183">
<ele>785</ele>
</trkpt>
<trkpt lat="39.785953983664513" lon="2.798838000744581">
<ele>788</ele>
</trkpt>
<trkpt lat="39.785889023914933" lon="2.79892198741436">
<ele>791</ele>
</trkpt>
<trkpt lat="39.785770000889897" lon="2.798873037099838">
<ele>794</ele>
</trkpt>
<trkpt lat="39.785750973969698" lon="2.798868007957935">
<ele>797</ele>
</trkpt>
<trkpt lat="39.785717027261853" lon="2.799017038196325">
<ele>800</ele>
</trkpt>
<trkpt lat="39.785678973421454" lon="2.798998011276126">
<ele>803</ele>
</trkpt>
<trkpt lat="39.785590963438153" lon="2.799009997397661">
<ele>806</ele>
</trkpt>
<trkpt lat="39.785552993416786" lon="2.799004968255758">
<ele>809</ele>
</trkpt>
<trkpt lat="39.785609990358353" lon="2.799104964360595">
<ele>812</ele>
</trkpt>
<trkpt lat="39.785506976768374" lon="2.799094989895821">
<ele>815</ele>
</trkpt>
<trkpt lat="39.785469006747007" lon="2.799086021259427">
<ele>818</ele>
</trkpt>
<trkpt lat="39.785434976220131" lon="2.799206972122192">
<ele>821</ele>
</trkpt>
<trkpt lat="39.78532399982214" lon="2.799371005967259">
<ele>824</ele>
</trkpt>
<trkpt lat="39.785262979567051" lon="2.799297999590635">
<ele>827</ele>
</trkpt>
<trkpt lat="39.785262979567051" lon="2.799447029829025">
<ele>830</ele>
</trkpt>
<trkpt lat="39.785255016759038" lon="2.799504026770592">
<ele>834</ele>
</trkpt>
<trkpt lat="39.785235989838839" lon="2.799532022327185">
<ele>837</ele>
</trkpt>
<trkpt lat="39.785136999562383" lon="2.799472007900477">
<ele>840</ele>
</trkpt>
<trkpt lat="39.785129958763719" lon="2.799494974315167">
<ele>843</ele>
</trkpt>
<trkpt lat="39.785225009545684" lon="2.799744000658393">
<ele>846</ele>
</trkpt>
<trkpt lat="39.785235989838839" lon="2.79982496984303">
<ele>849</ele>
</trkpt>
<trkpt lat="39.785201959311962" lon="2.799990009516478">
<ele>852</ele>
</trkpt>
<trkpt lat="39.785159965977073" lon="2.799952039495111">
<ele>855</ele>
</trkpt>
<trkpt lat="39.785042032599449" lon="2.799765961244702">
<ele>859</ele>
</trkpt>
<trkpt lat="39.785006996244192" lon="2.799737965688109">
<ele>862</ele>
</trkpt>
<trkpt lat="39.784888979047537" lon="2.799783982336521">
<ele>865</ele>
</trkpt>
<trkpt lat="39.78485100902617" lon="2.799832010641694">
<ele>868</ele>
</trkpt>
<trkpt lat="39.784882022067904" lon="2.799971988424659">
<ele>871</ele>
</trkpt>
<trkpt lat="39.78485100902617" lon="2.799982968717814">
<ele>875</ele>
</trkpt>
<trkpt lat="39.784743972122669" lon="2.799892025068402">
<ele>878</ele>
</trkpt>
<trkpt lat="39.784720251336694" lon="2.79989629983902">
<ele>881</ele>
</trkpt>
<trkpt lat="39.78472201153636" lon="2.800023537129164">
<ele>884</ele>
</trkpt>
<trkpt lat="39.784691501408815" lon="2.80017483048141">
<ele>888</ele>
</trkpt>
<trkpt lat="39.784637605771422" lon="2.800135351717472">
<ele>891</ele>
</trkpt>
<trkpt lat="39.784545991569757" lon="2.800203328952193">
<ele>895</ele>
</trkpt>
<trkpt lat="39.784569293260574" lon="2.800308605656028">
<ele>898</ele>
</trkpt>
<trkpt lat="39.784581866115332" lon="2.800532318651676">
<ele>901</ele>
</trkpt>
<trkpt lat="39.784574741497636" lon="2.800655197352171">
<ele>905</ele>
</trkpt>
<trkpt lat="39.784535178914666" lon="2.800769191235304">
<ele>908</ele>
</trkpt>
<trkpt lat="39.784490251913667" lon="2.800944708287716">
<ele>912</ele>
</trkpt>
<trkpt lat="39.784501064568758" lon="2.800979744642973">
<ele>915</ele>
</trkpt>
<trkpt lat="39.784520845860243" lon="2.801069682464004">
<ele>914</ele>
</trkpt>
<trkpt lat="39.784481283277273" lon="2.801181580871344">
<ele>912</ele>
</trkpt>
<trkpt lat="39.784519001841545" lon="2.801280235871673">
<ele>910</ele>
</trkpt>
<trkpt lat="39.784483127295971" lon="2.801339495927095">
<ele>909</ele>
</trkpt>
<trkpt lat="39.784481283277273" lon="2.801433792337775">
<ele>908</ele>
</trkpt>
<trkpt lat="39.784515397623181" lon="2.801585085690022">
<ele>906</ele>
</trkpt>
<trkpt lat="39.784531574696302" lon="2.801696984097362">
<ele>904</ele>
</trkpt>
<trkpt lat="39.784539034590125" lon="2.801805110648274">
<ele>903</ele>
</trkpt>
<trkpt lat="39.784474158659577" lon="2.801747610792518">
<ele>901</ele>
</trkpt>
<trkpt lat="39.784423867240548" lon="2.8016949724406">
<ele>898</ele>
</trkpt>
<trkpt lat="39.784344825893641" lon="2.80170813202858">
<ele>896</ele>
</trkpt>
<trkpt lat="39.784298138692975" lon="2.801765212789178">
<ele>894</ele>
</trkpt>
<trkpt lat="39.784296294674277" lon="2.80189236626029">
<ele>892</ele>
</trkpt>
<trkpt lat="39.784229826182127" lon="2.801912147551775">
<ele>889</ele>
</trkpt>
<trkpt lat="39.784136451780796" lon="2.801824389025569">
<ele>887</ele>
</trkpt>
<trkpt lat="39.784035785123706" lon="2.801749790087342">
<ele>885</ele>
</trkpt>
<trkpt lat="39.783987337723374" lon="2.801758591085672">
<ele>882</ele>
</trkpt>
<trkpt lat="39.783980129286647" lon="2.801890186965466">
<ele>880</ele>
</trkpt>
<trkpt lat="39.783954983577132" lon="2.80200426466763">
<ele>878</ele>
</trkpt>
<trkpt lat="39.783969316631556" lon="2.802129238843918">
<ele>875</ele>
</trkpt>
<trkpt lat="39.784030420705676" lon="2.802216997370124">
<ele>873</ele>
</trkpt>
<trkpt lat="39.784032180905342" lon="2.802216997370124">
<ele>870</ele>
</trkpt>
<trkpt lat="39.78409512899816" lon="2.802300313487649">
<ele>868</ele>
</trkpt>
<trkpt lat="39.784161597490311" lon="2.802451690658927">
<ele>866</ele>
</trkpt>
<trkpt lat="39.784055566415191" lon="2.802515309303999">
<ele>863</ele>
</trkpt>
<trkpt lat="39.784055566415191" lon="2.802559146657586">
<ele>861</ele>
</trkpt>
<trkpt lat="39.784044921398163" lon="2.802796019241214">
<ele>858</ele>
</trkpt>
<trkpt lat="39.784010807052255" lon="2.802879335358739">
<ele>856</ele>
</trkpt>
<trkpt lat="39.783931765705347" lon="2.80295611359179">
<ele>855</ele>
</trkpt>
<trkpt lat="39.783816765993834" lon="2.803008751943708">
<ele>853</ele>
</trkpt>
<trkpt lat="39.783703610301018" lon="2.803008751943708">
<ele>852</ele>
</trkpt>
<trkpt lat="39.783576037734747" lon="2.802986791357398">
<ele>850</ele>
</trkpt>
<trkpt lat="39.783523986116052" lon="2.802999028936029">
<ele>849</ele>
</trkpt>
<trkpt lat="39.783459026366472" lon="2.802996011450887">
<ele>848</ele>
</trkpt>
<trkpt lat="39.783314019441605" lon="2.802975978702307">
<ele>846</ele>
</trkpt>
<trkpt lat="39.783226009458303" lon="2.803015038371086">
<ele>845</ele>
</trkpt>
<trkpt lat="39.783130958676338" lon="2.80300498008728">
<ele>843</ele>
</trkpt>
<trkpt lat="39.783081002533436" lon="2.802986958995462">
<ele>842</ele>
</trkpt>
<trkpt lat="39.78300497867167" lon="2.802910013124347">
<ele>841</ele>
</trkpt>
<trkpt lat="39.782931972295046" lon="2.802876988425851">
<ele>841</ele>
</trkpt>
<trkpt lat="39.782837005332112" lon="2.802842035889626">
<ele>840</ele>
</trkpt>
<trkpt lat="39.782753018662333" lon="2.802823008969426">
<ele>840</ele>
</trkpt>
<trkpt lat="39.782627038657665" lon="2.802814040333033">
<ele>839</ele>
</trkpt>
<trkpt lat="39.782504998147488" lon="2.802791995927692">
<ele>838</ele>
</trkpt>
<trkpt lat="39.782434590160847" lon="2.802830971777439">
<ele>838</ele>
</trkpt>
<trkpt lat="39.782281871885061" lon="2.802912192419171">
<ele>837</ele>
</trkpt>
<trkpt lat="39.782156059518456" lon="2.802942870184779">
<ele>837</ele>
</trkpt>
<trkpt lat="39.781996216624975" lon="2.802947228774428">
<ele>836</ele>
</trkpt>
<trkpt lat="39.781872248277068" lon="2.802942870184779">
<ele>836</ele>
</trkpt>
<trkpt lat="39.781768312677741" lon="2.802969105541706">
<ele>835</ele>
</trkpt>
<trkpt lat="39.781644344329834" lon="2.803041441366077">
<ele>835</ele>
</trkpt>
<trkpt lat="39.781513167545199" lon="2.803109418600798">
<ele>834</ele>
</trkpt>
<trkpt lat="39.781392803415656" lon="2.803192818537355">
<ele>834</ele>
</trkpt>
<trkpt lat="39.781259866431355" lon="2.803300274536014">
<ele>834</ele>
</trkpt>
<trkpt lat="39.78110714815557" lon="2.803449388593435">
<ele>833</ele>
</trkpt>
<trkpt lat="39.781006565317512" lon="2.803561287000775">
<ele>833</ele>
</trkpt>
<trkpt lat="39.780884357169271" lon="2.803631443530321">
<ele>832</ele>
</trkpt>
<trkpt lat="39.780765753239393" lon="2.803701600059867">
<ele>832</ele>
</trkpt>
<trkpt lat="39.780692160129547" lon="2.803732361644507">
<ele>829</ele>
</trkpt>
<trkpt lat="39.780693920329213" lon="2.803570004180074">
<ele>826</ele>
</trkpt>
<trkpt lat="39.780667098239064" lon="2.803416699171066">
<ele>823</ele>
</trkpt>
<trkpt lat="39.780562911182642" lon="2.803372777998447">
<ele>820</ele>
</trkpt>
<trkpt lat="39.780424609780312" lon="2.80334210023284">
<ele>817</ele>
</trkpt>
<trkpt lat="39.780293432995677" lon="2.803260963410139">
<ele>814</ele>
</trkpt>
<trkpt lat="39.780135350301862" lon="2.803138084709644">
<ele>811</ele>
</trkpt>
<trkpt lat="39.779980788007379" lon="2.80305041000247">
<ele>808</ele>
</trkpt>
<trkpt lat="39.779826980084181" lon="2.802963992580771">
<ele>805</ele>
</trkpt>
<trkpt lat="39.779723966494203" lon="2.80287497676909">
<ele>802</ele>
</trkpt>
<trkpt lat="39.779582982882857" lon="2.802830971777439">
<ele>800</ele>
</trkpt>
<trkpt lat="39.779434036463499" lon="2.802795013412833">
<ele>799</ele>
</trkpt>
<trkpt lat="39.779353989288211" lon="2.802755031734705">
<ele>798</ele>
</trkpt>
<trkpt lat="39.779232032597065" lon="2.802612036466599">
<ele>796</ele>
</trkpt>
<trkpt lat="39.779129019007087" lon="2.80253098346293">
<ele>794</ele>
</trkpt>
<trkpt lat="39.779068417847157" lon="2.802471304312348">
<ele>793</ele>
</trkpt>
<trkpt lat="39.778917459771037" lon="2.802421934902668">
<ele>792</ele>
</trkpt>
<trkpt lat="39.778785444796085" lon="2.802415313199163">
<ele>790</ele>
</trkpt>
<trkpt lat="39.7786102630198" lon="2.802510783076286">
<ele>788</ele>
</trkpt>
<trkpt lat="39.778480846434832" lon="2.802550261840224">
<ele>787</ele>
</trkpt>
<trkpt lat="39.778507836163044" lon="2.802372565492988">
<ele>784</ele>
</trkpt>
<trkpt lat="39.778373055160046" lon="2.802158743143082">
<ele>780</ele>
</trkpt>
<trkpt lat="39.778267946094275" lon="2.802089676260948">
<ele>777</ele>
</trkpt>
<trkpt lat="39.778079940006137" lon="2.801954811438918">
<ele>774</ele>
</trkpt>
<trkpt lat="39.777910122647882" lon="2.8018659632653">
<ele>770</ele>
</trkpt>
<trkpt lat="39.777713399380445" lon="2.801882391795516">
<ele>767</ele>
</trkpt>
<trkpt lat="39.777549030259252" lon="2.801872584968805">
<ele>764</ele>
</trkpt>
<trkpt lat="39.77742237970233" lon="2.801836375147104">
<ele>761</ele>
</trkpt>
<trkpt lat="39.77735498920083" lon="2.801678460091353">
<ele>757</ele>
</trkpt>
<trkpt lat="39.77727142162621" lon="2.801852803677321">
<ele>754</ele>
</trkpt>
<trkpt lat="39.77715558372438" lon="2.801961349323392">
<ele>750</ele>
</trkpt>
<trkpt lat="39.777042344212532" lon="2.801935030147433">
<ele>746</ele>
</trkpt>
<trkpt lat="39.777063885703683" lon="2.802267372608185">
<ele>742</ele>
</trkpt>
<trkpt lat="39.777085511013865" lon="2.802546992897987">
<ele>738</ele>
</trkpt>
<trkpt lat="39.777058521285653" lon="2.802757546305656">
<ele>734</ele>
</trkpt>
<trkpt lat="39.777020802721381" lon="2.802816806361079">
<ele>731</ele>
</trkpt>
<trkpt lat="39.776965230703354" lon="2.803027862682939">
<ele>727</ele>
</trkpt>
<trkpt lat="39.776935558766127" lon="2.803139677271247">
<ele>723</ele>
</trkpt>
<trkpt lat="39.776868168264627" lon="2.803268004208803">
<ele>719</ele>
</trkpt>
<trkpt lat="39.77671729400754" lon="2.803399600088596">
<ele>715</ele>
</trkpt>
<trkpt lat="39.776698434725404" lon="2.803340423852205">
<ele>713</ele>
</trkpt>
<trkpt lat="39.776614867150784" lon="2.803346961736679">
<ele>710</ele>
</trkpt>
<trkpt lat="39.776488216593862" lon="2.803409490734339">
<ele>708</ele>
</trkpt>
<trkpt lat="39.77644513361156" lon="2.803402869030833">
<ele>705</ele>
</trkpt>
<trkpt lat="39.77645049802959" lon="2.803258113563061">
<ele>703</ele>
</trkpt>
<trkpt lat="39.776375060901046" lon="2.803244953975081">
<ele>701</ele>
</trkpt>
<trkpt lat="39.776396602392197" lon="2.803106820210815">
<ele>698</ele>
</trkpt>
<trkpt lat="39.776321165263653" lon="2.803162727504969">
<ele>696</ele>
</trkpt>
<trkpt lat="39.776229467242956" lon="2.803281163796783">
<ele>693</ele>
</trkpt>
<trkpt lat="39.776105498895049" lon="2.803343692794442">
<ele>691</ele>
</trkpt>
<trkpt lat="39.776019332930446" lon="2.803356852382422">
<ele>687</ele>
</trkpt>
<trkpt lat="39.775895616039634" lon="2.803205391392112">
<ele>682</ele>
</trkpt>
<trkpt lat="39.775758152827621" lon="2.803258029744029">
<ele>678</ele>
</trkpt>
<trkpt lat="39.775631502270699" lon="2.803271189332008">
<ele>674</ele>
</trkpt>
<trkpt lat="39.775572158396244" lon="2.803225172683597">
<ele>670</ele>
</trkpt>
<trkpt lat="39.775475179776549" lon="2.803353499621153">
<ele>665</ele>
</trkpt>
<trkpt lat="39.775297315791249" lon="2.803511414676905">
<ele>661</ele>
</trkpt>
<trkpt lat="39.775127498432994" lon="2.803616691380739">
<ele>657</ele>
</trkpt>
<trkpt lat="39.775022389367223" lon="2.803649548441172">
<ele>652</ele>
</trkpt>
<trkpt lat="39.774922728538513" lon="2.80369246378541">
<ele>648</ele>
</trkpt>
<trkpt lat="39.774763723835349" lon="2.803768068552017">
<ele>646</ele>
</trkpt>
<trkpt lat="39.774591308087111" lon="2.803853647783399">
<ele>645</ele>
</trkpt>
<trkpt lat="39.774405313655734" lon="2.80396219342947">
<ele>643</ele>
</trkpt>
<trkpt lat="39.774405313655734" lon="2.803958924487233">
<ele>642</ele>
</trkpt>
<trkpt lat="39.774219486862421" lon="2.804052131250501">
<ele>640</ele>
</trkpt>
<trkpt lat="39.774227449670434" lon="2.804116839542985">
<ele>642</ele>
</trkpt>
<trkpt lat="39.774364912882447" lon="2.804268216714263">
<ele>645</ele>
</trkpt>
<trkpt lat="39.774483516812325" lon="2.804435938596726">
<ele>647</ele>
</trkpt>
<trkpt lat="39.774593990296125" lon="2.804478770121932">
<ele>650</ele>
</trkpt>
<trkpt lat="39.774572448804975" lon="2.804600475355983">
<ele>652</ele>
</trkpt>
<trkpt lat="39.774648221209645" lon="2.804731987416744">
<ele>654</ele>
</trkpt>
<trkpt lat="39.774675127118826" lon="2.804883280768991">
<ele>657</ele>
</trkpt>
<trkpt lat="39.774653585627675" lon="2.80505770817399">
<ele>659</ele>
</trkpt>
<trkpt lat="39.77457270026207" lon="2.805287959054112">
<ele>662</ele>
</trkpt>
<trkpt lat="39.774502627551556" lon="2.805472193285823">
<ele>664</ele>
</trkpt>
<trkpt lat="39.774421826004982" lon="2.805567579343915">
<ele>664</ele>
</trkpt>
<trkpt lat="39.774343706667423" lon="2.805597251281142">
<ele>664</ele>
</trkpt>
<trkpt lat="39.77429517544806" lon="2.805689368396998">
<ele>664</ele>
</trkpt>
<trkpt lat="39.774265503510833" lon="2.80583412386477">
<ele>664</ele>
</trkpt>
<trkpt lat="39.774317387491465" lon="2.80603495426476">
<ele>664</ele>
</trkpt>
<trkpt lat="39.774363152682781" lon="2.806173088029027">
<ele>664</ele>
</trkpt>
<trkpt lat="39.774406319484115" lon="2.80630468390882">
<ele>664</ele>
</trkpt>
<trkpt lat="39.774406319484115" lon="2.80645270831883">
<ele>664</ele>
</trkpt>
<trkpt lat="39.774400955066085" lon="2.806627135723829">
<ele>664</ele>
</trkpt>
<trkpt lat="39.774309257045388" lon="2.806735681369901">
<ele>664</ele>
</trkpt>
<trkpt lat="39.774214960634708" lon="2.806824529543519">
<ele>663</ele>
</trkpt>
<trkpt lat="39.774158382788301" lon="2.806913377717137">
<ele>661</ele>
</trkpt>
<trkpt lat="39.774171877652407" lon="2.807061402127147">
<ele>660</ele>
</trkpt>
<trkpt lat="39.77416374720633" lon="2.807245636358857">
<ele>658</ele>
</trkpt>
<trkpt lat="39.77416374720633" lon="2.80724236741662">
<ele>657</ele>
</trkpt>
<trkpt lat="39.774214457720518" lon="2.807350661605597">
<ele>656</ele>
</trkpt>
<trkpt lat="39.774222504347563" lon="2.80746909789741">
<ele>654</ele>
</trkpt>
<trkpt lat="39.77416324429214" lon="2.807538164779544">
<ele>653</ele>
</trkpt>
<trkpt lat="39.774093171581626" lon="2.807580912485719">
<ele>651</ele>
</trkpt>
<trkpt lat="39.77407431229949" lon="2.807719130069017">
<ele>650</ele>
</trkpt>
<trkpt lat="39.774106666445732" lon="2.807896742597222">
<ele>649</ele>
</trkpt>
<trkpt lat="39.774098535999656" lon="2.808038229122758">
<ele>649</ele>
</trkpt>
<trkpt lat="39.774098535999656" lon="2.808166556060314">
<ele>648</ele>
</trkpt>
<trkpt lat="39.774155113846064" lon="2.808278370648623">
<ele>647</ele>
</trkpt>
<trkpt lat="39.774206327274442" lon="2.808426478877664">
<ele>646</ele>
</trkpt>
<trkpt lat="39.774152431637049" lon="2.808620519936085">
<ele>646</ele>
</trkpt>
<trkpt lat="39.774101218208671" lon="2.808732418343425">
<ele>645</ele>
</trkpt>
<trkpt lat="39.773974567651749" lon="2.808768628165126">
<ele>644</ele>
</trkpt>
<trkpt lat="39.773866860195994" lon="2.808867786079645">
<ele>644</ele>
</trkpt>
<trkpt lat="39.773764433339238" lon="2.809009272605181">
<ele>643</ele>
</trkpt>
<trkpt lat="39.773597382009029" lon="2.809167187660933">
<ele>643</ele>
</trkpt>
<trkpt lat="39.77344105951488" lon="2.809295430779457">
<ele>644</ele>
</trkpt>
<trkpt lat="39.77326319552958" lon="2.809430379420519">
<ele>644</ele>
</trkpt>
<trkpt lat="39.773144591599703" lon="2.809542194008827">
<ele>645</ele>
</trkpt>
<trkpt lat="39.773066472262144" lon="2.809637663885951">
<ele>645</ele>
</trkpt>
<trkpt lat="39.772969493642449" lon="2.809690302237868">
<ele>645</ele>
</trkpt>
<trkpt lat="39.772858936339617" lon="2.809739587828517">
<ele>646</ele>
</trkpt>
<trkpt lat="39.772756593301892" lon="2.809808738529682">
<ele>646</ele>
</trkpt>
<trkpt lat="39.772654166445136" lon="2.809884343296289">
<ele>647</ele>
</trkpt>
<trkpt lat="39.772586859762669" lon="2.809947291389108">
<ele>647</ele>
</trkpt>
<trkpt lat="39.772469010204077" lon="2.810058016330004">
<ele>647</ele>
</trkpt>
<trkpt lat="39.772358033806086" lon="2.810116019099951">
<ele>648</ele>
</trkpt>
<trkpt lat="39.772301036864519" lon="2.810160024091601">
<ele>648</ele>
</trkpt>
<trkpt lat="39.772167010232806" lon="2.810292961075902">
<ele>648</ele>
</trkpt>
<trkpt lat="39.77211001329124" lon="2.810356998816133">
<ele>648</ele>
</trkpt>
<trkpt lat="39.771980009973049" lon="2.810557996854186">
<ele>649</ele>
</trkpt>
<trkpt lat="39.771888982504606" lon="2.810637038201094">
<ele>649</ele>
</trkpt>
<trkpt lat="39.771785968914628" lon="2.810730999335647">
<ele>649</ele>
</trkpt>
<trkpt lat="39.771697958931327" lon="2.810785984620452">
<ele>650</ele>
</trkpt>
<trkpt lat="39.771598968654871" lon="2.810848010703921">
<ele>650</ele>
</trkpt>
<trkpt lat="39.771534008905292" lon="2.810949012637138">
<ele>649</ele>
</trkpt>
<trkpt lat="39.771534008905292" lon="2.811002992093563">
<ele>649</ele>
</trkpt>
<trkpt lat="39.77146502584219" lon="2.811100976541638">
<ele>648</ele>
</trkpt>
<trkpt lat="39.771435018628836" lon="2.811184963211417">
<ele>647</ele>
</trkpt>
<trkpt lat="39.771415991708636" lon="2.811314966529608">
<ele>646</ele>
</trkpt>
<trkpt lat="39.771438958123326" lon="2.811430972069502">
<ele>646</ele>
</trkpt>
<trkpt lat="39.771452955901623" lon="2.811659714207053">
<ele>645</ele>
</trkpt>
<trkpt lat="39.771485226228833" lon="2.811876889318228">
<ele>644</ele>
</trkpt>
<trkpt lat="39.77146502584219" lon="2.812101021409035">
<ele>644</ele>
</trkpt>
<trkpt lat="39.771461002528667" lon="2.812174027785659">
<ele>643</ele>
</trkpt>
<trkpt lat="39.77144599892199" lon="2.812444008886814">
<ele>644</ele>
</trkpt>
<trkpt lat="39.771441975608468" lon="2.812607036903501">
<ele>646</ele>
</trkpt>
<trkpt lat="39.771441975608468" lon="2.812677025794983">
<ele>647</ele>
</trkpt>
<trkpt lat="39.771453961730003" lon="2.812770986929536">
<ele>648</ele>
</trkpt>
<trkpt lat="39.771411968395114" lon="2.812937032431364">
<ele>650</ele>
</trkpt>
<trkpt lat="39.771393025293946" lon="2.812952036038041">
<ele>651</ele>
</trkpt>
<trkpt lat="39.771399982273579" lon="2.813067035749555">
<ele>652</ele>
</trkpt>
<trkpt lat="39.7712969686836" lon="2.813138030469418">
<ele>653</ele>
</trkpt>
<trkpt lat="39.771270984783769" lon="2.813154961913824">
<ele>655</ele>
</trkpt>
<trkpt lat="39.771381039172411" lon="2.813240960240364">
<ele>656</ele>
</trkpt>
<trkpt lat="39.77133896201849" lon="2.813363000750542">
<ele>656</ele>
</trkpt>
<trkpt lat="39.771305015310645" lon="2.813413040712476">
<ele>655</ele>
</trkpt>
<trkpt lat="39.771254975348711" lon="2.813536003232002">
<ele>655</ele>
</trkpt>
<trkpt lat="39.771213987842202" lon="2.813579002395272">
<ele>655</ele>
</trkpt>
<trkpt lat="39.77118699811399" lon="2.813696013763547">
<ele>654</ele>
</trkpt>
<trkpt lat="39.771213987842202" lon="2.813840014860034">
<ele>654</ele>
</trkpt>
<trkpt lat="39.771239971742034" lon="2.813899023458362">
<ele>654</ele>
</trkpt>
<trkpt lat="39.7712969686836" lon="2.814032966271043">
<ele>654</ele>
</trkpt>
<trkpt lat="39.771357988938689" lon="2.814121982082725">
<ele>653</ele>
</trkpt>
<trkpt lat="39.771404005587101" lon="2.814212003722787">
<ele>653</ele>
</trkpt>
<trkpt lat="39.771477011963725" lon="2.814307976514101">
<ele>651</ele>
</trkpt>
<trkpt lat="39.771499978378415" lon="2.814344018697739">
<ele>650</ele>
</trkpt>
<trkpt lat="39.771534008905292" lon="2.814483996480703">
<ele>648</ele>
</trkpt>
<trkpt lat="39.771586982533336" lon="2.814579969272018">
<ele>647</ele>
</trkpt>
<trkpt lat="39.771613972261548" lon="2.814651969820261">
<ele>645</ele>
</trkpt>
<trkpt lat="39.771670969203115" lon="2.814775016158819">
<ele>643</ele>
</trkpt>
<trkpt lat="39.771712962538004" lon="2.814907031133771">
<ele>642</ele>
</trkpt>
<trkpt lat="39.771743975579739" lon="2.814981965348125">
<ele>640</ele>
</trkpt>
<trkpt lat="39.771804995834827" lon="2.815110962837935">
<ele>639</ele>
</trkpt>
<trkpt lat="39.77183198556304" lon="2.815148010849953">
<ele>637</ele>
</trkpt>
<trkpt lat="39.771846989169717" lon="2.815299974754453">
<ele>636</ele>
</trkpt>
<trkpt lat="39.771793009713292" lon="2.815408017486334">
<ele>635</ele>
</trkpt>
<trkpt lat="39.771773982793093" lon="2.815541038289666">
<ele>634</ele>
</trkpt>
<trkpt lat="39.771797033026814" lon="2.815609015524387">
<ele>633</ele>
</trkpt>
<trkpt lat="39.771835003048182" lon="2.815691996365786">
<ele>632</ele>
</trkpt>
<trkpt lat="39.771888982504606" lon="2.815802972763777">
<ele>631</ele>
</trkpt>
<trkpt lat="39.771954026073217" lon="2.81585100106895">
<ele>630</ele>
</trkpt>
<trkpt lat="39.771912032738328" lon="2.815991984680295">
<ele>629</ele>
</trkpt>
<trkpt lat="39.771881019696593" lon="2.816015034914017">
<ele>628</ele>
</trkpt>
<trkpt lat="39.77183198556304" lon="2.816163981333375">
<ele>627</ele>
</trkpt>
<trkpt lat="39.77180901914835" lon="2.816247968003154">
<ele>625</ele>
</trkpt>
<trkpt lat="39.771876996383071" lon="2.816444020718336">
<ele>623</ele>
</trkpt>
<trkpt lat="39.77191898971796" lon="2.816620962694287">
<ele>622</ele>
</trkpt>
<trkpt lat="39.771965006366372" lon="2.816772004589438">
<ele>620</ele>
</trkpt>
<trkpt lat="39.771996019408107" lon="2.81686001457274">
<ele>618</ele>
</trkpt>
<trkpt lat="39.772033989429474" lon="2.816994963213801">
<ele>616</ele>
</trkpt>
<trkpt lat="39.772048993036151" lon="2.817124966531992">
<ele>614</ele>
</trkpt>
<trkpt lat="39.772075982764363" lon="2.817250024527311">
<ele>613</ele>
</trkpt>
<trkpt lat="39.772086963057518" lon="2.817284977063537">
<ele>611</ele>
</trkpt>
<trkpt lat="39.772147983312607" lon="2.817434007301927">
<ele>609</ele>
</trkpt>
<trkpt lat="39.772147983312607" lon="2.817491004243493">
<ele>606</ele>
</trkpt>
<trkpt lat="39.772125016897917" lon="2.817636011168361">
<ele>603</ele>
</trkpt>
<trkpt lat="39.772125016897917" lon="2.817748999223113">
<ele>601</ele>
</trkpt>
<trkpt lat="39.772120993584394" lon="2.817756040021777">
<ele>598</ele>
</trkpt>
<trkpt lat="39.772120993584394" lon="2.817905992269516">
<ele>595</ele>
</trkpt>
<trkpt lat="39.772022003307939" lon="2.817941028624773">
<ele>592</ele>
</trkpt>
<trkpt lat="39.772022003307939" lon="2.818011017516255">
<ele>589</ele>
</trkpt>
<trkpt lat="39.772026026621461" lon="2.818143032491207">
<ele>587</ele>
</trkpt>
<trkpt lat="39.771980009973049" lon="2.818263983353972">
<ele>584</ele>
</trkpt>
<trkpt lat="39.771991996094584" lon="2.81838501803577">
<ele>581</ele>
</trkpt>
<trkpt lat="39.772057039663196" lon="2.818534970283508">
<ele>579</ele>
</trkpt>
<trkpt lat="39.772075982764363" lon="2.81857998110354">
<ele>578</ele>
</trkpt>
<trkpt lat="39.772071959450841" lon="2.818818027153611">
<ele>576</ele>
</trkpt>
<trkpt lat="39.772053016349673" lon="2.818843005225062">
<ele>574</ele>
</trkpt>
<trkpt lat="39.771945979446173" lon="2.818754995241761">
<ele>572</ele>
</trkpt>
<trkpt lat="39.771912032738328" lon="2.818672014400363">
<ele>571</ele>
</trkpt>
<trkpt lat="39.771835003048182" lon="2.818789025768638">
<ele>569</ele>
</trkpt>
<trkpt lat="39.771804995834827" lon="2.818929003551602">
<ele>567</ele>
</trkpt>
<trkpt lat="39.771815976127982" lon="2.818976026028395">
<ele>566</ele>
</trkpt>
<trkpt lat="39.771815976127982" lon="2.819062024354935">
<ele>564</ele>
</trkpt>
<trkpt lat="39.771670969203115" lon="2.819045009091497">
<ele>562</ele>
</trkpt>
<trkpt lat="39.771628975868225" lon="2.819051966071129">
<ele>560</ele>
</trkpt>
<trkpt lat="39.771613972261548" lon="2.819008966907859">
<ele>559</ele>
</trkpt>
<trkpt lat="39.771580025553703" lon="2.818969991058111">
<ele>557</ele>
</trkpt>
<trkpt lat="39.771477011963725" lon="2.818921962752938">
<ele>555</ele>
</trkpt>
<trkpt lat="39.771438958123326" lon="2.818900002166629">
<ele>553</ele>
</trkpt>
<trkpt lat="39.771378021687269" lon="2.818785002455115">
<ele>551</ele>
</trkpt>
<trkpt lat="39.771305015310645" lon="2.818927997723222">
<ele>550</ele>
</trkpt>
<trkpt lat="39.771290011703968" lon="2.818978959694505">
<ele>548</ele>
</trkpt>
<trkpt lat="39.771217005327344" lon="2.819153973832727">
<ele>546</ele>
</trkpt>
<trkpt lat="39.771079961210489" lon="2.819110974669457">
<ele>546</ele>
</trkpt>
<trkpt lat="39.771010978147388" lon="2.819027993828058">
<ele>546</ele>
</trkpt>
<trkpt lat="39.770916011184454" lon="2.81888198107481">
<ele>545</ele>
</trkpt>
<trkpt lat="39.77084401063621" lon="2.818820960819721">
<ele>545</ele>
</trkpt>
<trkpt lat="39.770748037844896" lon="2.818696992471814">
<ele>545</ele>
</trkpt>
<trkpt lat="39.770633960142732" lon="2.818607976660132">
<ele>545</ele>
</trkpt>
<trkpt lat="39.770546033978462" lon="2.818562965840101">
<ele>545</ele>
</trkpt>
<trkpt lat="39.770450983196497" lon="2.818533964455128">
<ele>544</ele>
</trkpt>
<trkpt lat="39.770391387864947" lon="2.818627087399364">
<ele>544</ele>
</trkpt>
<trkpt lat="39.770345538854599" lon="2.81866991892457">
<ele>544</ele>
</trkpt>
<trkpt lat="39.770191898569465" lon="2.818567911162973">
<ele>545</ele>
</trkpt>
<trkpt lat="39.769995175302029" lon="2.818452743813396">
<ele>546</ele>
</trkpt>
<trkpt lat="39.769904986023903" lon="2.818440003320575">
<ele>548</ele>
</trkpt>
<trkpt lat="39.769805995747447" lon="2.818403961136937">
<ele>549</ele>
</trkpt>
<trkpt lat="39.769844552502036" lon="2.818584591150284">
<ele>550</ele>
</trkpt>
<trkpt lat="39.769850000739098" lon="2.818653658032417">
<ele>551</ele>
</trkpt>
<trkpt lat="39.769739443436265" lon="2.818508902564645">
<ele>552</ele>
</trkpt>
<trkpt lat="39.769602064043283" lon="2.818337827920914">
<ele>554</ele>
</trkpt>
<trkpt lat="39.769602064043283" lon="2.818334558978677">
<ele>555</ele>
</trkpt>
<trkpt lat="39.769424200057983" lon="2.81815686263144">
<ele>556</ele>
</trkpt>
<trkpt lat="39.769333004951477" lon="2.818097015842795">
<ele>555</ele>
</trkpt>
<trkpt lat="39.769310038536787" lon="2.818005988374353">
<ele>553</ele>
</trkpt>
<trkpt lat="39.769214987754822" lon="2.818062985315919">
<ele>552</ele>
</trkpt>
<trkpt lat="39.769198978319764" lon="2.818027026951313">
<ele>551</ele>
</trkpt>
<trkpt lat="39.76916897110641" lon="2.817997019737959">
<ele>549</ele>
</trkpt>
<trkpt lat="39.769108034670353" lon="2.818115958943963">
<ele>548</ele>
</trkpt>
<trkpt lat="39.769069980829954" lon="2.818250991404057">
<ele>547</ele>
</trkpt>
<trkpt lat="39.769042991101742" lon="2.818312011659145">
<ele>545</ele>
</trkpt>
<trkpt lat="39.76899697445333" lon="2.818498006090522">
<ele>544</ele>
</trkpt>
<trkpt lat="39.768981970846653" lon="2.818539999425411">
<ele>543</ele>
</trkpt>
<trkpt lat="39.768851967528462" lon="2.818777961656451">
<ele>541</ele>
</trkpt>
<trkpt lat="39.768828162923455" lon="2.818817105144262">
<ele>540</ele>
</trkpt>
<trkpt lat="39.768836963921785" lon="2.818916011601687">
<ele>542</ele>
</trkpt>
<trkpt lat="39.768825983628631" lon="2.818938978016377">
<ele>544</ele>
</trkpt>
<trkpt lat="39.768825983628631" lon="2.818989017978311">
<ele>546</ele>
</trkpt>
<trkpt lat="39.768890021368861" lon="2.819084990769625">
<ele>548</ele>
</trkpt>
<trkpt lat="39.768954981118441" lon="2.819124972447753">
<ele>550</ele>
</trkpt>
<trkpt lat="39.769035028293729" lon="2.818975020200014">
<ele>553</ele>
</trkpt>
<trkpt lat="39.769093031063676" lon="2.818925986066461">
<ele>555</ele>
</trkpt>
<trkpt lat="39.769218005239964" lon="2.819066969677806">
<ele>557</ele>
</trkpt>
<trkpt lat="39.769238037988544" lon="2.819150034338236">
<ele>559</ele>
</trkpt>
<trkpt lat="39.76934096775949" lon="2.819138970226049">
<ele>561</ele>
</trkpt>
<trkpt lat="39.769333004951477" lon="2.819186998531222">
<ele>562</ele>
</trkpt>
<trkpt lat="39.769337028264999" lon="2.819234021008015">
<ele>563</ele>
</trkpt>
<trkpt lat="39.76934096775949" lon="2.819277020171285">
<ele>564</ele>
</trkpt>
<trkpt lat="39.769291011616588" lon="2.819466032087803">
<ele>565</ele>
</trkpt>
<trkpt lat="39.769256981089711" lon="2.819557981565595">
<ele>566</ele>
</trkpt>
<trkpt lat="39.769207024946809" lon="2.81965596601367">
<ele>568</ele>
</trkpt>
<trkpt lat="39.769180035218596" lon="2.819755040109158">
<ele>569</ele>
</trkpt>
<trkpt lat="39.769150028005242" lon="2.819931982085109">
<ele>570</ele>
</trkpt>
<trkpt lat="39.769183974713087" lon="2.819977998733521">
<ele>571</ele>
</trkpt>
<trkpt lat="39.769203001633286" lon="2.819962995126844">
<ele>572</ele>
</trkpt>
<trkpt lat="39.76929503493011" lon="2.819875990971923">
<ele>574</ele>
</trkpt>
<trkpt lat="39.769343985244632" lon="2.819824023172259">
<ele>575</ele>
</trkpt>
<trkpt lat="39.769405005499721" lon="2.81969896517694">
<ele>576</ele>
</trkpt>
<trkpt lat="39.76942403241992" lon="2.819659989327192">
<ele>578</ele>
</trkpt>
<trkpt lat="39.769482035189867" lon="2.819566028192639">
<ele>580</ele>
</trkpt>
<trkpt lat="39.769584964960814" lon="2.819510959088802">
<ele>581</ele>
</trkpt>
<trkpt lat="39.769650008529425" lon="2.81952403485775">
<ele>582</ele>
</trkpt>
<trkpt lat="39.769645985215902" lon="2.819479024037719">
<ele>584</ele>
</trkpt>
<trkpt lat="39.769680015742779" lon="2.819470977410674">
<ele>586</ele>
</trkpt>
<trkpt lat="39.769779006019235" lon="2.819494027644396">
<ele>587</ele>
</trkpt>
<trkpt lat="39.769889982417226" lon="2.819510037079454">
<ele>588</ele>
</trkpt>
<trkpt lat="39.769855029881001" lon="2.81963299959898">
<ele>589</ele>
</trkpt>
<trkpt lat="39.769779006019235" lon="2.819697959348559">
<ele>590</ele>
</trkpt>
<trkpt lat="39.769756039604545" lon="2.819792004302144">
<ele>591</ele>
</trkpt>
<trkpt lat="39.769753022119403" lon="2.819924019277096">
<ele>592</ele>
</trkpt>
<trkpt lat="39.769722009077668" lon="2.820041030645371">
<ele>592</ele>
</trkpt>
<trkpt lat="39.769633999094367" lon="2.820138009265065">
<ele>593</ele>
</trkpt>
<trkpt lat="39.769623018801212" lon="2.820176985114813">
<ele>594</ele>
</trkpt>
<trkpt lat="39.769508019089699" lon="2.820355016738176">
<ele>595</ele>
</trkpt>
<trkpt lat="39.769454961642623" lon="2.820422993972898">
<ele>596</ele>
</trkpt>
<trkpt lat="39.769451022148132" lon="2.820576969534159">
<ele>598</ele>
</trkpt>
<trkpt lat="39.769436018541455" lon="2.820624997839332">
<ele>600</ele>
</trkpt>
<trkpt lat="39.769473988562822" lon="2.820817027240992">
<ele>602</ele>
</trkpt>
<trkpt lat="39.769451022148132" lon="2.820875030010939">
<ele>604</ele>
</trkpt>
<trkpt lat="39.769409028813243" lon="2.820992963388562">
<ele>606</ele>
</trkpt>
<trkpt lat="39.769343985244632" lon="2.821082985028625">
<ele>608</ele>
</trkpt>
<trkpt lat="39.769267961382866" lon="2.821197984740138">
<ele>610</ele>
</trkpt>
<trkpt lat="39.769198978319764" lon="2.821305021643639">
<ele>612</ele>
</trkpt>
<trkpt lat="39.769187998026609" lon="2.821327988058329">
<ele>614</ele>
</trkpt>
<trkpt lat="39.769114991649985" lon="2.821421027183533">
<ele>616</ele>
</trkpt>
<trkpt lat="39.769066041335464" lon="2.821442987769842">
<ele>618</ele>
</trkpt>
<trkpt lat="39.769000997766852" lon="2.821599980816245">
<ele>620</ele>
</trkpt>
<trkpt lat="39.768924973905087" lon="2.821731995791197">
<ele>621</ele>
</trkpt>
<trkpt lat="39.768936038017273" lon="2.821776000782847">
<ele>623</ele>
</trkpt>
<trkpt lat="39.76899697445333" lon="2.821930982172489">
<ele>625</ele>
</trkpt>
<trkpt lat="39.768985994160175" lon="2.82201798632741">
<ele>627</ele>
</trkpt>
<trkpt lat="39.769032010808587" lon="2.8221670165658">
<ele>629</ele>
</trkpt>
<trkpt lat="39.769035028293729" lon="2.822209009900689">
<ele>630</ele>
</trkpt>
<trkpt lat="39.769011978060007" lon="2.822445966303349">
<ele>632</ele>
</trkpt>
<trkpt lat="39.769032010808587" lon="2.822607988491654">
<ele>634</ele>
</trkpt>
<trkpt lat="39.769038967788219" lon="2.822626009583473">
<ele>634</ele>
</trkpt>
<trkpt lat="39.769183974713087" lon="2.822873024269939">
<ele>635</ele>
</trkpt>
<trkpt lat="39.769291011616588" lon="2.822956005111337">
<ele>635</ele>
</trkpt>
<trkpt lat="39.769348008558154" lon="2.823075028136373">
<ele>635</ele>
</trkpt>
<trkpt lat="39.769405005499721" lon="2.823173012584448">
<ele>636</ele>
</trkpt>
<trkpt lat="39.769440041854978" lon="2.823221040889621">
<ele>636</ele>
</trkpt>
<trkpt lat="39.769535008817911" lon="2.823307039216161">
<ele>636</ele>
</trkpt>
<trkpt lat="39.769561998546124" lon="2.823335034772754">
<ele>636</ele>
</trkpt>
<trkpt lat="39.769660988822579" lon="2.823409968987107">
<ele>637</ele>
</trkpt>
<trkpt lat="39.769753022119403" lon="2.823450034484267">
<ele>637</ele>
</trkpt>
<trkpt lat="39.769852012395859" lon="2.823517005890608">
<ele>638</ele>
</trkpt>
<trkpt lat="39.769900962710381" lon="2.823554975911975">
<ele>639</ele>
</trkpt>
<trkpt lat="39.770023003220558" lon="2.823632005602121">
<ele>640</ele>
</trkpt>
<trkpt lat="39.770118976011872" lon="2.82369302585721">
<ele>641</ele>
</trkpt>
<trkpt lat="39.770175972953439" lon="2.823720015585423">
<ele>642</ele>
</trkpt>
<trkpt lat="39.770236993208528" lon="2.823854964226484">
<ele>644</ele>
</trkpt>
<trkpt lat="39.770217966288328" lon="2.823954960331321">
<ele>645</ele>
</trkpt>
<trkpt lat="39.770274963229895" lon="2.824012041091919">
<ele>646</ele>
</trkpt>
<trkpt lat="39.770298013463616" lon="2.824012041091919">
<ele>647</ele>
</trkpt>
<trkpt lat="39.770401027053595" lon="2.824158975854516">
<ele>648</ele>
</trkpt>
<trkpt lat="39.770416030660272" lon="2.824281016364694">
<ele>649</ele>
</trkpt>
<trkpt lat="39.770408989861608" lon="2.824437003582716">
<ele>650</ele>
</trkpt>
<trkpt lat="39.770419970154762" lon="2.824472961947322">
<ele>651</ele>
</trkpt>
<trkpt lat="39.770419970154762" lon="2.824534988030791">
<ele>652</ele>
</trkpt>
<trkpt lat="39.770461963489652" lon="2.824641019105911">
<ele>654</ele>
</trkpt>
<trkpt lat="39.770432040095329" lon="2.824793988838792">
<ele>655</ele>
</trkpt>
<trkpt lat="39.770450983196497" lon="2.82487696968019">
<ele>656</ele>
</trkpt>
<trkpt lat="39.770470010116696" lon="2.824906976893544">
<ele>657</ele>
</trkpt>
<trkpt lat="39.770549973472953" lon="2.824990041553974">
<ele>658</ele>
</trkpt>
<trkpt lat="39.770610993728042" lon="2.825076961889863">
<ele>659</ele>
</trkpt>
<trkpt lat="39.770645024254918" lon="2.825137982144952">
<ele>661</ele>
</trkpt>
<trkpt lat="39.770676037296653" lon="2.825259016826749">
<ele>662</ele>
</trkpt>
<trkpt lat="39.770751977339387" lon="2.825309978798032">
<ele>664</ele>
</trkpt>
<trkpt lat="39.770935038104653" lon="2.825387008488178">
<ele>666</ele>
</trkpt>
<trkpt lat="39.770999997854233" lon="2.82543302513659">
<ele>668</ele>
</trkpt>
<trkpt lat="39.771103011444211" lon="2.825503014028072">
<ele>669</ele>
</trkpt>
<trkpt lat="39.77112203836441" lon="2.825530003756285">
<ele>671</ele>
</trkpt>
<trkpt lat="39.771213987842202" lon="2.825608039274812">
<ele>673</ele>
</trkpt>
<trkpt lat="39.771275008097291" lon="2.825654977932572">
<ele>674</ele>
</trkpt>
<trkpt lat="39.771354971453547" lon="2.825710969045758">
<ele>676</ele>
</trkpt>
<trkpt lat="39.77144599892199" lon="2.825772995129228">
<ele>677</ele>
</trkpt>
<trkpt lat="39.771514981985092" lon="2.825840972363949">
<ele>679</ele>
</trkpt>
<trkpt lat="39.771606009453535" lon="2.825988996773958">
<ele>680</ele>
</trkpt>
<trkpt lat="39.771697958931327" lon="2.826092010363936">
<ele>681</ele>
</trkpt>
<trkpt lat="39.771755039691925" lon="2.826167028397322">
<ele>682</ele>
</trkpt>
<trkpt lat="39.771854029968381" lon="2.826332990080118">
<ele>684</ele>
</trkpt>
<trkpt lat="39.771972969174385" lon="2.826463999226689">
<ele>685</ele>
</trkpt>
<trkpt lat="39.772022003307939" lon="2.826541028916836">
<ele>686</ele>
</trkpt>
<trkpt lat="39.772114036604762" lon="2.826730040833354">
<ele>688</ele>
</trkpt>
<trkpt lat="39.772159969434142" lon="2.826802041381598">
<ele>689</ele>
</trkpt>
<trkpt lat="39.772209003567696" lon="2.826925003901124">
<ele>690</ele>
</trkpt>
<trkpt lat="39.772228030487895" lon="2.827050983905792">
<ele>691</ele>
</trkpt>
<trkpt lat="39.77230497635901" lon="2.827230021357536">
<ele>692</ele>
</trkpt>
<trkpt lat="39.772330960258842" lon="2.827258016914129">
<ele>693</ele>
</trkpt>
<trkpt lat="39.772437997162342" lon="2.82736899331212">
<ele>694</ele>
</trkpt>
<trkpt lat="39.772506980225444" lon="2.827448034659028">
<ele>696</ele>
</trkpt>
<trkpt lat="39.77256003767252" lon="2.82758398912847">
<ele>697</ele>
</trkpt>
<trkpt lat="39.772575041279197" lon="2.82762598246336">
<ele>698</ele>
</trkpt>
<trkpt lat="39.772651987150311" lon="2.827781969681382">
<ele>699</ele>
</trkpt>
<trkpt lat="39.772671014070511" lon="2.827885989099741">
<ele>700</ele>
</trkpt>
<trkpt lat="39.772704960778356" lon="2.828007023781538">
<ele>701</ele>
</trkpt>
<trkpt lat="39.7727320343256" lon="2.828041976317763">
<ele>702</ele>
</trkpt>
<trkpt lat="39.772849967703223" lon="2.828136021271348">
<ele>702</ele>
</trkpt>
<trkpt lat="39.772910987958312" lon="2.828222019597888">
<ele>703</ele>
</trkpt>
<trkpt lat="39.772949041798711" lon="2.828339030966163">
<ele>704</ele>
</trkpt>
<trkpt lat="39.773021964356303" lon="2.828425029292703">
<ele>705</ele>
</trkpt>
<trkpt lat="39.773087007924914" lon="2.828494012355804">
<ele>706</ele>
</trkpt>
<trkpt lat="39.773216005414724" lon="2.828671038150787">
<ele>706</ele>
</trkpt>
<trkpt lat="39.773280965164304" lon="2.828754018992186">
<ele>707</ele>
</trkpt>
<trkpt lat="39.773346008732915" lon="2.828803975135088">
<ele>708</ele>
</trkpt>
<trkpt lat="39.773471988737583" lon="2.828959040343761">
<ele>708</ele>
</trkpt>
<trkpt lat="39.773555975407362" lon="2.829007990658283">
<ele>708</ele>
</trkpt>
<trkpt lat="39.773597968742251" lon="2.829033974558115">
<ele>708</ele>
</trkpt>
<trkpt lat="39.773705005645752" lon="2.829148974269629">
<ele>708</ele>
</trkpt>
<trkpt lat="39.773784969002008" lon="2.829241007566452">
<ele>708</ele>
</trkpt>
<trkpt lat="39.773845989257097" lon="2.829272020608187">
<ele>708</ele>
</trkpt>
<trkpt lat="39.773952020332217" lon="2.829235978424549">
<ele>708</ele>
</trkpt>
<trkpt lat="39.773994013667107" lon="2.829233966767788">
<ele>708</ele>
</trkpt>
<trkpt lat="39.774089986458421" lon="2.829272020608187">
<ele>708</ele>
</trkpt>
<trkpt lat="39.77415100671351" lon="2.829302027821541">
<ele>708</ele>
</trkpt>
<trkpt lat="39.774315040558577" lon="2.829364975914359">
<ele>708</ele>
</trkpt>
<trkpt lat="39.774395003914833" lon="2.829390959814191">
<ele>708</ele>
</trkpt>
<trkpt lat="39.774529030546546" lon="2.829453991726041">
<ele>709</ele>
</trkpt>
<trkpt lat="39.774550991132855" lon="2.82945298589766">
<ele>709</ele>
</trkpt>
<trkpt lat="39.774703960865736" lon="2.829514006152749">
<ele>709</ele>
</trkpt>
<trkpt lat="39.77477596141398" lon="2.829530015587807">
<ele>709</ele>
</trkpt>
<trkpt lat="39.774872018024325" lon="2.829531021416187">
<ele>709</ele>
</trkpt>
<trkpt lat="39.774971008300781" lon="2.829524986445904">
<ele>710</ele>
</trkpt>
<trkpt lat="39.775085002183914" lon="2.829521968960762">
<ele>710</ele>
</trkpt>
<trkpt lat="39.775123978033662" lon="2.8295389842242">
<ele>710</ele>
</trkpt>
<trkpt lat="39.775162031874061" lon="2.829565973952413">
<ele>710</ele>
</trkpt>
<trkpt lat="39.775272002443671" lon="2.82960201613605">
<ele>710</ele>
</trkpt>
<trkpt lat="39.775402005761862" lon="2.829568991437554">
<ele>709</ele>
</trkpt>
<trkpt lat="39.775433018803596" lon="2.829576032236219">
<ele>709</ele>
</trkpt>
<trkpt lat="39.775536032393575" lon="2.829586006700993">
<ele>709</ele>
</trkpt>
<trkpt lat="39.775638962164521" lon="2.829603021964431">
<ele>709</ele>
</trkpt>
<trkpt lat="39.775729989632964" lon="2.829607967287302">
<ele>709</ele>
</trkpt>
<trkpt lat="39.775864016264677" lon="2.829609978944063">
<ele>708</ele>
</trkpt>
<trkpt lat="39.775936016812921" lon="2.829633029177785">
<ele>708</ele>
</trkpt>
<trkpt lat="39.776093009859324" lon="2.82966798171401">
<ele>708</ele>
</trkpt>
<trkpt lat="39.776222007349133" lon="2.829784993082285">
<ele>709</ele>
</trkpt>
<trkpt lat="39.776295013725758" lon="2.829826986417174">
<ele>710</ele>
</trkpt>
<trkpt lat="39.776394004002213" lon="2.829917008057237">
<ele>711</ele>
</trkpt>
<trkpt lat="39.77647396735847" lon="2.830009963363409">
<ele>712</ele>
</trkpt>
<trkpt lat="39.776558037847281" lon="2.830066038295627">
<ele>712</ele>
</trkpt>
<trkpt lat="39.776603970676661" lon="2.830178020521998">
<ele>713</ele>
</trkpt>
<trkpt lat="39.776657028123736" lon="2.830278016626835">
<ele>714</ele>
</trkpt>
<trkpt lat="39.776741014793515" lon="2.830348005518317">
<ele>715</ele>
</trkpt>
<trkpt lat="39.776814021170139" lon="2.830406008288264">
<ele>716</ele>
</trkpt>
<trkpt lat="39.77694695815444" lon="2.830488989129663">
<ele>717</ele>
</trkpt>
<trkpt lat="39.776970008388162" lon="2.830491000786424">
<ele>716</ele>
</trkpt>
<trkpt lat="39.777103029191494" lon="2.830539029091597">
<ele>716</ele>
</trkpt>
<trkpt lat="39.777163965627551" lon="2.830595020204783">
<ele>715</ele>
</trkpt>
<trkpt lat="39.777327999472618" lon="2.830686969682574">
<ele>714</ele>
</trkpt>
<trkpt lat="39.777392959222198" lon="2.83076198771596">
<ele>713</ele>
</trkpt>
<trkpt lat="39.777629999443889" lon="2.830823007971048">
<ele>712</ele>
</trkpt>
<trkpt lat="39.777656989172101" lon="2.8308289591223">
<ele>712</ele>
</trkpt>
<trkpt lat="39.777698060497642" lon="2.830828707665205">
<ele>711</ele>
</trkpt>
<trkpt lat="39.777752039954066" lon="2.830851003527641">
<ele>711</ele>
</trkpt>
<trkpt lat="39.777785986661911" lon="2.830885034054518">
<ele>711</ele>
</trkpt>
<trkpt lat="39.777821023017168" lon="2.830917974933982">
<ele>710</ele>
</trkpt>
<trkpt lat="39.778003999963403" lon="2.83097698353231">
<ele>710</ele>
</trkpt>
<trkpt lat="39.778144983574748" lon="2.831030962988734">
<ele>710</ele>
</trkpt>
<trkpt lat="39.778201980516315" lon="2.831032974645495">
<ele>710</ele>
</trkpt>
<trkpt lat="39.778324021026492" lon="2.831072034314275">
<ele>710</ele>
</trkpt>
<trkpt lat="39.778415970504284" lon="2.831115033477545">
<ele>709</ele>
</trkpt>
<trkpt lat="39.77847296744585" lon="2.831093994900584">
<ele>709</ele>
</trkpt>
<trkpt lat="39.778487971052527" lon="2.831113021820784">
<ele>709</ele>
</trkpt>
<trkpt lat="39.778506997972727" lon="2.831102963536978">
<ele>710</ele>
</trkpt>
<trkpt lat="39.778518984094262" lon="2.831081002950668">
<ele>710</ele>
</trkpt>
<trkpt lat="39.778683017939329" lon="2.831074967980385">
<ele>711</ele>
</trkpt>
<trkpt lat="39.778816038742661" lon="2.831110004335642">
<ele>711</ele>
</trkpt>
<trkpt lat="39.778912011533976" lon="2.831139005720615">
<ele>712</ele>
</trkpt>
<trkpt lat="39.778954004868865" lon="2.831150991842151">
<ele>713</ele>
</trkpt>
<trkpt lat="39.779048971831799" lon="2.831237995997071">
<ele>713</ele>
</trkpt>
<trkpt lat="39.779099011793733" lon="2.831304967403412">
<ele>714</ele>
</trkpt>
<trkpt lat="39.779190039262176" lon="2.831343021243811">
<ele>714</ele>
</trkpt>
<trkpt lat="39.779254999011755" lon="2.831416027620435">
<ele>715</ele>
</trkpt>
<trkpt lat="39.7793959826231" lon="2.831553993746638">
<ele>714</ele>
</trkpt>
<trkpt lat="39.779449040070176" lon="2.83166597597301">
<ele>714</ele>
</trkpt>
<trkpt lat="39.779518023133278" lon="2.831716015934944">
<ele>713</ele>
</trkpt>
<trkpt lat="39.779663030058146" lon="2.831876026466489">
<ele>712</ele>
</trkpt>
<trkpt lat="39.779747016727924" lon="2.83192397095263">
<ele>712</ele>
</trkpt>
<trkpt lat="39.779799990355968" lon="2.831970993429422">
<ele>711</ele>
</trkpt>
<trkpt lat="39.779880959540606" lon="2.832056991755962">
<ele>710</ele>
</trkpt>
<trkpt lat="39.779914990067482" lon="2.832107031717897">
<ele>709</ele>
</trkpt>
<trkpt lat="39.78003703057766" lon="2.832298977300525">
<ele>709</ele>
</trkpt>
<trkpt lat="39.780075000599027" lon="2.832323033362627">
<ele>708</ele>
</trkpt>
<trkpt lat="39.78016996756196" lon="2.832388998940587">
<ele>708</ele>
</trkpt>
<trkpt lat="39.780224030837417" lon="2.832430992275477">
<ele>708</ele>
</trkpt>
<trkpt lat="39.78031899780035" lon="2.832456976175308">
<ele>708</ele>
</trkpt>
<trkpt lat="39.780354034155607" lon="2.83241699449718">
<ele>708</ele>
</trkpt>
<trkpt lat="39.780456963926554" lon="2.832396039739251">
<ele>708</ele>
</trkpt>
<trkpt lat="39.780495017766953" lon="2.832424035295844">
<ele>708</ele>
</trkpt>
<trkpt lat="39.780613034963608" lon="2.832397967576981">
<ele>708</ele>
</trkpt>
<trkpt lat="39.780655028298497" lon="2.832386987283826">
<ele>708</ele>
</trkpt>
<trkpt lat="39.780749995261431" lon="2.832425041124225">
<ele>708</ele>
</trkpt>
<trkpt lat="39.780787965282798" lon="2.832421017810702">
<ele>708</ele>
</trkpt>
<trkpt lat="39.780803974717855" lon="2.832422023639083">
<ele>708</ele>
</trkpt>
<trkpt lat="39.780842028558254" lon="2.832434009760618">
<ele>708</ele>
</trkpt>
<trkpt lat="39.780932972207665" lon="2.832443984225392">
<ele>709</ele>
</trkpt>
<trkpt lat="39.781082002446055" lon="2.832367038354278">
<ele>709</ele>
</trkpt>
<trkpt lat="39.781123995780945" lon="2.832354968413711">
<ele>709</ele>
</trkpt>
<trkpt lat="39.781222986057401" lon="2.832328984513879">
<ele>709</ele>
</trkpt>
<trkpt lat="39.781291969120502" lon="2.832323033362627">
<ele>709</ele>
</trkpt>
<trkpt lat="39.781456002965569" lon="2.832320015877485">
<ele>710</ele>
</trkpt>
<trkpt lat="39.781544012948871" lon="2.832319010049105">
<ele>710</ele>
</trkpt>
<trkpt lat="39.781658006832004" lon="2.832341976463795">
<ele>710</ele>
</trkpt>
<trkpt lat="39.781836960464716" lon="2.832443984225392">
<ele>711</ele>
</trkpt>
<trkpt lat="39.781951960176229" lon="2.832408025860786">
<ele>713</ele>
</trkpt>
<trkpt lat="39.781970987096429" lon="2.832333007827401">
<ele>714</ele>
</trkpt>
<trkpt lat="39.782089004293084" lon="2.832352034747601">
<ele>716</ele>
</trkpt>
<trkpt lat="39.782181037589908" lon="2.83231096342206">
<ele>717</ele>
</trkpt>
<trkpt lat="39.782223030924797" lon="2.832338036969304">
<ele>718</ele>
</trkpt>
<trkpt lat="39.782313974574208" lon="2.832324039191008">
<ele>720</ele>
</trkpt>
<trkpt lat="39.782349010929465" lon="2.832289002835751">
<ele>721</ele>
</trkpt>
<trkpt lat="39.782494017854333" lon="2.832195963710547">
<ele>723</ele>
</trkpt>
<trkpt lat="39.782546991482377" lon="2.832055985927582">
<ele>724</ele>
</trkpt>
<trkpt lat="39.782714964821935" lon="2.83192296512425">
<ele>726</ele>
</trkpt>
<trkpt lat="39.782756958156824" lon="2.831864040344954">
<ele>727</ele>
</trkpt>
<trkpt lat="39.782950999215245" lon="2.831752980127931">
<ele>729</ele>
</trkpt>
<trkpt lat="39.782962985336781" lon="2.831748034805059">
<ele>730</ele>
</trkpt>
<trkpt lat="39.783231122419238" lon="2.831622306257486">
<ele>732</ele>
</trkpt>
<trkpt lat="39.78335777297616" lon="2.831540079787374">
<ele>734</ele>
</trkpt>
<trkpt lat="39.783522225916386" lon="2.831418374553323">
<ele>735</ele>
</trkpt>
<trkpt lat="39.783683912828565" lon="2.831332795321941">
<ele>737</ele>
</trkpt>
<trkpt lat="39.783848281949759" lon="2.831280156970024">
<ele>738</ele>
</trkpt>
<trkpt lat="39.784039640799165" lon="2.831214359030128">
<ele>740</ele>
</trkpt>
<trkpt lat="39.784212056547403" lon="2.831214359030128">
<ele>741</ele>
</trkpt>
<trkpt lat="39.784381873905659" lon="2.831214359030128">
<ele>742</ele>
</trkpt>
<trkpt lat="39.78453241288662" lon="2.831234224140644">
<ele>743</ele>
</trkpt>
<trkpt lat="39.784645568579435" lon="2.831142107024789">
<ele>744</ele>
</trkpt>
<trkpt lat="39.784764172509313" lon="2.831158535555005">
<ele>745</ele>
</trkpt>
<trkpt lat="39.784931223839521" lon="2.831227602437139">
<ele>746</ele>
</trkpt>
<trkpt lat="39.785057874396443" lon="2.83131318166852">
<ele>747</ele>
</trkpt>
<trkpt lat="39.785171113908291" lon="2.831471096724272">
<ele>748</ele>
</trkpt>
<trkpt lat="39.785292400047183" lon="2.831507222726941">
<ele>749</ele>
</trkpt>
<trkpt lat="39.785432461649179" lon="2.831494063138962">
<ele>750</ele>
</trkpt>
<trkpt lat="39.785529524087906" lon="2.831457937136293">
<ele>751</ele>
</trkpt>
<trkpt lat="39.78560303337872" lon="2.831417033448815">
<ele>751</ele>
</trkpt>
<trkpt lat="39.785705963149667" lon="2.831386020407081">
<ele>752</ele>
</trkpt>
<trkpt lat="39.78577796369791" lon="2.831317037343979">
<ele>752</ele>
</trkpt>
<trkpt lat="39.785850970074534" lon="2.831102963536978">
<ele>753</ele>
</trkpt>
<trkpt lat="39.785964963957667" lon="2.831100029870868">
<ele>754</ele>
</trkpt>
<trkpt lat="39.786018021404743" lon="2.831081002950668">
<ele>754</ele>
</trkpt>
<trkpt lat="39.786113994196057" lon="2.831029035151005">
<ele>755</ele>
</trkpt>
<trkpt lat="39.786175014451146" lon="2.830956028774381">
<ele>755</ele>
</trkpt>
<trkpt lat="39.786254977807403" lon="2.830862989649177">
<ele>756</ele>
</trkpt>
<trkpt lat="39.786320021376014" lon="2.830808004364371">
<ele>757</ele>
</trkpt>
<trkpt lat="39.786410965025425" lon="2.830681018531323">
<ele>757</ele>
</trkpt>
<trkpt lat="39.786513978615403" lon="2.830604994669557">
<ele>758</ele>
</trkpt>
<trkpt lat="39.786616992205381" lon="2.830532994121313">
<ele>758</ele>
</trkpt>
<trkpt lat="39.786709025502205" lon="2.830450013279915">
<ele>759</ele>
</trkpt>
<trkpt lat="39.786769961938262" lon="2.830350017175078">
<ele>760</ele>
</trkpt>
<trkpt lat="39.786880016326904" lon="2.83020400442183">
<ele>760</ele>
</trkpt>
<trkpt lat="39.786964002996683" lon="2.830050028860569">
<ele>761</ele>
</trkpt>
<trkpt lat="39.78699903935194" lon="2.829938968643546">
<ele>761</ele>
</trkpt>
<trkpt lat="39.787047989666462" lon="2.829836960881949">
<ele>762</ele>
</trkpt>
<trkpt lat="39.787074979394674" lon="2.829787004739046">
<ele>764</ele>
</trkpt>
<trkpt lat="39.787085959687829" lon="2.829672005027533">
<ele>765</ele>
</trkpt>
<trkpt lat="39.787105992436409" lon="2.829536972567439">
<ele>767</ele>
</trkpt>
<trkpt lat="39.787143962457776" lon="2.829448040574789">
<ele>768</ele>
</trkpt>
<trkpt lat="39.787266002967954" lon="2.829334968701005">
<ele>770</ele>
</trkpt>
<trkpt lat="39.787391228601336" lon="2.829164396971464">
<ele>772</ele>
</trkpt>
<trkpt lat="39.78753405623138" lon="2.828904474154115">
<ele>773</ele>
</trkpt>
<trkpt lat="39.787550233304501" lon="2.828611694276333">
<ele>775</ele>
</trkpt>
<trkpt lat="39.787566410377622" lon="2.828430728986859">
<ele>776</ele>
</trkpt>
<trkpt lat="39.787578983232379" lon="2.828336013481021">
<ele>778</ele>
</trkpt>
<trkpt lat="39.787598010152578" lon="2.828210033476353">
<ele>779</ele>
</trkpt>
<trkpt lat="39.787674034014344" lon="2.828096961602569">
<ele>780</ele>
</trkpt>
<trkpt lat="39.787734970450401" lon="2.828029990196228">
<ele>781</ele>
</trkpt>
<trkpt lat="39.78781501762569" lon="2.82792697660625">
<ele>782</ele>
</trkpt>
<trkpt lat="39.78783798404038" lon="2.827880037948489">
<ele>783</ele>
</trkpt>
<trkpt lat="39.787879977375269" lon="2.827599998563528">
<ele>784</ele>
</trkpt>
<trkpt lat="39.787879977375269" lon="2.827524980530143">
<ele>785</ele>
</trkpt>
<trkpt lat="39.787899004295468" lon="2.827363964170218">
<ele>786</ele>
</trkpt>
<trkpt lat="39.787906967103481" lon="2.827318031340838">
<ele>787</ele>
</trkpt>
<trkpt lat="39.787903027608991" lon="2.827105969190598">
<ele>788</ele>
</trkpt>
<trkpt lat="39.787914007902145" lon="2.827080991119146">
<ele>788</ele>
</trkpt>
<trkpt lat="39.787921970710158" lon="2.827043021097779">
<ele>788</ele>
</trkpt>
<trkpt lat="39.787940997630358" lon="2.826920980587602">
<ele>788</ele>
</trkpt>
<trkpt lat="39.787879977375269" lon="2.826933972537518">
<ele>788</ele>
</trkpt>
<trkpt lat="39.787857010960579" lon="2.826988035812974">
<ele>788</ele>
</trkpt>
<trkpt lat="39.787788027897477" lon="2.827100018039346">
<ele>789</ele>
</trkpt>
<trkpt lat="39.787727007642388" lon="2.827189033851028">
<ele>789</ele>
</trkpt>
<trkpt lat="39.787613013759255" lon="2.827318031340838">
<ele>789</ele>
</trkpt>
<trkpt lat="39.787593986839056" lon="2.827235972508788">
<ele>789</ele>
</trkpt>
<trkpt lat="39.787628017365932" lon="2.827189033851028">
<ele>789</ele>
</trkpt>
<trkpt lat="39.787640003487468" lon="2.827134970575571">
<ele>790</ele>
</trkpt>
<trkpt lat="39.787677973508835" lon="2.826955011114478">
<ele>791</ele>
</trkpt>
<trkpt lat="39.787659030407667" lon="2.826818972826004">
<ele>792</ele>
</trkpt>
<trkpt lat="39.787689037621021" lon="2.826733980327845">
<ele>793</ele>
</trkpt>
<trkpt lat="39.787701023742557" lon="2.826683018356562">
<ele>794</ele>
</trkpt>
<trkpt lat="39.787761960178614" lon="2.826563995331526">
<ele>796</ele>
</trkpt>
<trkpt lat="39.787848964333534" lon="2.826382024213672">
<ele>797</ele>
</trkpt>
<trkpt lat="39.787857010960579" lon="2.82631304115057">
<ele>798</ele>
</trkpt>
<trkpt lat="39.787884000688791" lon="2.826163005083799">
<ele>799</ele>
</trkpt>
<trkpt lat="39.787975028157234" lon="2.825945997610688">
<ele>800</ele>
</trkpt>
<trkpt lat="39.78800998069346" lon="2.825836027041078">
<ele>801</ele>
</trkpt>
<trkpt lat="39.788012998178601" lon="2.825781963765621">
<ele>801</ele>
</trkpt>
<trkpt lat="39.788044011220336" lon="2.82551902346313">
<ele>802</ele>
</trkpt>
<trkpt lat="39.788081981241703" lon="2.825516005977988">
<ele>802</ele>
</trkpt>
<trkpt lat="39.788135960698128" lon="2.825531009584665">
<ele>803</ele>
</trkpt>
<trkpt lat="39.788196980953217" lon="2.825537966564298">
<ele>804</ele>
</trkpt>
<trkpt lat="39.788314998149872" lon="2.825499996542931">
<ele>804</ele>
</trkpt>
<trkpt lat="39.788403008133173" lon="2.825462026521564">
<ele>805</ele>
</trkpt>
<trkpt lat="39.788539968430996" lon="2.825426990166307">
<ele>806</ele>
</trkpt>
<trkpt lat="39.788688998669386" lon="2.825434030964971">
<ele>806</ele>
</trkpt>
<trkpt lat="39.788738032802939" lon="2.825444005429745">
<ele>807</ele>
</trkpt>
<trkpt lat="39.788822019472718" lon="2.825422966852784">
<ele>807</ele>
</trkpt>
<trkpt lat="39.788955962285399" lon="2.825367981567979">
<ele>808</ele>
</trkpt>
<trkpt lat="39.789000973105431" lon="2.825346020981669">
<ele>807</ele>
</trkpt>
<trkpt lat="39.789078002795577" lon="2.825273014605045">
<ele>806</ele>
</trkpt>
<trkpt lat="39.789211023598909" lon="2.825162038207054">
<ele>805</ele>
</trkpt>
<trkpt lat="39.789287969470024" lon="2.825118033215404">
<ele>804</ele>
</trkpt>
<trkpt lat="39.789413027465343" lon="2.825030023232102">
<ele>804</ele>
</trkpt>
<trkpt lat="39.789471030235291" lon="2.824974032118917">
<ele>803</ele>
</trkpt>
<trkpt lat="39.789616037160158" lon="2.824906976893544">
<ele>802</ele>
</trkpt>
<trkpt lat="39.789649983868003" lon="2.824898008257151">
<ele>801</ele>
</trkpt>
<trkpt lat="39.789733970537782" lon="2.824978977441788">
<ele>800</ele>
</trkpt>
<trkpt lat="39.789877803996205" lon="2.825058605521917">
<ele>799</ele>
</trkpt>
<trkpt lat="39.790074527263641" lon="2.824986185878515">
<ele>797</ele>
</trkpt>
<trkpt lat="39.790260521695018" lon="2.824907228350639">
<ele>794</ele>
</trkpt>
<trkpt lat="39.790397901087999" lon="2.824811842292547">
<ele>792</ele>
</trkpt>
<trkpt lat="39.790540728718042" lon="2.824660465121269">
<ele>789</ele>
</trkpt>
<trkpt lat="39.790699733421206" lon="2.824611179530621">
<ele>787</ele>
</trkpt>
<trkpt lat="39.790775254368782" lon="2.824581507593393">
<ele>785</ele>
</trkpt>
<trkpt lat="39.790861504152417" lon="2.824459802359343">
<ele>782</ele>
</trkpt>
<trkpt lat="39.790947670117021" lon="2.824400626122952">
<ele>780</ele>
</trkpt>
<trkpt lat="39.790928810834885" lon="2.824357794597745">
<ele>777</ele>
</trkpt>
<trkpt lat="39.791025873273611" lon="2.824308509007096">
<ele>775</ele>
</trkpt>
<trkpt lat="39.791036602109671" lon="2.8242754843086">
<ele>773</ele>
</trkpt>
<trkpt lat="39.791260315105319" lon="2.824219577014446">
<ele>770</ele>
</trkpt>
<trkpt lat="39.791537839919329" lon="2.824163669720292">
<ele>768</ele>
</trkpt>
<trkpt lat="39.791688797995448" lon="2.82409125007689">
<ele>765</ele>
</trkpt>
<trkpt lat="39.791808994486928" lon="2.823995025828481">
<ele>763</ele>
</trkpt>
<trkpt lat="39.791923994198442" lon="2.823925036936998">
<ele>761</ele>
</trkpt>
<trkpt lat="39.791954001411796" lon="2.823888994753361">
<ele>758</ele>
</trkpt>
<trkpt lat="39.792072018608451" lon="2.823812970891595">
<ele>756</ele>
</trkpt>
<trkpt lat="39.792130021378398" lon="2.823729990050197">
<ele>753</ele>
</trkpt>
<trkpt lat="39.792224988341331" lon="2.823551036417484">
<ele>751</ele>
</trkpt>
<trkpt lat="39.792271004989743" lon="2.823446011170745">
<ele>751</ele>
</trkpt>
<trkpt lat="39.792320039123297" lon="2.823355989530683">
<ele>751</ele>
</trkpt>
<trkpt lat="39.792384998872876" lon="2.823224980384111">
<ele>750</ele>
</trkpt>
<trkpt lat="39.7924770321697" lon="2.823104029521346">
<ele>750</ele>
</trkpt>
<trkpt lat="39.792521959170699" lon="2.823059018701315">
<ele>750</ele>
</trkpt>
<trkpt lat="39.792609969154" lon="2.822906970977783">
<ele>750</ele>
</trkpt>
<trkpt lat="39.792682975530624" lon="2.822809992358089">
<ele>750</ele>
</trkpt>
<trkpt lat="39.792727986350656" lon="2.822760958224535">
<ele>749</ele>
</trkpt>
<trkpt lat="39.792857989668846" lon="2.822605976834893">
<ele>749</ele>
</trkpt>
<trkpt lat="39.792914986610413" lon="2.822515033185482">
<ele>749</ele>
</trkpt>
<trkpt lat="39.792945999652147" lon="2.822473961859942">
<ele>749</ele>
</trkpt>
<trkpt lat="39.793010959401727" lon="2.822294002398849">
<ele>749</ele>
</trkpt>
<trkpt lat="39.793022023513913" lon="2.822240022942424">
<ele>749</ele>
</trkpt>
<trkpt lat="39.793086983263493" lon="2.822070037946105">
<ele>749</ele>
</trkpt>
<trkpt lat="39.793140040710568" lon="2.821957971900702">
<ele>748</ele>
</trkpt>
<trkpt lat="39.793185973539948" lon="2.821864010766149">
<ele>748</ele>
</trkpt>
<trkpt lat="39.793240036815405" lon="2.82175999134779">
<ele>748</ele>
</trkpt>
<trkpt lat="39.793284963816404" lon="2.821604004129767">
<ele>748</ele>
</trkpt>
<trkpt lat="39.793330980464816" lon="2.821491016075015">
<ele>748</ele>
</trkpt>
<trkpt lat="39.793350007385015" lon="2.821388002485037">
<ele>748</ele>
</trkpt>
<trkpt lat="39.793399963527918" lon="2.821167977526784">
<ele>748</ele>
</trkpt>
<trkpt lat="39.79340398684144" lon="2.821146016940475">
<ele>748</ele>
</trkpt>
<trkpt lat="39.793448997661471" lon="2.820961028337479">
<ele>748</ele>
</trkpt>
<trkpt lat="39.793442040681839" lon="2.820929009467363">
<ele>748</ele>
</trkpt>
<trkpt lat="39.793490990996361" lon="2.820847034454346">
<ele>748</ele>
</trkpt>
<trkpt lat="39.793517980724573" lon="2.820782996714115">
<ele>747</ele>
</trkpt>
<trkpt lat="39.79355201125145" lon="2.820650981739163">
<ele>747</ele>
</trkpt>
<trkpt lat="39.793579000979662" lon="2.820472028106451">
<ele>747</ele>
</trkpt>
<trkpt lat="39.793594004586339" lon="2.820289973169565">
<ele>747</ele>
</trkpt>
<trkpt lat="39.793610014021397" lon="2.820164998993278">
<ele>747</ele>
</trkpt>
<trkpt lat="39.793625017628074" lon="2.820058967918158">
<ele>747</ele>
</trkpt>
<trkpt lat="39.793652007356286" lon="2.819865010678768">
<ele>747</ele>
</trkpt>
<trkpt lat="39.793655024841428" lon="2.819758979603648">
<ele>747</ele>
</trkpt>
<trkpt lat="39.793671034276485" lon="2.819548007100821">
<ele>747</ele>
</trkpt>
<trkpt lat="39.793689977377653" lon="2.819445999339223">
<ele>747</ele>
</trkpt>
<trkpt lat="39.793713027611375" lon="2.819362012669444">
<ele>747</ele>
</trkpt>
<trkpt lat="39.793792990967631" lon="2.819169983267784">
<ele>747</ele>
</trkpt>
<trkpt lat="39.793915031477809" lon="2.818987006321549">
<ele>747</ele>
</trkpt>
<trkpt lat="39.794014021754265" lon="2.818820038810372">
<ele>747</ele>
</trkpt>
<trkpt lat="39.794066995382309" lon="2.818738985806704">
<ele>747</ele>
</trkpt>
<trkpt lat="39.794159028679132" lon="2.818600013852119">
<ele>747</ele>
</trkpt>
<trkpt lat="39.794189035892487" lon="2.818423993885517">
<ele>747</ele>
</trkpt>
<trkpt lat="39.794189035892487" lon="2.818316034972668">
<ele>747</ele>
</trkpt>
<trkpt lat="39.79417403228581" lon="2.818280998617411">
<ele>747</ele>
</trkpt>
<trkpt lat="39.794041011482477" lon="2.818187037482858">
<ele>746</ele>
</trkpt>
<trkpt lat="39.7939189709723" lon="2.818102966994047">
<ele>746</ele>
</trkpt>
<trkpt lat="39.793800031766295" lon="2.818034989759326">
<ele>746</ele>
</trkpt>
<trkpt lat="39.793731970712543" lon="2.818011017516255">
<ele>746</ele>
</trkpt>
<trkpt lat="39.793598027899861" lon="2.817943962290883">
<ele>746</ele>
</trkpt>
<trkpt lat="39.793529966846108" lon="2.817776994779706">
<ele>746</ele>
</trkpt>
<trkpt lat="39.793468024581671" lon="2.817663000896573">
<ele>746</ele>
</trkpt>
<trkpt lat="39.793396024033427" lon="2.817513970658183">
<ele>746</ele>
</trkpt>
<trkpt lat="39.793282030150294" lon="2.817478012293577">
<ele>746</ele>
</trkpt>
<trkpt lat="39.793221009895205" lon="2.817458985373378">
<ele>746</ele>
</trkpt>
<trkpt lat="39.79310198687017" lon="2.817402994260192">
<ele>746</ele>
</trkpt>
<trkpt lat="39.793034009635448" lon="2.817230997607112">
<ele>746</ele>
</trkpt>
<trkpt lat="39.793034009635448" lon="2.8171849809587">
<ele>746</ele>
</trkpt>
<trkpt lat="39.793025963008404" lon="2.8169259801507">
<ele>746</ele>
</trkpt>
<trkpt lat="39.793040966615081" lon="2.816854985430837">
<ele>746</ele>
</trkpt>
<trkpt lat="39.793064016848803" lon="2.816788014024496">
<ele>746</ele>
</trkpt>
<trkpt lat="39.793132999911904" lon="2.816659016534686">
<ele>746</ele>
</trkpt>
<trkpt lat="39.793182034045458" lon="2.816550973802805">
<ele>745</ele>
</trkpt>
<trkpt lat="39.793242970481515" lon="2.816462963819504">
<ele>745</ele>
</trkpt>
<trkpt lat="39.793320000171661" lon="2.816370008513331">
<ele>745</ele>
</trkpt>
<trkpt lat="39.793335003778338" lon="2.8162179607898">
<ele>744</ele>
</trkpt>
<trkpt lat="39.793284963816404" lon="2.81604596413672">
<ele>744</ele>
</trkpt>
<trkpt lat="39.793278006836772" lon="2.816027021035552">
<ele>744</ele>
</trkpt>
<trkpt lat="39.793167030438781" lon="2.815853012725711">
<ele>744</ele>
</trkpt>
<trkpt lat="39.793148003518581" lon="2.815640028566122">
<ele>743</ele>
</trkpt>
<trkpt lat="39.793140040710568" lon="2.815438024699688">
<ele>743</ele>
</trkpt>
<trkpt lat="39.793137023225427" lon="2.815405000001192">
<ele>743</ele>
</trkpt>
<trkpt lat="39.793132999911904" lon="2.815217999741435">
<ele>743</ele>
</trkpt>
<trkpt lat="39.793148003518581" lon="2.815095037221909">
<ele>743</ele>
</trkpt>
<trkpt lat="39.793158983811736" lon="2.815003003925085">
<ele>743</ele>
</trkpt>
<trkpt lat="39.793155966326594" lon="2.814882975071669">
<ele>744</ele>
</trkpt>
<trkpt lat="39.793155966326594" lon="2.814811980351806">
<ele>744</ele>
</trkpt>
<trkpt lat="39.793117996305227" lon="2.814587010070682">
<ele>744</ele>
</trkpt>
<trkpt lat="39.79308295994997" lon="2.814451977610588">
<ele>744</ele>
</trkpt>
<trkpt lat="39.793044989928603" lon="2.814341001212597">
<ele>744</ele>
</trkpt>
<trkpt lat="39.793014982715249" lon="2.814221978187561">
<ele>744</ele>
</trkpt>
<trkpt lat="39.792992016300559" lon="2.814120976254344">
<ele>744</ele>
</trkpt>
<trkpt lat="39.792923033237457" lon="2.813944034278393">
<ele>744</ele>
</trkpt>
<trkpt lat="39.792850026860833" lon="2.813769020140171">
<ele>744</ele>
</trkpt>
<trkpt lat="39.792805016040802" lon="2.8136380109936">
<ele>744</ele>
</trkpt>
<trkpt lat="39.792789006605744" lon="2.813583025708795">
<ele>744</ele>
</trkpt>
<trkpt lat="39.792724968865514" lon="2.813456039875746">
<ele>745</ele>
</trkpt>
<trkpt lat="39.792675012722611" lon="2.813341040164232">
<ele>745</ele>
</trkpt>
<trkpt lat="39.792640982195735" lon="2.813258981332183">
<ele>745</ele>
</trkpt>
<trkpt lat="39.792519025504589" lon="2.812911970540881">
<ele>745</ele>
</trkpt>
<trkpt lat="39.792515002191067" lon="2.812895039096475">
<ele>745</ele>
</trkpt>
<trkpt lat="39.792461022734642" lon="2.812792025506496">
<ele>745</ele>
</trkpt>
<trkpt lat="39.792419029399753" lon="2.812673002481461">
<ele>745</ele>
</trkpt>
<trkpt lat="39.792377036064863" lon="2.812560014426708">
<ele>744</ele>
</trkpt>
<trkpt lat="39.792362032458186" lon="2.812503017485142">
<ele>744</ele>
</trkpt>
<trkpt lat="39.792281985282898" lon="2.812422970309854">
<ele>744</ele>
</trkpt>
<trkpt lat="39.792217025533319" lon="2.812377037480474">
<ele>744</ele>
</trkpt>
<trkpt lat="39.79213303886354" lon="2.812308976426721">
<ele>744</ele>
</trkpt>
<trkpt lat="39.792121974751353" lon="2.812300007790327">
<ele>743</ele>
</trkpt>
<trkpt lat="39.792030025273561" lon="2.812270000576973">
<ele>743</ele>
</trkpt>
<trkpt lat="39.791995994746685" lon="2.812277963384986">
<ele>743</ele>
</trkpt>
<trkpt lat="39.791907984763384" lon="2.812291961163282">
<ele>743</ele>
</trkpt>
<trkpt lat="39.791892981156707" lon="2.812295984476805">
<ele>743</ele>
</trkpt>
<trkpt lat="39.791714027523994" lon="2.812206968665123">
<ele>743</ele>
</trkpt>
<trkpt lat="39.791675973683596" lon="2.812172016128898">
<ele>743</ele>
</trkpt>
<trkpt lat="39.791575977578759" lon="2.811937993392348">
<ele>744</ele>
</trkpt>
<trkpt lat="39.791584024205804" lon="2.81183397397399">
<ele>744</ele>
</trkpt>
<trkpt lat="39.791602967306972" lon="2.811735989525914">
<ele>744</ele>
</trkpt>
<trkpt lat="39.791648983955383" lon="2.811499033123255">
<ele>744</ele>
</trkpt>
<trkpt lat="39.791606990620494" lon="2.811377998441458">
<ele>744</ele>
</trkpt>
<trkpt lat="39.791591987013817" lon="2.811258975416422">
<ele>744</ele>
</trkpt>
<trkpt lat="39.791591987013817" lon="2.811227962374687">
<ele>744</ele>
</trkpt>
<trkpt lat="39.791564997285604" lon="2.811100976541638">
<ele>744</ele>
</trkpt>
<trkpt lat="39.791500037536025" lon="2.810992011800408">
<ele>744</ele>
</trkpt>
<trkpt lat="39.791488973423839" lon="2.810837030410767">
<ele>744</ele>
</trkpt>
<trkpt lat="39.791461983695626" lon="2.810660004615784">
<ele>744</ele>
</trkpt>
<trkpt lat="39.791454020887613" lon="2.810540981590748">
<ele>743</ele>
</trkpt>
<trkpt lat="39.791439017280936" lon="2.810450037941337">
<ele>743</ele>
</trkpt>
<trkpt lat="39.791428036987782" lon="2.810312993824482">
<ele>743</ele>
</trkpt>
<trkpt lat="39.791430970653892" lon="2.810205034911633">
<ele>743</ele>
</trkpt>
<trkpt lat="39.791412027552724" lon="2.810105960816145">
<ele>743</ele>
</trkpt>
<trkpt lat="39.791388977319002" lon="2.809990961104631">
<ele>743</ele>
</trkpt>
<trkpt lat="39.791373973712325" lon="2.80992197804153">
<ele>743</ele>
</trkpt>
<trkpt lat="39.79136299341917" lon="2.809740006923676">
<ele>744</ele>
</trkpt>
<trkpt lat="39.79134002700448" lon="2.809679992496967">
<ele>744</ele>
</trkpt>
<trkpt lat="39.79134002700448" lon="2.809530962258577">
<ele>744</ele>
</trkpt>
<trkpt lat="39.79134002700448" lon="2.809458961710334">
<ele>744</ele>
</trkpt>
<trkpt lat="39.791325023397803" lon="2.809309009462595">
<ele>744</ele>
</trkpt>
<trkpt lat="39.79136299341917" lon="2.809131983667612">
<ele>745</ele>
</trkpt>
<trkpt lat="39.791370034217834" lon="2.809074986726046">
<ele>745</ele>
</trkpt>
<trkpt lat="39.791325023397803" lon="2.808906007558107">
<ele>745</ele>
</trkpt>
<trkpt lat="39.791298033669591" lon="2.808806011453271">
<ele>745</ele>
</trkpt>
<trkpt lat="39.791285963729024" lon="2.808667039498687">
<ele>744</ele>
</trkpt>
<trkpt lat="39.791247993707657" lon="2.808570982888341">
<ele>744</ele>
</trkpt>
<trkpt lat="39.79119099676609" lon="2.808370990678668">
<ele>744</ele>
</trkpt>
<trkpt lat="39.791126037016511" lon="2.808231012895703">
<ele>744</ele>
</trkpt>
<trkpt lat="39.791087983176112" lon="2.808137973770499">
<ele>743</ele>
</trkpt>
<trkpt lat="39.791026962921023" lon="2.807905962690711">
<ele>743</ele>
</trkpt>
<trkpt lat="39.790977006778121" lon="2.807808984071016">
<ele>743</ele>
</trkpt>
<trkpt lat="39.790977006778121" lon="2.807756010442972">
<ele>742</ele>
</trkpt>
<trkpt lat="39.791035009548068" lon="2.807571021839976">
<ele>742</ele>
</trkpt>
<trkpt lat="39.791023023426533" lon="2.807503966614604">
<ele>742</ele>
</trkpt>
<trkpt lat="39.791008019819856" lon="2.807414028793573">
<ele>742</ele>
</trkpt>
<trkpt lat="39.790957979857922" lon="2.807259969413281">
<ele>742</ele>
</trkpt>
<trkpt lat="39.790885979309678" lon="2.807109011337161">
<ele>742</ele>
</trkpt>
<trkpt lat="39.790839962661266" lon="2.807024018839002">
<ele>742</ele>
</trkpt>
<trkpt lat="39.790824959054589" lon="2.806840036064386">
<ele>742</ele>
</trkpt>
<trkpt lat="39.790764022618532" lon="2.806622022762895">
<ele>742</ele>
</trkpt>
<trkpt lat="39.790725968778133" lon="2.806518003344536">
<ele>742</ele>
</trkpt>
<trkpt lat="39.790680035948753" lon="2.806353969499469">
<ele>742</ele>
</trkpt>
<trkpt lat="39.790676012635231" lon="2.806256990879774">
<ele>742</ele>
</trkpt>
<trkpt lat="39.790646005421877" lon="2.806091029196978">
<ele>742</ele>
</trkpt>
<trkpt lat="39.790626978501678" lon="2.805994972586632">
<ele>742</ele>
</trkpt>
<trkpt lat="39.790623039007187" lon="2.805806966498494">
<ele>742</ele>
</trkpt>
<trkpt lat="39.790637958794832" lon="2.80568802729249">
<ele>742</ele>
</trkpt>
<trkpt lat="39.790707025676966" lon="2.805545032024384">
<ele>742</ele>
</trkpt>
<trkpt lat="39.79074097238481" lon="2.805489962920547">
<ele>743</ele>
</trkpt>
<trkpt lat="39.790810039266944" lon="2.805358031764627">
<ele>743</ele>
</trkpt>
<trkpt lat="39.790858989581466" lon="2.805308997631073">
<ele>743</ele>
</trkpt>
<trkpt lat="39.79095496237278" lon="2.805211013182998">
<ele>743</ele>
</trkpt>
<trkpt lat="39.791003996506333" lon="2.805161979049444">
<ele>743</ele>
</trkpt>
<trkpt lat="39.791096029803157" lon="2.805090984329581">
<ele>743</ele>
</trkpt>
<trkpt lat="39.791160989552736" lon="2.80500004068017">
<ele>743</ele>
</trkpt>
<trkpt lat="39.791222009807825" lon="2.804938014596701">
<ele>743</ele>
</trkpt>
<trkpt lat="39.791336003690958" lon="2.80478403903544">
<ele>743</ele>
</trkpt>
<trkpt lat="39.791331980377436" lon="2.804637020453811">
<ele>742</ele>
</trkpt>
<trkpt lat="39.791321000084281" lon="2.804583963006735">
<ele>742</ele>
</trkpt>
<trkpt lat="39.791237013414502" lon="2.804434010758996">
<ele>742</ele>
</trkpt>
<trkpt lat="39.791141962632537" lon="2.804238041862845">
<ele>742</ele>
</trkpt>
<trkpt lat="39.791133999824524" lon="2.804221026599407">
<ele>742</ele>
</trkpt>
<trkpt lat="39.79101900011301" lon="2.804082976654172">
<ele>742</ele>
</trkpt>
<trkpt lat="39.790977006778121" lon="2.804018016904593">
<ele>742</ele>
</trkpt>
<trkpt lat="39.790905006229877" lon="2.80390796251595">
<ele>742</ele>
</trkpt>
<trkpt lat="39.790863012894988" lon="2.803866975009441">
<ele>742</ele>
</trkpt>
<trkpt lat="39.790752036496997" lon="2.803784999996424">
<ele>742</ele>
</trkpt>
<trkpt lat="39.790683975443244" lon="2.803767984732986">
<ele>742</ele>
</trkpt>
<trkpt lat="39.790572999045253" lon="2.803729008883238">
<ele>742</ele>
</trkpt>
<trkpt lat="39.790405025705695" lon="2.803704030811787">
<ele>742</ele>
</trkpt>
<trkpt lat="39.790329001843929" lon="2.803657008334994">
<ele>742</ele>
</trkpt>
<trkpt lat="39.790240991860628" lon="2.80358400195837">
<ele>742</ele>
</trkpt>
<trkpt lat="39.790168991312385" lon="2.803512001410127">
<ele>742</ele>
</trkpt>
<trkpt lat="39.79009598493576" lon="2.803418040275574">
<ele>742</ele>
</trkpt>
<trkpt lat="39.79007301852107" lon="2.803375041112304">
<ele>741</ele>
</trkpt>
<trkpt lat="39.789962964132428" lon="2.803186029195786">
<ele>741</ele>
</trkpt>
<trkpt lat="39.789902027696371" lon="2.80308703891933">
<ele>741</ele>
</trkpt>
<trkpt lat="39.789866991341114" lon="2.803000034764409">
<ele>740</ele>
</trkpt>
<trkpt lat="39.789803037419915" lon="2.802903978154063">
<ele>740</ele>
</trkpt>
<trkpt lat="39.789748974144459" lon="2.802813034504652">
<ele>740</ele>
</trkpt>
<trkpt lat="39.789658030495048" lon="2.802717983722687">
<ele>740</ele>
</trkpt>
<trkpt lat="39.789616037160158" lon="2.802673978731036">
<ele>739</ele>
</trkpt>
<trkpt lat="39.789489973336458" lon="2.802498964592814">
<ele>739</ele>
</trkpt>
<trkpt lat="39.789455020800233" lon="2.802377007901669">
<ele>739</ele>
</trkpt>
<trkpt lat="39.789405986666679" lon="2.802256979048252">
<ele>738</ele>
</trkpt>
<trkpt lat="39.789348989725113" lon="2.802140973508358">
<ele>738</ele>
</trkpt>
<trkpt lat="39.789275983348489" lon="2.801976017653942">
<ele>738</ele>
</trkpt>
<trkpt lat="39.78916903026402" lon="2.801877027377486">
<ele>738</ele>
</trkpt>
<trkpt lat="39.789103986695409" lon="2.801831010729075">
<ele>737</ele>
</trkpt>
<trkpt lat="39.78891396895051" lon="2.80173503793776">
<ele>737</ele>
</trkpt>
<trkpt lat="39.788814978674054" lon="2.801624983549118">
<ele>737</ele>
</trkpt>
<trkpt lat="39.788730992004275" lon="2.801483999937773">
<ele>736</ele>
</trkpt>
<trkpt lat="39.788684975355864" lon="2.801396995782852">
<ele>736</ele>
</trkpt>
<trkpt lat="39.788609035313129" lon="2.801244026049972">
<ele>736</ele>
</trkpt>
<trkpt lat="39.78844097815454" lon="2.801045039668679">
<ele>737</ele>
</trkpt>
<trkpt lat="39.788406025618315" lon="2.801020983606577">
<ele>737</ele>
</trkpt>
<trkpt lat="39.788246685639024" lon="2.800819566473365">
<ele>737</ele>
</trkpt>
<trkpt lat="39.788111904636025" lon="2.800648491829634">
<ele>738</ele>
</trkpt>
<trkpt lat="39.788009561598301" lon="2.800510274246335">
<ele>738</ele>
</trkpt>
<trkpt lat="39.787901770323515" lon="2.800358980894089">
<ele>738</ele>
</trkpt>
<trkpt lat="39.787761624902487" lon="2.80013526789844">
<ele>738</ele>
</trkpt>
<trkpt lat="39.787645703181624" lon="2.799924714490771">
<ele>739</ele>
</trkpt>
<trkpt lat="39.787537911906838" lon="2.799727320671082">
<ele>739</ele>
</trkpt>
<trkpt lat="39.787478651851416" lon="2.79950687661767">
<ele>740</ele>
</trkpt>
<trkpt lat="39.787448393180966" lon="2.799401013180614">
<ele>741</ele>
</trkpt>
<trkpt lat="39.787367507815361" lon="2.79926941730082">
<ele>742</ele>
</trkpt>
<trkpt lat="39.787267846986651" lon="2.799150981009007">
<ele>743</ele>
</trkpt>
<trkpt lat="39.787186961621046" lon="2.798976553604007">
<ele>744</ele>
</trkpt>
<trkpt lat="39.787111524492502" lon="2.799052242189646">
<ele>744</ele>
</trkpt>
<trkpt lat="39.787017982453108" lon="2.799142012372613">
<ele>745</ele>
</trkpt>
<trkpt lat="39.786968026310205" lon="2.799133965745568">
<ele>746</ele>
</trkpt>
<trkpt lat="39.786960985511541" lon="2.799108987674117">
<ele>747</ele>
</trkpt>
<trkpt lat="39.786960985511541" lon="2.799092978239059">
<ele>748</ele>
</trkpt>
<trkpt lat="39.786983029916883" lon="2.798908995464444">
<ele>748</ele>
</trkpt>
<trkpt lat="39.786983029916883" lon="2.798896003514528">
<ele>748</ele>
</trkpt>
<trkpt lat="39.786980012431741" lon="2.798865996301174">
<ele>748</ele>
</trkpt>
<trkpt lat="39.787028962746263" lon="2.79861998744309">
<ele>748</ele>
</trkpt>
<trkpt lat="39.787032986059785" lon="2.798602972179651">
<ele>748</ele>
</trkpt>
<trkpt lat="39.78704497218132" lon="2.798486966639757">
<ele>747</ele>
</trkpt>
<trkpt lat="39.78704103268683" lon="2.798422006890178">
<ele>747</ele>
</trkpt>
<trkpt lat="39.787028962746263" lon="2.798309018835425">
<ele>747</ele>
</trkpt>
<trkpt lat="39.786986969411373" lon="2.798183960840106">
<ele>747</ele>
</trkpt>
<trkpt lat="39.786929972469807" lon="2.79806200414896">
<ele>747</ele>
</trkpt>
<trkpt lat="39.78689200244844" lon="2.79795203357935">
<ele>747</ele>
</trkpt>
<trkpt lat="39.78686903603375" lon="2.797885984182358">
<ele>748</ele>
</trkpt>
<trkpt lat="39.786839028820395" lon="2.797770984470844">
<ele>748</ele>
</trkpt>
<trkpt lat="39.786788988858461" lon="2.797684986144304">
<ele>748</ele>
</trkpt>
<trkpt lat="39.786769961938262" lon="2.797498991712928">
<ele>748</ele>
</trkpt>
<trkpt lat="39.786766022443771" lon="2.797478958964348">
<ele>748</ele>
</trkpt>
<trkpt lat="39.786823019385338" lon="2.797375023365021">
<ele>749</ele>
</trkpt>
<trkpt lat="39.786918992176652" lon="2.797283995896578">
<ele>749</ele>
</trkpt>
<trkpt lat="39.786964002996683" lon="2.797187017276883">
<ele>749</ele>
</trkpt>
<trkpt lat="39.78704497218132" lon="2.797080986201763">
<ele>750</ele>
</trkpt>
<trkpt lat="39.787089983001351" lon="2.797022983431816">
<ele>750</ele>
</trkpt>
<trkpt lat="39.787254016846418" lon="2.796919969841838">
<ele>750</ele>
</trkpt>
</trkseg>
</trk>
</gpx>
