<?xml version="1.0" encoding="UTF-8"?>
<gpx version="1.1"
creator="Smartprofil-Office - http://www.rother.de"
xmlns:xsi="http://www.w3.org/2001/XMLSchema-instance"
xmlns="http://www.topografix.com/GPX/1/1"
xsi:schemaLocation="http://www.topografix.com/GPX/1/1 http://www.topografix.com/GPX/1/1/gpx.xsd">
<metadata>

<bounds minlat="39.796397164463997" minlon="2.695393245667219" maxlat="39.819440022110939" maxlon="2.723403973504901"/>
</metadata>
<wpt lat="39.797791829332709" lon="2.695393245667219">
<ele>2</ele>
<name>29_Port de Sóller (1)</name>
<cmt></cmt>
<desc></desc>
<sym>Crossing</sym>
</wpt>

<wpt lat="39.805139992386103" lon="2.702088039368391">
<ele>112</ele>
<name>29_Coll de s’Illa (2)</name>
<cmt></cmt>
<desc></desc>
<sym>Crossing</sym>
</wpt>

<wpt lat="39.81342701241374" lon="2.712860964238644">
<ele>190</ele>
<name>29_(3)</name>
<cmt></cmt>
<desc></desc>
<sym>Crossing</sym>
</wpt>

<wpt lat="39.819440022110939" lon="2.723403973504901">
<ele>160</ele>
<name>29_(4)</name>
<cmt></cmt>
<desc></desc>
<sym>Crossing</sym>
</wpt>

<wpt lat="39.805139992386103" lon="2.702088039368391">
<ele>112</ele>
<name>29_Coll de sIlla (2)</name>
<cmt></cmt>
<desc></desc>
<sym>Crossing</sym>
</wpt>

<wpt lat="39.810364013537765" lon="2.699787961319089">
<ele>7</ele>
<name>29_Punta Curta (5)</name>
<cmt></cmt>
<desc></desc>
<sym>Crossing</sym>
</wpt>

<wpt lat="39.805139992386103" lon="2.702088039368391">
<ele>112</ele>
<name>29_Coll de s'Illa (2)</name>
<cmt></cmt>
<desc></desc>
<sym>Crossing</sym>
</wpt>

<trk>
<name>Mal_29_Petit Costera</name>
<trkseg>
<trkpt lat="39.797791829332709" lon="2.695393245667219">
<ele>2</ele>
</trkpt>
<trkpt lat="39.797692252323031" lon="2.69550715573132">
<ele>2</ele>
</trkpt>
<trkpt lat="39.797559315338731" lon="2.695719888433814">
<ele>2</ele>
</trkpt>
<trkpt lat="39.797392264008522" lon="2.695886520668864">
<ele>2</ele>
</trkpt>
<trkpt lat="39.797388659790158" lon="2.695890963077545">
<ele>2</ele>
</trkpt>
<trkpt lat="39.797246754169464" lon="2.69598743878305">
<ele>2</ele>
</trkpt>
<trkpt lat="39.797081463038921" lon="2.696112496778369">
<ele>2</ele>
</trkpt>
<trkpt lat="39.796899994835258" lon="2.696241829544306">
<ele>2</ele>
</trkpt>
<trkpt lat="39.796785246580839" lon="2.696307878941298">
<ele>2</ele>
</trkpt>
<trkpt lat="39.796641496941447" lon="2.696389015763998">
<ele>2</ele>
</trkpt>
<trkpt lat="39.796397164463997" lon="2.696538213640451">
<ele>2</ele>
</trkpt>
<trkpt lat="39.796468997374177" lon="2.696733344346285">
<ele>2</ele>
</trkpt>
<trkpt lat="39.796551642939448" lon="2.696943897753954">
<ele>3</ele>
</trkpt>
<trkpt lat="39.796625319868326" lon="2.697132574394345">
<ele>3</ele>
</trkpt>
<trkpt lat="39.796702601015568" lon="2.697312366217375">
<ele>4</ele>
</trkpt>
<trkpt lat="39.796765465289354" lon="2.697483524680138">
<ele>4</ele>
</trkpt>
<trkpt lat="39.796858839690685" lon="2.697678906843066">
<ele>4</ele>
</trkpt>
<trkpt lat="39.796952297911048" lon="2.697847802191973">
<ele>5</ele>
</trkpt>
<trkpt lat="39.797025891020894" lon="2.697990378364921">
<ele>5</ele>
</trkpt>
<trkpt lat="39.79712295345962" lon="2.698172433301806">
<ele>6</ele>
</trkpt>
<trkpt lat="39.797259494662285" lon="2.698358846828342">
<ele>6</ele>
</trkpt>
<trkpt lat="39.797379858791828" lon="2.698527742177248">
<ele>6</ele>
</trkpt>
<trkpt lat="39.797509191557765" lon="2.698716334998608">
<ele>7</ele>
</trkpt>
<trkpt lat="39.797622431069613" lon="2.698871986940503">
<ele>7</ele>
</trkpt>
<trkpt lat="39.797719493508339" lon="2.699012383818626">
<ele>8</ele>
</trkpt>
<trkpt lat="39.797821836546063" lon="2.699176836758852">
<ele>8</ele>
</trkpt>
<trkpt lat="39.797983607277274" lon="2.699255794286728">
<ele>8</ele>
</trkpt>
<trkpt lat="39.798147054389119" lon="2.699350174516439">
<ele>9</ele>
</trkpt>
<trkpt lat="39.79833573102951" lon="2.699477327987552">
<ele>9</ele>
</trkpt>
<trkpt lat="39.798549301922321" lon="2.699602553620935">
<ele>10</ele>
</trkpt>
<trkpt lat="39.798700259998441" lon="2.699692491441965">
<ele>10</ele>
</trkpt>
<trkpt lat="39.798885332420468" lon="2.699817465618253">
<ele>11</ele>
</trkpt>
<trkpt lat="39.79903444647789" lon="2.699913941323757">
<ele>13</ele>
</trkpt>
<trkpt lat="39.799200743436813" lon="2.699994156137109">
<ele>14</ele>
</trkpt>
<trkpt lat="39.799358826130629" lon="2.700086273252964">
<ele>15</ele>
</trkpt>
<trkpt lat="39.799477346241474" lon="2.700154250487685">
<ele>16</ele>
</trkpt>
<trkpt lat="39.799578012898564" lon="2.700283667072654">
<ele>18</ele>
</trkpt>
<trkpt lat="39.799714554101229" lon="2.700439402833581">
<ele>19</ele>
</trkpt>
<trkpt lat="39.799820585176349" lon="2.700597317889333">
<ele>20</ele>
</trkpt>
<trkpt lat="39.799930304288864" lon="2.700757663697004">
<ele>22</ele>
</trkpt>
<trkpt lat="39.80003809556365" lon="2.700904682278633">
<ele>23</ele>
</trkpt>
<trkpt lat="39.800126105546951" lon="2.701038457453251">
<ele>25</ele>
</trkpt>
<trkpt lat="39.80022668838501" lon="2.701156893745065">
<ele>27</ele>
</trkpt>
<trkpt lat="39.800348896533251" lon="2.701295027509332">
<ele>29</ele>
</trkpt>
<trkpt lat="39.800463896244764" lon="2.701389323920012">
<ele>31</ele>
</trkpt>
<trkpt lat="39.800541093572974" lon="2.701492421329022">
<ele>33</ele>
</trkpt>
<trkpt lat="39.80068844743073" lon="2.701641619205475">
<ele>35</ele>
</trkpt>
<trkpt lat="39.800801603123546" lon="2.701775394380093">
<ele>37</ele>
</trkpt>
<trkpt lat="39.800904029980302" lon="2.701891651377082">
<ele>39</ele>
</trkpt>
<trkpt lat="39.801029842346907" lon="2.701935488730669">
<ele>41</ele>
</trkpt>
<trkpt lat="39.801214579492807" lon="2.701999191194773">
<ele>43</ele>
</trkpt>
<trkpt lat="39.801423037424684" lon="2.702001370489597">
<ele>45</ele>
</trkpt>
<trkpt lat="39.801616994664073" lon="2.702012350782752">
<ele>47</ele>
</trkpt>
<trkpt lat="39.801791338250041" lon="2.702007992193103">
<ele>48</ele>
</trkpt>
<trkpt lat="39.801931483671069" lon="2.702001370489597">
<ele>50</ele>
</trkpt>
<trkpt lat="39.802053608000278" lon="2.70195753313601">
<ele>52</ele>
</trkpt>
<trkpt lat="39.802184784784913" lon="2.701891735196114">
<ele>54</ele>
</trkpt>
<trkpt lat="39.802355524152517" lon="2.701828200370073">
<ele>56</ele>
</trkpt>
<trkpt lat="39.802412940189242" lon="2.701815040782094">
<ele>57</ele>
</trkpt>
<trkpt lat="39.802511762827635" lon="2.701839180663228">
<ele>59</ele>
</trkpt>
<trkpt lat="39.802542356774211" lon="2.701902715489268">
<ele>61</ele>
</trkpt>
<trkpt lat="39.802572866901755" lon="2.702014613896608">
<ele>63</ele>
</trkpt>
<trkpt lat="39.802736397832632" lon="2.702113268896937">
<ele>65</ele>
</trkpt>
<trkpt lat="39.802921386435628" lon="2.702227346599102">
<ele>67</ele>
</trkpt>
<trkpt lat="39.803068740293384" lon="2.702308483421803">
<ele>69</ele>
</trkpt>
<trkpt lat="39.80317116715014" lon="2.702367743477225">
<ele>72</ele>
</trkpt>
<trkpt lat="39.803347187116742" lon="2.702411580830813">
<ele>74</ele>
</trkpt>
<trkpt lat="39.803519351407886" lon="2.702427003532648">
<ele>76</ele>
</trkpt>
<trkpt lat="39.803628902882338" lon="2.702422644942999">
<ele>78</ele>
</trkpt>
<trkpt lat="39.803740298375487" lon="2.702444605529308">
<ele>80</ele>
</trkpt>
<trkpt lat="39.803840881213546" lon="2.702462123706937">
<ele>82</ele>
</trkpt>
<trkpt lat="39.803826548159122" lon="2.70240948535502">
<ele>84</ele>
</trkpt>
<trkpt lat="39.803788829594851" lon="2.702363468706608">
<ele>86</ele>
</trkpt>
<trkpt lat="39.803900225088" lon="2.70230202935636">
<ele>88</ele>
</trkpt>
<trkpt lat="39.803959485143423" lon="2.702317368239164">
<ele>90</ele>
</trkpt>
<trkpt lat="39.804049339145422" lon="2.702277889475226">
<ele>92</ele>
</trkpt>
<trkpt lat="39.804175067692995" lon="2.702280068770051">
<ele>95</ele>
</trkpt>
<trkpt lat="39.804299036040902" lon="2.702183593064547">
<ele>97</ele>
</trkpt>
<trkpt lat="39.804361900314689" lon="2.702161632478237">
<ele>99</ele>
</trkpt>
<trkpt lat="39.80451101437211" lon="2.702170433476567">
<ele>101</ele>
</trkpt>
<trkpt lat="39.80461704544723" lon="2.702225251123309">
<ele>103</ele>
</trkpt>
<trkpt lat="39.804697595536709" lon="2.702304208651185">
<ele>104</ele>
</trkpt>
<trkpt lat="39.804758699610829" lon="2.702363384887576">
<ele>105</ele>
</trkpt>
<trkpt lat="39.804762303829193" lon="2.702492801472545">
<ele>106</ele>
</trkpt>
<trkpt lat="39.804787449538708" lon="2.702558599412441">
<ele>107</ele>
</trkpt>
<trkpt lat="39.804902449250221" lon="2.702398505061865">
<ele>108</ele>
</trkpt>
<trkpt lat="39.804972521960735" lon="2.702282248064876">
<ele>108</ele>
</trkpt>
<trkpt lat="39.805024657398462" lon="2.702141851186752">
<ele>109</ele>
</trkpt>
<trkpt lat="39.805056927725673" lon="2.702073873952031">
<ele>110</ele>
</trkpt>
<trkpt lat="39.805105458945036" lon="2.702027857303619">
<ele>111</ele>
</trkpt>
<trkpt lat="39.805139992386103" lon="2.702088039368391">
<ele>112</ele>
</trkpt>
<trkpt lat="39.805111913010478" lon="2.702151155099273">
<ele>113</ele>
</trkpt>
<trkpt lat="39.805102944374084" lon="2.702258611097932">
<ele>115</ele>
</trkpt>
<trkpt lat="39.805056257173419" lon="2.702372688800097">
<ele>116</ele>
</trkpt>
<trkpt lat="39.80507243424654" lon="2.702458184212446">
<ele>118</ele>
</trkpt>
<trkpt lat="39.805200006812811" lon="2.70249548368156">
<ele>119</ele>
</trkpt>
<trkpt lat="39.805309223011136" lon="2.702515348792076">
<ele>120</ele>
</trkpt>
<trkpt lat="39.805454732850194" lon="2.702605202794075">
<ele>122</ele>
</trkpt>
<trkpt lat="39.805569732561707" lon="2.702681981027126">
<ele>123</ele>
</trkpt>
<trkpt lat="39.805743992328644" lon="2.702804859727621">
<ele>125</ele>
</trkpt>
<trkpt lat="39.805990252643824" lon="2.702933605760336">
<ele>126</ele>
</trkpt>
<trkpt lat="39.806259730830789" lon="2.703055394813418">
<ele>126</ele>
</trkpt>
<trkpt lat="39.80645377188921" lon="2.703180368989706">
<ele>125</ele>
</trkpt>
<trkpt lat="39.806639766320586" lon="2.703341552987695">
<ele>125</ele>
</trkpt>
<trkpt lat="39.806787958368659" lon="2.703466610983014">
<ele>124</ele>
</trkpt>
<trkpt lat="39.806871525943279" lon="2.703640954568982">
<ele>124</ele>
</trkpt>
<trkpt lat="39.806909244507551" lon="2.703871289268136">
<ele>124</ele>
</trkpt>
<trkpt lat="39.806922739371657" lon="2.704131128266454">
<ele>123</ele>
</trkpt>
<trkpt lat="39.806984681636095" lon="2.704358194023371">
<ele>123</ele>
</trkpt>
<trkpt lat="39.807131448760629" lon="2.704610908403993">
<ele>122</ele>
</trkpt>
<trkpt lat="39.807282323017716" lon="2.704827999696136">
<ele>122</ele>
</trkpt>
<trkpt lat="39.807392796501517" lon="2.704989183694124">
<ele>122</ele>
</trkpt>
<trkpt lat="39.807576108723879" lon="2.705094460397959">
<ele>122</ele>
</trkpt>
<trkpt lat="39.807729665189981" lon="2.705206358805299">
<ele>122</ele>
</trkpt>
<trkpt lat="39.807885987684131" lon="2.7054497692734">
<ele>122</ele>
</trkpt>
<trkpt lat="39.808050356805325" lon="2.705716313794255">
<ele>122</ele>
</trkpt>
<trkpt lat="39.808257892727852" lon="2.705926867201924">
<ele>123</ele>
</trkpt>
<trkpt lat="39.8084816057235" lon="2.706143958494067">
<ele>123</ele>
</trkpt>
<trkpt lat="39.8084816057235" lon="2.706147227436304">
<ele>123</ele>
</trkpt>
<trkpt lat="39.80849233455956" lon="2.706561796367168">
<ele>123</ele>
</trkpt>
<trkpt lat="39.808597443625331" lon="2.70680520683527">
<ele>123</ele>
</trkpt>
<trkpt lat="39.808729542419314" lon="2.707134280353785">
<ele>124</ele>
</trkpt>
<trkpt lat="39.808847308158875" lon="2.707400908693671">
<ele>126</ele>
</trkpt>
<trkpt lat="39.808995500206947" lon="2.70753912627697">
<ele>128</ele>
</trkpt>
<trkpt lat="39.809030536562204" lon="2.707598302513361">
<ele>129</ele>
</trkpt>
<trkpt lat="39.80896046385169" lon="2.707644402980804">
<ele>130</ele>
</trkpt>
<trkpt lat="39.808817636221647" lon="2.707470059394836">
<ele>132</ele>
</trkpt>
<trkpt lat="39.80875032953918" lon="2.707516076043248">
<ele>134</ele>
</trkpt>
<trkpt lat="39.808898521587253" lon="2.707683881744742">
<ele>135</ele>
</trkpt>
<trkpt lat="39.809089880436659" lon="2.707822015509009">
<ele>136</ele>
</trkpt>
<trkpt lat="39.809356676414609" lon="2.70787138491869">
<ele>138</ele>
</trkpt>
<trkpt lat="39.80946714989841" lon="2.707874653860927">
<ele>140</ele>
</trkpt>
<trkpt lat="39.809618024155498" lon="2.708108257502317">
<ele>141</ele>
</trkpt>
<trkpt lat="39.80972858145833" lon="2.708338592201471">
<ele>143</ele>
</trkpt>
<trkpt lat="39.809741992503405" lon="2.708496507257223">
<ele>144</ele>
</trkpt>
<trkpt lat="39.809774346649647" lon="2.708628103137016">
<ele>146</ele>
</trkpt>
<trkpt lat="39.809812065213919" lon="2.7087826654315">
<ele>148</ele>
</trkpt>
<trkpt lat="39.809768982231617" lon="2.708812337368727">
<ele>149</ele>
</trkpt>
<trkpt lat="39.809688096866012" lon="2.708684010431171">
<ele>151</ele>
</trkpt>
<trkpt lat="39.80963964946568" lon="2.708509666845202">
<ele>152</ele>
</trkpt>
<trkpt lat="39.809661190956831" lon="2.708753077313304">
<ele>154</ele>
</trkpt>
<trkpt lat="39.809653060510755" lon="2.708963630720973">
<ele>156</ele>
</trkpt>
<trkpt lat="39.809752805158496" lon="2.709111655130982">
<ele>158</ele>
</trkpt>
<trkpt lat="39.809919856488705" lon="2.709269570186734">
<ele>161</ele>
</trkpt>
<trkpt lat="39.809841737151146" lon="2.709295889362693">
<ele>163</ele>
</trkpt>
<trkpt lat="39.809752805158496" lon="2.709216931834817">
<ele>165</ele>
</trkpt>
<trkpt lat="39.809680050238967" lon="2.709239982068539">
<ele>167</ele>
</trkpt>
<trkpt lat="39.809766300022602" lon="2.709404518827796">
<ele>169</ele>
</trkpt>
<trkpt lat="39.809876773506403" lon="2.709549274295569">
<ele>172</ele>
</trkpt>
<trkpt lat="39.809984564781189" lon="2.709615072235465">
<ele>174</ele>
</trkpt>
<trkpt lat="39.810086991637945" lon="2.709624879062176">
<ele>176</ele>
</trkpt>
<trkpt lat="39.81026217341423" lon="2.709539383649826">
<ele>177</ele>
</trkpt>
<trkpt lat="39.810399301350117" lon="2.709615910425782">
<ele>178</ele>
</trkpt>
<trkpt lat="39.81052603572607" lon="2.709764018654823">
<ele>179</ele>
</trkpt>
<trkpt lat="39.810585295781493" lon="2.7100501768291">
<ele>180</ele>
</trkpt>
<trkpt lat="39.81062569655478" lon="2.710339687764645">
<ele>180</ele>
</trkpt>
<trkpt lat="39.810687722638249" lon="2.710645711049438">
<ele>181</ele>
</trkpt>
<trkpt lat="39.810741618275642" lon="2.710954919457436">
<ele>182</ele>
</trkpt>
<trkpt lat="39.810819737613201" lon="2.711175363510847">
<ele>183</ele>
</trkpt>
<trkpt lat="39.810927528887987" lon="2.711270749568939">
<ele>184</ele>
</trkpt>
<trkpt lat="39.811137747019529" lon="2.711330009624362">
<ele>185</ele>
</trkpt>
<trkpt lat="39.811151241883636" lon="2.711405614390969">
<ele>186</ele>
</trkpt>
<trkpt lat="39.811100028455257" lon="2.711484571918845">
<ele>188</ele>
</trkpt>
<trkpt lat="39.810973377898335" lon="2.711484571918845">
<ele>189</ele>
</trkpt>
<trkpt lat="39.810968013480306" lon="2.711484571918845">
<ele>190</ele>
</trkpt>
<trkpt lat="39.810876315459609" lon="2.711481302976608">
<ele>192</ele>
</trkpt>
<trkpt lat="39.810879081487656" lon="2.711481302976608">
<ele>193</ele>
</trkpt>
<trkpt lat="39.810876315459609" lon="2.711524050682783">
<ele>194</ele>
</trkpt>
<trkpt lat="39.811091981828213" lon="2.711612898856401">
<ele>195</ele>
</trkpt>
<trkpt lat="39.811267079785466" lon="2.711649108678103">
<ele>197</ele>
</trkpt>
<trkpt lat="39.811374871060252" lon="2.711698478087783">
<ele>198</ele>
</trkpt>
<trkpt lat="39.8114881105721" lon="2.71194851025939">
<ele>197</ele>
</trkpt>
<trkpt lat="39.811647115275264" lon="2.71208337508142">
<ele>197</ele>
</trkpt>
<trkpt lat="39.811824979260564" lon="2.712228130549192">
<ele>196</ele>
</trkpt>
<trkpt lat="39.811960849910975" lon="2.712425943464041">
<ele>196</ele>
</trkpt>
<trkpt lat="39.812200739979744" lon="2.712511438876391">
<ele>195</ele>
</trkpt>
<trkpt lat="39.81240282766521" lon="2.712564077228308">
<ele>194</ele>
</trkpt>
<trkpt lat="39.812596868723631" lon="2.712675975635648">
<ele>194</ele>
</trkpt>
<trkpt lat="39.812772050499916" lon="2.712824000045657">
<ele>193</ele>
</trkpt>
<trkpt lat="39.812992997467518" lon="2.712827268987894">
<ele>192</ele>
</trkpt>
<trkpt lat="39.813157031312585" lon="2.712903544306755">
<ele>192</ele>
</trkpt>
<trkpt lat="39.813313353806734" lon="2.712982501834631">
<ele>191</ele>
</trkpt>
<trkpt lat="39.813386108726263" lon="2.712952913716435">
<ele>191</ele>
</trkpt>
<trkpt lat="39.81342701241374" lon="2.712860964238644">
<ele>190</ele>
</trkpt>
<trkpt lat="39.813380660489202" lon="2.712966073304415">
<ele>190</ele>
</trkpt>
<trkpt lat="39.813321400433779" lon="2.713002199307084">
<ele>190</ele>
</trkpt>
<trkpt lat="39.813344953581691" lon="2.713044779375196">
<ele>191</ele>
</trkpt>
<trkpt lat="39.813357526436448" lon="2.71306891925633">
<ele>191</ele>
</trkpt>
<trkpt lat="39.813490463420749" lon="2.713277293369174">
<ele>191</ele>
</trkpt>
<trkpt lat="39.813524661585689" lon="2.713413247838616">
<ele>191</ele>
</trkpt>
<trkpt lat="39.813565984368324" lon="2.713518524542451">
<ele>191</ele>
</trkpt>
<trkpt lat="39.813614431768656" lon="2.713525146245956">
<ele>192</ele>
</trkpt>
<trkpt lat="39.813594734296203" lon="2.713275114074349">
<ele>192</ele>
</trkpt>
<trkpt lat="39.813632452860475" lon="2.713239993900061">
<ele>192</ele>
</trkpt>
<trkpt lat="39.813801348209381" lon="2.713391371071339">
<ele>190</ele>
</trkpt>
<trkpt lat="39.813867313787341" lon="2.713527493178845">
<ele>188</ele>
</trkpt>
<trkpt lat="39.813928417861462" lon="2.713799402117729">
<ele>187</ele>
</trkpt>
<trkpt lat="39.814000250771642" lon="2.714034095406532">
<ele>185</ele>
</trkpt>
<trkpt lat="39.814124219119549" lon="2.714174492284656">
<ele>183</ele>
</trkpt>
<trkpt lat="39.814239218831062" lon="2.714292928576469">
<ele>181</ele>
</trkpt>
<trkpt lat="39.814355978742242" lon="2.714393762871623">
<ele>179</ele>
</trkpt>
<trkpt lat="39.814506936818361" lon="2.714507840573788">
<ele>178</ele>
</trkpt>
<trkpt lat="39.814636269584298" lon="2.714654775336385">
<ele>176</ele>
</trkpt>
<trkpt lat="39.814711706712842" lon="2.714788550511003">
<ele>174</ele>
</trkpt>
<trkpt lat="39.814778259024024" lon="2.71496188826859">
<ele>173</ele>
</trkpt>
<trkpt lat="39.814830310642719" lon="2.715075882151723">
<ele>171</ele>
</trkpt>
<trkpt lat="39.814925529062748" lon="2.715187780559063">
<ele>170</ele>
</trkpt>
<trkpt lat="39.815075062215328" lon="2.715316191315651">
<ele>169</ele>
</trkpt>
<trkpt lat="39.815270947292447" lon="2.715463126078248">
<ele>168</ele>
</trkpt>
<trkpt lat="39.815411008894444" lon="2.715579383075237">
<ele>166</ele>
</trkpt>
<trkpt lat="39.815563727170229" lon="2.715669320896268">
<ele>165</ele>
</trkpt>
<trkpt lat="39.815689539536834" lon="2.715728497132659">
<ele>164</ele>
</trkpt>
<trkpt lat="39.815689539536834" lon="2.715730676427484">
<ele>162</ele>
</trkpt>
<trkpt lat="39.815831445157528" lon="2.71581843495369">
<ele>161</ele>
</trkpt>
<trkpt lat="39.816016517579556" lon="2.715904014185071">
<ele>160</ele>
</trkpt>
<trkpt lat="39.816199913620949" lon="2.715983223170042">
<ele>159</ele>
</trkpt>
<trkpt lat="39.816352631896734" lon="2.716029323637486">
<ele>158</ele>
</trkpt>
<trkpt lat="39.816519767045975" lon="2.716073160991073">
<ele>157</ele>
</trkpt>
<trkpt lat="39.816580787301064" lon="2.71620693616569">
<ele>156</ele>
</trkpt>
<trkpt lat="39.816510714590549" lon="2.716415310278535">
<ele>154</ele>
</trkpt>
<trkpt lat="39.816589755937457" lon="2.716595185920596">
<ele>153</ele>
</trkpt>
<trkpt lat="39.816604172810912" lon="2.716763997450471">
<ele>152</ele>
</trkpt>
<trkpt lat="39.816625714302063" lon="2.71697455085814">
<ele>151</ele>
</trkpt>
<trkpt lat="39.816631078720093" lon="2.717176387086511">
<ele>150</ele>
</trkpt>
<trkpt lat="39.816586235538125" lon="2.717430777847767">
<ele>151</ele>
</trkpt>
<trkpt lat="39.81657181866467" lon="2.717560194432735">
<ele>151</ele>
</trkpt>
<trkpt lat="39.816575422883034" lon="2.717691790312529">
<ele>152</ele>
</trkpt>
<trkpt lat="39.816622110083699" lon="2.717860685661435">
<ele>153</ele>
</trkpt>
<trkpt lat="39.816706599667668" lon="2.717937463894486">
<ele>154</ele>
</trkpt>
<trkpt lat="39.816754711791873" lon="2.718043075874448">
<ele>154</ele>
</trkpt>
<trkpt lat="39.816788826137781" lon="2.718196548521519">
<ele>155</ele>
</trkpt>
<trkpt lat="39.816785221919417" lon="2.718196548521519">
<ele>156</ele>
</trkpt>
<trkpt lat="39.816813971847296" lon="2.718345746397972">
<ele>156</ele>
</trkpt>
<trkpt lat="39.816867867484689" lon="2.71844875998795">
<ele>157</ele>
</trkpt>
<trkpt lat="39.816937940195203" lon="2.718523358926177">
<ele>156</ele>
</trkpt>
<trkpt lat="39.816937940195203" lon="2.718525538221002">
<ele>155</ele>
</trkpt>
<trkpt lat="39.817009856924415" lon="2.718608938157558">
<ele>154</ele>
</trkpt>
<trkpt lat="39.817035002633929" lon="2.718687895685434">
<ele>153</ele>
</trkpt>
<trkpt lat="39.817038606852293" lon="2.718830388039351">
<ele>152</ele>
</trkpt>
<trkpt lat="39.817078085616231" lon="2.718907166272402">
<ele>150</ele>
</trkpt>
<trkpt lat="39.817158970981836" lon="2.718915967270732">
<ele>149</ele>
</trkpt>
<trkpt lat="39.817225439473987" lon="2.718961983919144">
<ele>148</ele>
</trkpt>
<trkpt lat="39.817315209656954" lon="2.719126520678401">
<ele>147</ele>
</trkpt>
<trkpt lat="39.817378157749772" lon="2.719260295853019">
<ele>146</ele>
</trkpt>
<trkpt lat="39.817379917949438" lon="2.719260295853019">
<ele>146</ele>
</trkpt>
<trkpt lat="39.817469771951437" lon="2.719420390203595">
<ele>145</ele>
</trkpt>
<trkpt lat="39.817552082240582" lon="2.719587106257677">
<ele>144</ele>
</trkpt>
<trkpt lat="39.817552082240582" lon="2.719589285552502">
<ele>144</ele>
</trkpt>
<trkpt lat="39.817607738077641" lon="2.7197275031358">
<ele>144</ele>
</trkpt>
<trkpt lat="39.817634727805853" lon="2.719819620251656">
<ele>143</ele>
</trkpt>
<trkpt lat="39.817738914862275" lon="2.719940235838294">
<ele>142</ele>
</trkpt>
<trkpt lat="39.817801779136062" lon="2.720074011012912">
<ele>142</ele>
</trkpt>
<trkpt lat="39.817884424701333" lon="2.72021658718586">
<ele>142</ele>
</trkpt>
<trkpt lat="39.817943684756756" lon="2.720341561362147">
<ele>141</ele>
</trkpt>
<trkpt lat="39.81800302863121" lon="2.720464440062642">
<ele>141</ele>
</trkpt>
<trkpt lat="39.818060528486967" lon="2.720653032884002">
<ele>141</ele>
</trkpt>
<trkpt lat="39.818116184324026" lon="2.720835087820888">
<ele>140</ele>
</trkpt>
<trkpt lat="39.81818089261651" lon="2.721003983169794">
<ele>140</ele>
</trkpt>
<trkpt lat="39.818267142400146" lon="2.721190396696329">
<ele>140</ele>
</trkpt>
<trkpt lat="39.818351548165083" lon="2.721392149105668">
<ele>140</ele>
</trkpt>
<trkpt lat="39.818441234529018" lon="2.721513099968433">
<ele>140</ele>
</trkpt>
<trkpt lat="39.81852388009429" lon="2.721620639786124">
<ele>139</ele>
</trkpt>
<trkpt lat="39.818532932549715" lon="2.721813591197133">
<ele>139</ele>
</trkpt>
<trkpt lat="39.818543661385775" lon="2.72199128754437">
<ele>139</ele>
</trkpt>
<trkpt lat="39.818563442677259" lon="2.722186502069235">
<ele>142</ele>
</trkpt>
<trkpt lat="39.818565202876925" lon="2.722379453480244">
<ele>145</ele>
</trkpt>
<trkpt lat="39.818567046895623" lon="2.722379453480244">
<ele>147</ele>
</trkpt>
<trkpt lat="39.818529328331351" lon="2.722447430714965">
<ele>150</ele>
</trkpt>
<trkpt lat="39.81851851567626" lon="2.722511049360037">
<ele>153</ele>
</trkpt>
<trkpt lat="39.818536452949047" lon="2.722609788179398">
<ele>156</ele>
</trkpt>
<trkpt lat="39.818656900897622" lon="2.722682124003768">
<ele>159</ele>
</trkpt>
<trkpt lat="39.818759243935347" lon="2.722756722941995">
<ele>161</ele>
</trkpt>
<trkpt lat="39.818759243935347" lon="2.722758902236819">
<ele>164</ele>
</trkpt>
<trkpt lat="39.818881452083588" lon="2.722866358235478">
<ele>167</ele>
</trkpt>
<trkpt lat="39.819009024649858" lon="2.723015556111932">
<ele>166</ele>
</trkpt>
<trkpt lat="39.819147326052189" lon="2.723109098151326">
<ele>164</ele>
</trkpt>
<trkpt lat="39.819251513108611" lon="2.723205573856831">
<ele>163</ele>
</trkpt>
<trkpt lat="39.819343127310276" lon="2.723297690972686">
<ele>161</ele>
</trkpt>
<trkpt lat="39.819440022110939" lon="2.723403973504901">
<ele>160</ele>
</trkpt>
<trkpt lat="39.819337762892246" lon="2.723293332383037">
<ele>161</ele>
</trkpt>
<trkpt lat="39.819296440109611" lon="2.723253853619099">
<ele>162</ele>
</trkpt>
<trkpt lat="39.819233575835824" lon="2.723183697089553">
<ele>162</ele>
</trkpt>
<trkpt lat="39.819156294688582" lon="2.723109098151326">
<ele>163</ele>
</trkpt>
<trkpt lat="39.818999972194433" lon="2.723014801740646">
<ele>164</ele>
</trkpt>
<trkpt lat="39.818876003846526" lon="2.722867866978049">
<ele>165</ele>
</trkpt>
<trkpt lat="39.818759243935347" lon="2.722758147865534">
<ele>166</ele>
</trkpt>
<trkpt lat="39.818644244223833" lon="2.722677011042833">
<ele>166</ele>
</trkpt>
<trkpt lat="39.818540057167411" lon="2.722602495923638">
<ele>167</ele>
</trkpt>
<trkpt lat="39.818520275875926" lon="2.722501577809453">
<ele>168</ele>
</trkpt>
<trkpt lat="39.818532848730683" lon="2.722444580867887">
<ele>165</ele>
</trkpt>
<trkpt lat="39.818568807095289" lon="2.722374340519309">
<ele>162</ele>
</trkpt>
<trkpt lat="39.818565202876925" lon="2.722174767404795">
<ele>159</ele>
</trkpt>
<trkpt lat="39.818563442677259" lon="2.722174767404795">
<ele>156</ele>
</trkpt>
<trkpt lat="39.818540476262569" lon="2.721986090764403">
<ele>152</ele>
</trkpt>
<trkpt lat="39.818527903407812" lon="2.721817195415497">
<ele>149</ele>
</trkpt>
<trkpt lat="39.818524299189448" lon="2.721626339480281">
<ele>146</ele>
</trkpt>
<trkpt lat="39.818385997787118" lon="2.721444368362427">
<ele>143</ele>
</trkpt>
<trkpt lat="39.818342830985785" lon="2.72137857042253">
<ele>140</ele>
</trkpt>
<trkpt lat="39.818263789638877" lon="2.721189893782139">
<ele>137</ele>
</trkpt>
<trkpt lat="39.818172175437212" lon="2.720981519669294">
<ele>137</ele>
</trkpt>
<trkpt lat="39.818082321435213" lon="2.720738109201193">
<ele>138</ele>
</trkpt>
<trkpt lat="39.818030521273613" lon="2.720561921596527">
<ele>138</ele>
</trkpt>
<trkpt lat="39.817956844344735" lon="2.720375508069992">
<ele>139</ele>
</trkpt>
<trkpt lat="39.817879647016525" lon="2.72021759301424">
<ele>139</ele>
</trkpt>
<trkpt lat="39.817768251523376" lon="2.720018019899726">
<ele>139</ele>
</trkpt>
<trkpt lat="39.81773229315877" lon="2.71993026137352">
<ele>140</ele>
</trkpt>
<trkpt lat="39.817628106102347" lon="2.719820626080036">
<ele>140</ele>
</trkpt>
<trkpt lat="39.817565158009529" lon="2.719614431262016">
<ele>141</ele>
</trkpt>
<trkpt lat="39.817459210753441" lon="2.719419216737151">
<ele>141</ele>
</trkpt>
<trkpt lat="39.817356783896685" lon="2.719230623915792">
<ele>142</ele>
</trkpt>
<trkpt lat="39.81725980527699" lon="2.719033230096102">
<ele>144</ele>
</trkpt>
<trkpt lat="39.81722024269402" lon="2.718952093273401">
<ele>145</ele>
</trkpt>
<trkpt lat="39.817075487226248" lon="2.718914542347193">
<ele>146</ele>
</trkpt>
<trkpt lat="39.817075487226248" lon="2.718916721642017">
<ele>148</ele>
</trkpt>
<trkpt lat="39.817037768661976" lon="2.718828963115811">
<ele>149</ele>
</trkpt>
<trkpt lat="39.817028800025582" lon="2.718677669763565">
<ele>150</ele>
</trkpt>
<trkpt lat="39.817005414515734" lon="2.718600891530514">
<ele>151</ele>
</trkpt>
<trkpt lat="39.816868873313069" lon="2.718456136062741">
<ele>153</ele>
</trkpt>
<trkpt lat="39.816802404820919" lon="2.718333341181278">
<ele>154</ele>
</trkpt>
<trkpt lat="39.816787987947464" lon="2.718192944303155">
<ele>153</ele>
</trkpt>
<trkpt lat="39.816748509183526" lon="2.718030670657754">
<ele>152</ele>
</trkpt>
<trkpt lat="39.816698217764497" lon="2.717929752543569">
<ele>151</ele>
</trkpt>
<trkpt lat="39.816626301035285" lon="2.717863954603672">
<ele>150</ele>
</trkpt>
<trkpt lat="39.816572405397892" lon="2.717675361782312">
<ele>148</ele>
</trkpt>
<trkpt lat="39.81657424941659" lon="2.717554746195674">
<ele>147</ele>
</trkpt>
<trkpt lat="39.816586822271347" lon="2.717405548319221">
<ele>146</ele>
</trkpt>
<trkpt lat="39.816624540835619" lon="2.717179656028748">
<ele>145</ele>
</trkpt>
<trkpt lat="39.816624540835619" lon="2.716955691576004">
<ele>144</ele>
</trkpt>
<trkpt lat="39.816626384854317" lon="2.716955691576004">
<ele>143</ele>
</trkpt>
<trkpt lat="39.816604759544134" lon="2.716767098754644">
<ele>144</ele>
</trkpt>
<trkpt lat="39.816588582471013" lon="2.716589402407408">
<ele>145</ele>
</trkpt>
<trkpt lat="39.816506020724773" lon="2.716413969174027">
<ele>147</ele>
</trkpt>
<trkpt lat="39.816506020724773" lon="2.716416148468852">
<ele>148</ele>
</trkpt>
<trkpt lat="39.816577853634953" lon="2.716207774356008">
<ele>149</ele>
</trkpt>
<trkpt lat="39.816513145342469" lon="2.716071819886565">
<ele>150</ele>
</trkpt>
<trkpt lat="39.816362271085382" lon="2.716034520417452">
<ele>151</ele>
</trkpt>
<trkpt lat="39.81617895886302" lon="2.715981882065535">
<ele>153</ele>
</trkpt>
<trkpt lat="39.816010147333145" lon="2.715902924537659">
<ele>154</ele>
</trkpt>
<trkpt lat="39.815834043547511" lon="2.715817429125309">
<ele>155</ele>
</trkpt>
<trkpt lat="39.815659783780575" lon="2.715712152421475">
<ele>156</ele>
</trkpt>
<trkpt lat="39.815560206770897" lon="2.715667728334665">
<ele>157</ele>
</trkpt>
<trkpt lat="39.815373374149203" lon="2.71555800922215">
<ele>159</ele>
</trkpt>
<trkpt lat="39.815251249819994" lon="2.715446194633842">
<ele>160</ele>
</trkpt>
<trkpt lat="39.815067937597632" lon="2.715318957343698">
<ele>161</ele>
</trkpt>
<trkpt lat="39.814904490485787" lon="2.715167663991451">
<ele>162</ele>
</trkpt>
<trkpt lat="39.814904490485787" lon="2.715169843286276">
<ele>163</ele>
</trkpt>
<trkpt lat="39.81483081355691" lon="2.715073367580771">
<ele>165</ele>
</trkpt>
<trkpt lat="39.814723022282124" lon="2.714829873293638">
<ele>166</ele>
</trkpt>
<trkpt lat="39.814643980935216" lon="2.714671958237886">
<ele>167</ele>
</trkpt>
<trkpt lat="39.814516408368945" lon="2.714522844180465">
<ele>169</ele>
</trkpt>
<trkpt lat="39.814394451677799" lon="2.714430643245578">
<ele>171</ele>
</trkpt>
<trkpt lat="39.814256066456437" lon="2.714321007952094">
<ele>173</ele>
</trkpt>
<trkpt lat="39.814135702326894" lon="2.71419377066195">
<ele>175</ele>
</trkpt>
<trkpt lat="39.813995556905866" lon="2.714022696018219">
<ele>177</ele>
</trkpt>
<trkpt lat="39.813929088413715" lon="2.713796803727746">
<ele>179</ele>
</trkpt>
<trkpt lat="39.813860859721899" lon="2.713524894788861">
<ele>181</ele>
</trkpt>
<trkpt lat="39.813794391229749" lon="2.713382318615913">
<ele>183</ele>
</trkpt>
<trkpt lat="39.813713505864143" lon="2.713252902030945">
<ele>185</ele>
</trkpt>
<trkpt lat="39.813636224716902" lon="2.71324192173779">
<ele>187</ele>
</trkpt>
<trkpt lat="39.813629100099206" lon="2.71343051455915">
<ele>187</ele>
</trkpt>
<trkpt lat="39.813634464517236" lon="2.713513914495707">
<ele>188</ele>
</trkpt>
<trkpt lat="39.813612923026085" lon="2.713522631675005">
<ele>188</ele>
</trkpt>
<trkpt lat="39.813519464805722" lon="2.713408637791872">
<ele>188</ele>
</trkpt>
<trkpt lat="39.813483506441116" lon="2.713268240913749">
<ele>189</ele>
</trkpt>
<trkpt lat="39.813447631895542" lon="2.713136645033956">
<ele>189</ele>
</trkpt>
<trkpt lat="39.813352413475513" lon="2.713068667799234">
<ele>190</ele>
</trkpt>
<trkpt lat="39.81342701241374" lon="2.712860964238644">
<ele>190</ele>
</trkpt>
<trkpt lat="39.813178069889545" lon="2.712913015857339">
<ele>190</ele>
</trkpt>
<trkpt lat="39.812992997467518" lon="2.712831795215607">
<ele>190</ele>
</trkpt>
<trkpt lat="39.812773810699582" lon="2.712823078036308">
<ele>191</ele>
</trkpt>
<trkpt lat="39.812597706913948" lon="2.71268486045301">
<ele>191</ele>
</trkpt>
<trkpt lat="39.812396541237831" lon="2.712562065571547">
<ele>191</ele>
</trkpt>
<trkpt lat="39.812184479087591" lon="2.712513785809279">
<ele>191</ele>
</trkpt>
<trkpt lat="39.812053302302957" lon="2.712461147457361">
<ele>191</ele>
</trkpt>
<trkpt lat="39.812051542103291" lon="2.712461147457361">
<ele>192</ele>
</trkpt>
<trkpt lat="39.811822045594454" lon="2.712222011759877">
<ele>192</ele>
</trkpt>
<trkpt lat="39.811622556298971" lon="2.712061917409301">
<ele>192</ele>
</trkpt>
<trkpt lat="39.811480650678277" lon="2.711950102820993">
<ele>191</ele>
</trkpt>
<trkpt lat="39.811372859403491" lon="2.71169344894588">
<ele>189</ele>
</trkpt>
<trkpt lat="39.811254255473614" lon="2.711640810593963">
<ele>188</ele>
</trkpt>
<trkpt lat="39.811090808361769" lon="2.711612312123179">
<ele>187</ele>
</trkpt>
<trkpt lat="39.810954267159104" lon="2.711561853066087">
<ele>186</ele>
</trkpt>
<trkpt lat="39.810879249125719" lon="2.711530420929194">
<ele>184</ele>
</trkpt>
<trkpt lat="39.810976227745414" lon="2.711484404280782">
<ele>183</ele>
</trkpt>
<trkpt lat="39.811100196093321" lon="2.711495384573937">
<ele>182</ele>
</trkpt>
<trkpt lat="39.811152331531048" lon="2.711403267458081">
<ele>180</ele>
</trkpt>
<trkpt lat="39.811134310439229" lon="2.711330847814679">
<ele>179</ele>
</trkpt>
<trkpt lat="39.811136154457927" lon="2.711330847814679">
<ele>178</ele>
</trkpt>
<trkpt lat="39.810920571908355" lon="2.711271671578288">
<ele>177</ele>
</trkpt>
<trkpt lat="39.810818145051599" lon="2.711177375167608">
<ele>175</ele>
</trkpt>
<trkpt lat="39.810746228322387" lon="2.710975538939238">
<ele>174</ele>
</trkpt>
<trkpt lat="39.810694176703691" lon="2.710655350238085">
<ele>173</ele>
</trkpt>
<trkpt lat="39.810642041265965" lon="2.710411855950952">
<ele>172</ele>
</trkpt>
<trkpt lat="39.810609687119722" lon="2.71017724648118">
<ele>171</ele>
</trkpt>
<trkpt lat="39.81057196855545" lon="2.70997105166316">
<ele>169</ele>
</trkpt>
<trkpt lat="39.810519916936755" lon="2.709764856845141">
<ele>168</ele>
</trkpt>
<trkpt lat="39.810403073206544" lon="2.709617922082543">
<ele>167</ele>
</trkpt>
<trkpt lat="39.810262927785516" lon="2.709545502439141">
<ele>166</ele>
</trkpt>
<trkpt lat="39.810090009123087" lon="2.709624711424112">
<ele>166</ele>
</trkpt>
<trkpt lat="39.809980457648635" lon="2.709613731130958">
<ele>165</ele>
</trkpt>
<trkpt lat="39.809872666373849" lon="2.709539132192731">
<ele>164</ele>
</trkpt>
<trkpt lat="39.809764791280031" lon="2.709407536312938">
<ele>164</ele>
</trkpt>
<trkpt lat="39.809685749933124" lon="2.709243083372712">
<ele>163</ele>
</trkpt>
<trkpt lat="39.809752218425274" lon="2.709214501082897">
<ele>162</ele>
</trkpt>
<trkpt lat="39.809842072427273" lon="2.709300080314279">
<ele>161</ele>
</trkpt>
<trkpt lat="39.809919353574514" lon="2.709271581843495">
<ele>161</ele>
</trkpt>
<trkpt lat="39.809748698025942" lon="2.709109224379063">
<ele>160</ele>
</trkpt>
<trkpt lat="39.809655239805579" lon="2.708975449204445">
<ele>158</ele>
</trkpt>
<trkpt lat="39.809662448242307" lon="2.708743019029498">
<ele>155</ele>
</trkpt>
<trkpt lat="39.809639062732458" lon="2.708492986857891">
<ele>153</ele>
</trkpt>
<trkpt lat="39.809691198170185" lon="2.708679400384426">
<ele>150</ele>
</trkpt>
<trkpt lat="39.809770239517093" lon="2.708817534148693">
<ele>148</ele>
</trkpt>
<trkpt lat="39.809815166518092" lon="2.708778055384755">
<ele>146</ele>
</trkpt>
<trkpt lat="39.809766635298729" lon="2.70861360244453">
<ele>143</ele>
</trkpt>
<trkpt lat="39.809739645570517" lon="2.708486365154386">
<ele>141</ele>
</trkpt>
<trkpt lat="39.809736041352153" lon="2.708330629393458">
<ele>138</ele>
</trkpt>
<trkpt lat="39.809606708586216" lon="2.708093756809831">
<ele>136</ele>
</trkpt>
<trkpt lat="39.809486344456673" lon="2.707920502871275">
<ele>135</ele>
</trkpt>
<trkpt lat="39.809460192918777" lon="2.7078743185848">
<ele>134</ele>
</trkpt>
<trkpt lat="39.809305714443326" lon="2.707867696881294">
<ele>134</ele>
</trkpt>
<trkpt lat="39.809081079438329" lon="2.707806257531047">
<ele>133</ele>
</trkpt>
<trkpt lat="39.808924840763211" lon="2.707707602530718">
<ele>132</ele>
</trkpt>
<trkpt lat="39.808827778324485" lon="2.707613306120038">
<ele>131</ele>
</trkpt>
<trkpt lat="39.808750497177243" lon="2.707516746595502">
<ele>130</ele>
</trkpt>
<trkpt lat="39.808813445270061" lon="2.70747072994709">
<ele>130</ele>
</trkpt>
<trkpt lat="39.808903215453029" lon="2.707567205652595">
<ele>129</ele>
</trkpt>
<trkpt lat="39.808957111090422" lon="2.707646163180471">
<ele>128</ele>
</trkpt>
<trkpt lat="39.809032632037997" lon="2.707604505121708">
<ele>128</ele>
</trkpt>
<trkpt lat="39.808993069455028" lon="2.707543065771461">
<ele>127</ele>
</trkpt>
<trkpt lat="39.808836746960878" lon="2.707398310303688">
<ele>126</ele>
</trkpt>
<trkpt lat="39.808743372559547" lon="2.707163700833917">
<ele>126</ele>
</trkpt>
<trkpt lat="39.808666091412306" lon="2.706964043900371">
<ele>126</ele>
</trkpt>
<trkpt lat="39.808545727282763" lon="2.706687692552805">
<ele>125</ele>
</trkpt>
<trkpt lat="39.808500800281763" lon="2.706556096673012">
<ele>124</ele>
</trkpt>
<trkpt lat="39.808489987626672" lon="2.70631268620491">
<ele>124</ele>
</trkpt>
<trkpt lat="39.808481018990278" lon="2.706139432266355">
<ele>124</ele>
</trkpt>
<trkpt lat="39.808313967660069" lon="2.705994676798582">
<ele>123</ele>
</trkpt>
<trkpt lat="39.808225873857737" lon="2.705887136980891">
<ele>123</ele>
</trkpt>
<trkpt lat="39.808225873857737" lon="2.705891579389572">
<ele>122</ele>
</trkpt>
<trkpt lat="39.808059995993972" lon="2.705730563029647">
<ele>122</ele>
</trkpt>
<trkpt lat="39.807955725118518" lon="2.705570468679071">
<ele>122</ele>
</trkpt>
<trkpt lat="39.807874923571944" lon="2.705441052094102">
<ele>122</ele>
</trkpt>
<trkpt lat="39.807774256914854" lon="2.705269977450371">
<ele>121</ele>
</trkpt>
<trkpt lat="39.807723965495825" lon="2.705206442624331">
<ele>121</ele>
</trkpt>
<trkpt lat="39.807544341310859" lon="2.705077026039362">
<ele>121</ele>
</trkpt>
<trkpt lat="39.80738265439868" lon="2.704987088218331">
<ele>120</ele>
</trkpt>
<trkpt lat="39.807247873395681" lon="2.704785335808992">
<ele>120</ele>
</trkpt>
<trkpt lat="39.807096999138594" lon="2.704568160697818">
<ele>121</ele>
</trkpt>
<trkpt lat="39.806985603645444" lon="2.704361965879798">
<ele>121</ele>
</trkpt>
<trkpt lat="39.806920140981674" lon="2.704137247055769">
<ele>122</ele>
</trkpt>
<trkpt lat="39.806909328326583" lon="2.703878413885832">
<ele>122</ele>
</trkpt>
<trkpt lat="39.806889547035098" lon="2.703748997300863">
<ele>123</ele>
</trkpt>
<trkpt lat="39.806876974180341" lon="2.703641541302204">
<ele>124</ele>
</trkpt>
<trkpt lat="39.806794328615069" lon="2.703463844954968">
<ele>124</ele>
</trkpt>
<trkpt lat="39.806627277284861" lon="2.70333006978035">
<ele>125</ele>
</trkpt>
<trkpt lat="39.806444048881531" lon="2.703169975429773">
<ele>125</ele>
</trkpt>
<trkpt lat="39.806255372241139" lon="2.703058160841465">
<ele>126</ele>
</trkpt>
<trkpt lat="39.806068539619446" lon="2.702974760904908">
<ele>125</ele>
</trkpt>
<trkpt lat="39.805856477469206" lon="2.702867304906249">
<ele>124</ele>
</trkpt>
<trkpt lat="39.805739717558026" lon="2.702801506966353">
<ele>122</ele>
</trkpt>
<trkpt lat="39.805578868836164" lon="2.702700924128294">
<ele>121</ele>
</trkpt>
<trkpt lat="39.805451296269894" lon="2.702606627717614">
<ele>120</ele>
</trkpt>
<trkpt lat="39.805320203304291" lon="2.702525490894914">
<ele>119</ele>
</trkpt>
<trkpt lat="39.80519799515605" lon="2.7024881914258">
<ele>118</ele>
</trkpt>
<trkpt lat="39.805070422589779" lon="2.702455250546336">
<ele>117</ele>
</trkpt>
<trkpt lat="39.805057849735022" lon="2.702374113723636">
<ele>116</ele>
</trkpt>
<trkpt lat="39.805104536935687" lon="2.702249139547348">
<ele>114</ele>
</trkpt>
<trkpt lat="39.805109985172749" lon="2.702152580022812">
<ele>113</ele>
</trkpt>
<trkpt lat="39.805139992386103" lon="2.702088039368391">
<ele>112</ele>
</trkpt>
<trkpt lat="39.805111745372415" lon="2.702027605846524">
<ele>111</ele>
</trkpt>
<trkpt lat="39.805131526663899" lon="2.701996844261885">
<ele>110</ele>
</trkpt>
<trkpt lat="39.805205203592777" lon="2.702023163437843">
<ele>109</ele>
</trkpt>
<trkpt lat="39.805305786430836" lon="2.701992485672236">
<ele>108</ele>
</trkpt>
<trkpt lat="39.8054423276335" lon="2.702014446258545">
<ele>107</ele>
</trkpt>
<trkpt lat="39.805573504418135" lon="2.702020984143019">
<ele>106</ele>
</trkpt>
<trkpt lat="39.805711805820465" lon="2.702042944729328">
<ele>105</ele>
</trkpt>
<trkpt lat="39.805844826623797" lon="2.702060462906957">
<ele>104</ele>
</trkpt>
<trkpt lat="39.805905427783728" lon="2.702053841203451">
<ele>103</ele>
</trkpt>
<trkpt lat="39.805989833548665" lon="2.701946385204792">
<ele>102</ele>
</trkpt>
<trkpt lat="39.806119250133634" lon="2.701762150973082">
<ele>99</ele>
</trkpt>
<trkpt lat="39.806210864335299" lon="2.701637092977762">
<ele>96</ele>
</trkpt>
<trkpt lat="39.806284541264176" lon="2.701481357216835">
<ele>93</ele>
</trkpt>
<trkpt lat="39.806412030011415" lon="2.701380522921681">
<ele>90</ele>
</trkpt>
<trkpt lat="39.806554019451141" lon="2.701270803809166">
<ele>86</ele>
</trkpt>
<trkpt lat="39.806697769090533" lon="2.701180865988135">
<ele>83</ele>
</trkpt>
<trkpt lat="39.806825257837772" lon="2.70110635086894">
<ele>80</ele>
</trkpt>
<trkpt lat="39.80689893476665" lon="2.700974754989147">
<ele>77</ele>
</trkpt>
<trkpt lat="39.807037319988012" lon="2.70090451464057">
<ele>74</ele>
</trkpt>
<trkpt lat="39.807132119312882" lon="2.700843075290322">
<ele>71</ele>
</trkpt>
<trkpt lat="39.807218369096518" lon="2.700755400583148">
<ele>68</ele>
</trkpt>
<trkpt lat="39.80738366022706" lon="2.700702762231231">
<ele>66</ele>
</trkpt>
<trkpt lat="39.807516597211361" lon="2.700650123879314">
<ele>64</ele>
</trkpt>
<trkpt lat="39.807518357411027" lon="2.700650123879314">
<ele>61</ele>
</trkpt>
<trkpt lat="39.807640565559268" lon="2.700579883530736">
<ele>58</ele>
</trkpt>
<trkpt lat="39.807762689888477" lon="2.700549205765128">
<ele>56</ele>
</trkpt>
<trkpt lat="39.807868720963597" lon="2.700553564354777">
<ele>54</ele>
</trkpt>
<trkpt lat="39.807975087314844" lon="2.700550714507699">
<ele>51</ele>
</trkpt>
<trkpt lat="39.808160159736872" lon="2.70053755491972">
<ele>48</ele>
</trkpt>
<trkpt lat="39.808352356776595" lon="2.700511235743761">
<ele>46</ele>
</trkpt>
<trkpt lat="39.808508679270744" lon="2.70051995292306">
<ele>43</ele>
</trkpt>
<trkpt lat="39.808693751692772" lon="2.700489275157452">
<ele>40</ele>
</trkpt>
<trkpt lat="39.808842865750194" lon="2.70051559433341">
<ele>38</ele>
</trkpt>
<trkpt lat="39.809004301205277" lon="2.70059228874743">
<ele>35</ele>
</trkpt>
<trkpt lat="39.809149811044335" lon="2.700614249333739">
<ele>32</ele>
</trkpt>
<trkpt lat="39.809279143810272" lon="2.700642747804523">
<ele>29</ele>
</trkpt>
<trkpt lat="39.809388779103756" lon="2.700680047273636">
<ele>26</ele>
</trkpt>
<trkpt lat="39.809491205960512" lon="2.700555073097348">
<ele>24</ele>
</trkpt>
<trkpt lat="39.809624142944813" lon="2.700445353984833">
<ele>21</ele>
</trkpt>
<trkpt lat="39.809721121564507" lon="2.700379556044936">
<ele>18</ele>
</trkpt>
<trkpt lat="39.809832517057657" lon="2.700272100046277">
<ele>16</ele>
</trkpt>
<trkpt lat="39.80992597527802" lon="2.700147125869989">
<ele>15</ele>
</trkpt>
<trkpt lat="39.810021193698049" lon="2.70002206787467">
<ele>13</ele>
</trkpt>
<trkpt lat="39.810112807899714" lon="2.699949564412236">
<ele>12</ele>
</trkpt>
<trkpt lat="39.810199057683349" lon="2.699853088706732">
<ele>10</ele>
</trkpt>
<trkpt lat="39.810297880321741" lon="2.699802629649639">
<ele>9</ele>
</trkpt>
<trkpt lat="39.810364013537765" lon="2.699787961319089">
<ele>7</ele>
</trkpt>
<trkpt lat="39.810256557539105" lon="2.699835570529103">
<ele>7</ele>
</trkpt>
<trkpt lat="39.810157734900713" lon="2.699881587177515">
<ele>8</ele>
</trkpt>
<trkpt lat="39.810116412118077" lon="2.699956186115742">
<ele>8</ele>
</trkpt>
<trkpt lat="39.809995964169502" lon="2.700050482526422">
<ele>9</ele>
</trkpt>
<trkpt lat="39.809927735477686" lon="2.700142599642277">
<ele>9</ele>
</trkpt>
<trkpt lat="39.809995964169502" lon="2.700239075347781">
<ele>9</ele>
</trkpt>
<trkpt lat="39.810084057971835" lon="2.700315853580833">
<ele>10</ele>
</trkpt>
<trkpt lat="39.810193609446287" lon="2.700318032875657">
<ele>10</ele>
</trkpt>
<trkpt lat="39.810294276103377" lon="2.700326833873987">
<ele>11</ele>
</trkpt>
<trkpt lat="39.810296036303043" lon="2.700326833873987">
<ele>11</ele>
</trkpt>
<trkpt lat="39.810357140377164" lon="2.700550546869636">
<ele>11</ele>
</trkpt>
<trkpt lat="39.81042536906898" lon="2.700666803866625">
<ele>12</ele>
</trkpt>
<trkpt lat="39.81042536906898" lon="2.7006646245718">
<ele>12</ele>
</trkpt>
<trkpt lat="39.810491837561131" lon="2.700734781101346">
<ele>12</ele>
</trkpt>
<trkpt lat="39.810554785653949" lon="2.700818097218871">
<ele>12</ele>
</trkpt>
<trkpt lat="39.810662576928735" lon="2.700879536569119">
<ele>13</ele>
</trkpt>
<trkpt lat="39.81071462854743" lon="2.70095631480217">
<ele>13</ele>
</trkpt>
<trkpt lat="39.81082602404058" lon="2.700991434976459">
<ele>13</ele>
</trkpt>
<trkpt lat="39.810935575515032" lon="2.701015574857593">
<ele>14</ele>
</trkpt>
<trkpt lat="39.811005648225546" lon="2.701066033914685">
<ele>14</ele>
</trkpt>
<trkpt lat="39.811090053990483" lon="2.701155971735716">
<ele>14</ele>
</trkpt>
<trkpt lat="39.81100925244391" lon="2.701066033914685">
<ele>14</ele>
</trkpt>
<trkpt lat="39.810935575515032" lon="2.701024375855923">
<ele>13</ele>
</trkpt>
<trkpt lat="39.810827784240246" lon="2.700993698090315">
<ele>13</ele>
</trkpt>
<trkpt lat="39.810711024329066" lon="2.700958577916026">
<ele>13</ele>
</trkpt>
<trkpt lat="39.810667857527733" lon="2.700886158272624">
<ele>13</ele>
</trkpt>
<trkpt lat="39.810545733198524" lon="2.700811643153429">
<ele>13</ele>
</trkpt>
<trkpt lat="39.810488233342767" lon="2.700739223510027">
<ele>12</ele>
</trkpt>
<trkpt lat="39.810351692140102" lon="2.700552809983492">
<ele>12</ele>
</trkpt>
<trkpt lat="39.810292348265648" lon="2.700329096987844">
<ele>12</ele>
</trkpt>
<trkpt lat="39.810191765427589" lon="2.700320295989513">
<ele>13</ele>
</trkpt>
<trkpt lat="39.810078609734774" lon="2.700320295989513">
<ele>15</ele>
</trkpt>
<trkpt lat="39.81000853702426" lon="2.700239159166813">
<ele>16</ele>
</trkpt>
<trkpt lat="39.809934860095382" lon="2.700146874412894">
<ele>18</ele>
</trkpt>
<trkpt lat="39.809843245893717" lon="2.700265310704708">
<ele>19</ele>
</trkpt>
<trkpt lat="39.809697736054659" lon="2.700403444468975">
<ele>20</ele>
</trkpt>
<trkpt lat="39.809624059125781" lon="2.700442923232913">
<ele>22</ele>
</trkpt>
<trkpt lat="39.809483913704753" lon="2.700572339817882">
<ele>23</ele>
</trkpt>
<trkpt lat="39.809383330866694" lon="2.700686417520046">
<ele>25</ele>
</trkpt>
<trkpt lat="39.809268331155181" lon="2.700638137757778">
<ele>26</ele>
</trkpt>
<trkpt lat="39.809133550152183" lon="2.700613997876644">
<ele>29</ele>
</trkpt>
<trkpt lat="39.808991644531488" lon="2.700594300404191">
<ele>32</ele>
</trkpt>
<trkpt lat="39.808824760839343" lon="2.700513331219554">
<ele>35</ele>
</trkpt>
<trkpt lat="39.808693584054708" lon="2.70048919133842">
<ele>38</ele>
</trkpt>
<trkpt lat="39.8084816057235" lon="2.700533028692007">
<ele>41</ele>
</trkpt>
<trkpt lat="39.808337856084108" lon="2.700519869104028">
<ele>44</ele>
</trkpt>
<trkpt lat="39.808161836117506" lon="2.700530849397183">
<ele>47</ele>
</trkpt>
<trkpt lat="39.807996544986963" lon="2.700557168573141">
<ele>50</ele>
</trkpt>
<trkpt lat="39.807867128401995" lon="2.700554989278317">
<ele>53</ele>
</trkpt>
<trkpt lat="39.80777551420033" lon="2.700544008985162">
<ele>56</ele>
</trkpt>
<trkpt lat="39.80763184837997" lon="2.700579464435577">
<ele>58</ele>
</trkpt>
<trkpt lat="39.807511484250426" lon="2.700649620965123">
<ele>61</ele>
</trkpt>
<trkpt lat="39.807338984683156" lon="2.70071541890502">
<ele>63</ele>
</trkpt>
<trkpt lat="39.807209651917219" lon="2.700757076963782">
<ele>66</ele>
</trkpt>
<trkpt lat="39.807143183425069" lon="2.700829496607184">
<ele>68</ele>
</trkpt>
<trkpt lat="39.807029943913221" lon="2.70089965313673">
<ele>70</ele>
</trkpt>
<trkpt lat="39.806895246729255" lon="2.700980789959431">
<ele>73</ele>
</trkpt>
<trkpt lat="39.806823330000043" lon="2.70110584795475">
<ele>75</ele>
</trkpt>
<trkpt lat="39.8067029658705" lon="2.70116938278079">
<ele>78</ele>
</trkpt>
<trkpt lat="39.8067029658705" lon="2.701173825189471">
<ele>80</ele>
</trkpt>
<trkpt lat="39.806600706651807" lon="2.701239623129368">
<ele>83</ele>
</trkpt>
<trkpt lat="39.806467769667506" lon="2.701347079128027">
<ele>85</ele>
</trkpt>
<trkpt lat="39.806284457445145" lon="2.701467694714665">
<ele>88</ele>
</trkpt>
<trkpt lat="39.806210864335299" lon="2.701638769358397">
<ele>90</ele>
</trkpt>
<trkpt lat="39.806110197678208" lon="2.701768185943365">
<ele>93</ele>
</trkpt>
<trkpt lat="39.806033000349998" lon="2.701880000531673">
<ele>96</ele>
</trkpt>
<trkpt lat="39.805988073348999" lon="2.70194579847157">
<ele>98</ele>
</trkpt>
<trkpt lat="39.805905427783728" lon="2.70205769687891">
<ele>101</ele>
</trkpt>
<trkpt lat="39.805838959291577" lon="2.70206649787724">
<ele>103</ele>
</trkpt>
<trkpt lat="39.805706022307277" lon="2.702044537290931">
<ele>106</ele>
</trkpt>
<trkpt lat="39.805567217990756" lon="2.702022073790431">
<ele>107</ele>
</trkpt>
<trkpt lat="39.805418020114303" lon="2.702002292498946">
<ele>108</ele>
</trkpt>
<trkpt lat="39.80531383305788" lon="2.701995754614472">
<ele>109</ele>
</trkpt>
<trkpt lat="39.805200677365065" lon="2.702028611674905">
<ele>110</ele>
</trkpt>
<trkpt lat="39.805137813091278" lon="2.702002292498946">
<ele>111</ele>
</trkpt>
<trkpt lat="39.805139992386103" lon="2.702088039368391">
<ele>112</ele>
</trkpt>
<trkpt lat="39.805046198889613" lon="2.702090051025152">
<ele>111</ele>
</trkpt>
<trkpt lat="39.805006636306643" lon="2.702175546437502">
<ele>110</ele>
</trkpt>
<trkpt lat="39.804949136450887" lon="2.702322481200099">
<ele>109</ele>
</trkpt>
<trkpt lat="39.804862886667252" lon="2.702462878078222">
<ele>108</ele>
</trkpt>
<trkpt lat="39.804812595248222" lon="2.702546194195747">
<ele>106</ele>
</trkpt>
<trkpt lat="39.804760375991464" lon="2.702489364892244">
<ele>105</ele>
</trkpt>
<trkpt lat="39.8047567717731" lon="2.702364390715957">
<ele>104</ele>
</trkpt>
<trkpt lat="39.804699271917343" lon="2.702311752364039">
<ele>103</ele>
</trkpt>
<trkpt lat="39.80461847037077" lon="2.702228352427483">
<ele>102</ele>
</trkpt>
<trkpt lat="39.80451243929565" lon="2.702175714075565">
<ele>101</ele>
</trkpt>
<trkpt lat="39.804350752383471" lon="2.702169176191092">
<ele>99</ele>
</trkpt>
<trkpt lat="39.804296856746078" lon="2.70218669436872">
<ele>96</ele>
</trkpt>
<trkpt lat="39.804171044379473" lon="2.702274452894926">
<ele>94</ele>
</trkpt>
<trkpt lat="39.804038107395172" lon="2.70228979177773">
<ele>92</ele>
</trkpt>
<trkpt lat="39.803955461829901" lon="2.702318290248513">
<ele>90</ele>
</trkpt>
<trkpt lat="39.803799139335752" lon="2.702283170074225">
<ele>87</ele>
</trkpt>
<trkpt lat="39.803784806281328" lon="2.702364390715957">
<ele>85</ele>
</trkpt>
<trkpt lat="39.803833337500691" lon="2.702456507831812">
<ele>83</ele>
</trkpt>
<trkpt lat="39.803685983642936" lon="2.702441085129976">
<ele>80</ele>
</trkpt>
<trkpt lat="39.803608702495694" lon="2.702423566952348">
<ele>78</ele>
</trkpt>
<trkpt lat="39.803502922877669" lon="2.702432284131646">
<ele>76</ele>
</trkpt>
<trkpt lat="39.803337631747127" lon="2.702414765954018">
<ele>75</ele>
</trkpt>
<trkpt lat="39.803161527961493" lon="2.702368665486574">
<ele>73</ele>
</trkpt>
<trkpt lat="39.803050132468343" lon="2.702302867546678">
<ele>72</ele>
</trkpt>
<trkpt lat="39.802906382828951" lon="2.702217372134328">
<ele>70</ele>
</trkpt>
<trkpt lat="39.802732123062015" lon="2.702112095430493">
<ele>68</ele>
</trkpt>
<trkpt lat="39.802570436149836" lon="2.702017799019814">
<ele>67</ele>
</trkpt>
<trkpt lat="39.802539926022291" lon="2.701899362728">
<ele>65</ele>
</trkpt>
<trkpt lat="39.802512936294079" lon="2.701833564788103">
<ele>64</ele>
</trkpt>
<trkpt lat="39.80242308229208" lon="2.70180506631732">
<ele>62</ele>
</trkpt>
<trkpt lat="39.80235661379993" lon="2.701822584494948">
<ele>59</ele>
</trkpt>
<trkpt lat="39.802178917452693" lon="2.701897015795112">
<ele>57</ele>
</trkpt>
<trkpt lat="39.80204782448709" lon="2.701958455145359">
<ele>54</ele>
</trkpt>
<trkpt lat="39.801934584975243" lon="2.702002292498946">
<ele>52</ele>
</trkpt>
<trkpt lat="39.801762085407972" lon="2.702008914202452">
<ele>49</ele>
</trkpt>
<trkpt lat="39.80159679427743" lon="2.702006734907627">
<ele>46</ele>
</trkpt>
<trkpt lat="39.801409961655736" lon="2.702006734907627">
<ele>44</ele>
</trkpt>
<trkpt lat="39.801212316378951" lon="2.702006734907627">
<ele>41</ele>
</trkpt>
<trkpt lat="39.801106369122863" lon="2.701962813735008">
<ele>39</ele>
</trkpt>
<trkpt lat="39.800890870392323" lon="2.701897351071239">
<ele>36</ele>
</trkpt>
<trkpt lat="39.800793807953596" lon="2.701765755191445">
<ele>34</ele>
</trkpt>
<trkpt lat="39.800682496279478" lon="2.701634159311652">
<ele>33</ele>
</trkpt>
<trkpt lat="39.800531538203359" lon="2.701491583138704">
<ele>31</ele>
</trkpt>
<trkpt lat="39.800463225692511" lon="2.701392844319344">
<ele>28</ele>
</trkpt>
<trkpt lat="39.800344705581665" lon="2.701296368613839">
<ele>28</ele>
</trkpt>
<trkpt lat="39.800211768597364" lon="2.701151613146067">
<ele>26</ele>
</trkpt>
<trkpt lat="39.800123674795032" lon="2.701030997559428">
<ele>24</ele>
</trkpt>
<trkpt lat="39.800044633448124" lon="2.700908202677965">
<ele>22</ele>
</trkpt>
<trkpt lat="39.799951259046793" lon="2.700778786092997">
<ele>21</ele>
</trkpt>
<trkpt lat="39.799856292083859" lon="2.700658086687326">
<ele>19</ele>
</trkpt>
<trkpt lat="39.799761073663831" lon="2.700515510514379">
<ele>18</ele>
</trkpt>
<trkpt lat="39.799647917971015" lon="2.700364133343101">
<ele>17</ele>
</trkpt>
<trkpt lat="39.799541886895895" lon="2.700232537463307">
<ele>16</ele>
</trkpt>
<trkpt lat="39.799466449767351" lon="2.700151400640607">
<ele>15</ele>
</trkpt>
<trkpt lat="39.799335272982717" lon="2.700074622407556">
<ele>14</ele>
</trkpt>
<trkpt lat="39.799193367362022" lon="2.699993485584855">
<ele>13</ele>
</trkpt>
<trkpt lat="39.799013659358025" lon="2.699903547763825">
<ele>12</ele>
</trkpt>
<trkpt lat="39.798898659646511" lon="2.699820231646299">
<ele>11</ele>
</trkpt>
<trkpt lat="39.798739068210125" lon="2.699727276340127">
<ele>10</ele>
</trkpt>
<trkpt lat="39.798557683825493" lon="2.699619820341468">
<ele>9</ele>
</trkpt>
<trkpt lat="39.798376215621829" lon="2.699499204754829">
<ele>9</ele>
</trkpt>
<trkpt lat="39.79818033054471" lon="2.69937414675951">
<ele>8</ele>
</trkpt>
<trkpt lat="39.798034820705652" lon="2.699295189231634">
<ele>8</ele>
</trkpt>
<trkpt lat="39.797892915084958" lon="2.699211873114109">
<ele>8</ele>
</trkpt>
<trkpt lat="39.797817477956414" lon="2.699169628322125">
<ele>8</ele>
</trkpt>
<trkpt lat="39.797675488516688" lon="2.698956895619631">
<ele>7</ele>
</trkpt>
<trkpt lat="39.797547915950418" lon="2.698781378567219">
<ele>7</ele>
</trkpt>
<trkpt lat="39.797406010329723" lon="2.698568645864725">
<ele>7</ele>
</trkpt>
<trkpt lat="39.797303583472967" lon="2.698419531807303">
<ele>6</ele>
</trkpt>
<trkpt lat="39.797188583761454" lon="2.698250636458397">
<ele>6</ele>
</trkpt>
<trkpt lat="39.79710241779685" lon="2.698136558756232">
<ele>6</ele>
</trkpt>
<trkpt lat="39.796994626522064" lon="2.697921646758914">
<ele>5</ele>
</trkpt>
<trkpt lat="39.79688499122858" lon="2.697704471647739">
<ele>5</ele>
</trkpt>
<trkpt lat="39.796802345663309" lon="2.697540018707514">
<ele>5</ele>
</trkpt>
<trkpt lat="39.796705199405551" lon="2.697324939072132">
<ele>4</ele>
</trkpt>
<trkpt lat="39.796629762277007" lon="2.697138441726565">
<ele>4</ele>
</trkpt>
<trkpt lat="39.796552481129766" lon="2.696956470608711">
<ele>4</ele>
</trkpt>
<trkpt lat="39.796493221074343" lon="2.696796292439103">
<ele>4</ele>
</trkpt>
<trkpt lat="39.796398002654314" lon="2.696530921384692">
<ele>3</ele>
</trkpt>
<trkpt lat="39.79657762683928" lon="2.696421286091209">
<ele>3</ele>
</trkpt>
<trkpt lat="39.796841740608215" lon="2.696276530623436">
<ele>3</ele>
</trkpt>
<trkpt lat="39.797086073085666" lon="2.696105455979705">
<ele>3</ele>
</trkpt>
<trkpt lat="39.797265781089664" lon="2.695973860099912">
<ele>3</ele>
</trkpt>
<trkpt lat="39.7974400408566" lon="2.695829104632139">
<ele>2</ele>
</trkpt>
<trkpt lat="39.797553280368447" lon="2.695730365812779">
<ele>2</ele>
</trkpt>
<trkpt lat="39.797673644497991" lon="2.695539593696594">
<ele>2</ele>
</trkpt>
<trkpt lat="39.797791829332709" lon="2.695393245667219">
<ele>2</ele>
</trkpt>
</trkseg>
</trk>
</gpx>
