<?xml version="1.0" encoding="UTF-8"?>
<gpx version="1.1"
creator="Smartprofil-Office - http://www.rother.de"
xmlns:xsi="http://www.w3.org/2001/XMLSchema-instance"
xmlns="http://www.topografix.com/GPX/1/1"
xsi:schemaLocation="http://www.topografix.com/GPX/1/1 http://www.topografix.com/GPX/1/1/gpx.xsd">
<metadata>

<bounds minlat="39.735954003408551" minlon="3.311317032203078" maxlat="39.74907997995615" maxlon="3.319714022800326"/>
</metadata>
<wpt lat="39.74907997995615" lon="3.311511995270848">
<ele>40</ele>
<name>59_Betlem (1)</name>
<cmt></cmt>
<desc></desc>
<sym>Crossing</sym>
</wpt>

<wpt lat="39.736033966764808" lon="3.315570009872317">
<ele>246</ele>
<name>59_Font de s’Ermita (2)</name>
<cmt></cmt>
<desc></desc>
<sym>Crossing</sym>
</wpt>

<wpt lat="39.737078016623855" lon="3.311319965869188">
<ele>290</ele>
<name>59_Ermita de Betlem (3)</name>
<cmt></cmt>
<desc></desc>
<sym>Crossing</sym>
</wpt>

<trk>
<name>Mal_59_ErmitadeF_Betlem</name>
<trkseg>
<trkpt lat="39.74907997995615" lon="3.311511995270848">
<ele>40</ele>
</trkpt>
<trkpt lat="39.74907997995615" lon="3.311511995270848">
<ele>42</ele>
</trkpt>
<trkpt lat="39.74907997995615" lon="3.311511995270848">
<ele>45</ele>
</trkpt>
<trkpt lat="39.74907997995615" lon="3.311511995270848">
<ele>47</ele>
</trkpt>
<trkpt lat="39.749078974127769" lon="3.311509983614087">
<ele>50</ele>
</trkpt>
<trkpt lat="39.749078974127769" lon="3.311509983614087">
<ele>52</ele>
</trkpt>
<trkpt lat="39.748901026323438" lon="3.311612997204065">
<ele>53</ele>
</trkpt>
<trkpt lat="39.748895997181535" lon="3.311612997204065">
<ele>56</ele>
</trkpt>
<trkpt lat="39.748870013281703" lon="3.311617020517588">
<ele>58</ele>
</trkpt>
<trkpt lat="39.748849980533123" lon="3.311653984710574">
<ele>61</ele>
</trkpt>
<trkpt lat="39.7487130202353" lon="3.311815001070499">
<ele>63</ele>
</trkpt>
<trkpt lat="39.748591985553503" lon="3.311963025480509">
<ele>64</ele>
</trkpt>
<trkpt lat="39.748509004712105" lon="3.312127981334925">
<ele>64</ele>
</trkpt>
<trkpt lat="39.748484026640654" lon="3.312209034338594">
<ele>64</ele>
</trkpt>
<trkpt lat="39.748432980850339" lon="3.312368961051107">
<ele>65</ele>
</trkpt>
<trkpt lat="39.74837196059525" lon="3.312584962695837">
<ele>66</ele>
</trkpt>
<trkpt lat="39.748256038874388" lon="3.312686970457435">
<ele>66</ele>
</trkpt>
<trkpt lat="39.74811295978725" lon="3.312796019017696">
<ele>66</ele>
</trkpt>
<trkpt lat="39.747943980619311" lon="3.312923004850745">
<ele>67</ele>
</trkpt>
<trkpt lat="39.747796040028334" lon="3.313058959320188">
<ele>67</ele>
</trkpt>
<trkpt lat="39.747676011174917" lon="3.313200026750565">
<ele>68</ele>
</trkpt>
<trkpt lat="39.747580960392952" lon="3.313335981220007">
<ele>69</ele>
</trkpt>
<trkpt lat="39.747494040057063" lon="3.313452992588282">
<ele>70</ele>
</trkpt>
<trkpt lat="39.74737904034555" lon="3.313597999513149">
<ele>71</ele>
</trkpt>
<trkpt lat="39.747270997613668" lon="3.313734959810972">
<ele>72</ele>
</trkpt>
<trkpt lat="39.747251970693469" lon="3.313777958974242">
<ele>73</ele>
</trkpt>
<trkpt lat="39.747147029265761" lon="3.313907040283084">
<ele>75</ele>
</trkpt>
<trkpt lat="39.747129008173943" lon="3.313913997262716">
<ele>76</ele>
</trkpt>
<trkpt lat="39.746961034834385" lon="3.314077025279403">
<ele>77</ele>
</trkpt>
<trkpt lat="39.746824996545911" lon="3.314208034425974">
<ele>77</ele>
</trkpt>
<trkpt lat="39.746688958257437" lon="3.314291015267372">
<ele>78</ele>
</trkpt>
<trkpt lat="39.746505981311202" lon="3.314291015267372">
<ele>78</ele>
</trkpt>
<trkpt lat="39.746473962441087" lon="3.31428699195385">
<ele>79</ele>
</trkpt>
<trkpt lat="39.746319986879826" lon="3.314277017489076">
<ele>80</ele>
</trkpt>
<trkpt lat="39.746311018243432" lon="3.314271988347173">
<ele>80</ele>
</trkpt>
<trkpt lat="39.746188977733254" lon="3.314208034425974">
<ele>80</ele>
</trkpt>
<trkpt lat="39.74613499827683" lon="3.314211973920465">
<ele>81</ele>
</trkpt>
<trkpt lat="39.746078001335263" lon="3.314198981970549">
<ele>82</ele>
</trkpt>
<trkpt lat="39.746051011607051" lon="3.314195964485407">
<ele>81</ele>
</trkpt>
<trkpt lat="39.745799973607063" lon="3.314231000840664">
<ele>81</ele>
</trkpt>
<trkpt lat="39.745708024129272" lon="3.314314987510443">
<ele>81</ele>
</trkpt>
<trkpt lat="39.745701989158988" lon="3.314326973631978">
<ele>82</ele>
</trkpt>
<trkpt lat="39.745579026639462" lon="3.314583040773869">
<ele>84</ele>
</trkpt>
<trkpt lat="39.745581038296223" lon="3.314614975824952">
<ele>85</ele>
</trkpt>
<trkpt lat="39.745542984455824" lon="3.314654035493732">
<ele>86</ele>
</trkpt>
<trkpt lat="39.745438965037465" lon="3.31478102132678">
<ele>88</ele>
</trkpt>
<trkpt lat="39.745333017781377" lon="3.314890991896391">
<ele>89</ele>
</trkpt>
<trkpt lat="39.745299993082881" lon="3.314922004938126">
<ele>90</ele>
</trkpt>
<trkpt lat="39.745201002806425" lon="3.315014960244298">
<ele>91</ele>
</trkpt>
<trkpt lat="39.745133025571704" lon="3.315086038783193">
<ele>93</ele>
</trkpt>
<trkpt lat="39.745035041123629" lon="3.315196009352803">
<ele>94</ele>
</trkpt>
<trkpt lat="39.745011990889907" lon="3.315222999081016">
<ele>94</ele>
</trkpt>
<trkpt lat="39.744892967864871" lon="3.315316960215569">
<ele>95</ele>
</trkpt>
<trkpt lat="39.74482599645853" lon="3.315399019047618">
<ele>96</ele>
</trkpt>
<trkpt lat="39.744763970375061" lon="3.31544503569603">
<ele>97</ele>
</trkpt>
<trkpt lat="39.744701022282243" lon="3.315461967140436">
<ele>99</ele>
</trkpt>
<trkpt lat="39.744619969278574" lon="3.315484011545777">
<ele>100</ele>
</trkpt>
<trkpt lat="39.744500024244189" lon="3.315471019595861">
<ele>101</ele>
</trkpt>
<trkpt lat="39.74441603757441" lon="3.315473031252623">
<ele>102</ele>
</trkpt>
<trkpt lat="39.74437597207725" lon="3.315462972968817">
<ele>103</ele>
</trkpt>
<trkpt lat="39.744382007047534" lon="3.315519969910383">
<ele>104</ele>
</trkpt>
<trkpt lat="39.74439499899745" lon="3.315536985173821">
<ele>105</ele>
</trkpt>
<trkpt lat="39.744298020377755" lon="3.315638992935419">
<ele>106</ele>
</trkpt>
<trkpt lat="39.744188971817493" lon="3.315745024010539">
<ele>105</ele>
</trkpt>
<trkpt lat="39.74411697126925" lon="3.315816018730402">
<ele>106</ele>
</trkpt>
<trkpt lat="39.744069026783109" lon="3.31596102565527">
<ele>107</ele>
</trkpt>
<trkpt lat="39.7440090123564" lon="3.315982986241579">
<ele>108</ele>
</trkpt>
<trkpt lat="39.743956960737705" lon="3.315976029261947">
<ele>109</ele>
</trkpt>
<trkpt lat="39.743882026523352" lon="3.31591903232038">
<ele>110</ele>
</trkpt>
<trkpt lat="39.743744982406497" lon="3.315924983471632">
<ele>111</ele>
</trkpt>
<trkpt lat="39.743597963824868" lon="3.315951973199844">
<ele>112</ele>
</trkpt>
<trkpt lat="39.743572985753417" lon="3.315957002341747">
<ele>112</ele>
</trkpt>
<trkpt lat="39.743381962180138" lon="3.315937975421548">
<ele>112</ele>
</trkpt>
<trkpt lat="39.743356984108686" lon="3.315935041755438">
<ele>112</ele>
</trkpt>
<trkpt lat="39.743228992447257" lon="3.315996984019876">
<ele>111</ele>
</trkpt>
<trkpt lat="39.743068981915712" lon="3.31602799706161">
<ele>110</ele>
</trkpt>
<trkpt lat="39.743047021329403" lon="3.316025985404849">
<ele>110</ele>
</trkpt>
<trkpt lat="39.742950964719057" lon="3.316018022596836">
<ele>110</ele>
</trkpt>
<trkpt lat="39.742822973057628" lon="3.315953984856606">
<ele>110</ele>
</trkpt>
<trkpt lat="39.742790032178164" lon="3.315946022048593">
<ele>110</ele>
</trkpt>
<trkpt lat="39.742599008604884" lon="3.315969994291663">
<ele>110</ele>
</trkpt>
<trkpt lat="39.742590961977839" lon="3.315974017605186">
<ele>111</ele>
</trkpt>
<trkpt lat="39.742572018876672" lon="3.315978962928057">
<ele>111</ele>
</trkpt>
<trkpt lat="39.742392981424928" lon="3.316013999283314">
<ele>112</ele>
</trkpt>
<trkpt lat="39.742393987253308" lon="3.316088011488318">
<ele>112</ele>
</trkpt>
<trkpt lat="39.742331961169839" lon="3.316093040630221">
<ele>112</ele>
</trkpt>
<trkpt lat="39.742263983935118" lon="3.316118018701673">
<ele>113</ele>
</trkpt>
<trkpt lat="39.742115959525108" lon="3.3160699903965">
<ele>112</ele>
</trkpt>
<trkpt lat="39.742088969796896" lon="3.316055992618203">
<ele>113</ele>
</trkpt>
<trkpt lat="39.741959972307086" lon="3.31600402481854">
<ele>113</ele>
</trkpt>
<trkpt lat="39.741810020059347" lon="3.316016010940075">
<ele>114</ele>
</trkpt>
<trkpt lat="39.741753023117781" lon="3.316021040081978">
<ele>115</ele>
</trkpt>
<trkpt lat="39.741585971787572" lon="3.316092034801841">
<ele>116</ele>
</trkpt>
<trkpt lat="39.741568034514785" lon="3.316106032580137">
<ele>117</ele>
</trkpt>
<trkpt lat="39.741455968469381" lon="3.316223965957761">
<ele>118</ele>
</trkpt>
<trkpt lat="39.741371981799603" lon="3.316352963447571">
<ele>118</ele>
</trkpt>
<trkpt lat="39.741341974586248" lon="3.316375007852912">
<ele>118</ele>
</trkpt>
<trkpt lat="39.741261005401611" lon="3.316451031714678">
<ele>119</ele>
</trkpt>
<trkpt lat="39.741242984309793" lon="3.316475003957748">
<ele>120</ele>
</trkpt>
<trkpt lat="39.741160003468394" lon="3.316552033647895">
<ele>121</ele>
</trkpt>
<trkpt lat="39.741098983213305" lon="3.316636020317674">
<ele>122</ele>
</trkpt>
<trkpt lat="39.74102396517992" lon="3.316724030300975">
<ele>123</ele>
</trkpt>
<trkpt lat="39.741018014028668" lon="3.316749008372426">
<ele>124</ele>
</trkpt>
<trkpt lat="39.740933021530509" lon="3.316814973950386">
<ele>126</ele>
</trkpt>
<trkpt lat="39.740909971296787" lon="3.31684397533536">
<ele>127</ele>
</trkpt>
<trkpt lat="39.740798994898796" lon="3.316975990310311">
<ele>128</ele>
</trkpt>
<trkpt lat="39.740692041814327" lon="3.317103981971741">
<ele>129</ele>
</trkpt>
<trkpt lat="39.740648958832026" lon="3.317163996398449">
<ele>130</ele>
</trkpt>
<trkpt lat="39.740615012124181" lon="3.317329036071897">
<ele>131</ele>
</trkpt>
<trkpt lat="39.74054703488946" lon="3.317499021068215">
<ele>132</ele>
</trkpt>
<trkpt lat="39.740545023232698" lon="3.317525004968047">
<ele>133</ele>
</trkpt>
<trkpt lat="39.740540999919176" lon="3.317755004391074">
<ele>135</ele>
</trkpt>
<trkpt lat="39.740564972162247" lon="3.317849971354008">
<ele>135</ele>
</trkpt>
<trkpt lat="39.740580981597304" lon="3.317958014085889">
<ele>137</ele>
</trkpt>
<trkpt lat="39.740669997408986" lon="3.317841002717614">
<ele>138</ele>
</trkpt>
<trkpt lat="39.740688018500805" lon="3.317703036591411">
<ele>140</ele>
</trkpt>
<trkpt lat="39.740688018500805" lon="3.31770395860076">
<ele>142</ele>
</trkpt>
<trkpt lat="39.740692041814327" lon="3.317815018817782">
<ele>143</ele>
</trkpt>
<trkpt lat="39.740702016279101" lon="3.317905962467194">
<ele>145</ele>
</trkpt>
<trkpt lat="39.740660022944212" lon="3.318077037110925">
<ele>145</ele>
</trkpt>
<trkpt lat="39.740631021559238" lon="3.318162029609084">
<ele>147</ele>
</trkpt>
<trkpt lat="39.740566983819008" lon="3.31826101988554">
<ele>148</ele>
</trkpt>
<trkpt lat="39.740448966622353" lon="3.31834701821208">
<ele>150</ele>
</trkpt>
<trkpt lat="39.740418959408998" lon="3.318333020433784">
<ele>151</ele>
</trkpt>
<trkpt lat="39.740329021587968" lon="3.318371996283531">
<ele>153</ele>
</trkpt>
<trkpt lat="39.74024897441268" lon="3.318386999890208">
<ele>154</ele>
</trkpt>
<trkpt lat="39.740145960822701" lon="3.318479033187032">
<ele>155</ele>
</trkpt>
<trkpt lat="39.740088041871786" lon="3.318637032061815">
<ele>157</ele>
</trkpt>
<trkpt lat="39.7400769777596" lon="3.318782960996032">
<ele>158</ele>
</trkpt>
<trkpt lat="39.740087036043406" lon="3.318839035928249">
<ele>160</ele>
</trkpt>
<trkpt lat="39.740049988031387" lon="3.318868037313223">
<ele>160</ele>
</trkpt>
<trkpt lat="39.739903975278139" lon="3.318862002342939">
<ele>161</ele>
</trkpt>
<trkpt lat="39.739827029407024" lon="3.318878011777997">
<ele>163</ele>
</trkpt>
<trkpt lat="39.739736001938581" lon="3.318909024819732">
<ele>165</ele>
</trkpt>
<trkpt lat="39.739629970863461" lon="3.318914975970984">
<ele>166</ele>
</trkpt>
<trkpt lat="39.73953902721405" lon="3.318874994292855">
<ele>167</ele>
</trkpt>
<trkpt lat="39.739498039707541" lon="3.318854039534926">
<ele>169</ele>
</trkpt>
<trkpt lat="39.739493010565639" lon="3.318986976519227">
<ele>170</ele>
</trkpt>
<trkpt lat="39.739535003900528" lon="3.319024024531245">
<ele>171</ele>
</trkpt>
<trkpt lat="39.739700965583324" lon="3.31910097040236">
<ele>172</ele>
</trkpt>
<trkpt lat="39.739788975566626" lon="3.319126032292843">
<ele>174</ele>
</trkpt>
<trkpt lat="39.7399059869349" lon="3.319189986214042">
<ele>174</ele>
</trkpt>
<trkpt lat="39.739931970834732" lon="3.319185962900519">
<ele>175</ele>
</trkpt>
<trkpt lat="39.739953009411693" lon="3.319204989820719">
<ele>176</ele>
</trkpt>
<trkpt lat="39.739884026348591" lon="3.3191869687289">
<ele>177</ele>
</trkpt>
<trkpt lat="39.739823006093502" lon="3.319183029234409">
<ele>177</ele>
</trkpt>
<trkpt lat="39.739717980846763" lon="3.319124020636082">
<ele>178</ele>
</trkpt>
<trkpt lat="39.739675987511873" lon="3.319137012585998">
<ele>179</ele>
</trkpt>
<trkpt lat="39.739635000005364" lon="3.319181017577648">
<ele>180</ele>
</trkpt>
<trkpt lat="39.739544978365302" lon="3.319199038669467">
<ele>181</ele>
</trkpt>
<trkpt lat="39.739423021674156" lon="3.319212030619383">
<ele>182</ele>
</trkpt>
<trkpt lat="39.739393014460802" lon="3.319238014519215">
<ele>182</ele>
</trkpt>
<trkpt lat="39.739276003092527" lon="3.319203983992338">
<ele>182</ele>
</trkpt>
<trkpt lat="39.739225963130593" lon="3.319170959293842">
<ele>182</ele>
</trkpt>
<trkpt lat="39.739118004217744" lon="3.319215970113874">
<ele>182</ele>
</trkpt>
<trkpt lat="39.73911096341908" lon="3.319217981770635">
<ele>182</ele>
</trkpt>
<trkpt lat="39.738921029493213" lon="3.319273972883821">
<ele>182</ele>
</trkpt>
<trkpt lat="39.738900996744633" lon="3.319262992590666">
<ele>182</ele>
</trkpt>
<trkpt lat="39.738867972046137" lon="3.319274978712201">
<ele>183</ele>
</trkpt>
<trkpt lat="39.738736040890217" lon="3.319360977038741">
<ele>183</ele>
</trkpt>
<trkpt lat="39.738694969564676" lon="3.319363994523883">
<ele>183</ele>
</trkpt>
<trkpt lat="39.738675020635128" lon="3.319490980356932">
<ele>184</ele>
</trkpt>
<trkpt lat="39.738651970401406" lon="3.319587036967278">
<ele>184</ele>
</trkpt>
<trkpt lat="39.738586004823446" lon="3.31959399394691">
<ele>185</ele>
</trkpt>
<trkpt lat="39.7385089751333" lon="3.319603968411684">
<ele>185</ele>
</trkpt>
<trkpt lat="39.738419037312269" lon="3.319606985896826">
<ele>186</ele>
</trkpt>
<trkpt lat="39.738376960158348" lon="3.319647973403335">
<ele>187</ele>
</trkpt>
<trkpt lat="39.738275958225131" lon="3.319642022252083">
<ele>188</ele>
</trkpt>
<trkpt lat="39.738216027617455" lon="3.319685021415353">
<ele>189</ele>
</trkpt>
<trkpt lat="39.738171016797423" lon="3.319714022800326">
<ele>190</ele>
</trkpt>
<trkpt lat="39.738069009035826" lon="3.319647973403335">
<ele>191</ele>
</trkpt>
<trkpt lat="39.738063979893923" lon="3.319612015038729">
<ele>192</ele>
</trkpt>
<trkpt lat="39.738123994320631" lon="3.319530040025711">
<ele>193</ele>
</trkpt>
<trkpt lat="39.738243017345667" lon="3.319295011460781">
<ele>194</ele>
</trkpt>
<trkpt lat="39.738259026780725" lon="3.319174982607365">
<ele>195</ele>
</trkpt>
<trkpt lat="39.738295990973711" lon="3.319003991782665">
<ele>195</ele>
</trkpt>
<trkpt lat="39.738304037600756" lon="3.318955041468144">
<ele>196</ele>
</trkpt>
<trkpt lat="39.738265983760357" lon="3.318725964054465">
<ele>197</ele>
</trkpt>
<trkpt lat="39.73820898681879" lon="3.318570982664824">
<ele>198</ele>
</trkpt>
<trkpt lat="39.738193983212113" lon="3.318536030128598">
<ele>199</ele>
</trkpt>
<trkpt lat="39.73814201541245" lon="3.318382976576686">
<ele>200</ele>
</trkpt>
<trkpt lat="39.738192977383733" lon="3.318264037370682">
<ele>200</ele>
</trkpt>
<trkpt lat="39.738239999860525" lon="3.318040994927287">
<ele>201</ele>
</trkpt>
<trkpt lat="39.73822801373899" lon="3.317878972738981">
<ele>201</ele>
</trkpt>
<trkpt lat="39.738216027617455" lon="3.317690966650844">
<ele>202</ele>
</trkpt>
<trkpt lat="39.738214015960693" lon="3.317647967487574">
<ele>202</ele>
</trkpt>
<trkpt lat="39.738117959350348" lon="3.317794986069202">
<ele>200</ele>
</trkpt>
<trkpt lat="39.738101027905941" lon="3.317868998274207">
<ele>201</ele>
</trkpt>
<trkpt lat="39.738049982115626" lon="3.318039989098907">
<ele>201</ele>
</trkpt>
<trkpt lat="39.738034978508949" lon="3.317995984107256">
<ele>202</ele>
</trkpt>
<trkpt lat="39.738042019307613" lon="3.317968994379044">
<ele>202</ele>
</trkpt>
<trkpt lat="39.738051993772388" lon="3.317781994119287">
<ele>203</ele>
</trkpt>
<trkpt lat="39.738044030964375" lon="3.317716028541327">
<ele>204</ele>
</trkpt>
<trkpt lat="39.738018969073892" lon="3.317590970546007">
<ele>205</ele>
</trkpt>
<trkpt lat="39.737998014315963" lon="3.317585019394755">
<ele>206</ele>
</trkpt>
<trkpt lat="39.737943029031157" lon="3.317660037428141">
<ele>207</ele>
</trkpt>
<trkpt lat="39.737924002110958" lon="3.317741006612778">
<ele>208</ele>
</trkpt>
<trkpt lat="39.737886032089591" lon="3.317900011315942">
<ele>209</ele>
</trkpt>
<trkpt lat="39.737877985462546" lon="3.317946027964354">
<ele>209</ele>
</trkpt>
<trkpt lat="39.737844038754702" lon="3.317834967747331">
<ele>210</ele>
</trkpt>
<trkpt lat="39.737859964370728" lon="3.317633969709277">
<ele>211</ele>
</trkpt>
<trkpt lat="39.737856024876237" lon="3.31759499385953">
<ele>212</ele>
</trkpt>
<trkpt lat="39.737862981855869" lon="3.31755199469626">
<ele>212</ele>
</trkpt>
<trkpt lat="39.737870022654533" lon="3.317527016624808">
<ele>213</ele>
</trkpt>
<trkpt lat="39.737868010997772" lon="3.31727203913033">
<ele>214</ele>
</trkpt>
<trkpt lat="39.737872034311295" lon="3.317114962264895">
<ele>214</ele>
</trkpt>
<trkpt lat="39.737874967977405" lon="3.317074980586767">
<ele>215</ele>
</trkpt>
<trkpt lat="39.737819982692599" lon="3.316984958946705">
<ele>216</ele>
</trkpt>
<trkpt lat="39.737801039591432" lon="3.316925028339028">
<ele>217</ele>
</trkpt>
<trkpt lat="39.73777899518609" lon="3.316827965900302">
<ele>216</ele>
</trkpt>
<trkpt lat="39.737685034051538" lon="3.316613975912333">
<ele>217</ele>
</trkpt>
<trkpt lat="39.73767003044486" lon="3.316461006179452">
<ele>217</ele>
</trkpt>
<trkpt lat="39.737675981596112" lon="3.316406020894647">
<ele>218</ele>
</trkpt>
<trkpt lat="39.737684028223157" lon="3.316337959840894">
<ele>219</ele>
</trkpt>
<trkpt lat="39.737705988809466" lon="3.316192030906677">
<ele>220</ele>
</trkpt>
<trkpt lat="39.737728033214808" lon="3.316061021760106">
<ele>220</ele>
</trkpt>
<trkpt lat="39.737665001302958" lon="3.315889025107026">
<ele>221</ele>
</trkpt>
<trkpt lat="39.737666007131338" lon="3.315879972651601">
<ele>222</ele>
</trkpt>
<trkpt lat="39.737617978826165" lon="3.315759021788836">
<ele>223</ele>
</trkpt>
<trkpt lat="39.737591994926333" lon="3.315733037889004">
<ele>224</ele>
</trkpt>
<trkpt lat="39.737503984943032" lon="3.315563974902034">
<ele>224</ele>
</trkpt>
<trkpt lat="39.737489987164736" lon="3.315549977123737">
<ele>225</ele>
</trkpt>
<trkpt lat="39.737438019365072" lon="3.315481999889016">
<ele>225</ele>
</trkpt>
<trkpt lat="39.737431984394789" lon="3.315392984077334">
<ele>226</ele>
</trkpt>
<trkpt lat="39.737475989386439" lon="3.31516700796783">
<ele>227</ele>
</trkpt>
<trkpt lat="39.737548995763063" lon="3.315096013247967">
<ele>227</ele>
</trkpt>
<trkpt lat="39.737657038494945" lon="3.315014038234949">
<ele>228</ele>
</trkpt>
<trkpt lat="39.737697020173073" lon="3.314954023808241">
<ele>229</ele>
</trkpt>
<trkpt lat="39.737792992964387" lon="3.314813040196896">
<ele>230</ele>
</trkpt>
<trkpt lat="39.737700037658215" lon="3.314750008285046">
<ele>230</ele>
</trkpt>
<trkpt lat="39.737643040716648" lon="3.3147609885782">
<ele>231</ele>
</trkpt>
<trkpt lat="39.737557964399457" lon="3.31480398774147">
<ele>232</ele>
</trkpt>
<trkpt lat="39.737447993829846" lon="3.314809016883373">
<ele>232</ele>
</trkpt>
<trkpt lat="39.737394014373422" lon="3.314816979691386">
<ele>232</ele>
</trkpt>
<trkpt lat="39.737258981913328" lon="3.314769035205245">
<ele>233</ele>
</trkpt>
<trkpt lat="39.737173989415169" lon="3.314741039648652">
<ele>234</ele>
</trkpt>
<trkpt lat="39.737065024673939" lon="3.314755037426949">
<ele>234</ele>
</trkpt>
<trkpt lat="39.736935021355748" lon="3.314784960821271">
<ele>235</ele>
</trkpt>
<trkpt lat="39.736858997493982" lon="3.314801976084709">
<ele>235</ele>
</trkpt>
<trkpt lat="39.736807029694319" lon="3.314825026318431">
<ele>236</ele>
</trkpt>
<trkpt lat="39.736726982519031" lon="3.314905995503068">
<ele>237</ele>
</trkpt>
<trkpt lat="39.736633021384478" lon="3.315134989097714">
<ele>238</ele>
</trkpt>
<trkpt lat="39.736575018614531" lon="3.315284019336104">
<ele>239</ele>
</trkpt>
<trkpt lat="39.736509975045919" lon="3.315421985462308">
<ele>239</ele>
</trkpt>
<trkpt lat="39.736460018903017" lon="3.315492980182171">
<ele>240</ele>
</trkpt>
<trkpt lat="39.736392963677645" lon="3.315529022365809">
<ele>242</ele>
</trkpt>
<trkpt lat="39.736189031973481" lon="3.315564980730414">
<ele>243</ele>
</trkpt>
<trkpt lat="39.736109990626574" lon="3.315578978508711">
<ele>244</ele>
</trkpt>
<trkpt lat="39.736032960936427" lon="3.315567998215556">
<ele>245</ele>
</trkpt>
<trkpt lat="39.736033966764808" lon="3.315570009872317">
<ele>246</ele>
</trkpt>
<trkpt lat="39.736033966764808" lon="3.315571015700698">
<ele>246</ele>
</trkpt>
<trkpt lat="39.736033966764808" lon="3.315571015700698">
<ele>246</ele>
</trkpt>
<trkpt lat="39.736033966764808" lon="3.315571015700698">
<ele>246</ele>
</trkpt>
<trkpt lat="39.736033966764808" lon="3.315571015700698">
<ele>247</ele>
</trkpt>
<trkpt lat="39.736033966764808" lon="3.315571015700698">
<ele>246</ele>
</trkpt>
<trkpt lat="39.736098004505038" lon="3.315432965755463">
<ele>247</ele>
</trkpt>
<trkpt lat="39.73612398840487" lon="3.315392984077334">
<ele>248</ele>
</trkpt>
<trkpt lat="39.736204035580158" lon="3.315229034051299">
<ele>248</ele>
</trkpt>
<trkpt lat="39.736223984509706" lon="3.315089978277683">
<ele>248</ele>
</trkpt>
<trkpt lat="39.73625298589468" lon="3.314915969967842">
<ele>249</ele>
</trkpt>
<trkpt lat="39.736262038350105" lon="3.314870959147811">
<ele>249</ele>
</trkpt>
<trkpt lat="39.736262038350105" lon="3.314746990799904">
<ele>251</ele>
</trkpt>
<trkpt lat="39.736256003379822" lon="3.314722012728453">
<ele>251</ele>
</trkpt>
<trkpt lat="39.736245023086667" lon="3.314585974439979">
<ele>252</ele>
</trkpt>
<trkpt lat="39.73620998673141" lon="3.314434010535479">
<ele>253</ele>
</trkpt>
<trkpt lat="39.736216021701694" lon="3.314407020807266">
<ele>254</ele>
</trkpt>
<trkpt lat="39.736215015873313" lon="3.314315993338823">
<ele>255</ele>
</trkpt>
<trkpt lat="39.736239993944764" lon="3.314246004447341">
<ele>256</ele>
</trkpt>
<trkpt lat="39.736258015036583" lon="3.314184984192252">
<ele>257</ele>
</trkpt>
<trkpt lat="39.736278969794512" lon="3.314025979489088">
<ele>258</ele>
</trkpt>
<trkpt lat="39.736188026145101" lon="3.313953978940845">
<ele>258</ele>
</trkpt>
<trkpt lat="39.736092975363135" lon="3.313841996714473">
<ele>259</ele>
</trkpt>
<trkpt lat="39.736018041148782" lon="3.313796985894442">
<ele>260</ele>
</trkpt>
<trkpt lat="39.735954003408551" lon="3.313645021989942">
<ele>260</ele>
</trkpt>
<trkpt lat="39.735993985086679" lon="3.313404964283109">
<ele>261</ele>
</trkpt>
<trkpt lat="39.736020974814892" lon="3.313331035897136">
<ele>262</ele>
</trkpt>
<trkpt lat="39.736098004505038" lon="3.313211007043719">
<ele>262</ele>
</trkpt>
<trkpt lat="39.736103033646941" lon="3.313088966533542">
<ele>263</ele>
</trkpt>
<trkpt lat="39.736126000061631" lon="3.313047979027033">
<ele>263</ele>
</trkpt>
<trkpt lat="39.736135974526405" lon="3.312900038436055">
<ele>264</ele>
</trkpt>
<trkpt lat="39.736191965639591" lon="3.312750002369285">
<ele>265</ele>
</trkpt>
<trkpt lat="39.736189031973481" lon="3.312658974900842">
<ele>265</ele>
</trkpt>
<trkpt lat="39.736208980903029" lon="3.312607007101178">
<ele>267</ele>
</trkpt>
<trkpt lat="39.736262960359454" lon="3.312452025711536">
<ele>268</ele>
</trkpt>
<trkpt lat="39.736285004764795" lon="3.3123520296067">
<ele>268</ele>
</trkpt>
<trkpt lat="39.736320041120052" lon="3.312241975218058">
<ele>269</ele>
</trkpt>
<trkpt lat="39.736350970342755" lon="3.312214985489845">
<ele>269</ele>
</trkpt>
<trkpt lat="39.736406961455941" lon="3.312146002426744">
<ele>271</ele>
</trkpt>
<trkpt lat="39.736593039706349" lon="3.311899993568659">
<ele>272</ele>
</trkpt>
<trkpt lat="39.736597985029221" lon="3.311891024932265">
<ele>272</ele>
</trkpt>
<trkpt lat="39.736690018326044" lon="3.311779964715242">
<ele>275</ele>
</trkpt>
<trkpt lat="39.736836031079292" lon="3.311621965840459">
<ele>279</ele>
</trkpt>
<trkpt lat="39.736913982778788" lon="3.311520963907242">
<ele>281</ele>
</trkpt>
<trkpt lat="39.736956981942058" lon="3.311470001935959">
<ele>284</ele>
</trkpt>
<trkpt lat="39.737077010795474" lon="3.311317032203078">
<ele>287</ele>
</trkpt>
<trkpt lat="39.737078016623855" lon="3.311319965869188">
<ele>290</ele>
</trkpt>
<trkpt lat="39.737078016623855" lon="3.311318960040808">
<ele>288</ele>
</trkpt>
<trkpt lat="39.737078016623855" lon="3.311318960040808">
<ele>287</ele>
</trkpt>
<trkpt lat="39.737078016623855" lon="3.311318960040808">
<ele>285</ele>
</trkpt>
<trkpt lat="39.737077010795474" lon="3.311319965869188">
<ele>284</ele>
</trkpt>
<trkpt lat="39.737076004967093" lon="3.311319965869188">
<ele>282</ele>
</trkpt>
<trkpt lat="39.737076004967093" lon="3.311319965869188">
<ele>281</ele>
</trkpt>
<trkpt lat="39.737076004967093" lon="3.311319965869188">
<ele>279</ele>
</trkpt>
<trkpt lat="39.737078016623855" lon="3.311318960040808">
<ele>278</ele>
</trkpt>
<trkpt lat="39.737078016623855" lon="3.311318960040808">
<ele>276</ele>
</trkpt>
<trkpt lat="39.736956981942058" lon="3.311470001935959">
<ele>275</ele>
</trkpt>
<trkpt lat="39.736913982778788" lon="3.311520963907242">
<ele>274</ele>
</trkpt>
<trkpt lat="39.736836031079292" lon="3.311621965840459">
<ele>273</ele>
</trkpt>
<trkpt lat="39.736720025539398" lon="3.31175004132092">
<ele>272</ele>
</trkpt>
<trkpt lat="39.736690018326044" lon="3.311779964715242">
<ele>270</ele>
</trkpt>
<trkpt lat="39.736597985029221" lon="3.311891024932265">
<ele>270</ele>
</trkpt>
<trkpt lat="39.736497988924384" lon="3.312040977180004">
<ele>269</ele>
</trkpt>
<trkpt lat="39.736450966447592" lon="3.312085988000035">
<ele>268</ele>
</trkpt>
<trkpt lat="39.736397992819548" lon="3.312151031568646">
<ele>267</ele>
</trkpt>
<trkpt lat="39.736285004764795" lon="3.3123520296067">
<ele>266</ele>
</trkpt>
<trkpt lat="39.736262960359454" lon="3.312452025711536">
<ele>265</ele>
</trkpt>
<trkpt lat="39.736208980903029" lon="3.312607007101178">
<ele>265</ele>
</trkpt>
<trkpt lat="39.736189031973481" lon="3.312658974900842">
<ele>264</ele>
</trkpt>
<trkpt lat="39.736135974526405" lon="3.312900038436055">
<ele>264</ele>
</trkpt>
<trkpt lat="39.736126000061631" lon="3.313047979027033">
<ele>263</ele>
</trkpt>
<trkpt lat="39.736103033646941" lon="3.313088966533542">
<ele>263</ele>
</trkpt>
<trkpt lat="39.736098004505038" lon="3.313211007043719">
<ele>262</ele>
</trkpt>
<trkpt lat="39.736059028655291" lon="3.313272027298808">
<ele>261</ele>
</trkpt>
<trkpt lat="39.735993985086679" lon="3.313404964283109">
<ele>261</ele>
</trkpt>
<trkpt lat="39.735958026722074" lon="3.313561035320163">
<ele>260</ele>
</trkpt>
<trkpt lat="39.735954003408551" lon="3.313645021989942">
<ele>260</ele>
</trkpt>
<trkpt lat="39.736018041148782" lon="3.313796985894442">
<ele>259</ele>
</trkpt>
<trkpt lat="39.736092975363135" lon="3.313841996714473">
<ele>259</ele>
</trkpt>
<trkpt lat="39.736160030588508" lon="3.313919026404619">
<ele>258</ele>
</trkpt>
<trkpt lat="39.736188026145101" lon="3.313953978940845">
<ele>258</ele>
</trkpt>
<trkpt lat="39.736278969794512" lon="3.314025979489088">
<ele>257</ele>
</trkpt>
<trkpt lat="39.736287016421556" lon="3.314085993915796">
<ele>256</ele>
</trkpt>
<trkpt lat="39.736258015036583" lon="3.314184984192252">
<ele>255</ele>
</trkpt>
<trkpt lat="39.736239993944764" lon="3.314246004447341">
<ele>255</ele>
</trkpt>
<trkpt lat="39.736215015873313" lon="3.314315993338823">
<ele>254</ele>
</trkpt>
<trkpt lat="39.73620998673141" lon="3.314434010535479">
<ele>253</ele>
</trkpt>
<trkpt lat="39.736245023086667" lon="3.314585974439979">
<ele>253</ele>
</trkpt>
<trkpt lat="39.736248040571809" lon="3.314618999138475">
<ele>252</ele>
</trkpt>
<trkpt lat="39.736262038350105" lon="3.314746990799904">
<ele>252</ele>
</trkpt>
<trkpt lat="39.736262038350105" lon="3.314870959147811">
<ele>251</ele>
</trkpt>
<trkpt lat="39.73625298589468" lon="3.314915969967842">
<ele>251</ele>
</trkpt>
<trkpt lat="39.736223984509706" lon="3.315089978277683">
<ele>250</ele>
</trkpt>
<trkpt lat="39.73620998673141" lon="3.31514404155314">
<ele>249</ele>
</trkpt>
<trkpt lat="39.736189031973481" lon="3.315262980759144">
<ele>248</ele>
</trkpt>
<trkpt lat="39.736146032810211" lon="3.315363982692361">
<ele>248</ele>
</trkpt>
<trkpt lat="39.736098004505038" lon="3.315432965755463">
<ele>247</ele>
</trkpt>
<trkpt lat="39.736044025048614" lon="3.315532961860299">
<ele>247</ele>
</trkpt>
<trkpt lat="39.736032038927078" lon="3.315571015700698">
<ele>246</ele>
</trkpt>
<trkpt lat="39.736033966764808" lon="3.315570009872317">
<ele>246</ele>
</trkpt>
<trkpt lat="39.736033966764808" lon="3.315571015700698">
<ele>245</ele>
</trkpt>
<trkpt lat="39.736033966764808" lon="3.315571015700698">
<ele>245</ele>
</trkpt>
<trkpt lat="39.736033966764808" lon="3.315571015700698">
<ele>244</ele>
</trkpt>
<trkpt lat="39.736033966764808" lon="3.315571015700698">
<ele>244</ele>
</trkpt>
<trkpt lat="39.736078977584839" lon="3.31557403318584">
<ele>243</ele>
</trkpt>
<trkpt lat="39.736323980614543" lon="3.315571015700698">
<ele>242</ele>
</trkpt>
<trkpt lat="39.736392963677645" lon="3.315529022365809">
<ele>243</ele>
</trkpt>
<trkpt lat="39.736431017518044" lon="3.315521981567144">
<ele>242</ele>
</trkpt>
<trkpt lat="39.736575018614531" lon="3.315284019336104">
<ele>242</ele>
</trkpt>
<trkpt lat="39.736633021384478" lon="3.315134989097714">
<ele>241</ele>
</trkpt>
<trkpt lat="39.736704016104341" lon="3.314967015758157">
<ele>240</ele>
</trkpt>
<trkpt lat="39.736726982519031" lon="3.314905995503068">
<ele>239</ele>
</trkpt>
<trkpt lat="39.736835025250912" lon="3.314817985519767">
<ele>239</ele>
</trkpt>
<trkpt lat="39.736858997493982" lon="3.314801976084709">
<ele>238</ele>
</trkpt>
<trkpt lat="39.737065024673939" lon="3.314755037426949">
<ele>238</ele>
</trkpt>
<trkpt lat="39.737173989415169" lon="3.314741039648652">
<ele>237</ele>
</trkpt>
<trkpt lat="39.737258981913328" lon="3.314769035205245">
<ele>236</ele>
</trkpt>
<trkpt lat="39.737374987453222" lon="3.314809016883373">
<ele>236</ele>
</trkpt>
<trkpt lat="39.737394014373422" lon="3.314816979691386">
<ele>235</ele>
</trkpt>
<trkpt lat="39.737557964399457" lon="3.31480398774147">
<ele>234</ele>
</trkpt>
<trkpt lat="39.737643040716648" lon="3.3147609885782">
<ele>233</ele>
</trkpt>
<trkpt lat="39.737700037658215" lon="3.314750008285046">
<ele>232</ele>
</trkpt>
<trkpt lat="39.737792992964387" lon="3.314813040196896">
<ele>231</ele>
</trkpt>
<trkpt lat="39.737731972709298" lon="3.3149319794029">
<ele>230</ele>
</trkpt>
<trkpt lat="39.737697020173073" lon="3.314954023808241">
<ele>229</ele>
</trkpt>
<trkpt lat="39.737548995763063" lon="3.315096013247967">
<ele>228</ele>
</trkpt>
<trkpt lat="39.737475989386439" lon="3.31516700796783">
<ele>227</ele>
</trkpt>
<trkpt lat="39.737440031021833" lon="3.315246971324086">
<ele>226</ele>
</trkpt>
<trkpt lat="39.737431984394789" lon="3.315392984077334">
<ele>226</ele>
</trkpt>
<trkpt lat="39.737489987164736" lon="3.315549977123737">
<ele>225</ele>
</trkpt>
<trkpt lat="39.737566011026502" lon="3.31566296517849">
<ele>224</ele>
</trkpt>
<trkpt lat="39.737591994926333" lon="3.315733037889004">
<ele>223</ele>
</trkpt>
<trkpt lat="39.737666007131338" lon="3.315879972651601">
<ele>223</ele>
</trkpt>
<trkpt lat="39.737665001302958" lon="3.315889025107026">
<ele>222</ele>
</trkpt>
<trkpt lat="39.737728033214808" lon="3.316061021760106">
<ele>221</ele>
</trkpt>
<trkpt lat="39.737716969102621" lon="3.31613302230835">
<ele>220</ele>
</trkpt>
<trkpt lat="39.737705988809466" lon="3.316192030906677">
<ele>220</ele>
</trkpt>
<trkpt lat="39.737684028223157" lon="3.316337959840894">
<ele>220</ele>
</trkpt>
<trkpt lat="39.73767003044486" lon="3.316461006179452">
<ele>219</ele>
</trkpt>
<trkpt lat="39.737685034051538" lon="3.316613975912333">
<ele>219</ele>
</trkpt>
<trkpt lat="39.73775502294302" lon="3.316765017807484">
<ele>218</ele>
</trkpt>
<trkpt lat="39.73777899518609" lon="3.316827965900302">
<ele>217</ele>
</trkpt>
<trkpt lat="39.737801039591432" lon="3.316925028339028">
<ele>216</ele>
</trkpt>
<trkpt lat="39.737874967977405" lon="3.317074980586767">
<ele>215</ele>
</trkpt>
<trkpt lat="39.737868010997772" lon="3.31727203913033">
<ele>214</ele>
</trkpt>
<trkpt lat="39.737874967977405" lon="3.317479994148016">
<ele>213</ele>
</trkpt>
<trkpt lat="39.737870022654533" lon="3.317527016624808">
<ele>212</ele>
</trkpt>
<trkpt lat="39.737862981855869" lon="3.31755199469626">
<ele>211</ele>
</trkpt>
<trkpt lat="39.737844038754702" lon="3.317834967747331">
<ele>210</ele>
</trkpt>
<trkpt lat="39.73784102126956" lon="3.317845026031137">
<ele>210</ele>
</trkpt>
<trkpt lat="39.737886032089591" lon="3.317900011315942">
<ele>209</ele>
</trkpt>
<trkpt lat="39.737924002110958" lon="3.317741006612778">
<ele>208</ele>
</trkpt>
<trkpt lat="39.737934982404113" lon="3.317678980529308">
<ele>207</ele>
</trkpt>
<trkpt lat="39.738018969073892" lon="3.317590970546007">
<ele>206</ele>
</trkpt>
<trkpt lat="39.738044030964375" lon="3.317716028541327">
<ele>205</ele>
</trkpt>
<trkpt lat="39.738051993772388" lon="3.317781994119287">
<ele>203</ele>
</trkpt>
<trkpt lat="39.738042019307613" lon="3.317968994379044">
<ele>202</ele>
</trkpt>
<trkpt lat="39.738034978508949" lon="3.317995984107256">
<ele>201</ele>
</trkpt>
<trkpt lat="39.738093987107277" lon="3.317913003265858">
<ele>200</ele>
</trkpt>
<trkpt lat="39.738101027905941" lon="3.317868998274207">
<ele>199</ele>
</trkpt>
<trkpt lat="39.738170010969043" lon="3.317569009959698">
<ele>200</ele>
</trkpt>
<trkpt lat="39.738218039274216" lon="3.317580996081233">
<ele>200</ele>
</trkpt>
<trkpt lat="39.738216027617455" lon="3.317690966650844">
<ele>199</ele>
</trkpt>
<trkpt lat="39.73822801373899" lon="3.317878972738981">
<ele>199</ele>
</trkpt>
<trkpt lat="39.738239999860525" lon="3.318040994927287">
<ele>198</ele>
</trkpt>
<trkpt lat="39.738192977383733" lon="3.318264037370682">
<ele>197</ele>
</trkpt>
<trkpt lat="39.73814201541245" lon="3.318382976576686">
<ele>197</ele>
</trkpt>
<trkpt lat="39.738193983212113" lon="3.318536030128598">
<ele>196</ele>
</trkpt>
<trkpt lat="39.73820898681879" lon="3.318570982664824">
<ele>196</ele>
</trkpt>
<trkpt lat="39.738265983760357" lon="3.318725964054465">
<ele>195</ele>
</trkpt>
<trkpt lat="39.738304037600756" lon="3.318892009556294">
<ele>194</ele>
</trkpt>
<trkpt lat="39.738304037600756" lon="3.318955041468144">
<ele>194</ele>
</trkpt>
<trkpt lat="39.738259026780725" lon="3.319174982607365">
<ele>193</ele>
</trkpt>
<trkpt lat="39.738243017345667" lon="3.319295011460781">
<ele>192</ele>
</trkpt>
<trkpt lat="39.738159030675888" lon="3.319472037255764">
<ele>191</ele>
</trkpt>
<trkpt lat="39.738123994320631" lon="3.319530040025711">
<ele>190</ele>
</trkpt>
<trkpt lat="39.738069009035826" lon="3.319647973403335">
<ele>189</ele>
</trkpt>
<trkpt lat="39.738171016797423" lon="3.319714022800326">
<ele>188</ele>
</trkpt>
<trkpt lat="39.738275958225131" lon="3.319642022252083">
<ele>187</ele>
</trkpt>
<trkpt lat="39.738376960158348" lon="3.319647973403335">
<ele>186</ele>
</trkpt>
<trkpt lat="39.738419037312269" lon="3.319606985896826">
<ele>185</ele>
</trkpt>
<trkpt lat="39.7385089751333" lon="3.319603968411684">
<ele>184</ele>
</trkpt>
<trkpt lat="39.738586004823446" lon="3.31959399394691">
<ele>184</ele>
</trkpt>
<trkpt lat="39.738651970401406" lon="3.319587036967278">
<ele>183</ele>
</trkpt>
<trkpt lat="39.738694969564676" lon="3.319363994523883">
<ele>182</ele>
</trkpt>
<trkpt lat="39.738736040890217" lon="3.319360977038741">
<ele>181</ele>
</trkpt>
<trkpt lat="39.738867972046137" lon="3.319274978712201">
<ele>180</ele>
</trkpt>
<trkpt lat="39.738900996744633" lon="3.319262992590666">
<ele>179</ele>
</trkpt>
<trkpt lat="39.739047009497881" lon="3.319268021732569">
<ele>178</ele>
</trkpt>
<trkpt lat="39.73906796425581" lon="3.319254023954272">
<ele>177</ele>
</trkpt>
<trkpt lat="39.73911096341908" lon="3.319217981770635">
<ele>176</ele>
</trkpt>
<trkpt lat="39.739225963130593" lon="3.319170959293842">
<ele>175</ele>
</trkpt>
<trkpt lat="39.739319002255797" lon="3.319244971498847">
<ele>175</ele>
</trkpt>
<trkpt lat="39.739393014460802" lon="3.319238014519215">
<ele>175</ele>
</trkpt>
<trkpt lat="39.739423021674156" lon="3.319212030619383">
<ele>174</ele>
</trkpt>
<trkpt lat="39.739544978365302" lon="3.319199038669467">
<ele>173</ele>
</trkpt>
<trkpt lat="39.739556964486837" lon="3.319185040891171">
<ele>172</ele>
</trkpt>
<trkpt lat="39.739675987511873" lon="3.319137012585998">
<ele>172</ele>
</trkpt>
<trkpt lat="39.739823006093502" lon="3.319183029234409">
<ele>171</ele>
</trkpt>
<trkpt lat="39.739884026348591" lon="3.3191869687289">
<ele>170</ele>
</trkpt>
<trkpt lat="39.739931970834732" lon="3.319185962900519">
<ele>169</ele>
</trkpt>
<trkpt lat="39.7399059869349" lon="3.319189986214042">
<ele>167</ele>
</trkpt>
<trkpt lat="39.739788975566626" lon="3.319126032292843">
<ele>165</ele>
</trkpt>
<trkpt lat="39.739700965583324" lon="3.31910097040236">
<ele>164</ele>
</trkpt>
<trkpt lat="39.739595018327236" lon="3.319046990945935">
<ele>164</ele>
</trkpt>
<trkpt lat="39.739535003900528" lon="3.319024024531245">
<ele>162</ele>
</trkpt>
<trkpt lat="39.739440958946943" lon="3.318898966535926">
<ele>160</ele>
</trkpt>
<trkpt lat="39.73953902721405" lon="3.318874994292855">
<ele>159</ele>
</trkpt>
<trkpt lat="39.739629970863461" lon="3.318914975970984">
<ele>159</ele>
</trkpt>
<trkpt lat="39.739736001938581" lon="3.318909024819732">
<ele>157</ele>
</trkpt>
<trkpt lat="39.739827029407024" lon="3.318878011777997">
<ele>155</ele>
</trkpt>
<trkpt lat="39.739903975278139" lon="3.318862002342939">
<ele>154</ele>
</trkpt>
<trkpt lat="39.740009000524879" lon="3.318879017606378">
<ele>152</ele>
</trkpt>
<trkpt lat="39.740049988031387" lon="3.318868037313223">
<ele>151</ele>
</trkpt>
<trkpt lat="39.740087036043406" lon="3.318839035928249">
<ele>149</ele>
</trkpt>
<trkpt lat="39.740088041871786" lon="3.318637032061815">
<ele>148</ele>
</trkpt>
<trkpt lat="39.740131963044405" lon="3.318529995158315">
<ele>147</ele>
</trkpt>
<trkpt lat="39.740145960822701" lon="3.318479033187032">
<ele>145</ele>
</trkpt>
<trkpt lat="39.74024897441268" lon="3.318386999890208">
<ele>144</ele>
</trkpt>
<trkpt lat="39.740345031023026" lon="3.318332014605403">
<ele>142</ele>
</trkpt>
<trkpt lat="39.740432035177946" lon="3.318336959928274">
<ele>141</ele>
</trkpt>
<trkpt lat="39.740448966622353" lon="3.31834701821208">
<ele>140</ele>
</trkpt>
<trkpt lat="39.740563966333866" lon="3.318279962986708">
<ele>139</ele>
</trkpt>
<trkpt lat="39.740563966333866" lon="3.318279962986708">
<ele>138</ele>
</trkpt>
<trkpt lat="39.740660022944212" lon="3.318077037110925">
<ele>137</ele>
</trkpt>
<trkpt lat="39.740704027935863" lon="3.31793898716569">
<ele>137</ele>
</trkpt>
<trkpt lat="39.740702016279101" lon="3.317905962467194">
<ele>136</ele>
</trkpt>
<trkpt lat="39.740696987137198" lon="3.317865980789065">
<ele>135</ele>
</trkpt>
<trkpt lat="39.740688018500805" lon="3.317703036591411">
<ele>134</ele>
</trkpt>
<trkpt lat="39.740669997408986" lon="3.317841002717614">
<ele>133</ele>
</trkpt>
<trkpt lat="39.740619035437703" lon="3.317928006872535">
<ele>131</ele>
</trkpt>
<trkpt lat="39.740564972162247" lon="3.317849971354008">
<ele>130</ele>
</trkpt>
<trkpt lat="39.740540999919176" lon="3.317755004391074">
<ele>129</ele>
</trkpt>
<trkpt lat="39.74052700214088" lon="3.317621983587742">
<ele>128</ele>
</trkpt>
<trkpt lat="39.740545023232698" lon="3.317525004968047">
<ele>126</ele>
</trkpt>
<trkpt lat="39.74054703488946" lon="3.317499021068215">
<ele>124</ele>
</trkpt>
<trkpt lat="39.740597996860743" lon="3.317382009699941">
<ele>124</ele>
</trkpt>
<trkpt lat="39.740615012124181" lon="3.317329036071897">
<ele>122</ele>
</trkpt>
<trkpt lat="39.740648958832026" lon="3.3171889744699">
<ele>121</ele>
</trkpt>
<trkpt lat="39.740798994898796" lon="3.316975990310311">
<ele>119</ele>
</trkpt>
<trkpt lat="39.740887004882097" lon="3.316878005862236">
<ele>118</ele>
</trkpt>
<trkpt lat="39.740909971296787" lon="3.31684397533536">
<ele>116</ele>
</trkpt>
<trkpt lat="39.741018014028668" lon="3.316749008372426">
<ele>115</ele>
</trkpt>
<trkpt lat="39.74102396517992" lon="3.316724030300975">
<ele>114</ele>
</trkpt>
<trkpt lat="39.741098983213305" lon="3.316636020317674">
<ele>113</ele>
</trkpt>
<trkpt lat="39.741160003468394" lon="3.316552033647895">
<ele>111</ele>
</trkpt>
<trkpt lat="39.741242984309793" lon="3.316475003957748">
<ele>110</ele>
</trkpt>
<trkpt lat="39.741261005401611" lon="3.316451031714678">
<ele>110</ele>
</trkpt>
<trkpt lat="39.741341974586248" lon="3.316375007852912">
<ele>108</ele>
</trkpt>
<trkpt lat="39.741371981799603" lon="3.316352963447571">
<ele>107</ele>
</trkpt>
<trkpt lat="39.741455968469381" lon="3.316223965957761">
<ele>107</ele>
</trkpt>
<trkpt lat="39.741568034514785" lon="3.316106032580137">
<ele>107</ele>
</trkpt>
<trkpt lat="39.741585971787572" lon="3.316092034801841">
<ele>106</ele>
</trkpt>
<trkpt lat="39.741722010076046" lon="3.316040989011526">
<ele>106</ele>
</trkpt>
<trkpt lat="39.741753023117781" lon="3.316021040081978">
<ele>106</ele>
</trkpt>
<trkpt lat="39.741928959265351" lon="3.315998995676637">
<ele>106</ele>
</trkpt>
<trkpt lat="39.741959972307086" lon="3.31600402481854">
<ele>107</ele>
</trkpt>
<trkpt lat="39.741992997005582" lon="3.316001007333398">
<ele>106</ele>
</trkpt>
<trkpt lat="39.742025015875697" lon="3.316021962091327">
<ele>107</ele>
</trkpt>
<trkpt lat="39.742058040574193" lon="3.316044006496668">
<ele>107</ele>
</trkpt>
<trkpt lat="39.742218973115087" lon="3.316109972074628">
<ele>106</ele>
</trkpt>
<trkpt lat="39.742263983935118" lon="3.316118018701673">
<ele>105</ele>
</trkpt>
<trkpt lat="39.742393987253308" lon="3.316088011488318">
<ele>104</ele>
</trkpt>
<trkpt lat="39.742489038035274" lon="3.315978962928057">
<ele>103</ele>
</trkpt>
<trkpt lat="39.742572018876672" lon="3.315978962928057">
<ele>102</ele>
</trkpt>
<trkpt lat="39.742599008604884" lon="3.315969994291663">
<ele>100</ele>
</trkpt>
<trkpt lat="39.742759019136429" lon="3.315958008170128">
<ele>99</ele>
</trkpt>
<trkpt lat="39.742790032178164" lon="3.315946022048593">
<ele>98</ele>
</trkpt>
<trkpt lat="39.742950964719057" lon="3.316018022596836">
<ele>97</ele>
</trkpt>
<trkpt lat="39.743047021329403" lon="3.316025985404849">
<ele>97</ele>
</trkpt>
<trkpt lat="39.743068981915712" lon="3.31602799706161">
<ele>97</ele>
</trkpt>
<trkpt lat="39.743228992447257" lon="3.315996984019876">
<ele>97</ele>
</trkpt>
<trkpt lat="39.743356984108686" lon="3.315935041755438">
<ele>97</ele>
</trkpt>
<trkpt lat="39.743381962180138" lon="3.315937975421548">
<ele>97</ele>
</trkpt>
<trkpt lat="39.743538033217192" lon="3.315937975421548">
<ele>97</ele>
</trkpt>
<trkpt lat="39.743572985753417" lon="3.315957002341747">
<ele>98</ele>
</trkpt>
<trkpt lat="39.743744982406497" lon="3.315924983471632">
<ele>98</ele>
</trkpt>
<trkpt lat="39.743882026523352" lon="3.31591903232038">
<ele>98</ele>
</trkpt>
<trkpt lat="39.743956960737705" lon="3.315976029261947">
<ele>98</ele>
</trkpt>
<trkpt lat="39.743976993486285" lon="3.315987009555101">
<ele>98</ele>
</trkpt>
<trkpt lat="39.74411697126925" lon="3.315816018730402">
<ele>98</ele>
</trkpt>
<trkpt lat="39.744188971817493" lon="3.315745024010539">
<ele>96</ele>
</trkpt>
<trkpt lat="39.744298020377755" lon="3.315638992935419">
<ele>95</ele>
</trkpt>
<trkpt lat="39.744336996227503" lon="3.315627006813884">
<ele>93</ele>
</trkpt>
<trkpt lat="39.74439499899745" lon="3.315536985173821">
<ele>91</ele>
</trkpt>
<trkpt lat="39.744500024244189" lon="3.315471019595861">
<ele>89</ele>
</trkpt>
<trkpt lat="39.744536988437176" lon="3.31549096852541">
<ele>87</ele>
</trkpt>
<trkpt lat="39.744677972048521" lon="3.315485017374158">
<ele>86</ele>
</trkpt>
<trkpt lat="39.744701022282243" lon="3.315461967140436">
<ele>84</ele>
</trkpt>
<trkpt lat="39.744763970375061" lon="3.31544503569603">
<ele>82</ele>
</trkpt>
<trkpt lat="39.744892967864871" lon="3.315316960215569">
<ele>81</ele>
</trkpt>
<trkpt lat="39.745011990889907" lon="3.315222999081016">
<ele>80</ele>
</trkpt>
<trkpt lat="39.745035041123629" lon="3.315196009352803">
<ele>79</ele>
</trkpt>
<trkpt lat="39.745133025571704" lon="3.315086038783193">
<ele>78</ele>
</trkpt>
<trkpt lat="39.745201002806425" lon="3.315014960244298">
<ele>76</ele>
</trkpt>
<trkpt lat="39.745299993082881" lon="3.314922004938126">
<ele>75</ele>
</trkpt>
<trkpt lat="39.745333017781377" lon="3.314890991896391">
<ele>74</ele>
</trkpt>
<trkpt lat="39.745417004451156" lon="3.314819997176528">
<ele>73</ele>
</trkpt>
<trkpt lat="39.745438965037465" lon="3.31478102132678">
<ele>71</ele>
</trkpt>
<trkpt lat="39.745542984455824" lon="3.314654035493732">
<ele>70</ele>
</trkpt>
<trkpt lat="39.745579026639462" lon="3.314583040773869">
<ele>69</ele>
</trkpt>
<trkpt lat="39.745624959468842" lon="3.31443702802062">
<ele>69</ele>
</trkpt>
<trkpt lat="39.745658989995718" lon="3.314408026635647">
<ele>68</ele>
</trkpt>
<trkpt lat="39.745708024129272" lon="3.314314987510443">
<ele>67</ele>
</trkpt>
<trkpt lat="39.745799973607063" lon="3.314231000840664">
<ele>68</ele>
</trkpt>
<trkpt lat="39.745969036594033" lon="3.314210968092084">
<ele>67</ele>
</trkpt>
<trkpt lat="39.746051011607051" lon="3.314195964485407">
<ele>66</ele>
</trkpt>
<trkpt lat="39.74613499827683" lon="3.314211973920465">
<ele>65</ele>
</trkpt>
<trkpt lat="39.746188977733254" lon="3.314208034425974">
<ele>64</ele>
</trkpt>
<trkpt lat="39.746289979666471" lon="3.314253967255354">
<ele>63</ele>
</trkpt>
<trkpt lat="39.746311018243432" lon="3.314271988347173">
<ele>62</ele>
</trkpt>
<trkpt lat="39.746473962441087" lon="3.31428699195385">
<ele>61</ele>
</trkpt>
<trkpt lat="39.746505981311202" lon="3.314291015267372">
<ele>61</ele>
</trkpt>
<trkpt lat="39.746688958257437" lon="3.314291015267372">
<ele>60</ele>
</trkpt>
<trkpt lat="39.746824996545911" lon="3.314208034425974">
<ele>59</ele>
</trkpt>
<trkpt lat="39.746961034834385" lon="3.314077025279403">
<ele>58</ele>
</trkpt>
<trkpt lat="39.74705801345408" lon="3.313948027789593">
<ele>57</ele>
</trkpt>
<trkpt lat="39.747129008173943" lon="3.313913997262716">
<ele>56</ele>
</trkpt>
<trkpt lat="39.747251970693469" lon="3.313777958974242">
<ele>55</ele>
</trkpt>
<trkpt lat="39.747270997613668" lon="3.313734959810972">
<ele>54</ele>
</trkpt>
<trkpt lat="39.74737904034555" lon="3.313597999513149">
<ele>53</ele>
</trkpt>
<trkpt lat="39.747494040057063" lon="3.313452992588282">
<ele>52</ele>
</trkpt>
<trkpt lat="39.747580960392952" lon="3.313335981220007">
<ele>51</ele>
</trkpt>
<trkpt lat="39.747676011174917" lon="3.313200026750565">
<ele>51</ele>
</trkpt>
<trkpt lat="39.747796040028334" lon="3.313058959320188">
<ele>50</ele>
</trkpt>
<trkpt lat="39.747943980619311" lon="3.312923004850745">
<ele>49</ele>
</trkpt>
<trkpt lat="39.74811295978725" lon="3.312796019017696">
<ele>48</ele>
</trkpt>
<trkpt lat="39.748256038874388" lon="3.312686970457435">
<ele>47</ele>
</trkpt>
<trkpt lat="39.74837196059525" lon="3.312584962695837">
<ele>47</ele>
</trkpt>
<trkpt lat="39.748432980850339" lon="3.312368961051107">
<ele>46</ele>
</trkpt>
<trkpt lat="39.748467011377215" lon="3.31226896494627">
<ele>45</ele>
</trkpt>
<trkpt lat="39.748509004712105" lon="3.312127981334925">
<ele>45</ele>
</trkpt>
<trkpt lat="39.748591985553503" lon="3.311963025480509">
<ele>44</ele>
</trkpt>
<trkpt lat="39.7487130202353" lon="3.311815001070499">
<ele>43</ele>
</trkpt>
<trkpt lat="39.748849980533123" lon="3.311653984710574">
<ele>44</ele>
</trkpt>
<trkpt lat="39.748870013281703" lon="3.311617020517588">
<ele>43</ele>
</trkpt>
<trkpt lat="39.748999010771513" lon="3.311517024412751">
<ele>42</ele>
</trkpt>
<trkpt lat="39.749071011319757" lon="3.311499003320932">
<ele>41</ele>
</trkpt>
<trkpt lat="39.749076040461659" lon="3.311503026634455">
<ele>41</ele>
</trkpt>
<trkpt lat="39.74907997995615" lon="3.311511995270848">
<ele>40</ele>
</trkpt>
</trkseg>
</trk>
</gpx>
