<?xml version="1.0" encoding="UTF-8"?>
<gpx version="1.1"
creator="Smartprofil-Office - http://www.rother.de"
xmlns:xsi="http://www.w3.org/2001/XMLSchema-instance"
xmlns="http://www.topografix.com/GPX/1/1"
xsi:schemaLocation="http://www.topografix.com/GPX/1/1 http://www.topografix.com/GPX/1/1/gpx.xsd">
<metadata>

<bounds minlat="39.633946996182203" minlon="2.462048018351197" maxlat="39.647220997139812" maxlon="2.490185983479023"/>
</metadata>
<wpt lat="39.645988019183278" lon="2.462048018351197">
<ele>290</ele>
<name>12_Ma-10 (1)</name>
<cmt></cmt>
<desc></desc>
<sym>Crossing</sym>
</wpt>

<wpt lat="39.643555004149675" lon="2.467892970889807">
<ele>393</ele>
<name>12_Boal des ses Serveres (2)</name>
<cmt></cmt>
<desc></desc>
<sym>Crossing</sym>
</wpt>

<wpt lat="39.64156698435545" lon="2.468689000234008">
<ele>503</ele>
<name>12_Pas des Cossis (3)</name>
<cmt></cmt>
<desc></desc>
<sym>Crossing</sym>
</wpt>

<wpt lat="39.639165988191962" lon="2.485046032816172">
<ele>710</ele>
<name>12_Pas de na Sabatera (4)</name>
<cmt></cmt>
<desc></desc>
<sym>Crossing</sym>
</wpt>

<wpt lat="39.63714100420475" lon="2.485609967261553">
<ele>836</ele>
<name>12_Cruce (5)</name>
<cmt></cmt>
<desc></desc>
<sym>Crossing</sym>
</wpt>

<wpt lat="39.633952025324106" lon="2.486688969656825">
<ele>1027</ele>
<name>12_Puig de Galatzó (6)</name>
<cmt></cmt>
<desc></desc>
<sym>Crossing</sym>
</wpt>

<wpt lat="39.644397972151637" lon="2.486269036307931">
<ele>464</ele>
<name>12_(7)</name>
<cmt>Mirador </cmt>
<desc></desc>
<sym>Crossing</sym>
</wpt>

<wpt lat="39.645820967853069" lon="2.469233991578221">
<ele>442</ele>
<name>12_Mirador del Pla de ses Serveres (8)</name>
<cmt></cmt>
<desc></desc>
<sym>Crossing</sym>
</wpt>

<trk>
<name>Mal_12_Galatzo_2</name>
<trkseg>
<trkpt lat="39.645988019183278" lon="2.462048018351197">
<ele>290</ele>
</trkpt>
<trkpt lat="39.645988019183278" lon="2.462048018351197">
<ele>291</ele>
</trkpt>
<trkpt lat="39.645988019183278" lon="2.462048018351197">
<ele>292</ele>
</trkpt>
<trkpt lat="39.645988019183278" lon="2.462048018351197">
<ele>291</ele>
</trkpt>
<trkpt lat="39.645987013354897" lon="2.462049024179578">
<ele>292</ele>
</trkpt>
<trkpt lat="39.645987013354897" lon="2.462049024179578">
<ele>293</ele>
</trkpt>
<trkpt lat="39.645987013354897" lon="2.462049024179578">
<ele>294</ele>
</trkpt>
<trkpt lat="39.645987013354897" lon="2.462049024179578">
<ele>295</ele>
</trkpt>
<trkpt lat="39.646008973941207" lon="2.462201993912458">
<ele>295</ele>
</trkpt>
<trkpt lat="39.646067982539535" lon="2.462331997230649">
<ele>295</ele>
</trkpt>
<trkpt lat="39.646127996966243" lon="2.462458983063698">
<ele>296</ele>
</trkpt>
<trkpt lat="39.646256994456053" lon="2.462578006088734">
<ele>297</ele>
</trkpt>
<trkpt lat="39.646279960870743" lon="2.46259099803865">
<ele>299</ele>
</trkpt>
<trkpt lat="39.646288007497787" lon="2.46286902576685">
<ele>300</ele>
</trkpt>
<trkpt lat="39.646275015547872" lon="2.462919987738133">
<ele>302</ele>
</trkpt>
<trkpt lat="39.646250959485769" lon="2.462982013821602">
<ele>302</ele>
</trkpt>
<trkpt lat="39.646191028878093" lon="2.463165996596217">
<ele>303</ele>
</trkpt>
<trkpt lat="39.646177031099796" lon="2.463187035173178">
<ele>305</ele>
</trkpt>
<trkpt lat="39.646152975037694" lon="2.463323995471001">
<ele>306</ele>
</trkpt>
<trkpt lat="39.646160015836358" lon="2.463523987680674">
<ele>308</ele>
</trkpt>
<trkpt lat="39.646170996129513" lon="2.463567992672324">
<ele>309</ele>
</trkpt>
<trkpt lat="39.646220030263066" lon="2.463734960183501">
<ele>310</ele>
</trkpt>
<trkpt lat="39.646231010556221" lon="2.463754992932081">
<ele>311</ele>
</trkpt>
<trkpt lat="39.646133026108146" lon="2.463825987651944">
<ele>313</ele>
</trkpt>
<trkpt lat="39.646124979481101" lon="2.463823975995183">
<ele>315</ele>
</trkpt>
<trkpt lat="39.646025989204645" lon="2.463761027902365">
<ele>316</ele>
</trkpt>
<trkpt lat="39.646007968112826" lon="2.463749041780829">
<ele>317</ele>
</trkpt>
<trkpt lat="39.645937979221344" lon="2.463584002107382">
<ele>319</ele>
</trkpt>
<trkpt lat="39.645893974229693" lon="2.463442012667656">
<ele>321</ele>
</trkpt>
<trkpt lat="39.645857010036707" lon="2.463292982429266">
<ele>322</ele>
</trkpt>
<trkpt lat="39.64584200643003" lon="2.463262975215912">
<ele>324</ele>
</trkpt>
<trkpt lat="39.645733963698149" lon="2.463029036298394">
<ele>325</ele>
</trkpt>
<trkpt lat="39.645727006718516" lon="2.463001040741801">
<ele>326</ele>
</trkpt>
<trkpt lat="39.645636985078454" lon="2.462928034365177">
<ele>328</ele>
</trkpt>
<trkpt lat="39.645531959831715" lon="2.462841030210257">
<ele>329</ele>
</trkpt>
<trkpt lat="39.645457025617361" lon="2.462865002453327">
<ele>330</ele>
</trkpt>
<trkpt lat="39.645410003140569" lon="2.46299902908504">
<ele>332</ele>
</trkpt>
<trkpt lat="39.645419977605343" lon="2.463068012148142">
<ele>334</ele>
</trkpt>
<trkpt lat="39.645427018404007" lon="2.463122997432947">
<ele>334</ele>
</trkpt>
<trkpt lat="39.645469011738896" lon="2.463302034884691">
<ele>335</ele>
</trkpt>
<trkpt lat="39.645486027002335" lon="2.463410999625921">
<ele>337</ele>
</trkpt>
<trkpt lat="39.64547798037529" lon="2.463584002107382">
<ele>339</ele>
</trkpt>
<trkpt lat="39.645469011738896" lon="2.463619960471988">
<ele>340</ele>
</trkpt>
<trkpt lat="39.645437998697162" lon="2.463738983497024">
<ele>342</ele>
</trkpt>
<trkpt lat="39.645402962341905" lon="2.463918020948768">
<ele>343</ele>
</trkpt>
<trkpt lat="39.645367003977299" lon="2.463959008455277">
<ele>344</ele>
</trkpt>
<trkpt lat="39.645298020914197" lon="2.463854989036918">
<ele>346</ele>
</trkpt>
<trkpt lat="39.645276982337236" lon="2.463810984045267">
<ele>348</ele>
</trkpt>
<trkpt lat="39.645249992609024" lon="2.46362398378551">
<ele>350</ele>
</trkpt>
<trkpt lat="39.645249992609024" lon="2.463605040684342">
<ele>350</ele>
</trkpt>
<trkpt lat="39.645135998725891" lon="2.463798997923732">
<ele>352</ele>
</trkpt>
<trkpt lat="39.645125018432736" lon="2.463854989036918">
<ele>354</ele>
</trkpt>
<trkpt lat="39.645135998725891" lon="2.463989015668631">
<ele>355</ele>
</trkpt>
<trkpt lat="39.645119989290833" lon="2.464078031480312">
<ele>357</ele>
</trkpt>
<trkpt lat="39.645109008997679" lon="2.464191019535065">
<ele>358</ele>
</trkpt>
<trkpt lat="39.64509098790586" lon="2.464356981217861">
<ele>359</ele>
</trkpt>
<trkpt lat="39.645069027319551" lon="2.464510034769774">
<ele>361</ele>
</trkpt>
<trkpt lat="39.645072966814041" lon="2.464579017832875">
<ele>362</ele>
</trkpt>
<trkpt lat="39.645077995955944" lon="2.464622016996145">
<ele>364</ele>
</trkpt>
<trkpt lat="39.645074978470802" lon="2.464753026142716">
<ele>365</ele>
</trkpt>
<trkpt lat="39.645063998177648" lon="2.464940026402473">
<ele>367</ele>
</trkpt>
<trkpt lat="39.645071960985661" lon="2.465025018900633">
<ele>367</ele>
</trkpt>
<trkpt lat="39.645076990127563" lon="2.465150998905301">
<ele>367</ele>
</trkpt>
<trkpt lat="39.645053017884493" lon="2.465240014716983">
<ele>368</ele>
</trkpt>
<trkpt lat="39.645020999014378" lon="2.465288965031505">
<ele>368</ele>
</trkpt>
<trkpt lat="39.644986968487501" lon="2.465405976399779">
<ele>369</ele>
</trkpt>
<trkpt lat="39.645039020106196" lon="2.465534973889589">
<ele>370</ele>
</trkpt>
<trkpt lat="39.645053017884493" lon="2.465591970831156">
<ele>369</ele>
</trkpt>
<trkpt lat="39.645104985684156" lon="2.465763967484236">
<ele>370</ele>
</trkpt>
<trkpt lat="39.645080007612705" lon="2.465893970802426">
<ele>370</ele>
</trkpt>
<trkpt lat="39.645063998177648" lon="2.46592397801578">
<ele>371</ele>
</trkpt>
<trkpt lat="39.644962996244431" lon="2.466020034626126">
<ele>371</ele>
</trkpt>
<trkpt lat="39.644843973219395" lon="2.4660490360111">
<ele>371</ele>
</trkpt>
<trkpt lat="39.644738025963306" lon="2.46611500158906">
<ele>371</ele>
</trkpt>
<trkpt lat="39.644696032628417" lon="2.466121036559343">
<ele>371</ele>
</trkpt>
<trkpt lat="39.644544990733266" lon="2.466188007965684">
<ele>371</ele>
</trkpt>
<trkpt lat="39.644372994080186" lon="2.466210974380374">
<ele>372</ele>
</trkpt>
<trkpt lat="39.644243996590376" lon="2.466348018497229">
<ele>372</ele>
</trkpt>
<trkpt lat="39.644239973276854" lon="2.466356987133622">
<ele>371</ele>
</trkpt>
<trkpt lat="39.644148023799062" lon="2.466539964079857">
<ele>372</ele>
</trkpt>
<trkpt lat="39.644051967188716" lon="2.466784967109561">
<ele>372</ele>
</trkpt>
<trkpt lat="39.644007962197065" lon="2.466951012611389">
<ele>374</ele>
</trkpt>
<trkpt lat="39.643996981903911" lon="2.467096019536257">
<ele>376</ele>
</trkpt>
<trkpt lat="39.643984995782375" lon="2.46714698150754">
<ele>377</ele>
</trkpt>
<trkpt lat="39.643884999677539" lon="2.467291988432407">
<ele>378</ele>
</trkpt>
<trkpt lat="39.643756002187729" lon="2.467433977872133">
<ele>380</ele>
</trkpt>
<trkpt lat="39.64369498193264" lon="2.467463985085487">
<ele>382</ele>
</trkpt>
<trkpt lat="39.643551986664534" lon="2.467485023662448">
<ele>383</ele>
</trkpt>
<trkpt lat="39.643360041081905" lon="2.467558030039072">
<ele>385</ele>
</trkpt>
<trkpt lat="39.643370015546679" lon="2.46766297146678">
<ele>387</ele>
</trkpt>
<trkpt lat="39.643390970304608" lon="2.467680992558599">
<ele>388</ele>
</trkpt>
<trkpt lat="39.643433969467878" lon="2.467710999771953">
<ele>389</ele>
</trkpt>
<trkpt lat="39.643534971401095" lon="2.467814013361931">
<ele>391</ele>
</trkpt>
<trkpt lat="39.643555004149675" lon="2.467892970889807">
<ele>393</ele>
</trkpt>
<trkpt lat="39.643546035513282" lon="2.467943010851741">
<ele>396</ele>
</trkpt>
<trkpt lat="39.643499013036489" lon="2.467916021123529">
<ele>399</ele>
</trkpt>
<trkpt lat="39.643502030521631" lon="2.46792197227478">
<ele>402</ele>
</trkpt>
<trkpt lat="39.643502030521631" lon="2.46792197227478">
<ele>405</ele>
</trkpt>
<trkpt lat="39.643517034128308" lon="2.467922978103161">
<ele>408</ele>
</trkpt>
<trkpt lat="39.643487026914954" lon="2.467967988923192">
<ele>412</ele>
</trkpt>
<trkpt lat="39.643413014709949" lon="2.468092041090131">
<ele>415</ele>
</trkpt>
<trkpt lat="39.64328502304852" lon="2.46792197227478">
<ele>418</ele>
</trkpt>
<trkpt lat="39.643224002793431" lon="2.467907974496484">
<ele>421</ele>
</trkpt>
<trkpt lat="39.64313498698175" lon="2.467966983094811">
<ele>424</ele>
</trkpt>
<trkpt lat="39.643064998090267" lon="2.468054993078113">
<ele>425</ele>
</trkpt>
<trkpt lat="39.643075978383422" lon="2.468181978911161">
<ele>427</ele>
</trkpt>
<trkpt lat="39.643085030838847" lon="2.468342995271087">
<ele>428</ele>
</trkpt>
<trkpt lat="39.643041025847197" lon="2.468420024961233">
<ele>429</ele>
</trkpt>
<trkpt lat="39.642966007813811" lon="2.468510968610644">
<ele>430</ele>
</trkpt>
<trkpt lat="39.642997020855546" lon="2.468582969158888">
<ele>432</ele>
</trkpt>
<trkpt lat="39.64289995841682" lon="2.46862999163568">
<ele>433</ele>
</trkpt>
<trkpt lat="39.642873974516988" lon="2.468661004677415">
<ele>434</ele>
</trkpt>
<trkpt lat="39.642886966466904" lon="2.468795031309128">
<ele>436</ele>
</trkpt>
<trkpt lat="39.6427680272609" lon="2.468881029635668">
<ele>437</ele>
</trkpt>
<trkpt lat="39.642669958993793" lon="2.468917993828654">
<ele>438</ele>
</trkpt>
<trkpt lat="39.642679011449218" lon="2.468931991606951">
<ele>438</ele>
</trkpt>
<trkpt lat="39.642572980374098" lon="2.468867031857371">
<ele>439</ele>
</trkpt>
<trkpt lat="39.642588989809155" lon="2.468860996887088">
<ele>440</ele>
</trkpt>
<trkpt lat="39.642565017566085" lon="2.468823026865721">
<ele>440</ele>
</trkpt>
<trkpt lat="39.642592007294297" lon="2.468682965263724">
<ele>441</ele>
</trkpt>
<trkpt lat="39.642585972324014" lon="2.468637032434344">
<ele>442</ele>
</trkpt>
<trkpt lat="39.64259997010231" lon="2.468597972765565">
<ele>443</ele>
</trkpt>
<trkpt lat="39.642608016729355" lon="2.468536030501127">
<ele>443</ele>
</trkpt>
<trkpt lat="39.642519000917673" lon="2.468355987221003">
<ele>444</ele>
</trkpt>
<trkpt lat="39.642517995089293" lon="2.468378031626344">
<ele>447</ele>
</trkpt>
<trkpt lat="39.642451023682952" lon="2.468312988057733">
<ele>450</ele>
</trkpt>
<trkpt lat="39.642440965399146" lon="2.468382976949215">
<ele>453</ele>
</trkpt>
<trkpt lat="39.642379023134708" lon="2.468376019969583">
<ele>456</ele>
</trkpt>
<trkpt lat="39.642371982336044" lon="2.468379037454724">
<ele>460</ele>
</trkpt>
<trkpt lat="39.642305010929704" lon="2.468207040801644">
<ele>463</ele>
</trkpt>
<trkpt lat="39.642225969582796" lon="2.468290021643043">
<ele>466</ele>
</trkpt>
<trkpt lat="39.64221297763288" lon="2.46839102357626">
<ele>469</ele>
</trkpt>
<trkpt lat="39.642206020653248" lon="2.468462018296123">
<ele>472</ele>
</trkpt>
<trkpt lat="39.642215995118022" lon="2.468612976372242">
<ele>475</ele>
</trkpt>
<trkpt lat="39.642172995954752" lon="2.468623034656048">
<ele>477</ele>
</trkpt>
<trkpt lat="39.642120022326708" lon="2.468639966100454">
<ele>478</ele>
</trkpt>
<trkpt lat="39.642043998464942" lon="2.468662010505796">
<ele>480</ele>
</trkpt>
<trkpt lat="39.641923969611526" lon="2.468722024932504">
<ele>482</ele>
</trkpt>
<trkpt lat="39.641935033723712" lon="2.468622028827667">
<ele>484</ele>
</trkpt>
<trkpt lat="39.641895974054933" lon="2.468594033271074">
<ele>485</ele>
</trkpt>
<trkpt lat="39.641902009025216" lon="2.468555979430676">
<ele>487</ele>
</trkpt>
<trkpt lat="39.641898991540074" lon="2.468488002195954">
<ele>489</ele>
</trkpt>
<trkpt lat="39.641860015690327" lon="2.46849998831749">
<ele>490</ele>
</trkpt>
<trkpt lat="39.64182497933507" lon="2.468552039936185">
<ele>492</ele>
</trkpt>
<trkpt lat="39.641823973506689" lon="2.468421030789614">
<ele>493</ele>
</trkpt>
<trkpt lat="39.641775023192167" lon="2.468367973342538">
<ele>495</ele>
</trkpt>
<trkpt lat="39.641763037070632" lon="2.468310976400971">
<ele>496</ele>
</trkpt>
<trkpt lat="39.641705034300685" lon="2.468377025797963">
<ele>498</ele>
</trkpt>
<trkpt lat="39.641669997945428" lon="2.46848096139729">
<ele>499</ele>
</trkpt>
<trkpt lat="39.641667986288667" lon="2.468539969995618">
<ele>500</ele>
</trkpt>
<trkpt lat="39.641600009053946" lon="2.468708027154207">
<ele>502</ele>
</trkpt>
<trkpt lat="39.64156698435545" lon="2.468689000234008">
<ele>503</ele>
</trkpt>
<trkpt lat="39.641582993790507" lon="2.468713978305459">
<ele>504</ele>
</trkpt>
<trkpt lat="39.641582993790507" lon="2.468726970255375">
<ele>505</ele>
</trkpt>
<trkpt lat="39.641574025154114" lon="2.468722024932504">
<ele>506</ele>
</trkpt>
<trkpt lat="39.641574025154114" lon="2.468722024932504">
<ele>507</ele>
</trkpt>
<trkpt lat="39.641574025154114" lon="2.468722024932504">
<ele>508</ele>
</trkpt>
<trkpt lat="39.641536977142096" lon="2.468856973573566">
<ele>508</ele>
</trkpt>
<trkpt lat="39.641475034877658" lon="2.468959987163544">
<ele>509</ele>
</trkpt>
<trkpt lat="39.641401022672653" lon="2.46903601102531">
<ele>510</ele>
</trkpt>
<trkpt lat="39.641348971053958" lon="2.469110023230314">
<ele>511</ele>
</trkpt>
<trkpt lat="39.641270013526082" lon="2.469202978536487">
<ele>512</ele>
</trkpt>
<trkpt lat="39.641236988827586" lon="2.469281014055014">
<ele>514</ele>
</trkpt>
<trkpt lat="39.64115995913744" lon="2.469415040686727">
<ele>516</ele>
</trkpt>
<trkpt lat="39.641087958589196" lon="2.46953297406435">
<ele>518</ele>
</trkpt>
<trkpt lat="39.640990979969501" lon="2.469603968784213">
<ele>520</ele>
</trkpt>
<trkpt lat="39.640925014391541" lon="2.46965803205967">
<ele>522</ele>
</trkpt>
<trkpt lat="39.640929959714413" lon="2.469866992905736">
<ele>523</ele>
</trkpt>
<trkpt lat="39.640894001349807" lon="2.469988027587533">
<ele>525</ele>
</trkpt>
<trkpt lat="39.640860976651311" lon="2.470060028135777">
<ele>527</ele>
</trkpt>
<trkpt lat="39.64081596583128" lon="2.470159018412232">
<ele>529</ele>
</trkpt>
<trkpt lat="39.640802973881364" lon="2.470249962061644">
<ele>531</ele>
</trkpt>
<trkpt lat="39.640783024951816" lon="2.47039002366364">
<ele>533</ele>
</trkpt>
<trkpt lat="39.640762992203236" lon="2.470458000898361">
<ele>535</ele>
</trkpt>
<trkpt lat="39.640723010525107" lon="2.470637038350105">
<ele>537</ele>
</trkpt>
<trkpt lat="39.640673976391554" lon="2.470764024183154">
<ele>539</ele>
</trkpt>
<trkpt lat="39.640633994713426" lon="2.470844993367791">
<ele>541</ele>
</trkpt>
<trkpt lat="39.64060097001493" lon="2.470953036099672">
<ele>543</ele>
</trkpt>
<trkpt lat="39.640573980286717" lon="2.471063006669283">
<ele>545</ele>
</trkpt>
<trkpt lat="39.640526035800576" lon="2.471152022480965">
<ele>547</ele>
</trkpt>
<trkpt lat="39.640522012487054" lon="2.471326030790806">
<ele>549</ele>
</trkpt>
<trkpt lat="39.640583032742143" lon="2.471482018008828">
<ele>551</ele>
</trkpt>
<trkpt lat="39.640611028298736" lon="2.471585031598806">
<ele>553</ele>
</trkpt>
<trkpt lat="39.640667019411922" lon="2.471707994118333">
<ele>554</ele>
</trkpt>
<trkpt lat="39.640746982768178" lon="2.471843026578426">
<ele>556</ele>
</trkpt>
<trkpt lat="39.640802973881364" lon="2.471965989097953">
<ele>557</ele>
</trkpt>
<trkpt lat="39.640863994136453" lon="2.472072020173073">
<ele>559</ele>
</trkpt>
<trkpt lat="39.640867011621594" lon="2.472078977152705">
<ele>561</ele>
</trkpt>
<trkpt lat="39.640927026048303" lon="2.472251979634166">
<ele>562</ele>
</trkpt>
<trkpt lat="39.64098796248436" lon="2.472374020144343">
<ele>564</ele>
</trkpt>
<trkpt lat="39.64113799855113" lon="2.472318029031158">
<ele>565</ele>
</trkpt>
<trkpt lat="39.641171023249626" lon="2.472300007939339">
<ele>567</ele>
</trkpt>
<trkpt lat="39.641304966062307" lon="2.472280981019139">
<ele>568</ele>
</trkpt>
<trkpt lat="39.641410997137427" lon="2.472214009612799">
<ele>569</ele>
</trkpt>
<trkpt lat="39.64148098602891" lon="2.472108984366059">
<ele>570</ele>
</trkpt>
<trkpt lat="39.641529014334083" lon="2.472033966332674">
<ele>571</ele>
</trkpt>
<trkpt lat="39.641605960205197" lon="2.471962971612811">
<ele>572</ele>
</trkpt>
<trkpt lat="39.641669997945428" lon="2.471930030733347">
<ele>574</ele>
</trkpt>
<trkpt lat="39.641762031242251" lon="2.472018962725997">
<ele>575</ele>
</trkpt>
<trkpt lat="39.641878958791494" lon="2.472113007679582">
<ele>576</ele>
</trkpt>
<trkpt lat="39.641942996531725" lon="2.472202023491263">
<ele>577</ele>
</trkpt>
<trkpt lat="39.641998987644911" lon="2.472264971584082">
<ele>578</ele>
</trkpt>
<trkpt lat="39.642092026770115" lon="2.472291961312294">
<ele>580</ele>
</trkpt>
<trkpt lat="39.642129996791482" lon="2.472307970747352">
<ele>583</ele>
</trkpt>
<trkpt lat="39.642214989289641" lon="2.472261032089591">
<ele>585</ele>
</trkpt>
<trkpt lat="39.642282966524363" lon="2.472211997956038">
<ele>587</ele>
</trkpt>
<trkpt lat="39.642351027578115" lon="2.472246028482914">
<ele>590</ele>
</trkpt>
<trkpt lat="39.642364019528031" lon="2.472320962697268">
<ele>592</ele>
</trkpt>
<trkpt lat="39.642399977892637" lon="2.472361028194428">
<ele>594</ele>
</trkpt>
<trkpt lat="39.642526963725686" lon="2.472351975739002">
<ele>596</ele>
</trkpt>
<trkpt lat="39.642583960667253" lon="2.472415007650852">
<ele>599</ele>
</trkpt>
<trkpt lat="39.642612962052226" lon="2.472481979057193">
<ele>601</ele>
</trkpt>
<trkpt lat="39.642652021721005" lon="2.472607037052512">
<ele>602</ele>
</trkpt>
<trkpt lat="39.642669958993793" lon="2.472728993743658">
<ele>603</ele>
</trkpt>
<trkpt lat="39.642664007842541" lon="2.472748020663858">
<ele>604</ele>
</trkpt>
<trkpt lat="39.642645986750722" lon="2.472822032868862">
<ele>605</ele>
</trkpt>
<trkpt lat="39.642486982047558" lon="2.472912976518273">
<ele>606</ele>
</trkpt>
<trkpt lat="39.642412969842553" lon="2.47297097928822">
<ele>608</ele>
</trkpt>
<trkpt lat="39.642348010092974" lon="2.473024958744645">
<ele>609</ele>
</trkpt>
<trkpt lat="39.64231800287962" lon="2.473080027848482">
<ele>610</ele>
</trkpt>
<trkpt lat="39.642285984009504" lon="2.473186980932951">
<ele>611</ele>
</trkpt>
<trkpt lat="39.642199985682964" lon="2.473386973142624">
<ele>612</ele>
</trkpt>
<trkpt lat="39.642192022874951" lon="2.473395019769669">
<ele>612</ele>
</trkpt>
<trkpt lat="39.642152963206172" lon="2.473511025309563">
<ele>612</ele>
</trkpt>
<trkpt lat="39.642138965427876" lon="2.473583025857806">
<ele>612</ele>
</trkpt>
<trkpt lat="39.642085991799831" lon="2.47367899864912">
<ele>612</ele>
</trkpt>
<trkpt lat="39.642068976536393" lon="2.473819982260466">
<ele>612</ele>
</trkpt>
<trkpt lat="39.642075011506677" lon="2.473872033879161">
<ele>612</ele>
</trkpt>
<trkpt lat="39.642069982364774" lon="2.473943028599024">
<ele>612</ele>
</trkpt>
<trkpt lat="39.642090015113354" lon="2.474060039967299">
<ele>612</ele>
</trkpt>
<trkpt lat="39.642097977921367" lon="2.474088035523891">
<ele>612</ele>
</trkpt>
<trkpt lat="39.642100995406508" lon="2.474208986386657">
<ele>612</ele>
</trkpt>
<trkpt lat="39.642094038426876" lon="2.474291967228055">
<ele>612</ele>
</trkpt>
<trkpt lat="39.64201700873673" lon="2.474391041323543">
<ele>612</ele>
</trkpt>
<trkpt lat="39.641970992088318" lon="2.474423982203007">
<ele>612</ele>
</trkpt>
<trkpt lat="39.641915000975132" lon="2.474600002169609">
<ele>612</ele>
</trkpt>
<trkpt lat="39.641887005418539" lon="2.474635960534215">
<ele>612</ele>
</trkpt>
<trkpt lat="39.641791032627225" lon="2.474746014922857">
<ele>613</ele>
</trkpt>
<trkpt lat="39.641740992665291" lon="2.47492597438395">
<ele>613</ele>
</trkpt>
<trkpt lat="39.641744010150433" lon="2.475021025165916">
<ele>613</ele>
</trkpt>
<trkpt lat="39.641748033463955" lon="2.475089002400637">
<ele>613</ele>
</trkpt>
<trkpt lat="39.641675027087331" lon="2.475281031802297">
<ele>613</ele>
</trkpt>
<trkpt lat="39.641616018489003" lon="2.475400976836681">
<ele>613</ele>
</trkpt>
<trkpt lat="39.64160998351872" lon="2.475409023463726">
<ele>613</ele>
</trkpt>
<trkpt lat="39.641467994078994" lon="2.475550007075071">
<ele>613</ele>
</trkpt>
<trkpt lat="39.641396999359131" lon="2.475622007623315">
<ele>613</ele>
</trkpt>
<trkpt lat="39.64133002795279" lon="2.475671963766217">
<ele>614</ele>
</trkpt>
<trkpt lat="39.641163982450962" lon="2.475734995678067">
<ele>614</ele>
</trkpt>
<trkpt lat="39.641133975237608" lon="2.475755028426647">
<ele>614</ele>
</trkpt>
<trkpt lat="39.641016963869333" lon="2.475770032033324">
<ele>614</ele>
</trkpt>
<trkpt lat="39.640870029106736" lon="2.47576198540628">
<ele>614</ele>
</trkpt>
<trkpt lat="39.640829041600227" lon="2.475760979577899">
<ele>614</ele>
</trkpt>
<trkpt lat="39.640667019411922" lon="2.475741030648351">
<ele>614</ele>
</trkpt>
<trkpt lat="39.640503991395235" lon="2.47574295848608">
<ele>614</ele>
</trkpt>
<trkpt lat="39.640427967533469" lon="2.475751005113125">
<ele>614</ele>
</trkpt>
<trkpt lat="39.640350015833974" lon="2.475728960707784">
<ele>614</ele>
</trkpt>
<trkpt lat="39.640237027779222" lon="2.4756970256567">
<ele>614</ele>
</trkpt>
<trkpt lat="39.640239039435983" lon="2.475714040920138">
<ele>614</ele>
</trkpt>
<trkpt lat="39.640239039435983" lon="2.475714040920138">
<ele>614</ele>
</trkpt>
<trkpt lat="39.640086991712451" lon="2.475728960707784">
<ele>614</ele>
</trkpt>
<trkpt lat="39.640069976449013" lon="2.475738013163209">
<ele>614</ele>
</trkpt>
<trkpt lat="39.640010967850685" lon="2.47589198872447">
<ele>614</ele>
</trkpt>
<trkpt lat="39.63993301615119" lon="2.475939011201263">
<ele>614</ele>
</trkpt>
<trkpt lat="39.639889011159539" lon="2.475947979837656">
<ele>613</ele>
</trkpt>
<trkpt lat="39.63980401866138" lon="2.476011011749506">
<ele>613</ele>
</trkpt>
<trkpt lat="39.639707040041685" lon="2.47616901062429">
<ele>613</ele>
</trkpt>
<trkpt lat="39.639688013121486" lon="2.476291973143816">
<ele>612</ele>
</trkpt>
<trkpt lat="39.639688013121486" lon="2.476392975077033">
<ele>612</ele>
</trkpt>
<trkpt lat="39.63967502117157" lon="2.476425999775529">
<ele>612</ele>
</trkpt>
<trkpt lat="39.639639984816313" lon="2.476463969796896">
<ele>612</ele>
</trkpt>
<trkpt lat="39.639582987874746" lon="2.476562038064003">
<ele>611</ele>
</trkpt>
<trkpt lat="39.639575025066733" lon="2.47662297450006">
<ele>611</ele>
</trkpt>
<trkpt lat="39.639552980661392" lon="2.476758006960154">
<ele>611</ele>
</trkpt>
<trkpt lat="39.639555998146534" lon="2.476821960881352">
<ele>612</ele>
</trkpt>
<trkpt lat="39.639558009803295" lon="2.476976020261645">
<ele>612</ele>
</trkpt>
<trkpt lat="39.639616012573242" lon="2.47709495946765">
<ele>613</ele>
</trkpt>
<trkpt lat="39.639602014794946" lon="2.477225968614221">
<ele>613</ele>
</trkpt>
<trkpt lat="39.639637973159552" lon="2.477355971932411">
<ele>613</ele>
</trkpt>
<trkpt lat="39.639677032828331" lon="2.477520005777478">
<ele>614</ele>
</trkpt>
<trkpt lat="39.639721037819982" lon="2.477642968297005">
<ele>614</ele>
</trkpt>
<trkpt lat="39.639756996184587" lon="2.477795016020536">
<ele>615</ele>
</trkpt>
<trkpt lat="39.639821033924818" lon="2.47788998298347">
<ele>615</ele>
</trkpt>
<trkpt lat="39.639842994511127" lon="2.477914961054921">
<ele>616</ele>
</trkpt>
<trkpt lat="39.639874007552862" lon="2.47803901322186">
<ele>616</ele>
</trkpt>
<trkpt lat="39.639925975352526" lon="2.47819097712636">
<ele>616</ele>
</trkpt>
<trkpt lat="39.639948019757867" lon="2.478310000151396">
<ele>617</ele>
</trkpt>
<trkpt lat="39.639935027807951" lon="2.478384012356401">
<ele>618</ele>
</trkpt>
<trkpt lat="39.639949025586247" lon="2.478458024561405">
<ele>618</ele>
</trkpt>
<trkpt lat="39.639963023364544" lon="2.478589033707976">
<ele>618</ele>
</trkpt>
<trkpt lat="39.639961011707783" lon="2.478608982637525">
<ele>619</ele>
</trkpt>
<trkpt lat="39.639960005879402" lon="2.478642007336021">
<ele>620</ele>
</trkpt>
<trkpt lat="39.639918012544513" lon="2.478694980964065">
<ele>620</ele>
</trkpt>
<trkpt lat="39.639873001724482" lon="2.478891033679247">
<ele>622</ele>
</trkpt>
<trkpt lat="39.639865960925817" lon="2.478912994265556">
<ele>623</ele>
</trkpt>
<trkpt lat="39.639865038916469" lon="2.479054983705282">
<ele>624</ele>
</trkpt>
<trkpt lat="39.639867972582579" lon="2.479077028110623">
<ele>626</ele>
</trkpt>
<trkpt lat="39.63986998423934" lon="2.479140982031822">
<ele>628</ele>
</trkpt>
<trkpt lat="39.639875013381243" lon="2.479295041412115">
<ele>629</ele>
</trkpt>
<trkpt lat="39.639856992289424" lon="2.479423033073545">
<ele>630</ele>
</trkpt>
<trkpt lat="39.639862021431327" lon="2.479549013078213">
<ele>632</ele>
</trkpt>
<trkpt lat="39.639865960925817" lon="2.479567034170032">
<ele>634</ele>
</trkpt>
<trkpt lat="39.639889011159539" lon="2.479660995304585">
<ele>635</ele>
</trkpt>
<trkpt lat="39.639910971745849" lon="2.479842966422439">
<ele>636</ele>
</trkpt>
<trkpt lat="39.639881970360875" lon="2.479939023032785">
<ele>638</ele>
</trkpt>
<trkpt lat="39.639929998666048" lon="2.480028038844466">
<ele>640</ele>
</trkpt>
<trkpt lat="39.640037035569549" lon="2.480004988610745">
<ele>641</ele>
</trkpt>
<trkpt lat="39.640025971457362" lon="2.480015968903899">
<ele>642</ele>
</trkpt>
<trkpt lat="39.639969980344176" lon="2.480072965845466">
<ele>644</ele>
</trkpt>
<trkpt lat="39.639884987846017" lon="2.480176985263825">
<ele>646</ele>
</trkpt>
<trkpt lat="39.639908960089087" lon="2.480258038267493">
<ele>647</ele>
</trkpt>
<trkpt lat="39.63997601531446" lon="2.480246974155307">
<ele>648</ele>
</trkpt>
<trkpt lat="39.639919018372893" lon="2.480322998017073">
<ele>650</ele>
</trkpt>
<trkpt lat="39.639875013381243" lon="2.480405978858471">
<ele>653</ele>
</trkpt>
<trkpt lat="39.639854980632663" lon="2.480478985235095">
<ele>656</ele>
</trkpt>
<trkpt lat="39.639778034761548" lon="2.480575041845441">
<ele>659</ele>
</trkpt>
<trkpt lat="39.639751967042685" lon="2.480773022398353">
<ele>662</ele>
</trkpt>
<trkpt lat="39.639733023941517" lon="2.480891039595008">
<ele>665</ele>
</trkpt>
<trkpt lat="39.639758002012968" lon="2.480995981022716">
<ele>668</ele>
</trkpt>
<trkpt lat="39.639712991192937" lon="2.481050966307521">
<ele>671</ele>
</trkpt>
<trkpt lat="39.639701005071402" lon="2.481149034574628">
<ele>674</ele>
</trkpt>
<trkpt lat="39.639618024230003" lon="2.481337040662766">
<ele>677</ele>
</trkpt>
<trkpt lat="39.639563960954547" lon="2.481508031487465">
<ele>680</ele>
</trkpt>
<trkpt lat="39.639477962628007" lon="2.481534015387297">
<ele>682</ele>
</trkpt>
<trkpt lat="39.63946396484971" lon="2.481567962095141">
<ele>683</ele>
</trkpt>
<trkpt lat="39.639429012313485" lon="2.481709029525518">
<ele>685</ele>
</trkpt>
<trkpt lat="39.639464970678091" lon="2.481817994266748">
<ele>687</ele>
</trkpt>
<trkpt lat="39.639522973448038" lon="2.481898963451386">
<ele>688</ele>
</trkpt>
<trkpt lat="39.639580976217985" lon="2.482025027275085">
<ele>690</ele>
</trkpt>
<trkpt lat="39.639625987038016" lon="2.482059979811311">
<ele>692</ele>
</trkpt>
<trkpt lat="39.639662029221654" lon="2.482157964259386">
<ele>694</ele>
</trkpt>
<trkpt lat="39.639682983979583" lon="2.482286961749196">
<ele>695</ele>
</trkpt>
<trkpt lat="39.639699999243021" lon="2.482410008087754">
<ele>697</ele>
</trkpt>
<trkpt lat="39.63971902616322" lon="2.482459964230657">
<ele>698</ele>
</trkpt>
<trkpt lat="39.639729000627995" lon="2.482623998075724">
<ele>698</ele>
</trkpt>
<trkpt lat="39.639629004523158" lon="2.482576975598931">
<ele>699</ele>
</trkpt>
<trkpt lat="39.639574019238353" lon="2.482547974213958">
<ele>699</ele>
</trkpt>
<trkpt lat="39.639606038108468" lon="2.482662973925471">
<ele>700</ele>
</trkpt>
<trkpt lat="39.639638978987932" lon="2.482771016657352">
<ele>701</ele>
</trkpt>
<trkpt lat="39.639644008129835" lon="2.48287201859057">
<ele>701</ele>
</trkpt>
<trkpt lat="39.639677032828331" lon="2.482920968905091">
<ele>702</ele>
</trkpt>
<trkpt lat="39.639694970101118" lon="2.483116015791893">
<ele>702</ele>
</trkpt>
<trkpt lat="39.639764036983252" lon="2.483273008838296">
<ele>703</ele>
</trkpt>
<trkpt lat="39.639779040589929" lon="2.483523963019252">
<ele>705</ele>
</trkpt>
<trkpt lat="39.639745010063052" lon="2.483629994094372">
<ele>707</ele>
</trkpt>
<trkpt lat="39.639704022556543" lon="2.483699982985854">
<ele>709</ele>
</trkpt>
<trkpt lat="39.639658005908132" lon="2.483859993517399">
<ele>711</ele>
</trkpt>
<trkpt lat="39.63956899009645" lon="2.483995025977492">
<ele>713</ele>
</trkpt>
<trkpt lat="39.639497995376587" lon="2.484066020697355">
<ele>715</ele>
</trkpt>
<trkpt lat="39.639454996213317" lon="2.484126035124064">
<ele>716</ele>
</trkpt>
<trkpt lat="39.63942096568644" lon="2.484329966828227">
<ele>718</ele>
</trkpt>
<trkpt lat="39.639373021200299" lon="2.484490983188152">
<ele>720</ele>
</trkpt>
<trkpt lat="39.639316024258733" lon="2.484662979841232">
<ele>722</ele>
</trkpt>
<trkpt lat="39.639262966811657" lon="2.484820978716016">
<ele>724</ele>
</trkpt>
<trkpt lat="39.639229020103812" lon="2.484953999519348">
<ele>726</ele>
</trkpt>
<trkpt lat="39.639167999848723" lon="2.485035974532366">
<ele>728</ele>
</trkpt>
<trkpt lat="39.639165988191962" lon="2.485046032816172">
<ele>710</ele>
</trkpt>
<trkpt lat="39.639165988191962" lon="2.485045026987791">
<ele>733</ele>
</trkpt>
<trkpt lat="39.639165988191962" lon="2.485045026987791">
<ele>735</ele>
</trkpt>
<trkpt lat="39.63916196487844" lon="2.485050978139043">
<ele>737</ele>
</trkpt>
<trkpt lat="39.639106979593635" lon="2.4850860144943">
<ele>740</ele>
</trkpt>
<trkpt lat="39.639049982652068" lon="2.485157009214163">
<ele>742</ele>
</trkpt>
<trkpt lat="39.639017963781953" lon="2.485240995883942">
<ele>745</ele>
</trkpt>
<trkpt lat="39.63890396989882" lon="2.485203025862575">
<ele>747</ele>
</trkpt>
<trkpt lat="39.638846972957253" lon="2.485203025862575">
<ele>749</ele>
</trkpt>
<trkpt lat="39.638821994885802" lon="2.485289024189115">
<ele>752</ele>
</trkpt>
<trkpt lat="39.638761980459094" lon="2.485225992277265">
<ele>754</ele>
</trkpt>
<trkpt lat="39.638697020709515" lon="2.485362030565739">
<ele>756</ele>
</trkpt>
<trkpt lat="39.638674976304173" lon="2.485459009185433">
<ele>759</ele>
</trkpt>
<trkpt lat="39.638563999906182" lon="2.485524974763393">
<ele>761</ele>
</trkpt>
<trkpt lat="39.638471966609359" lon="2.485568979755044">
<ele>764</ele>
</trkpt>
<trkpt lat="39.638413963839412" lon="2.485478958114982">
<ele>766</ele>
</trkpt>
<trkpt lat="39.638369036838412" lon="2.485421961173415">
<ele>768</ele>
</trkpt>
<trkpt lat="39.638364007696509" lon="2.485395977273583">
<ele>771</ele>
</trkpt>
<trkpt lat="39.638306004926562" lon="2.485312996432185">
<ele>773</ele>
</trkpt>
<trkpt lat="39.638278009369969" lon="2.485114010050893">
<ele>776</ele>
</trkpt>
<trkpt lat="39.638288989663124" lon="2.484999010339379">
<ele>778</ele>
</trkpt>
<trkpt lat="39.638307010754943" lon="2.484975960105658">
<ele>780</ele>
</trkpt>
<trkpt lat="39.638393009081483" lon="2.4848079867661">
<ele>782</ele>
</trkpt>
<trkpt lat="39.638380017131567" lon="2.484726011753082">
<ele>784</ele>
</trkpt>
<trkpt lat="39.638361996039748" lon="2.484616041183472">
<ele>786</ele>
</trkpt>
<trkpt lat="39.638325031846762" lon="2.484487965703011">
<ele>787</ele>
</trkpt>
<trkpt lat="39.638312961906195" lon="2.484368020668626">
<ele>789</ele>
</trkpt>
<trkpt lat="39.638317991048098" lon="2.484255032613874">
<ele>791</ele>
</trkpt>
<trkpt lat="39.638311034068465" lon="2.484233994036913">
<ele>793</ele>
</trkpt>
<trkpt lat="39.638266023248434" lon="2.484083035960794">
<ele>795</ele>
</trkpt>
<trkpt lat="39.638245990499854" lon="2.484050011262298">
<ele>797</ele>
</trkpt>
<trkpt lat="39.638085979968309" lon="2.484032995998859">
<ele>799</ele>
</trkpt>
<trkpt lat="39.638030994683504" lon="2.48403400182724">
<ele>802</ele>
</trkpt>
<trkpt lat="39.637982966378331" lon="2.484058979898691">
<ele>804</ele>
</trkpt>
<trkpt lat="39.637852963060141" lon="2.484116982668638">
<ele>806</ele>
</trkpt>
<trkpt lat="39.637777023017406" lon="2.484083035960794">
<ele>809</ele>
</trkpt>
<trkpt lat="39.637752966955304" lon="2.48405696824193">
<ele>811</ele>
</trkpt>
<trkpt lat="39.637665962800384" lon="2.484040036797524">
<ele>813</ele>
</trkpt>
<trkpt lat="39.637593040242791" lon="2.483906010165811">
<ele>816</ele>
</trkpt>
<trkpt lat="39.6375079639256" lon="2.483855970203877">
<ele>818</ele>
</trkpt>
<trkpt lat="39.637461025267839" lon="2.483911961317062">
<ele>821</ele>
</trkpt>
<trkpt lat="39.637432023882866" lon="2.483940962702036">
<ele>823</ele>
</trkpt>
<trkpt lat="39.637365974485874" lon="2.48414296656847">
<ele>825</ele>
</trkpt>
<trkpt lat="39.637351976707578" lon="2.484193006530404">
<ele>827</ele>
</trkpt>
<trkpt lat="39.63733303360641" lon="2.48431496322155">
<ele>830</ele>
</trkpt>
<trkpt lat="39.637309983372688" lon="2.484563989564776">
<ele>832</ele>
</trkpt>
<trkpt lat="39.637311995029449" lon="2.484585028141737">
<ele>834</ele>
</trkpt>
<trkpt lat="39.63731300085783" lon="2.484642025083304">
<ele>836</ele>
</trkpt>
<trkpt lat="39.637316018342972" lon="2.484784014523029">
<ele>839</ele>
</trkpt>
<trkpt lat="39.637331021949649" lon="2.484993981197476">
<ele>841</ele>
</trkpt>
<trkpt lat="39.637294979766011" lon="2.485204031690955">
<ele>843</ele>
</trkpt>
<trkpt lat="39.637282993644476" lon="2.485339986160398">
<ele>842</ele>
</trkpt>
<trkpt lat="39.637282993644476" lon="2.485339986160398">
<ele>842</ele>
</trkpt>
<trkpt lat="39.637192972004414" lon="2.485505025833845">
<ele>841</ele>
</trkpt>
<trkpt lat="39.637142010033131" lon="2.485595969483256">
<ele>840</ele>
</trkpt>
<trkpt lat="39.637155001983047" lon="2.485585995018482">
<ele>839</ele>
</trkpt>
<trkpt lat="39.637142010033131" lon="2.485609967261553">
<ele>838</ele>
</trkpt>
<trkpt lat="39.637142010033131" lon="2.485609967261553">
<ele>837</ele>
</trkpt>
<trkpt lat="39.63714100420475" lon="2.485609967261553">
<ele>836</ele>
</trkpt>
<trkpt lat="39.637143015861511" lon="2.485610973089933">
<ele>838</ele>
</trkpt>
<trkpt lat="39.637143015861511" lon="2.485610973089933">
<ele>841</ele>
</trkpt>
<trkpt lat="39.637146033346653" lon="2.485600998625159">
<ele>843</ele>
</trkpt>
<trkpt lat="39.637046037241817" lon="2.48556001111865">
<ele>845</ele>
</trkpt>
<trkpt lat="39.6370779722929" lon="2.485490022227168">
<ele>847</ele>
</trkpt>
<trkpt lat="39.637083001434803" lon="2.485422967001796">
<ele>850</ele>
</trkpt>
<trkpt lat="39.637035978958011" lon="2.485346021130681">
<ele>852</ele>
</trkpt>
<trkpt lat="39.637018963694572" lon="2.485304027795792">
<ele>854</ele>
</trkpt>
<trkpt lat="39.636962972581387" lon="2.485326994210482">
<ele>856</ele>
</trkpt>
<trkpt lat="39.636942017823458" lon="2.485367981716991">
<ele>859</ele>
</trkpt>
<trkpt lat="39.636911004781723" lon="2.485224986448884">
<ele>861</ele>
</trkpt>
<trkpt lat="39.636932965368032" lon="2.485062964260578">
<ele>863</ele>
</trkpt>
<trkpt lat="39.636934977024794" lon="2.485030023381114">
<ele>866</ele>
</trkpt>
<trkpt lat="39.636872028931975" lon="2.484904965385795">
<ele>868</ele>
</trkpt>
<trkpt lat="39.636869011446834" lon="2.484901025891304">
<ele>871</ele>
</trkpt>
<trkpt lat="39.636768009513617" lon="2.484773034229875">
<ele>873</ele>
</trkpt>
<trkpt lat="39.636637000367045" lon="2.484684018418193">
<ele>876</ele>
</trkpt>
<trkpt lat="39.636508002877235" lon="2.484622998163104">
<ele>878</ele>
</trkpt>
<trkpt lat="39.636397026479244" lon="2.484487965703011">
<ele>881</ele>
</trkpt>
<trkpt lat="39.636242967098951" lon="2.484475979581475">
<ele>883</ele>
</trkpt>
<trkpt lat="39.636083962395787" lon="2.484429962933064">
<ele>886</ele>
</trkpt>
<trkpt lat="39.636017996817827" lon="2.484399033710361">
<ele>888</ele>
</trkpt>
<trkpt lat="39.63602202013135" lon="2.484475979581475">
<ele>891</ele>
</trkpt>
<trkpt lat="39.63598002679646" lon="2.484492994844914">
<ele>893</ele>
</trkpt>
<trkpt lat="39.635960999876261" lon="2.484617969021201">
<ele>896</ele>
</trkpt>
<trkpt lat="39.635966029018164" lon="2.484670020639896">
<ele>898</ele>
</trkpt>
<trkpt lat="39.635965023189783" lon="2.484712013974786">
<ele>901</ele>
</trkpt>
<trkpt lat="39.635947002097964" lon="2.484744032844901">
<ele>903</ele>
</trkpt>
<trkpt lat="39.635875001549721" lon="2.484877975657582">
<ele>906</ele>
</trkpt>
<trkpt lat="39.635883970186114" lon="2.484969003126025">
<ele>908</ele>
</trkpt>
<trkpt lat="39.635777017101645" lon="2.485017031431198">
<ele>911</ele>
</trkpt>
<trkpt lat="39.63576796464622" lon="2.485096994787455">
<ele>914</ele>
</trkpt>
<trkpt lat="39.63568196631968" lon="2.485173018649221">
<ele>917</ele>
</trkpt>
<trkpt lat="39.635671991854906" lon="2.485178969800472">
<ele>920</ele>
</trkpt>
<trkpt lat="39.635645002126694" lon="2.485252982005477">
<ele>923</ele>
</trkpt>
<trkpt lat="39.635535031557083" lon="2.485291035845876">
<ele>926</ele>
</trkpt>
<trkpt lat="39.635539976879954" lon="2.485363036394119">
<ele>928</ele>
</trkpt>
<trkpt lat="39.635502006858587" lon="2.485485998913646">
<ele>931</ele>
</trkpt>
<trkpt lat="39.635410979390144" lon="2.485547019168735">
<ele>934</ele>
</trkpt>
<trkpt lat="39.635283993557096" lon="2.48560200445354">
<ele>936</ele>
</trkpt>
<trkpt lat="39.635177962481976" lon="2.48562497086823">
<ele>939</ele>
</trkpt>
<trkpt lat="39.635130017995834" lon="2.485666964203119">
<ele>942</ele>
</trkpt>
<trkpt lat="39.635012000799179" lon="2.485726978629828">
<ele>944</ele>
</trkpt>
<trkpt lat="39.635015018284321" lon="2.485823035240173">
<ele>947</ele>
</trkpt>
<trkpt lat="39.63495098054409" lon="2.485852036625147">
<ele>949</ele>
</trkpt>
<trkpt lat="39.634931031614542" lon="2.48600902967155">
<ele>952</ele>
</trkpt>
<trkpt lat="39.634865988045931" lon="2.48605202883482">
<ele>954</ele>
</trkpt>
<trkpt lat="39.634860958904028" lon="2.486100979149342">
<ele>957</ele>
</trkpt>
<trkpt lat="39.634788036346436" lon="2.486191000789404">
<ele>960</ele>
</trkpt>
<trkpt lat="39.634747970849276" lon="2.486243974417448">
<ele>962</ele>
</trkpt>
<trkpt lat="39.63469197973609" lon="2.486342964693904">
<ele>965</ele>
</trkpt>
<trkpt lat="39.634601958096027" lon="2.486398033797741">
<ele>967</ele>
</trkpt>
<trkpt lat="39.634543033316731" lon="2.486415971070528">
<ele>970</ele>
</trkpt>
<trkpt lat="39.634504979476333" lon="2.486468022689223">
<ele>973</ele>
</trkpt>
<trkpt lat="39.63443499058485" lon="2.486558966338635">
<ele>975</ele>
</trkpt>
<trkpt lat="39.634336000308394" lon="2.486506998538971">
<ele>978</ele>
</trkpt>
<trkpt lat="39.634301969781518" lon="2.486500041559339">
<ele>981</ele>
</trkpt>
<trkpt lat="39.634226029738784" lon="2.486574975773692">
<ele>983</ele>
</trkpt>
<trkpt lat="39.634207002818584" lon="2.486656028777361">
<ele>986</ele>
</trkpt>
<trkpt lat="39.634142965078354" lon="2.486580004915595">
<ele>988</ele>
</trkpt>
<trkpt lat="39.634130978956819" lon="2.486558966338635">
<ele>991</ele>
</trkpt>
<trkpt lat="39.634116981178522" lon="2.486460981890559">
<ele>997</ele>
</trkpt>
<trkpt lat="39.634017990902066" lon="2.486506998538971">
<ele>1003</ele>
</trkpt>
<trkpt lat="39.633946996182203" lon="2.486589979380369">
<ele>1009</ele>
</trkpt>
<trkpt lat="39.633949007838964" lon="2.486672038212419">
<ele>1015</ele>
</trkpt>
<trkpt lat="39.633949007838964" lon="2.486672038212419">
<ele>1021</ele>
</trkpt>
<trkpt lat="39.633952025324106" lon="2.486688969656825">
<ele>1027</ele>
</trkpt>
<trkpt lat="39.633953031152487" lon="2.486688969656825">
<ele>1023</ele>
</trkpt>
<trkpt lat="39.633953031152487" lon="2.486688969656825">
<ele>1019</ele>
</trkpt>
<trkpt lat="39.633953031152487" lon="2.486688969656825">
<ele>1014</ele>
</trkpt>
<trkpt lat="39.633953031152487" lon="2.486688969656825">
<ele>1010</ele>
</trkpt>
<trkpt lat="39.633953031152487" lon="2.486687963828445">
<ele>1006</ele>
</trkpt>
<trkpt lat="39.633954958990216" lon="2.486687041819096">
<ele>1002</ele>
</trkpt>
<trkpt lat="39.633954958990216" lon="2.486687041819096">
<ele>998</ele>
</trkpt>
<trkpt lat="39.633954958990216" lon="2.486687041819096">
<ele>994</ele>
</trkpt>
<trkpt lat="39.633954958990216" lon="2.486687041819096">
<ele>989</ele>
</trkpt>
<trkpt lat="39.633954958990216" lon="2.486687041819096">
<ele>988</ele>
</trkpt>
<trkpt lat="39.633954958990216" lon="2.486687041819096">
<ele>986</ele>
</trkpt>
<trkpt lat="39.633953031152487" lon="2.486687963828445">
<ele>984</ele>
</trkpt>
<trkpt lat="39.633953031152487" lon="2.486687963828445">
<ele>982</ele>
</trkpt>
<trkpt lat="39.633953031152487" lon="2.486688969656825">
<ele>980</ele>
</trkpt>
<trkpt lat="39.633953031152487" lon="2.486688969656825">
<ele>978</ele>
</trkpt>
<trkpt lat="39.633949007838964" lon="2.486672038212419">
<ele>976</ele>
</trkpt>
<trkpt lat="39.633946996182203" lon="2.486589979380369">
<ele>974</ele>
</trkpt>
<trkpt lat="39.634017990902066" lon="2.486506998538971">
<ele>972</ele>
</trkpt>
<trkpt lat="39.634116981178522" lon="2.486460981890559">
<ele>970</ele>
</trkpt>
<trkpt lat="39.634130978956819" lon="2.486558966338635">
<ele>968</ele>
</trkpt>
<trkpt lat="39.634142965078354" lon="2.486580004915595">
<ele>966</ele>
</trkpt>
<trkpt lat="39.634156040847301" lon="2.486623004078865">
<ele>963</ele>
</trkpt>
<trkpt lat="39.634203985333443" lon="2.486666003242135">
<ele>961</ele>
</trkpt>
<trkpt lat="39.634253019466996" lon="2.486517978832126">
<ele>958</ele>
</trkpt>
<trkpt lat="39.634336000308394" lon="2.486506998538971">
<ele>956</ele>
</trkpt>
<trkpt lat="39.63443499058485" lon="2.486558966338635">
<ele>954</ele>
</trkpt>
<trkpt lat="39.634472960606217" lon="2.486471962183714">
<ele>951</ele>
</trkpt>
<trkpt lat="39.634526018053293" lon="2.486467016860843">
<ele>949</ele>
</trkpt>
<trkpt lat="39.634543033316731" lon="2.486415971070528">
<ele>946</ele>
</trkpt>
<trkpt lat="39.634617967531085" lon="2.486381018534303">
<ele>944</ele>
</trkpt>
<trkpt lat="39.63469197973609" lon="2.486342964693904">
<ele>942</ele>
</trkpt>
<trkpt lat="39.634747970849276" lon="2.486243974417448">
<ele>939</ele>
</trkpt>
<trkpt lat="39.634862970560789" lon="2.48616199940443">
<ele>936</ele>
</trkpt>
<trkpt lat="39.634865988045931" lon="2.48605202883482">
<ele>934</ele>
</trkpt>
<trkpt lat="39.634931031614542" lon="2.48600902967155">
<ele>931</ele>
</trkpt>
<trkpt lat="39.63495098054409" lon="2.485852036625147">
<ele>929</ele>
</trkpt>
<trkpt lat="39.635032033547759" lon="2.485782969743013">
<ele>927</ele>
</trkpt>
<trkpt lat="39.635103028267622" lon="2.485707029700279">
<ele>924</ele>
</trkpt>
<trkpt lat="39.635130017995834" lon="2.485666964203119">
<ele>922</ele>
</trkpt>
<trkpt lat="39.635235965251923" lon="2.48560200445354">
<ele>918</ele>
</trkpt>
<trkpt lat="39.635298997163773" lon="2.485557999461889">
<ele>915</ele>
</trkpt>
<trkpt lat="39.635404022410512" lon="2.485548024997115">
<ele>913</ele>
</trkpt>
<trkpt lat="39.635502006858587" lon="2.485485998913646">
<ele>911</ele>
</trkpt>
<trkpt lat="39.635520027950406" lon="2.485449034720659">
<ele>908</ele>
</trkpt>
<trkpt lat="39.635540982708335" lon="2.485359013080597">
<ele>906</ele>
</trkpt>
<trkpt lat="39.635585993528366" lon="2.48525801114738">
<ele>903</ele>
</trkpt>
<trkpt lat="39.635647013783455" lon="2.485253987833858">
<ele>901</ele>
</trkpt>
<trkpt lat="39.635667968541384" lon="2.485219035297632">
<ele>898</ele>
</trkpt>
<trkpt lat="39.635717002674937" lon="2.485145023092628">
<ele>896</ele>
</trkpt>
<trkpt lat="39.635772993788123" lon="2.485085008665919">
<ele>894</ele>
</trkpt>
<trkpt lat="39.635883970186114" lon="2.484969003126025">
<ele>891</ele>
</trkpt>
<trkpt lat="39.635875001549721" lon="2.484877975657582">
<ele>889</ele>
</trkpt>
<trkpt lat="39.635938033461571" lon="2.484791977331042">
<ele>886</ele>
</trkpt>
<trkpt lat="39.635960999876261" lon="2.484617969021201">
<ele>884</ele>
</trkpt>
<trkpt lat="39.635960999876261" lon="2.484571030363441">
<ele>881</ele>
</trkpt>
<trkpt lat="39.63598002679646" lon="2.484492994844914">
<ele>879</ele>
</trkpt>
<trkpt lat="39.63602202013135" lon="2.484475979581475">
<ele>877</ele>
</trkpt>
<trkpt lat="39.636017996817827" lon="2.484399033710361">
<ele>874</ele>
</trkpt>
<trkpt lat="39.636178007349372" lon="2.484434992074966">
<ele>872</ele>
</trkpt>
<trkpt lat="39.636242967098951" lon="2.484475979581475">
<ele>869</ele>
</trkpt>
<trkpt lat="39.636397026479244" lon="2.484487965703011">
<ele>867</ele>
</trkpt>
<trkpt lat="39.636508002877235" lon="2.484622998163104">
<ele>865</ele>
</trkpt>
<trkpt lat="39.636637000367045" lon="2.484684018418193">
<ele>863</ele>
</trkpt>
<trkpt lat="39.636768009513617" lon="2.484773034229875">
<ele>860</ele>
</trkpt>
<trkpt lat="39.636858031153679" lon="2.484854003414512">
<ele>858</ele>
</trkpt>
<trkpt lat="39.636872028931975" lon="2.484904965385795">
<ele>856</ele>
</trkpt>
<trkpt lat="39.636911004781723" lon="2.48502298258245">
<ele>854</ele>
</trkpt>
<trkpt lat="39.636934977024794" lon="2.485030023381114">
<ele>852</ele>
</trkpt>
<trkpt lat="39.636911004781723" lon="2.485224986448884">
<ele>849</ele>
</trkpt>
<trkpt lat="39.636936988681555" lon="2.485300004482269">
<ele>847</ele>
</trkpt>
<trkpt lat="39.636942017823458" lon="2.485367981716991">
<ele>845</ele>
</trkpt>
<trkpt lat="39.63696900755167" lon="2.485315008088946">
<ele>843</ele>
</trkpt>
<trkpt lat="39.637006977573037" lon="2.485286006703973">
<ele>841</ele>
</trkpt>
<trkpt lat="39.637083001434803" lon="2.485422967001796">
<ele>839</ele>
</trkpt>
<trkpt lat="39.6370779722929" lon="2.485490022227168">
<ele>837</ele>
</trkpt>
<trkpt lat="39.637046037241817" lon="2.48556001111865">
<ele>835</ele>
</trkpt>
<trkpt lat="39.637144021689892" lon="2.48560200445354">
<ele>833</ele>
</trkpt>
<trkpt lat="39.637144021689892" lon="2.485606027767062">
<ele>831</ele>
</trkpt>
<trkpt lat="39.637144021689892" lon="2.485606027767062">
<ele>829</ele>
</trkpt>
<trkpt lat="39.637143015861511" lon="2.485610973089933">
<ele>827</ele>
</trkpt>
<trkpt lat="39.63714100420475" lon="2.485609967261553">
<ele>825</ele>
</trkpt>
<trkpt lat="39.637142010033131" lon="2.485609967261553">
<ele>825</ele>
</trkpt>
<trkpt lat="39.637142010033131" lon="2.485609967261553">
<ele>826</ele>
</trkpt>
<trkpt lat="39.637162964791059" lon="2.485608039423823">
<ele>827</ele>
</trkpt>
<trkpt lat="39.63716397061944" lon="2.485608961433172">
<ele>827</ele>
</trkpt>
<trkpt lat="39.637170005589724" lon="2.485618013888598">
<ele>828</ele>
</trkpt>
<trkpt lat="39.637229014188051" lon="2.485490022227168">
<ele>828</ele>
</trkpt>
<trkpt lat="39.637264972552657" lon="2.485373010858893">
<ele>829</ele>
</trkpt>
<trkpt lat="39.637281987816095" lon="2.485329005867243">
<ele>830</ele>
</trkpt>
<trkpt lat="39.637307971715927" lon="2.485202020034194">
<ele>830</ele>
</trkpt>
<trkpt lat="39.63733303360641" lon="2.485111998394132">
<ele>831</ele>
</trkpt>
<trkpt lat="39.637343008071184" lon="2.485046032816172">
<ele>829</ele>
</trkpt>
<trkpt lat="39.637331021949649" lon="2.484889961779118">
<ele>827</ele>
</trkpt>
<trkpt lat="39.637317024171352" lon="2.484733974561095">
<ele>825</ele>
</trkpt>
<trkpt lat="39.637316018342972" lon="2.484541023150086">
<ele>823</ele>
</trkpt>
<trkpt lat="39.637303026393056" lon="2.484510010108352">
<ele>821</ele>
</trkpt>
<trkpt lat="39.637311995029449" lon="2.48433499597013">
<ele>819</ele>
</trkpt>
<trkpt lat="39.637329010292888" lon="2.484270958229899">
<ele>817</ele>
</trkpt>
<trkpt lat="39.637368991971016" lon="2.484130980446935">
<ele>815</ele>
</trkpt>
<trkpt lat="39.637405034154654" lon="2.483987985178828">
<ele>813</ele>
</trkpt>
<trkpt lat="39.637424983084202" lon="2.483941968530417">
<ele>811</ele>
</trkpt>
<trkpt lat="39.63752799667418" lon="2.483898969367147">
<ele>809</ele>
</trkpt>
<trkpt lat="39.637583987787366" lon="2.483984967693687">
<ele>806</ele>
</trkpt>
<trkpt lat="39.63763696141541" lon="2.484010029584169">
<ele>804</ele>
</trkpt>
<trkpt lat="39.637653976678848" lon="2.484064009040594">
<ele>802</ele>
</trkpt>
<trkpt lat="39.637745004147291" lon="2.484084963798523">
<ele>800</ele>
</trkpt>
<trkpt lat="39.637798983603716" lon="2.484138021245599">
<ele>798</ele>
</trkpt>
<trkpt lat="39.637898979708552" lon="2.484088987112045">
<ele>796</ele>
</trkpt>
<trkpt lat="39.63791498914361" lon="2.484098961576819">
<ele>794</ele>
</trkpt>
<trkpt lat="39.637940973043442" lon="2.484047999605537">
<ele>792</ele>
</trkpt>
<trkpt lat="39.638038035482168" lon="2.484024027362466">
<ele>790</ele>
</trkpt>
<trkpt lat="39.638232998549938" lon="2.484089992940426">
<ele>788</ele>
</trkpt>
<trkpt lat="39.638288989663124" lon="2.484172973781824">
<ele>786</ele>
</trkpt>
<trkpt lat="39.638288989663124" lon="2.484330972656608">
<ele>784</ele>
</trkpt>
<trkpt lat="39.638310028240085" lon="2.484472962096334">
<ele>782</ele>
</trkpt>
<trkpt lat="39.638318996876478" lon="2.484501963481307">
<ele>781</ele>
</trkpt>
<trkpt lat="39.638356966897845" lon="2.484717965126038">
<ele>779</ele>
</trkpt>
<trkpt lat="39.638388985767961" lon="2.484815027564764">
<ele>777</ele>
</trkpt>
<trkpt lat="39.638306004926562" lon="2.484942013397813">
<ele>775</ele>
</trkpt>
<trkpt lat="39.638298964127898" lon="2.484960034489632">
<ele>773</ele>
</trkpt>
<trkpt lat="39.638248002156615" lon="2.485113004222512">
<ele>771</ele>
</trkpt>
<trkpt lat="39.638304999098182" lon="2.485325988382101">
<ele>769</ele>
</trkpt>
<trkpt lat="39.638367025181651" lon="2.485403018072248">
<ele>767</ele>
</trkpt>
<trkpt lat="39.638366019353271" lon="2.485415004193783">
<ele>765</ele>
</trkpt>
<trkpt lat="39.638422010466456" lon="2.485508965328336">
<ele>763</ele>
</trkpt>
<trkpt lat="39.638469032943249" lon="2.485557999461889">
<ele>761</ele>
</trkpt>
<trkpt lat="39.638475989922881" lon="2.485627988353372">
<ele>759</ele>
</trkpt>
<trkpt lat="39.638636000454426" lon="2.485482981428504">
<ele>757</ele>
</trkpt>
<trkpt lat="39.638668019324541" lon="2.485472001135349">
<ele>754</ele>
</trkpt>
<trkpt lat="39.638690985739231" lon="2.48538801446557">
<ele>752</ele>
</trkpt>
<trkpt lat="39.638729961588979" lon="2.485267985612154">
<ele>750</ele>
</trkpt>
<trkpt lat="39.638831969350576" lon="2.485294975340366">
<ele>748</ele>
</trkpt>
<trkpt lat="39.638835992664099" lon="2.485234960913658">
<ele>746</ele>
</trkpt>
<trkpt lat="39.638910004869103" lon="2.485148040577769">
<ele>743</ele>
</trkpt>
<trkpt lat="39.63896800763905" lon="2.485272008925676">
<ele>741</ele>
</trkpt>
<trkpt lat="39.639027016237378" lon="2.4852379783988">
<ele>739</ele>
</trkpt>
<trkpt lat="39.639043025672436" lon="2.485214006155729">
<ele>737</ele>
</trkpt>
<trkpt lat="39.639085019007325" lon="2.485148962587118">
<ele>734</ele>
</trkpt>
<trkpt lat="39.639114020392299" lon="2.485066987574101">
<ele>732</ele>
</trkpt>
<trkpt lat="39.639165988191962" lon="2.485046032816172">
<ele>710</ele>
</trkpt>
<trkpt lat="39.639148972928524" lon="2.485055001452565">
<ele>730</ele>
</trkpt>
<trkpt lat="39.639148972928524" lon="2.485055001452565">
<ele>729</ele>
</trkpt>
<trkpt lat="39.639148972928524" lon="2.485055001452565">
<ele>729</ele>
</trkpt>
<trkpt lat="39.639195995405316" lon="2.485185004770756">
<ele>728</ele>
</trkpt>
<trkpt lat="39.639189038425684" lon="2.485292963683605">
<ele>728</ele>
</trkpt>
<trkpt lat="39.639165988191962" lon="2.485363036394119">
<ele>728</ele>
</trkpt>
<trkpt lat="39.639131035655737" lon="2.48547401279211">
<ele>727</ele>
</trkpt>
<trkpt lat="39.639103040099144" lon="2.485633017495275">
<ele>727</ele>
</trkpt>
<trkpt lat="39.63911896571517" lon="2.485804008319974">
<ele>726</ele>
</trkpt>
<trkpt lat="39.639117959886789" lon="2.485811971127987">
<ele>726</ele>
</trkpt>
<trkpt lat="39.639111002907157" lon="2.485928982496262">
<ele>724</ele>
</trkpt>
<trkpt lat="39.639114020392299" lon="2.485942980274558">
<ele>722</ele>
</trkpt>
<trkpt lat="39.639137992635369" lon="2.485973993316293">
<ele>720</ele>
</trkpt>
<trkpt lat="39.639155007898808" lon="2.486088993027806">
<ele>718</ele>
</trkpt>
<trkpt lat="39.639175962656736" lon="2.486153030768037">
<ele>716</ele>
</trkpt>
<trkpt lat="39.639125000685453" lon="2.48635402880609">
<ele>713</ele>
</trkpt>
<trkpt lat="39.639055011793971" lon="2.486430974677205">
<ele>711</ele>
</trkpt>
<trkpt lat="39.639031961560249" lon="2.486484032124281">
<ele>709</ele>
</trkpt>
<trkpt lat="39.638988962396979" lon="2.486546980217099">
<ele>707</ele>
</trkpt>
<trkpt lat="39.638859964907169" lon="2.486659968271852">
<ele>705</ele>
</trkpt>
<trkpt lat="39.638741025701165" lon="2.486799024045467">
<ele>703</ele>
</trkpt>
<trkpt lat="39.638698026537895" lon="2.486901031807065">
<ele>701</ele>
</trkpt>
<trkpt lat="39.638631977140903" lon="2.486983006820083">
<ele>700</ele>
</trkpt>
<trkpt lat="39.638539021834731" lon="2.487095994874835">
<ele>698</ele>
</trkpt>
<trkpt lat="39.638486970216036" lon="2.487253993749619">
<ele>696</ele>
</trkpt>
<trkpt lat="39.638469032943249" lon="2.487404029816389">
<ele>694</ele>
</trkpt>
<trkpt lat="39.638460986316204" lon="2.487564040347934">
<ele>692</ele>
</trkpt>
<trkpt lat="39.638442965224385" lon="2.48764299787581">
<ele>691</ele>
</trkpt>
<trkpt lat="39.638331988826394" lon="2.48781600035727">
<ele>689</ele>
</trkpt>
<trkpt lat="39.638238027691841" lon="2.487891018390656">
<ele>687</ele>
</trkpt>
<trkpt lat="39.638142976909876" lon="2.487955978140235">
<ele>685</ele>
</trkpt>
<trkpt lat="39.638098971918225" lon="2.487952960655093">
<ele>682</ele>
</trkpt>
<trkpt lat="39.638018002733588" lon="2.48798799701035">
<ele>680</ele>
</trkpt>
<trkpt lat="39.637977015227079" lon="2.488075001165271">
<ele>677</ele>
</trkpt>
<trkpt lat="39.637951031327248" lon="2.488143984228373">
<ele>675</ele>
</trkpt>
<trkpt lat="39.637941978871822" lon="2.488349005579948">
<ele>673</ele>
</trkpt>
<trkpt lat="39.637943990528584" lon="2.488479008898139">
<ele>670</ele>
</trkpt>
<trkpt lat="39.637956982478499" lon="2.488585961982608">
<ele>668</ele>
</trkpt>
<trkpt lat="39.637955976650119" lon="2.488742033019662">
<ele>665</ele>
</trkpt>
<trkpt lat="39.637949019670486" lon="2.488859966397286">
<ele>663</ele>
</trkpt>
<trkpt lat="39.637953964993358" lon="2.488982006907463">
<ele>661</ele>
</trkpt>
<trkpt lat="39.638016996905208" lon="2.489084014669061">
<ele>658</ele>
</trkpt>
<trkpt lat="39.638087991625071" lon="2.489207983016968">
<ele>656</ele>
</trkpt>
<trkpt lat="39.638072988018394" lon="2.489303033798933">
<ele>653</ele>
</trkpt>
<trkpt lat="39.638008028268814" lon="2.48942700214684">
<ele>651</ele>
</trkpt>
<trkpt lat="39.637969974428415" lon="2.489546025171876">
<ele>649</ele>
</trkpt>
<trkpt lat="39.637922029942274" lon="2.489659013226628">
<ele>646</ele>
</trkpt>
<trkpt lat="39.637847011908889" lon="2.489794967696071">
<ele>644</ele>
</trkpt>
<trkpt lat="39.637786997482181" lon="2.489906027913094">
<ele>641</ele>
</trkpt>
<trkpt lat="39.637780040502548" lon="2.489986997097731">
<ele>639</ele>
</trkpt>
<trkpt lat="39.637792026624084" lon="2.490094034001231">
<ele>638</ele>
</trkpt>
<trkpt lat="39.637821028009057" lon="2.490185983479023">
<ele>637</ele>
</trkpt>
<trkpt lat="39.637941978871822" lon="2.490159999579191">
<ele>636</ele>
</trkpt>
<trkpt lat="39.637948013842106" lon="2.490144995972514">
<ele>635</ele>
</trkpt>
<trkpt lat="39.638139037415385" lon="2.489951038733125">
<ele>634</ele>
</trkpt>
<trkpt lat="39.638255964964628" lon="2.489871997386217">
<ele>634</ele>
</trkpt>
<trkpt lat="39.638264011591673" lon="2.489857999607921">
<ele>633</ele>
</trkpt>
<trkpt lat="39.638435002416372" lon="2.489634035155177">
<ele>632</ele>
</trkpt>
<trkpt lat="39.638460986316204" lon="2.48957603238523">
<ele>631</ele>
</trkpt>
<trkpt lat="39.638543967157602" lon="2.489445023238659">
<ele>630</ele>
</trkpt>
<trkpt lat="39.63858000934124" lon="2.4893600307405">
<ele>629</ele>
</trkpt>
<trkpt lat="39.638636000454426" lon="2.489155009388924">
<ele>628</ele>
</trkpt>
<trkpt lat="39.638730967417359" lon="2.489088037982583">
<ele>627</ele>
</trkpt>
<trkpt lat="39.638856025412679" lon="2.489113016054034">
<ele>626</ele>
</trkpt>
<trkpt lat="39.638940012082458" lon="2.489141011610627">
<ele>625</ele>
</trkpt>
<trkpt lat="39.639044031500816" lon="2.489111004397273">
<ele>624</ele>
</trkpt>
<trkpt lat="39.63911896571517" lon="2.489158026874065">
<ele>623</ele>
</trkpt>
<trkpt lat="39.639160959050059" lon="2.489159032702446">
<ele>622</ele>
</trkpt>
<trkpt lat="39.63928903453052" lon="2.489088959991932">
<ele>621</ele>
</trkpt>
<trkpt lat="39.639319963753223" lon="2.48886700719595">
<ele>620</ele>
</trkpt>
<trkpt lat="39.639306971803308" lon="2.488800035789609">
<ele>618</ele>
</trkpt>
<trkpt lat="39.639315018430352" lon="2.488759970292449">
<ele>616</ele>
</trkpt>
<trkpt lat="39.639299008995295" lon="2.488700961694121">
<ele>614</ele>
</trkpt>
<trkpt lat="39.639274030923843" lon="2.488576993346214">
<ele>612</ele>
</trkpt>
<trkpt lat="39.639264978468418" lon="2.488485965877771">
<ele>610</ele>
</trkpt>
<trkpt lat="39.639304960146546" lon="2.488251021131873">
<ele>608</ele>
</trkpt>
<trkpt lat="39.639356005936861" lon="2.488190000876784">
<ele>606</ele>
</trkpt>
<trkpt lat="39.639428006485105" lon="2.488113977015019">
<ele>604</ele>
</trkpt>
<trkpt lat="39.639550969004631" lon="2.48805396258831">
<ele>602</ele>
</trkpt>
<trkpt lat="39.639686001464725" lon="2.487961007282138">
<ele>600</ele>
</trkpt>
<trkpt lat="39.639730006456375" lon="2.487934017553926">
<ele>598</ele>
</trkpt>
<trkpt lat="39.639703016728163" lon="2.488091010600328">
<ele>596</ele>
</trkpt>
<trkpt lat="39.639696981757879" lon="2.488164016976953">
<ele>593</ele>
</trkpt>
<trkpt lat="39.639853974804282" lon="2.488120011985302">
<ele>591</ele>
</trkpt>
<trkpt lat="39.639926981180906" lon="2.488092016428709">
<ele>589</ele>
</trkpt>
<trkpt lat="39.640087997540832" lon="2.488077012822032">
<ele>587</ele>
</trkpt>
<trkpt lat="39.640158992260695" lon="2.488162005320191">
<ele>585</ele>
</trkpt>
<trkpt lat="39.640180030837655" lon="2.488228976726532">
<ele>582</ele>
</trkpt>
<trkpt lat="39.64021498337388" lon="2.488340036943555">
<ele>580</ele>
</trkpt>
<trkpt lat="39.640211965888739" lon="2.488415976986289">
<ele>578</ele>
</trkpt>
<trkpt lat="39.640130996704102" lon="2.488543968647718">
<ele>576</ele>
</trkpt>
<trkpt lat="39.640285978093743" lon="2.488493006676436">
<ele>573</ele>
</trkpt>
<trkpt lat="39.640349010005593" lon="2.488528965041041">
<ele>571</ele>
</trkpt>
<trkpt lat="39.640349010005593" lon="2.488528965041041">
<ele>569</ele>
</trkpt>
<trkpt lat="39.640421010553837" lon="2.488622004166246">
<ele>566</ele>
</trkpt>
<trkpt lat="39.640412963926792" lon="2.488805986940861">
<ele>564</ele>
</trkpt>
<trkpt lat="39.640421010553837" lon="2.48893397860229">
<ele>562</ele>
</trkpt>
<trkpt lat="39.640473984181881" lon="2.489064987748861">
<ele>560</ele>
</trkpt>
<trkpt lat="39.640533998608589" lon="2.489179987460375">
<ele>557</ele>
</trkpt>
<trkpt lat="39.640657966956496" lon="2.489324994385243">
<ele>555</ele>
</trkpt>
<trkpt lat="39.640703983604908" lon="2.489386014640331">
<ele>554</ele>
</trkpt>
<trkpt lat="39.640894001349807" lon="2.489361958578229">
<ele>553</ele>
</trkpt>
<trkpt lat="39.640915961936116" lon="2.48931703157723">
<ele>552</ele>
</trkpt>
<trkpt lat="39.640933983027935" lon="2.489266991615295">
<ele>551</ele>
</trkpt>
<trkpt lat="39.640886960551143" lon="2.489174958318472">
<ele>550</ele>
</trkpt>
<trkpt lat="39.640896013006568" lon="2.489056019112468">
<ele>548</ele>
</trkpt>
<trkpt lat="39.64090003632009" lon="2.489029029384255">
<ele>547</ele>
</trkpt>
<trkpt lat="39.64098502881825" lon="2.488818978890777">
<ele>546</ele>
</trkpt>
<trkpt lat="39.64103096164763" lon="2.488769022747874">
<ele>545</ele>
</trkpt>
<trkpt lat="39.641049988567829" lon="2.488754019141197">
<ele>544</ele>
</trkpt>
<trkpt lat="39.641091981902719" lon="2.488639019429684">
<ele>543</ele>
</trkpt>
<trkpt lat="39.641087958589196" lon="2.488522008061409">
<ele>542</ele>
</trkpt>
<trkpt lat="39.641128024086356" lon="2.488467022776604">
<ele>540</ele>
</trkpt>
<trkpt lat="39.641176974400878" lon="2.488321010023356">
<ele>539</ele>
</trkpt>
<trkpt lat="39.641204969957471" lon="2.488267030566931">
<ele>538</ele>
</trkpt>
<trkpt lat="39.641283005475998" lon="2.488068966194987">
<ele>537</ele>
</trkpt>
<trkpt lat="39.641404962167144" lon="2.487979028373957">
<ele>536</ele>
</trkpt>
<trkpt lat="39.641527002677321" lon="2.487876014783979">
<ele>534</ele>
</trkpt>
<trkpt lat="39.641548963263631" lon="2.487869979813695">
<ele>533</ele>
</trkpt>
<trkpt lat="39.641626998782158" lon="2.487658001482487">
<ele>532</ele>
</trkpt>
<trkpt lat="39.641680978238583" lon="2.487589018419385">
<ele>530</ele>
</trkpt>
<trkpt lat="39.641753984615207" lon="2.487518023699522">
<ele>529</ele>
</trkpt>
<trkpt lat="39.641843000426888" lon="2.487478964030743">
<ele>527</ele>
</trkpt>
<trkpt lat="39.642006028443575" lon="2.487305039539933">
<ele>526</ele>
</trkpt>
<trkpt lat="39.6420600079" lon="2.48727997764945">
<ele>524</ele>
</trkpt>
<trkpt lat="39.64225497096777" lon="2.487118961289525">
<ele>522</ele>
</trkpt>
<trkpt lat="39.642263017594814" lon="2.487109992653132">
<ele>521</ele>
</trkpt>
<trkpt lat="39.642295958474278" lon="2.487097000703216">
<ele>519</ele>
</trkpt>
<trkpt lat="39.642390003427863" lon="2.487152991816402">
<ele>518</ele>
</trkpt>
<trkpt lat="39.642400983721018" lon="2.487261034548283">
<ele>516</ele>
</trkpt>
<trkpt lat="39.642308028414845" lon="2.487430013716221">
<ele>514</ele>
</trkpt>
<trkpt lat="39.642302999272943" lon="2.487443005666137">
<ele>512</ele>
</trkpt>
<trkpt lat="39.642286989837885" lon="2.487675016745925">
<ele>510</ele>
</trkpt>
<trkpt lat="39.642305010929704" lon="2.487768977880478">
<ele>508</ele>
</trkpt>
<trkpt lat="39.642291013151407" lon="2.48792203143239">
<ele>506</ele>
</trkpt>
<trkpt lat="39.642295958474278" lon="2.48805396258831">
<ele>504</ele>
</trkpt>
<trkpt lat="39.642330994829535" lon="2.488148007541895">
<ele>502</ele>
</trkpt>
<trkpt lat="39.642366031184793" lon="2.488406002521515">
<ele>500</ele>
</trkpt>
<trkpt lat="39.642494022846222" lon="2.488316986709833">
<ele>498</ele>
</trkpt>
<trkpt lat="39.642541967332363" lon="2.488281028345227">
<ele>496</ele>
</trkpt>
<trkpt lat="39.642681023105979" lon="2.488157982006669">
<ele>495</ele>
</trkpt>
<trkpt lat="39.642750006169081" lon="2.488076006993651">
<ele>493</ele>
</trkpt>
<trkpt lat="39.642800968140364" lon="2.488061003386974">
<ele>492</ele>
</trkpt>
<trkpt lat="39.642986040562391" lon="2.487983973696828">
<ele>490</ele>
</trkpt>
<trkpt lat="39.643097016960382" lon="2.487893030047417">
<ele>489</ele>
</trkpt>
<trkpt lat="39.643147978931665" lon="2.487789010629058">
<ele>488</ele>
</trkpt>
<trkpt lat="39.643291980028152" lon="2.487680967897177">
<ele>486</ele>
</trkpt>
<trkpt lat="39.643341014161706" lon="2.48764299787581">
<ele>485</ele>
</trkpt>
<trkpt lat="39.643417960032821" lon="2.487560017034411">
<ele>483</ele>
</trkpt>
<trkpt lat="39.6434570197016" lon="2.48753696680069">
<ele>482</ele>
</trkpt>
<trkpt lat="39.643519967794418" lon="2.48744904063642">
<ele>481</ele>
</trkpt>
<trkpt lat="39.643553998321295" lon="2.487420961260796">
<ele>480</ele>
</trkpt>
<trkpt lat="39.643645025789738" lon="2.487325994297862">
<ele>478</ele>
</trkpt>
<trkpt lat="39.643730018287897" lon="2.487264974042773">
<ele>477</ele>
</trkpt>
<trkpt lat="39.643940990790725" lon="2.487161038443446">
<ele>476</ele>
</trkpt>
<trkpt lat="39.644065964967012" lon="2.487088032066822">
<ele>475</ele>
</trkpt>
<trkpt lat="39.644216001033783" lon="2.487011002376676">
<ele>474</ele>
</trkpt>
<trkpt lat="39.644238967448473" lon="2.487000022083521">
<ele>472</ele>
</trkpt>
<trkpt lat="39.644319014623761" lon="2.486878987401724">
<ele>471</ele>
</trkpt>
<trkpt lat="39.644323037937284" lon="2.486867001280189">
<ele>470</ele>
</trkpt>
<trkpt lat="39.644435020163655" lon="2.48663398437202">
<ele>469</ele>
</trkpt>
<trkpt lat="39.644432002678514" lon="2.486545974388719">
<ele>468</ele>
</trkpt>
<trkpt lat="39.644409958273172" lon="2.48646198771894">
<ele>467</ele>
</trkpt>
<trkpt lat="39.644401995465159" lon="2.486383030191064">
<ele>466</ele>
</trkpt>
<trkpt lat="39.644401995465159" lon="2.486284039914608">
<ele>465</ele>
</trkpt>
<trkpt lat="39.644397972151637" lon="2.486269036307931">
<ele>464</ele>
</trkpt>
<trkpt lat="39.644398977980018" lon="2.486251015216112">
<ele>464</ele>
</trkpt>
<trkpt lat="39.644395038485527" lon="2.486229976639152">
<ele>464</ele>
</trkpt>
<trkpt lat="39.644395038485527" lon="2.486191000789404">
<ele>464</ele>
</trkpt>
<trkpt lat="39.644376011565328" lon="2.485999977216125">
<ele>464</ele>
</trkpt>
<trkpt lat="39.644328989088535" lon="2.485909033566713">
<ele>464</ele>
</trkpt>
<trkpt lat="39.644295964390039" lon="2.485865028575063">
<ele>463</ele>
</trkpt>
<trkpt lat="39.644267968833447" lon="2.485832003876567">
<ele>463</ele>
</trkpt>
<trkpt lat="39.644064959138632" lon="2.48568800278008">
<ele>463</ele>
</trkpt>
<trkpt lat="39.644007962197065" lon="2.485631005838513">
<ele>463</ele>
</trkpt>
<trkpt lat="39.643935039639473" lon="2.485519023612142">
<ele>463</ele>
</trkpt>
<trkpt lat="39.643864966928959" lon="2.485403018072248">
<ele>463</ele>
</trkpt>
<trkpt lat="39.643838983029127" lon="2.485245019197464">
<ele>462</ele>
</trkpt>
<trkpt lat="39.643822973594069" lon="2.485175030305982">
<ele>462</ele>
</trkpt>
<trkpt lat="39.643807969987392" lon="2.484995992854238">
<ele>461</ele>
</trkpt>
<trkpt lat="39.643809981644154" lon="2.484900020062923">
<ele>461</ele>
</trkpt>
<trkpt lat="39.643814004957676" lon="2.484786026179791">
<ele>461</ele>
</trkpt>
<trkpt lat="39.643807969987392" lon="2.484536999836564">
<ele>460</ele>
</trkpt>
<trkpt lat="39.643736975267529" lon="2.484382018446922">
<ele>460</ele>
</trkpt>
<trkpt lat="39.643708979710937" lon="2.484325021505356">
<ele>459</ele>
</trkpt>
<trkpt lat="39.643729012459517" lon="2.484118994325399">
<ele>459</ele>
</trkpt>
<trkpt lat="39.643734963610768" lon="2.484111031517386">
<ele>458</ele>
</trkpt>
<trkpt lat="39.643720965832472" lon="2.483992008492351">
<ele>458</ele>
</trkpt>
<trkpt lat="39.643740998581052" lon="2.483973987400532">
<ele>457</ele>
</trkpt>
<trkpt lat="39.643836971372366" lon="2.483845995739102">
<ele>457</ele>
</trkpt>
<trkpt lat="39.643836971372366" lon="2.483845995739102">
<ele>456</ele>
</trkpt>
<trkpt lat="39.643817022442818" lon="2.483615996316075">
<ele>455</ele>
</trkpt>
<trkpt lat="39.643775029107928" lon="2.483465960249305">
<ele>455</ele>
</trkpt>
<trkpt lat="39.643766982480884" lon="2.483351966366172">
<ele>454</ele>
</trkpt>
<trkpt lat="39.643719960004091" lon="2.483223974704742">
<ele>454</ele>
</trkpt>
<trkpt lat="39.643675033003092" lon="2.483119033277035">
<ele>453</ele>
</trkpt>
<trkpt lat="39.643692970275879" lon="2.483017025515437">
<ele>452</ele>
</trkpt>
<trkpt lat="39.643696993589401" lon="2.482993975281715">
<ele>451</ele>
</trkpt>
<trkpt lat="39.643812999129295" lon="2.482903031632304">
<ele>451</ele>
</trkpt>
<trkpt lat="39.643812999129295" lon="2.482903031632304">
<ele>450</ele>
</trkpt>
<trkpt lat="39.643946019932628" lon="2.482862966135144">
<ele>449</ele>
</trkpt>
<trkpt lat="39.644037969410419" lon="2.4828099925071">
<ele>448</ele>
</trkpt>
<trkpt lat="39.644299987703562" lon="2.482697004452348">
<ele>447</ele>
</trkpt>
<trkpt lat="39.644376011565328" lon="2.482684012502432">
<ele>447</ele>
</trkpt>
<trkpt lat="39.644499979913235" lon="2.482692981138825">
<ele>446</ele>
</trkpt>
<trkpt lat="39.644634006544948" lon="2.482674960047007">
<ele>445</ele>
</trkpt>
<trkpt lat="39.644753029569983" lon="2.482664985582233">
<ele>444</ele>
</trkpt>
<trkpt lat="39.644840033724904" lon="2.482682000845671">
<ele>443</ele>
</trkpt>
<trkpt lat="39.644964002072811" lon="2.482828013598919">
<ele>442</ele>
</trkpt>
<trkpt lat="39.645046982914209" lon="2.482904959470034">
<ele>441</ele>
</trkpt>
<trkpt lat="39.645094005391002" lon="2.482934966683388">
<ele>440</ele>
</trkpt>
<trkpt lat="39.645196013152599" lon="2.482918035238981">
<ele>439</ele>
</trkpt>
<trkpt lat="39.645243035629392" lon="2.482795994728804">
<ele>438</ele>
</trkpt>
<trkpt lat="39.645246975123882" lon="2.482757018879056">
<ele>437</ele>
</trkpt>
<trkpt lat="39.645172040909529" lon="2.482579993084073">
<ele>436</ele>
</trkpt>
<trkpt lat="39.645191989839077" lon="2.482525007799268">
<ele>435</ele>
</trkpt>
<trkpt lat="39.645213028416038" lon="2.482417970895767">
<ele>434</ele>
</trkpt>
<trkpt lat="39.645321993157268" lon="2.482389975339174">
<ele>432</ele>
</trkpt>
<trkpt lat="39.645328028127551" lon="2.4823800008744">
<ele>430</ele>
</trkpt>
<trkpt lat="39.645386030897498" lon="2.482257038354874">
<ele>429</ele>
</trkpt>
<trkpt lat="39.645476974546909" lon="2.48214103281498">
<ele>428</ele>
</trkpt>
<trkpt lat="39.645502958446741" lon="2.482128040865064">
<ele>426</ele>
</trkpt>
<trkpt lat="39.645701022818685" lon="2.48205897398293">
<ele>424</ele>
</trkpt>
<trkpt lat="39.64575600810349" lon="2.482001977041364">
<ele>423</ele>
</trkpt>
<trkpt lat="39.645780986174941" lon="2.481814976781607">
<ele>422</ele>
</trkpt>
<trkpt lat="39.645814010873437" lon="2.481733001768589">
<ele>420</ele>
</trkpt>
<trkpt lat="39.645796995609999" lon="2.481567962095141">
<ele>420</ele>
</trkpt>
<trkpt lat="39.645767994225025" lon="2.481487998738885">
<ele>420</ele>
</trkpt>
<trkpt lat="39.645739998668432" lon="2.481346009299159">
<ele>420</ele>
</trkpt>
<trkpt lat="39.645666992291808" lon="2.481144005432725">
<ele>420</ele>
</trkpt>
<trkpt lat="39.645556015893817" lon="2.480973014608026">
<ele>420</ele>
</trkpt>
<trkpt lat="39.645446967333555" lon="2.480851979926229">
<ele>420</ele>
</trkpt>
<trkpt lat="39.64543498121202" lon="2.480839993804693">
<ele>420</ele>
</trkpt>
<trkpt lat="39.645325010642409" lon="2.480747038498521">
<ele>420</ele>
</trkpt>
<trkpt lat="39.645232977345586" lon="2.480546040460467">
<ele>420</ele>
</trkpt>
<trkpt lat="39.645186960697174" lon="2.48044503852725">
<ele>420</ele>
</trkpt>
<trkpt lat="39.645186038687825" lon="2.480410002171993">
<ele>418</ele>
</trkpt>
<trkpt lat="39.645144967362285" lon="2.480239011347294">
<ele>417</ele>
</trkpt>
<trkpt lat="39.645138010382652" lon="2.480184026062489">
<ele>415</ele>
</trkpt>
<trkpt lat="39.645094005391002" lon="2.480036001652479">
<ele>413</ele>
</trkpt>
<trkpt lat="39.645052012056112" lon="2.479882026091218">
<ele>412</ele>
</trkpt>
<trkpt lat="39.645019993185997" lon="2.479755040258169">
<ele>410</ele>
</trkpt>
<trkpt lat="39.644983028993011" lon="2.479649009183049">
<ele>408</ele>
</trkpt>
<trkpt lat="39.644999960437417" lon="2.479597963392735">
<ele>406</ele>
</trkpt>
<trkpt lat="39.644977999851108" lon="2.479284983128309">
<ele>405</ele>
</trkpt>
<trkpt lat="39.644968025386333" lon="2.47915799729526">
<ele>403</ele>
</trkpt>
<trkpt lat="39.644927037879825" lon="2.479035034775734">
<ele>403</ele>
</trkpt>
<trkpt lat="39.645011024549603" lon="2.479046015068889">
<ele>402</ele>
</trkpt>
<trkpt lat="39.645026028156281" lon="2.47900502756238">
<ele>402</ele>
</trkpt>
<trkpt lat="39.644954027608037" lon="2.478781985118985">
<ele>402</ele>
</trkpt>
<trkpt lat="39.644868029281497" lon="2.478685006499291">
<ele>402</ele>
</trkpt>
<trkpt lat="39.644870040938258" lon="2.478658016771078">
<ele>401</ele>
</trkpt>
<trkpt lat="39.644837016239762" lon="2.47864100150764">
<ele>401</ele>
</trkpt>
<trkpt lat="39.644756969064474" lon="2.478608982637525">
<ele>401</ele>
</trkpt>
<trkpt lat="39.644821006804705" lon="2.47846900485456">
<ele>400</ele>
</trkpt>
<trkpt lat="39.644868029281497" lon="2.478365991264582">
<ele>400</ele>
</trkpt>
<trkpt lat="39.644913040101528" lon="2.478287033736706">
<ele>401</ele>
</trkpt>
<trkpt lat="39.645023010671139" lon="2.478230958804488">
<ele>402</ele>
</trkpt>
<trkpt lat="39.645074978470802" lon="2.478134986013174">
<ele>402</ele>
</trkpt>
<trkpt lat="39.645170029252768" lon="2.478041024878621">
<ele>403</ele>
</trkpt>
<trkpt lat="39.645225014537573" lon="2.478003976866603">
<ele>404</ele>
</trkpt>
<trkpt lat="39.645311012864113" lon="2.477948991581798">
<ele>405</ele>
</trkpt>
<trkpt lat="39.645330961793661" lon="2.477940022945404">
<ele>406</ele>
</trkpt>
<trkpt lat="39.645402040332556" lon="2.477842038497329">
<ele>406</ele>
</trkpt>
<trkpt lat="39.645445961505175" lon="2.477812031283975">
<ele>407</ele>
</trkpt>
<trkpt lat="39.645590968430042" lon="2.477730978280306">
<ele>408</ele>
</trkpt>
<trkpt lat="39.645643020048738" lon="2.477716980502009">
<ele>409</ele>
</trkpt>
<trkpt lat="39.645684007555246" lon="2.477659983560443">
<ele>410</ele>
</trkpt>
<trkpt lat="39.645728012546897" lon="2.477570967748761">
<ele>411</ele>
</trkpt>
<trkpt lat="39.645789032801986" lon="2.477425960823894">
<ele>412</ele>
</trkpt>
<trkpt lat="39.645820967853069" lon="2.477296041324735">
<ele>414</ele>
</trkpt>
<trkpt lat="39.64584200643003" lon="2.477135024964809">
<ele>415</ele>
</trkpt>
<trkpt lat="39.645892968401313" lon="2.477024970576167">
<ele>416</ele>
</trkpt>
<trkpt lat="39.645894980058074" lon="2.476992029696703">
<ele>417</ele>
</trkpt>
<trkpt lat="39.645926998928189" lon="2.476740991696715">
<ele>418</ele>
</trkpt>
<trkpt lat="39.645940996706486" lon="2.476609982550144">
<ele>419</ele>
</trkpt>
<trkpt lat="39.645942002534866" lon="2.476542005315423">
<ele>419</ele>
</trkpt>
<trkpt lat="39.645953988656402" lon="2.476448966190219">
<ele>420</ele>
</trkpt>
<trkpt lat="39.64599397033453" lon="2.476332038640976">
<ele>420</ele>
</trkpt>
<trkpt lat="39.646063959226012" lon="2.476221984252334">
<ele>420</ele>
</trkpt>
<trkpt lat="39.646090026944876" lon="2.476204968988895">
<ele>420</ele>
</trkpt>
<trkpt lat="39.646258000284433" lon="2.476026015356183">
<ele>421</ele>
</trkpt>
<trkpt lat="39.646304016932845" lon="2.475996008142829">
<ele>421</ele>
</trkpt>
<trkpt lat="39.646372999995947" lon="2.47597698122263">
<ele>421</ele>
</trkpt>
<trkpt lat="39.64646796695888" lon="2.475910009816289">
<ele>422</ele>
</trkpt>
<trkpt lat="39.646638035774231" lon="2.475944962352514">
<ele>422</ele>
</trkpt>
<trkpt lat="39.64670299552381" lon="2.475930964574218">
<ele>421</ele>
</trkpt>
<trkpt lat="39.64683199301362" lon="2.47580498456955">
<ele>420</ele>
</trkpt>
<trkpt lat="39.646844984963536" lon="2.47576299123466">
<ele>420</ele>
</trkpt>
<trkpt lat="39.646900976076722" lon="2.475596023723483">
<ele>419</ele>
</trkpt>
<trkpt lat="39.646896030753851" lon="2.475487980991602">
<ele>418</ele>
</trkpt>
<trkpt lat="39.646871974691749" lon="2.475424027070403">
<ele>417</ele>
</trkpt>
<trkpt lat="39.646756974980235" lon="2.475244989618659">
<ele>416</ele>
</trkpt>
<trkpt lat="39.646708024665713" lon="2.475192015990615">
<ele>416</ele>
</trkpt>
<trkpt lat="39.646630994975567" lon="2.475089002400637">
<ele>415</ele>
</trkpt>
<trkpt lat="39.646579027175903" lon="2.474982971325517">
<ele>414</ele>
</trkpt>
<trkpt lat="39.646532004699111" lon="2.474949024617672">
<ele>415</ele>
</trkpt>
<trkpt lat="39.646409964188933" lon="2.474835030734539">
<ele>416</ele>
</trkpt>
<trkpt lat="39.64640200138092" lon="2.474736040458083">
<ele>417</ele>
</trkpt>
<trkpt lat="39.646354978904128" lon="2.474526995792985">
<ele>418</ele>
</trkpt>
<trkpt lat="39.646324971690774" lon="2.474432028830051">
<ele>418</ele>
</trkpt>
<trkpt lat="39.646347016096115" lon="2.474306970834732">
<ele>419</ele>
</trkpt>
<trkpt lat="39.646354978904128" lon="2.474276963621378">
<ele>420</ele>
</trkpt>
<trkpt lat="39.646392026916146" lon="2.474055010825396">
<ele>421</ele>
</trkpt>
<trkpt lat="39.646388003602624" lon="2.473986027762294">
<ele>422</ele>
</trkpt>
<trkpt lat="39.646394038572907" lon="2.473890976980329">
<ele>423</ele>
</trkpt>
<trkpt lat="39.646388003602624" lon="2.473822999745607">
<ele>423</ele>
</trkpt>
<trkpt lat="39.646364031359553" lon="2.473729038611054">
<ele>424</ele>
</trkpt>
<trkpt lat="39.646351961418986" lon="2.473552012816072">
<ele>424</ele>
</trkpt>
<trkpt lat="39.646356990560889" lon="2.473513958975673">
<ele>424</ele>
</trkpt>
<trkpt lat="39.64638196863234" lon="2.473369035869837">
<ele>424</ele>
</trkpt>
<trkpt lat="39.646394960582256" lon="2.473301980644465">
<ele>425</ele>
</trkpt>
<trkpt lat="39.646439971402287" lon="2.473202990368009">
<ele>425</ele>
</trkpt>
<trkpt lat="39.646384986117482" lon="2.473000986501575">
<ele>425</ele>
</trkpt>
<trkpt lat="39.64642496779561" lon="2.472918005660176">
<ele>426</ele>
</trkpt>
<trkpt lat="39.646452041342854" lon="2.472878023982048">
<ele>426</ele>
</trkpt>
<trkpt lat="39.646549019962549" lon="2.472790013998747">
<ele>426</ele>
</trkpt>
<trkpt lat="39.646607022732496" lon="2.472698986530304">
<ele>426</ele>
</trkpt>
<trkpt lat="39.646638035774231" lon="2.472670990973711">
<ele>427</ele>
</trkpt>
<trkpt lat="39.646737026050687" lon="2.47258298099041">
<ele>427</ele>
</trkpt>
<trkpt lat="39.646834004670382" lon="2.472488014027476">
<ele>427</ele>
</trkpt>
<trkpt lat="39.646846996620297" lon="2.472481979057193">
<ele>427</ele>
</trkpt>
<trkpt lat="39.646951016038656" lon="2.472387012094259">
<ele>427</ele>
</trkpt>
<trkpt lat="39.646969959139824" lon="2.472364967688918">
<ele>428</ele>
</trkpt>
<trkpt lat="39.64706601575017" lon="2.472236976027489">
<ele>428</ele>
</trkpt>
<trkpt lat="39.647117983549833" lon="2.472191965207458">
<ele>428</ele>
</trkpt>
<trkpt lat="39.647142039611936" lon="2.472071014344692">
<ele>430</ele>
</trkpt>
<trkpt lat="39.647179003804922" lon="2.471870016306639">
<ele>432</ele>
</trkpt>
<trkpt lat="39.647216973826289" lon="2.471748981624842">
<ele>433</ele>
</trkpt>
<trkpt lat="39.647220997139812" lon="2.471655020490289">
<ele>435</ele>
</trkpt>
<trkpt lat="39.647148996591568" lon="2.471490986645222">
<ele>437</ele>
</trkpt>
<trkpt lat="39.647033996880054" lon="2.471586959436536">
<ele>439</ele>
</trkpt>
<trkpt lat="39.646870968863368" lon="2.471640016883612">
<ele>441</ele>
</trkpt>
<trkpt lat="39.646908016875386" lon="2.471556030213833">
<ele>442</ele>
</trkpt>
<trkpt lat="39.646920002996922" lon="2.471486963331699">
<ele>444</ele>
</trkpt>
<trkpt lat="39.646907011047006" lon="2.471288982778788">
<ele>446</ele>
</trkpt>
<trkpt lat="39.646902987733483" lon="2.471258975565434">
<ele>447</ele>
</trkpt>
<trkpt lat="39.646886978298426" lon="2.471135007217526">
<ele>448</ele>
</trkpt>
<trkpt lat="39.646914973855019" lon="2.471054960042238">
<ele>449</ele>
</trkpt>
<trkpt lat="39.646924026310444" lon="2.470953958109021">
<ele>450</ele>
</trkpt>
<trkpt lat="39.646840961650014" lon="2.470887992531061">
<ele>450</ele>
</trkpt>
<trkpt lat="39.646694026887417" lon="2.470872988924384">
<ele>451</ele>
</trkpt>
<trkpt lat="39.646567963063717" lon="2.470781961455941">
<ele>452</ele>
</trkpt>
<trkpt lat="39.646573998034" lon="2.470730999484658">
<ele>453</ele>
</trkpt>
<trkpt lat="39.646573998034" lon="2.470698980614543">
<ele>454</ele>
</trkpt>
<trkpt lat="39.646567963063717" lon="2.470615999773145">
<ele>455</ele>
</trkpt>
<trkpt lat="39.646434020251036" lon="2.470495970919728">
<ele>454</ele>
</trkpt>
<trkpt lat="39.646303011104465" lon="2.470436962321401">
<ele>453</ele>
</trkpt>
<trkpt lat="39.64624903164804" lon="2.470404021441937">
<ele>453</ele>
</trkpt>
<trkpt lat="39.646138977259398" lon="2.470249962061644">
<ele>452</ele>
</trkpt>
<trkpt lat="39.646031018346548" lon="2.47009196318686">
<ele>451</ele>
</trkpt>
<trkpt lat="39.645957006141543" lon="2.46995902620256">
<ele>450</ele>
</trkpt>
<trkpt lat="39.645873019471765" lon="2.469857018440962">
<ele>449</ele>
</trkpt>
<trkpt lat="39.645846029743552" lon="2.469824999570847">
<ele>449</ele>
</trkpt>
<trkpt lat="39.645742010325193" lon="2.469683010131121">
<ele>448</ele>
</trkpt>
<trkpt lat="39.645708985626698" lon="2.469653002917767">
<ele>447</ele>
</trkpt>
<trkpt lat="39.645594991743565" lon="2.469556024298072">
<ele>446</ele>
</trkpt>
<trkpt lat="39.645577976480126" lon="2.469512019306421">
<ele>446</ele>
</trkpt>
<trkpt lat="39.645647965371609" lon="2.46940397657454">
<ele>446</ele>
</trkpt>
<trkpt lat="39.645706973969936" lon="2.469340022653341">
<ele>445</ele>
</trkpt>
<trkpt lat="39.645765982568264" lon="2.46927397325635">
<ele>444</ele>
</trkpt>
<trkpt lat="39.645827002823353" lon="2.46923197992146">
<ele>444</ele>
</trkpt>
<trkpt lat="39.645827002823353" lon="2.46923197992146">
<ele>444</ele>
</trkpt>
<trkpt lat="39.64581904001534" lon="2.469241032376885">
<ele>443</ele>
</trkpt>
<trkpt lat="39.645823985338211" lon="2.469242038205266">
<ele>442</ele>
</trkpt>
<trkpt lat="39.645820967853069" lon="2.469233991578221">
<ele>442</ele>
</trkpt>
<trkpt lat="39.645820967853069" lon="2.469233991578221">
<ele>442</ele>
</trkpt>
<trkpt lat="39.645820967853069" lon="2.469233991578221">
<ele>442</ele>
</trkpt>
<trkpt lat="39.645820967853069" lon="2.469233991578221">
<ele>442</ele>
</trkpt>
<trkpt lat="39.645814010873437" lon="2.46923197992146">
<ele>442</ele>
</trkpt>
<trkpt lat="39.645814010873437" lon="2.46923197992146">
<ele>442</ele>
</trkpt>
<trkpt lat="39.64577604085207" lon="2.469279002398253">
<ele>442</ele>
</trkpt>
<trkpt lat="39.645680990070105" lon="2.469374975189567">
<ele>442</ele>
</trkpt>
<trkpt lat="39.645616030320525" lon="2.469470025971532">
<ele>442</ele>
</trkpt>
<trkpt lat="39.645552998408675" lon="2.469515036791563">
<ele>442</ele>
</trkpt>
<trkpt lat="39.645451996475458" lon="2.469491986557841">
<ele>442</ele>
</trkpt>
<trkpt lat="39.645368009805679" lon="2.469399031251669">
<ele>440</ele>
</trkpt>
<trkpt lat="39.645357029512525" lon="2.46938000433147">
<ele>439</ele>
</trkpt>
<trkpt lat="39.645169023424387" lon="2.469343040138483">
<ele>437</ele>
</trkpt>
<trkpt lat="39.645128035917878" lon="2.46933801099658">
<ele>436</ele>
</trkpt>
<trkpt lat="39.644936006516218" lon="2.4691850412637">
<ele>434</ele>
</trkpt>
<trkpt lat="39.644880015403032" lon="2.469130977988243">
<ele>432</ele>
</trkpt>
<trkpt lat="39.644636018201709" lon="2.469089990481734">
<ele>431</ele>
</trkpt>
<trkpt lat="39.6445950306952" lon="2.469104994088411">
<ele>429</ele>
</trkpt>
<trkpt lat="39.644559994339943" lon="2.469098037108779">
<ele>428</ele>
</trkpt>
<trkpt lat="39.644499979913235" lon="2.469040034338832">
<ele>426</ele>
</trkpt>
<trkpt lat="39.64442303404212" lon="2.468945989385247">
<ele>424</ele>
</trkpt>
<trkpt lat="39.644367964938283" lon="2.468859991058707">
<ele>421</ele>
</trkpt>
<trkpt lat="39.644341981038451" lon="2.468803999945521">
<ele>419</ele>
</trkpt>
<trkpt lat="39.644278027117252" lon="2.468599984422326">
<ele>417</ele>
</trkpt>
<trkpt lat="39.644217006862164" lon="2.468525972217321">
<ele>414</ele>
</trkpt>
<trkpt lat="39.644066970795393" lon="2.468411978334189">
<ele>412</ele>
</trkpt>
<trkpt lat="39.644008968025446" lon="2.468369984999299">
<ele>410</ele>
</trkpt>
<trkpt lat="39.643858009949327" lon="2.468192037194967">
<ele>407</ele>
</trkpt>
<trkpt lat="39.643719037994742" lon="2.468106038868427">
<ele>405</ele>
</trkpt>
<trkpt lat="39.643657011911273" lon="2.468051975592971">
<ele>402</ele>
</trkpt>
<trkpt lat="39.643601020798087" lon="2.467977963387966">
<ele>400</ele>
</trkpt>
<trkpt lat="39.643595991656184" lon="2.467962959781289">
<ele>398</ele>
</trkpt>
<trkpt lat="39.643546035513282" lon="2.467943010851741">
<ele>395</ele>
</trkpt>
<trkpt lat="39.643555004149675" lon="2.467892970889807">
<ele>393</ele>
</trkpt>
<trkpt lat="39.643534971401095" lon="2.467814013361931">
<ele>391</ele>
</trkpt>
<trkpt lat="39.643465988337994" lon="2.467752993106842">
<ele>389</ele>
</trkpt>
<trkpt lat="39.643433969467878" lon="2.467710999771953">
<ele>388</ele>
</trkpt>
<trkpt lat="39.643379990011454" lon="2.467673029750586">
<ele>386</ele>
</trkpt>
<trkpt lat="39.643370015546679" lon="2.46766297146678">
<ele>385</ele>
</trkpt>
<trkpt lat="39.643476968631148" lon="2.467481000348926">
<ele>383</ele>
</trkpt>
<trkpt lat="39.643551986664534" lon="2.467485023662448">
<ele>381</ele>
</trkpt>
<trkpt lat="39.643623987212777" lon="2.467487035319209">
<ele>380</ele>
</trkpt>
<trkpt lat="39.643756002187729" lon="2.467433977872133">
<ele>378</ele>
</trkpt>
<trkpt lat="39.643842000514269" lon="2.467343034222722">
<ele>376</ele>
</trkpt>
<trkpt lat="39.643884999677539" lon="2.467291988432407">
<ele>376</ele>
</trkpt>
<trkpt lat="39.643962029367685" lon="2.467172965407372">
<ele>376</ele>
</trkpt>
<trkpt lat="39.643996981903911" lon="2.467096019536257">
<ele>375</ele>
</trkpt>
<trkpt lat="39.644007962197065" lon="2.466951012611389">
<ele>374</ele>
</trkpt>
<trkpt lat="39.644051967188716" lon="2.466784967109561">
<ele>374</ele>
</trkpt>
<trkpt lat="39.644121034070849" lon="2.466624034568667">
<ele>373</ele>
</trkpt>
<trkpt lat="39.644148023799062" lon="2.466539964079857">
<ele>373</ele>
</trkpt>
<trkpt lat="39.644200997427106" lon="2.466408032923937">
<ele>372</ele>
</trkpt>
<trkpt lat="39.644243996590376" lon="2.466348018497229">
<ele>372</ele>
</trkpt>
<trkpt lat="39.644372994080186" lon="2.466210974380374">
<ele>371</ele>
</trkpt>
<trkpt lat="39.644544990733266" lon="2.466188007965684">
<ele>371</ele>
</trkpt>
<trkpt lat="39.644628977403045" lon="2.466165963560343">
<ele>371</ele>
</trkpt>
<trkpt lat="39.644738025963306" lon="2.46611500158906">
<ele>372</ele>
</trkpt>
<trkpt lat="39.644843973219395" lon="2.4660490360111">
<ele>372</ele>
</trkpt>
<trkpt lat="39.644962996244431" lon="2.466020034626126">
<ele>372</ele>
</trkpt>
<trkpt lat="39.645016975700855" lon="2.465991033241153">
<ele>372</ele>
</trkpt>
<trkpt lat="39.645080007612705" lon="2.465893970802426">
<ele>372</ele>
</trkpt>
<trkpt lat="39.645104985684156" lon="2.465763967484236">
<ele>372</ele>
</trkpt>
<trkpt lat="39.645061986520886" lon="2.465661037713289">
<ele>373</ele>
</trkpt>
<trkpt lat="39.645053017884493" lon="2.465591970831156">
<ele>373</ele>
</trkpt>
<trkpt lat="39.645033990964293" lon="2.465491974726319">
<ele>371</ele>
</trkpt>
<trkpt lat="39.644953021779656" lon="2.465337999165058">
<ele>369</ele>
</trkpt>
<trkpt lat="39.645053017884493" lon="2.465240014716983">
<ele>368</ele>
</trkpt>
<trkpt lat="39.645071960985661" lon="2.465025018900633">
<ele>366</ele>
</trkpt>
<trkpt lat="39.645063998177648" lon="2.464940026402473">
<ele>365</ele>
</trkpt>
<trkpt lat="39.645074978470802" lon="2.464753026142716">
<ele>363</ele>
</trkpt>
<trkpt lat="39.645077995955944" lon="2.464622016996145">
<ele>361</ele>
</trkpt>
<trkpt lat="39.645072966814041" lon="2.464579017832875">
<ele>360</ele>
</trkpt>
<trkpt lat="39.645069027319551" lon="2.464510034769774">
<ele>358</ele>
</trkpt>
<trkpt lat="39.64509098790586" lon="2.464356981217861">
<ele>356</ele>
</trkpt>
<trkpt lat="39.645098028704524" lon="2.464267965406179">
<ele>355</ele>
</trkpt>
<trkpt lat="39.645119989290833" lon="2.464078031480312">
<ele>354</ele>
</trkpt>
<trkpt lat="39.645139016211033" lon="2.463910980150104">
<ele>353</ele>
</trkpt>
<trkpt lat="39.645135998725891" lon="2.463798997923732">
<ele>351</ele>
</trkpt>
<trkpt lat="39.645182015374303" lon="2.463582996279001">
<ele>349</ele>
</trkpt>
<trkpt lat="39.645227026194334" lon="2.463578972965479">
<ele>348</ele>
</trkpt>
<trkpt lat="39.645249992609024" lon="2.463605040684342">
<ele>348</ele>
</trkpt>
<trkpt lat="39.645249992609024" lon="2.46362398378551">
<ele>346</ele>
</trkpt>
<trkpt lat="39.645276982337236" lon="2.463810984045267">
<ele>344</ele>
</trkpt>
<trkpt lat="39.645298020914197" lon="2.463854989036918">
<ele>343</ele>
</trkpt>
<trkpt lat="39.645349988713861" lon="2.463958002626896">
<ele>341</ele>
</trkpt>
<trkpt lat="39.645437998697162" lon="2.463738983497024">
<ele>340</ele>
</trkpt>
<trkpt lat="39.645469011738896" lon="2.463619960471988">
<ele>339</ele>
</trkpt>
<trkpt lat="39.64547798037529" lon="2.463584002107382">
<ele>338</ele>
</trkpt>
<trkpt lat="39.645486027002335" lon="2.463410999625921">
<ele>336</ele>
</trkpt>
<trkpt lat="39.645479992032051" lon="2.463378980755806">
<ele>334</ele>
</trkpt>
<trkpt lat="39.645469011738896" lon="2.463302034884691">
<ele>333</ele>
</trkpt>
<trkpt lat="39.645427018404007" lon="2.463122997432947">
<ele>331</ele>
</trkpt>
<trkpt lat="39.645410003140569" lon="2.46299902908504">
<ele>331</ele>
</trkpt>
<trkpt lat="39.645457025617361" lon="2.462865002453327">
<ele>329</ele>
</trkpt>
<trkpt lat="39.645531959831715" lon="2.462841030210257">
<ele>327</ele>
</trkpt>
<trkpt lat="39.645608989521861" lon="2.4629130307585">
<ele>326</ele>
</trkpt>
<trkpt lat="39.645636985078454" lon="2.462928034365177">
<ele>324</ele>
</trkpt>
<trkpt lat="39.645733963698149" lon="2.463029036298394">
<ele>323</ele>
</trkpt>
<trkpt lat="39.645808981731534" lon="2.463175971060991">
<ele>322</ele>
</trkpt>
<trkpt lat="39.645830020308495" lon="2.463231040164828">
<ele>320</ele>
</trkpt>
<trkpt lat="39.645893974229693" lon="2.463442012667656">
<ele>319</ele>
</trkpt>
<trkpt lat="39.64590797200799" lon="2.46349398046732">
<ele>317</ele>
</trkpt>
<trkpt lat="39.645937979221344" lon="2.463584002107382">
<ele>316</ele>
</trkpt>
<trkpt lat="39.645964968949556" lon="2.463681986555457">
<ele>314</ele>
</trkpt>
<trkpt lat="39.646025989204645" lon="2.463761027902365">
<ele>313</ele>
</trkpt>
<trkpt lat="39.646124979481101" lon="2.463823975995183">
<ele>312</ele>
</trkpt>
<trkpt lat="39.646133026108146" lon="2.463825987651944">
<ele>310</ele>
</trkpt>
<trkpt lat="39.646236961707473" lon="2.463849037885666">
<ele>309</ele>
</trkpt>
<trkpt lat="39.646231010556221" lon="2.463754992932081">
<ele>307</ele>
</trkpt>
<trkpt lat="39.646220030263066" lon="2.463734960183501">
<ele>305</ele>
</trkpt>
<trkpt lat="39.646170996129513" lon="2.463567992672324">
<ele>305</ele>
</trkpt>
<trkpt lat="39.646160015836358" lon="2.463523987680674">
<ele>303</ele>
</trkpt>
<trkpt lat="39.646152975037694" lon="2.463323995471001">
<ele>302</ele>
</trkpt>
<trkpt lat="39.646177031099796" lon="2.463187035173178">
<ele>300</ele>
</trkpt>
<trkpt lat="39.646191028878093" lon="2.463165996596217">
<ele>299</ele>
</trkpt>
<trkpt lat="39.646238973364234" lon="2.46306398883462">
<ele>298</ele>
</trkpt>
<trkpt lat="39.646250959485769" lon="2.462982013821602">
<ele>297</ele>
</trkpt>
<trkpt lat="39.646288007497787" lon="2.46286902576685">
<ele>296</ele>
</trkpt>
<trkpt lat="39.646319020539522" lon="2.462708009406924">
<ele>295</ele>
</trkpt>
<trkpt lat="39.646317008882761" lon="2.46265696361661">
<ele>294</ele>
</trkpt>
<trkpt lat="39.646279960870743" lon="2.46259099803865">
<ele>293</ele>
</trkpt>
<trkpt lat="39.646127996966243" lon="2.462458983063698">
<ele>291</ele>
</trkpt>
<trkpt lat="39.646067982539535" lon="2.462331997230649">
<ele>291</ele>
</trkpt>
<trkpt lat="39.646008973941207" lon="2.462201993912458">
<ele>290</ele>
</trkpt>
<trkpt lat="39.645981984212995" lon="2.46209898032248">
<ele>290</ele>
</trkpt>
<trkpt lat="39.645987013354897" lon="2.462049024179578">
<ele>290</ele>
</trkpt>
<trkpt lat="39.645987013354897" lon="2.462049024179578">
<ele>290</ele>
</trkpt>
<trkpt lat="39.645987013354897" lon="2.462049024179578">
<ele>289</ele>
</trkpt>
<trkpt lat="39.645987013354897" lon="2.462049024179578">
<ele>290</ele>
</trkpt>
<trkpt lat="39.645987013354897" lon="2.462049024179578">
<ele>290</ele>
</trkpt>
<trkpt lat="39.645987013354897" lon="2.462049024179578">
<ele>290</ele>
</trkpt>
<trkpt lat="39.645988019183278" lon="2.462048018351197">
<ele>290</ele>
</trkpt>
</trkseg>
</trk>
</gpx>
