<?xml version="1.0" encoding="UTF-8"?>
<gpx version="1.1"
creator="Smartprofil-Office - http://www.rother.de"
xmlns:xsi="http://www.w3.org/2001/XMLSchema-instance"
xmlns="http://www.topografix.com/GPX/1/1"
xsi:schemaLocation="http://www.topografix.com/GPX/1/1 http://www.topografix.com/GPX/1/1/gpx.xsd">
<metadata>

<bounds minlat="39.600489037111402" minlon="2.464070990681648" maxlat="39.623935986310244" maxlon="2.475690990686417"/>
</metadata>
<wpt lat="39.600491970777512" lon="2.475665006786585">
<ele>160</ele>
<name>09_Ca l’Amo en Biel (1)</name>
<cmt></cmt>
<desc></desc>
<sym>Crossing</sym>
</wpt>

<wpt lat="39.606808992102742" lon="2.470366973429918">
<ele>180</ele>
<name>09_Finca Galatzó (2)</name>
<cmt></cmt>
<desc></desc>
<sym>Crossing</sym>
</wpt>

<wpt lat="39.61380603723228" lon="2.465090984478593">
<ele>240</ele>
<name>09_Font de sa Cometa (3)</name>
<cmt></cmt>
<desc></desc>
<sym>Crossing</sym>
</wpt>

<wpt lat="39.623635997995734" lon="2.466535018756986">
<ele>245</ele>
<name>09_Ses Sinies (4)</name>
<cmt></cmt>
<desc></desc>
<sym>Crossing</sym>
</wpt>

<wpt lat="39.622215013951063" lon="2.464070990681648">
<ele>300</ele>
<name>09_Mirador de ses Sínies (5)</name>
<cmt></cmt>
<desc></desc>
<sym>Crossing</sym>
</wpt>

<wpt lat="39.606808992102742" lon="2.470366973429918">
<ele>180</ele>
<name>09_Finca Galatzó (2)</name>
<cmt></cmt>
<desc></desc>
<sym>Crossing</sym>
</wpt>

<trk>
<name>Mal_09_Finca Galatzo</name>
<trkseg>
<trkpt lat="39.600491970777512" lon="2.475665006786585">
<ele>160</ele>
</trkpt>
<trkpt lat="39.60048995912075" lon="2.475667018443346">
<ele>160</ele>
</trkpt>
<trkpt lat="39.600489037111402" lon="2.475668024271727">
<ele>161</ele>
</trkpt>
<trkpt lat="39.600500017404556" lon="2.475679004564881">
<ele>161</ele>
</trkpt>
<trkpt lat="39.600494988262653" lon="2.475690990686417">
<ele>161</ele>
</trkpt>
<trkpt lat="39.600500017404556" lon="2.475687973201275">
<ele>162</ele>
</trkpt>
<trkpt lat="39.600500017404556" lon="2.475687973201275">
<ele>161</ele>
</trkpt>
<trkpt lat="39.600571012124419" lon="2.475619995966554">
<ele>161</ele>
</trkpt>
<trkpt lat="39.600627003237605" lon="2.475553024560213">
<ele>161</ele>
</trkpt>
<trkpt lat="39.600689029321074" lon="2.475477000698447">
<ele>162</ele>
</trkpt>
<trkpt lat="39.600774021819234" lon="2.475311961025">
<ele>162</ele>
</trkpt>
<trkpt lat="39.600823977962136" lon="2.475244989618659">
<ele>162</ele>
</trkpt>
<trkpt lat="39.60091701708734" lon="2.475136024877429">
<ele>162</ele>
</trkpt>
<trkpt lat="39.600935960188508" lon="2.475126972422004">
<ele>163</ele>
</trkpt>
<trkpt lat="39.601130001246929" lon="2.47500903904438">
<ele>163</ele>
</trkpt>
<trkpt lat="39.601249024271965" lon="2.474911976605654">
<ele>164</ele>
</trkpt>
<trkpt lat="39.601267967373133" lon="2.47488297522068">
<ele>164</ele>
</trkpt>
<trkpt lat="39.601425966247916" lon="2.474704021587968">
<ele>163</ele>
</trkpt>
<trkpt lat="39.601464020088315" lon="2.474677031859756">
<ele>165</ele>
</trkpt>
<trkpt lat="39.601543983444571" lon="2.474610982462764">
<ele>166</ele>
</trkpt>
<trkpt lat="39.601610032841563" lon="2.474545016884804">
<ele>165</ele>
</trkpt>
<trkpt lat="39.60168999619782" lon="2.474420964717865">
<ele>165</ele>
</trkpt>
<trkpt lat="39.601702988147736" lon="2.474403027445078">
<ele>164</ele>
</trkpt>
<trkpt lat="39.601860987022519" lon="2.474149977788329">
<ele>166</ele>
</trkpt>
<trkpt lat="39.60190499201417" lon="2.474035983905196">
<ele>166</ele>
</trkpt>
<trkpt lat="39.601945979520679" lon="2.47393598780036">
<ele>165</ele>
</trkpt>
<trkpt lat="39.602000964805484" lon="2.473686039447784">
<ele>165</ele>
</trkpt>
<trkpt lat="39.602022003382444" lon="2.473579002544284">
<ele>165</ele>
</trkpt>
<trkpt lat="39.602041030302644" lon="2.47344397008419">
<ele>166</ele>
</trkpt>
<trkpt lat="39.602056033909321" lon="2.473320001736283">
<ele>166</ele>
</trkpt>
<trkpt lat="39.602072965353727" lon="2.473196033388376">
<ele>166</ele>
</trkpt>
<trkpt lat="39.602070031687617" lon="2.473152028396726">
<ele>165</ele>
</trkpt>
<trkpt lat="39.602073971182108" lon="2.473088996484876">
<ele>166</ele>
</trkpt>
<trkpt lat="39.60207799449563" lon="2.473039962351322">
<ele>166</ele>
</trkpt>
<trkpt lat="39.602071959525347" lon="2.472925968468189">
<ele>167</ele>
</trkpt>
<trkpt lat="39.602063996717334" lon="2.472750032320619">
<ele>167</ele>
</trkpt>
<trkpt lat="39.602068020030856" lon="2.472696974873543">
<ele>166</ele>
</trkpt>
<trkpt lat="39.602069025859237" lon="2.472654981538653">
<ele>167</ele>
</trkpt>
<trkpt lat="39.602112025022507" lon="2.472412995994091">
<ele>168</ele>
</trkpt>
<trkpt lat="39.602125016972423" lon="2.47238801792264">
<ele>168</ele>
</trkpt>
<trkpt lat="39.602157035842538" lon="2.472194982692599">
<ele>168</ele>
</trkpt>
<trkpt lat="39.602174973115325" lon="2.472000019624829">
<ele>168</ele>
</trkpt>
<trkpt lat="39.602216966450214" lon="2.471908992156386">
<ele>168</ele>
</trkpt>
<trkpt lat="39.602308999747038" lon="2.471756022423506">
<ele>169</ele>
</trkpt>
<trkpt lat="39.602384017780423" lon="2.471686033532023">
<ele>169</ele>
</trkpt>
<trkpt lat="39.60242098197341" lon="2.471656026318669">
<ele>169</ele>
</trkpt>
<trkpt lat="39.602519972249866" lon="2.471443964168429">
<ele>169</ele>
</trkpt>
<trkpt lat="39.602599013596773" lon="2.471314966678619">
<ele>169</ele>
</trkpt>
<trkpt lat="39.602631032466888" lon="2.471280014142394">
<ele>169</ele>
</trkpt>
<trkpt lat="39.602718036621809" lon="2.471136013045907">
<ele>170</ele>
</trkpt>
<trkpt lat="39.602752989158034" lon="2.471086978912354">
<ele>169</ele>
</trkpt>
<trkpt lat="39.602905958890915" lon="2.470940966159105">
<ele>170</ele>
</trkpt>
<trkpt lat="39.602906964719296" lon="2.470933003351092">
<ele>172</ele>
</trkpt>
<trkpt lat="39.603016013279557" lon="2.470765030011535">
<ele>172</ele>
</trkpt>
<trkpt lat="39.603049037978053" lon="2.470703003928065">
<ele>173</ele>
</trkpt>
<trkpt lat="39.603120032697916" lon="2.470551040023565">
<ele>174</ele>
</trkpt>
<trkpt lat="39.603196978569031" lon="2.470458000898361">
<ele>173</ele>
</trkpt>
<trkpt lat="39.603355983272195" lon="2.470394968986511">
<ele>175</ele>
</trkpt>
<trkpt lat="39.603507025167346" lon="2.470324980095029">
<ele>176</ele>
</trkpt>
<trkpt lat="39.603638034313917" lon="2.470269994810224">
<ele>176</ele>
</trkpt>
<trkpt lat="39.603692013770342" lon="2.470255997031927">
<ele>177</ele>
</trkpt>
<trkpt lat="39.603935005143285" lon="2.470137979835272">
<ele>177</ele>
</trkpt>
<trkpt lat="39.603996025398374" lon="2.470101015642285">
<ele>178</ele>
</trkpt>
<trkpt lat="39.604094009846449" lon="2.470085006207228">
<ele>179</ele>
</trkpt>
<trkpt lat="39.604239016771317" lon="2.470075031742454">
<ele>179</ele>
</trkpt>
<trkpt lat="39.604406990110874" lon="2.470130017027259">
<ele>180</ele>
</trkpt>
<trkpt lat="39.604429034516215" lon="2.470122976228595">
<ele>180</ele>
</trkpt>
<trkpt lat="39.604464992880821" lon="2.470146026462317">
<ele>181</ele>
</trkpt>
<trkpt lat="39.604605976492167" lon="2.470216015353799">
<ele>182</ele>
</trkpt>
<trkpt lat="39.604749977588654" lon="2.470259014517069">
<ele>182</ele>
</trkpt>
<trkpt lat="39.604860031977296" lon="2.470308970659971">
<ele>182</ele>
</trkpt>
<trkpt lat="39.604881992563605" lon="2.470319028943777">
<ele>182</ele>
</trkpt>
<trkpt lat="39.604991963133216" lon="2.470359010621905">
<ele>182</ele>
</trkpt>
<trkpt lat="39.605031022801995" lon="2.470375020056963">
<ele>181</ele>
</trkpt>
<trkpt lat="39.605136970058084" lon="2.470389017835259">
<ele>181</ele>
</trkpt>
<trkpt lat="39.605291029438376" lon="2.470459006726742">
<ele>180</ele>
</trkpt>
<trkpt lat="39.605330005288124" lon="2.470470992848277">
<ele>180</ele>
</trkpt>
<trkpt lat="39.605374010279775" lon="2.470482978969812">
<ele>181</ele>
</trkpt>
<trkpt lat="39.605528991669416" lon="2.470505023375154">
<ele>179</ele>
</trkpt>
<trkpt lat="39.605609038844705" lon="2.470533018931747">
<ele>179</ele>
</trkpt>
<trkpt lat="39.605854041874409" lon="2.47058498673141">
<ele>179</ele>
</trkpt>
<trkpt lat="39.606002988293767" lon="2.470626980066299">
<ele>178</ele>
</trkpt>
<trkpt lat="39.606032995507121" lon="2.470639972016215">
<ele>180</ele>
</trkpt>
<trkpt lat="39.606211027130485" lon="2.470639972016215">
<ele>180</ele>
</trkpt>
<trkpt lat="39.606227036565542" lon="2.470640977844596">
<ele>179</ele>
</trkpt>
<trkpt lat="39.606415964663029" lon="2.470538970082998">
<ele>179</ele>
</trkpt>
<trkpt lat="39.606544962152839" lon="2.470479961484671">
<ele>179</ele>
</trkpt>
<trkpt lat="39.606659961864352" lon="2.470436040312052">
<ele>180</ele>
</trkpt>
<trkpt lat="39.606723999604583" lon="2.470419025048614">
<ele>180</ele>
</trkpt>
<trkpt lat="39.60678300820291" lon="2.470405027270317">
<ele>180</ele>
</trkpt>
<trkpt lat="39.606808992102742" lon="2.470366973429918">
<ele>180</ele>
</trkpt>
<trkpt lat="39.606808992102742" lon="2.470365967601538">
<ele>177</ele>
</trkpt>
<trkpt lat="39.606808992102742" lon="2.470365967601538">
<ele>174</ele>
</trkpt>
<trkpt lat="39.606808992102742" lon="2.470365967601538">
<ele>173</ele>
</trkpt>
<trkpt lat="39.606808992102742" lon="2.470365967601538">
<ele>170</ele>
</trkpt>
<trkpt lat="39.606806980445981" lon="2.47034995816648">
<ele>167</ele>
</trkpt>
<trkpt lat="39.606806980445981" lon="2.47034995816648">
<ele>164</ele>
</trkpt>
<trkpt lat="39.606806980445981" lon="2.47034995816648">
<ele>162</ele>
</trkpt>
<trkpt lat="39.606806980445981" lon="2.47034995816648">
<ele>160</ele>
</trkpt>
<trkpt lat="39.606806980445981" lon="2.47034995816648">
<ele>157</ele>
</trkpt>
<trkpt lat="39.606806980445981" lon="2.47034995816648">
<ele>154</ele>
</trkpt>
<trkpt lat="39.606806980445981" lon="2.47034995816648">
<ele>155</ele>
</trkpt>
<trkpt lat="39.606819972395897" lon="2.470345012843609">
<ele>156</ele>
</trkpt>
<trkpt lat="39.606834976002574" lon="2.470372002571821">
<ele>156</ele>
</trkpt>
<trkpt lat="39.60697503760457" lon="2.470440985634923">
<ele>156</ele>
</trkpt>
<trkpt lat="39.607022982090712" lon="2.470461018383503">
<ele>158</ele>
</trkpt>
<trkpt lat="39.60714996792376" lon="2.470393963158131">
<ele>158</ele>
</trkpt>
<trkpt lat="39.607188021764159" lon="2.470389017835259">
<ele>158</ele>
</trkpt>
<trkpt lat="39.607292041182518" lon="2.470330009236932">
<ele>158</ele>
</trkpt>
<trkpt lat="39.607378039509058" lon="2.47026102617383">
<ele>160</ele>
</trkpt>
<trkpt lat="39.607391031458974" lon="2.47024099342525">
<ele>160</ele>
</trkpt>
<trkpt lat="39.607545007020235" lon="2.470145020633936">
<ele>161</ele>
</trkpt>
<trkpt lat="39.607552969828248" lon="2.470134040340781">
<ele>162</ele>
</trkpt>
<trkpt lat="39.607672998681664" lon="2.470022980123758">
<ele>162</ele>
</trkpt>
<trkpt lat="39.607709962874651" lon="2.469961037859321">
<ele>163</ele>
</trkpt>
<trkpt lat="39.607824040576816" lon="2.469871016219258">
<ele>164</ele>
</trkpt>
<trkpt lat="39.607872990891337" lon="2.469807984307408">
<ele>164</ele>
</trkpt>
<trkpt lat="39.607949014753103" lon="2.469702959060669">
<ele>165</ele>
</trkpt>
<trkpt lat="39.607982961460948" lon="2.469671024009585">
<ele>166</ele>
</trkpt>
<trkpt lat="39.608083963394165" lon="2.469549989327788">
<ele>167</ele>
</trkpt>
<trkpt lat="39.60809301584959" lon="2.469543032348156">
<ele>168</ele>
</trkpt>
<trkpt lat="39.608197035267949" lon="2.469483017921448">
<ele>168</ele>
</trkpt>
<trkpt lat="39.608317986130714" lon="2.469335999339819">
<ele>168</ele>
</trkpt>
<trkpt lat="39.608420999720693" lon="2.469220999628305">
<ele>168</ele>
</trkpt>
<trkpt lat="39.608433991670609" lon="2.469215970486403">
<ele>168</ele>
</trkpt>
<trkpt lat="39.60858503356576" lon="2.469121003523469">
<ele>169</ele>
</trkpt>
<trkpt lat="39.608605988323689" lon="2.469083033502102">
<ele>169</ele>
</trkpt>
<trkpt lat="39.608712019398808" lon="2.468940038233995">
<ele>169</ele>
</trkpt>
<trkpt lat="39.608771027997136" lon="2.468901984393597">
<ele>170</ele>
</trkpt>
<trkpt lat="39.608911005780101" lon="2.468854961916804">
<ele>170</ele>
</trkpt>
<trkpt lat="39.609013013541698" lon="2.468816991895437">
<ele>170</ele>
</trkpt>
<trkpt lat="39.609173024073243" lon="2.468823026865721">
<ele>170</ele>
</trkpt>
<trkpt lat="39.609229015186429" lon="2.468838030472398">
<ele>170</ele>
</trkpt>
<trkpt lat="39.609348038211465" lon="2.468856973573566">
<ele>171</ele>
</trkpt>
<trkpt lat="39.609501007944345" lon="2.468826966360211">
<ele>171</ele>
</trkpt>
<trkpt lat="39.609555993229151" lon="2.468796959146857">
<ele>171</ele>
</trkpt>
<trkpt lat="39.609652971848845" lon="2.468747003003955">
<ele>172</ele>
</trkpt>
<trkpt lat="39.609760008752346" lon="2.46871598996222">
<ele>173</ele>
</trkpt>
<trkpt lat="39.609921025112271" lon="2.468681959435344">
<ele>173</ele>
</trkpt>
<trkpt lat="39.61000501178205" lon="2.468664022162557">
<ele>173</ele>
</trkpt>
<trkpt lat="39.610124034807086" lon="2.468643989413977">
<ele>174</ele>
</trkpt>
<trkpt lat="39.610201986506581" lon="2.468592021614313">
<ele>174</ele>
</trkpt>
<trkpt lat="39.610321009531617" lon="2.468549022451043">
<ele>175</ele>
</trkpt>
<trkpt lat="39.610419999808073" lon="2.46854399330914">
<ele>175</ele>
</trkpt>
<trkpt lat="39.610580010339618" lon="2.468506023287773">
<ele>176</ele>
</trkpt>
<trkpt lat="39.610615968704224" lon="2.46850099414587">
<ele>176</ele>
</trkpt>
<trkpt lat="39.610724011436105" lon="2.468411978334189">
<ele>177</ele>
</trkpt>
<trkpt lat="39.610747983679175" lon="2.468304019421339">
<ele>177</ele>
</trkpt>
<trkpt lat="39.610768016427755" lon="2.468167981132865">
<ele>178</ele>
</trkpt>
<trkpt lat="39.610764998942614" lon="2.46815599501133">
<ele>179</ele>
</trkpt>
<trkpt lat="39.610753012821078" lon="2.468141997233033">
<ele>179</ele>
</trkpt>
<trkpt lat="39.610773967579007" lon="2.468012999743223">
<ele>180</ele>
</trkpt>
<trkpt lat="39.610789977014065" lon="2.467957008630037">
<ele>180</ele>
</trkpt>
<trkpt lat="39.610828030854464" lon="2.467865981161594">
<ele>182</ele>
</trkpt>
<trkpt lat="39.610883016139269" lon="2.467700019478798">
<ele>182</ele>
</trkpt>
<trkpt lat="39.610896008089185" lon="2.467664983123541">
<ele>183</ele>
</trkpt>
<trkpt lat="39.610958034172654" lon="2.46757697314024">
<ele>184</ele>
</trkpt>
<trkpt lat="39.610989969223738" lon="2.467551995068789">
<ele>185</ele>
</trkpt>
<trkpt lat="39.611146962270141" lon="2.467496003955603">
<ele>186</ele>
</trkpt>
<trkpt lat="39.611264979466796" lon="2.467416962608695">
<ele>186</ele>
</trkpt>
<trkpt lat="39.611293980851769" lon="2.467389972880483">
<ele>188</ele>
</trkpt>
<trkpt lat="39.611448962241411" lon="2.467314032837749">
<ele>189</ele>
</trkpt>
<trkpt lat="39.611518029123545" lon="2.467266004532576">
<ele>190</ele>
</trkpt>
<trkpt lat="39.611608972772956" lon="2.467208001762629">
<ele>190</ele>
</trkpt>
<trkpt lat="39.611650966107845" lon="2.467173971235752">
<ele>192</ele>
</trkpt>
<trkpt lat="39.611764037981629" lon="2.467109011486173">
<ele>193</ele>
</trkpt>
<trkpt lat="39.611816005781293" lon="2.46701798401773">
<ele>194</ele>
</trkpt>
<trkpt lat="39.611845007166266" lon="2.466922011226416">
<ele>195</ele>
</trkpt>
<trkpt lat="39.611907033249736" lon="2.466831989586353">
<ele>196</ele>
</trkpt>
<trkpt lat="39.611986996605992" lon="2.466691005975008">
<ele>197</ele>
</trkpt>
<trkpt lat="39.612094033509493" lon="2.46658899821341">
<ele>198</ele>
</trkpt>
<trkpt lat="39.612118005752563" lon="2.466571982949972">
<ele>199</ele>
</trkpt>
<trkpt lat="39.612199980765581" lon="2.466533007100225">
<ele>200</ele>
</trkpt>
<trkpt lat="39.612249014899135" lon="2.466451032087207">
<ele>201</ele>
</trkpt>
<trkpt lat="39.612282961606979" lon="2.466322034597397">
<ele>202</ele>
</trkpt>
<trkpt lat="39.612292014062405" lon="2.466311976313591">
<ele>203</ele>
</trkpt>
<trkpt lat="39.61241103708744" lon="2.466290015727282">
<ele>204</ele>
</trkpt>
<trkpt lat="39.612438026815653" lon="2.466300996020436">
<ele>206</ele>
</trkpt>
<trkpt lat="39.612469039857388" lon="2.466299990192056">
<ele>206</ele>
</trkpt>
<trkpt lat="39.612584039568901" lon="2.466261014342308">
<ele>207</ele>
</trkpt>
<trkpt lat="39.612683029845357" lon="2.466254979372025">
<ele>208</ele>
</trkpt>
<trkpt lat="39.61279702372849" lon="2.466319017112255">
<ele>209</ele>
</trkpt>
<trkpt lat="39.612867012619972" lon="2.466382971033454">
<ele>210</ele>
</trkpt>
<trkpt lat="39.612983018159866" lon="2.466435022652149">
<ele>210</ele>
</trkpt>
<trkpt lat="39.613092988729477" lon="2.466490007936955">
<ele>212</ele>
</trkpt>
<trkpt lat="39.61312098428607" lon="2.466494031250477">
<ele>212</ele>
</trkpt>
<trkpt lat="39.613258028402925" lon="2.466477015987039">
<ele>212</ele>
</trkpt>
<trkpt lat="39.613375961780548" lon="2.466448014602065">
<ele>213</ele>
</trkpt>
<trkpt lat="39.613449973985553" lon="2.466487996280193">
<ele>214</ele>
</trkpt>
<trkpt lat="39.613467995077372" lon="2.466500988230109">
<ele>215</ele>
</trkpt>
<trkpt lat="39.613619958981872" lon="2.466612970456481">
<ele>215</ele>
</trkpt>
<trkpt lat="39.613683996722102" lon="2.466625040397048">
<ele>216</ele>
</trkpt>
<trkpt lat="39.613780975341797" lon="2.46652596630156">
<ele>218</ele>
</trkpt>
<trkpt lat="39.613790027797222" lon="2.466512974351645">
<ele>220</ele>
</trkpt>
<trkpt lat="39.613876026123762" lon="2.466410966590047">
<ele>221</ele>
</trkpt>
<trkpt lat="39.613881977275014" lon="2.466399986296892">
<ele>222</ele>
</trkpt>
<trkpt lat="39.613982979208231" lon="2.466237964108586">
<ele>224</ele>
</trkpt>
<trkpt lat="39.61406797170639" lon="2.466122964397073">
<ele>225</ele>
</trkpt>
<trkpt lat="39.61415296420455" lon="2.466026991605759">
<ele>227</ele>
</trkpt>
<trkpt lat="39.614213984459639" lon="2.465958008542657">
<ele>228</ele>
</trkpt>
<trkpt lat="39.614298976957798" lon="2.465845020487905">
<ele>230</ele>
</trkpt>
<trkpt lat="39.614348011091352" lon="2.465719962492585">
<ele>230</ele>
</trkpt>
<trkpt lat="39.614347005262971" lon="2.465575039386749">
<ele>231</ele>
</trkpt>
<trkpt lat="39.614335019141436" lon="2.465574033558369">
<ele>231</ele>
</trkpt>
<trkpt lat="39.6141969691962" lon="2.465564981102943">
<ele>232</ele>
</trkpt>
<trkpt lat="39.614096973091364" lon="2.465604040771723">
<ele>233</ele>
</trkpt>
<trkpt lat="39.614085992798209" lon="2.465604040771723">
<ele>233</ele>
</trkpt>
<trkpt lat="39.613954983651638" lon="2.465576967224479">
<ele>233</ele>
</trkpt>
<trkpt lat="39.613858005031943" lon="2.465595994144678">
<ele>234</ele>
</trkpt>
<trkpt lat="39.613796984776855" lon="2.465558024123311">
<ele>235</ele>
</trkpt>
<trkpt lat="39.613687014207244" lon="2.465473031625152">
<ele>235</ele>
</trkpt>
<trkpt lat="39.613677961751819" lon="2.465431960299611">
<ele>235</ele>
</trkpt>
<trkpt lat="39.613714003935456" lon="2.465316038578749">
<ele>236</ele>
</trkpt>
<trkpt lat="39.613781981170177" lon="2.465248983353376">
<ele>237</ele>
</trkpt>
<trkpt lat="39.61382900364697" lon="2.465116968378425">
<ele>237</ele>
</trkpt>
<trkpt lat="39.613827997818589" lon="2.465109005570412">
<ele>238</ele>
</trkpt>
<trkpt lat="39.613805031403899" lon="2.465119985863566">
<ele>238</ele>
</trkpt>
<trkpt lat="39.613800002261996" lon="2.465109005570412">
<ele>239</ele>
</trkpt>
<trkpt lat="39.613800002261996" lon="2.465102970600128">
<ele>240</ele>
</trkpt>
<trkpt lat="39.61380603723228" lon="2.465090984478593">
<ele>240</ele>
</trkpt>
<trkpt lat="39.61380603723228" lon="2.465090984478593">
<ele>240</ele>
</trkpt>
<trkpt lat="39.61380603723228" lon="2.465090984478593">
<ele>240</ele>
</trkpt>
<trkpt lat="39.61380603723228" lon="2.465090984478593">
<ele>241</ele>
</trkpt>
<trkpt lat="39.61380603723228" lon="2.465090984478593">
<ele>241</ele>
</trkpt>
<trkpt lat="39.61380603723228" lon="2.465090984478593">
<ele>241</ele>
</trkpt>
<trkpt lat="39.61380603723228" lon="2.465090984478593">
<ele>241</ele>
</trkpt>
<trkpt lat="39.61380603723228" lon="2.465090984478593">
<ele>241</ele>
</trkpt>
<trkpt lat="39.613783992826939" lon="2.465058965608478">
<ele>242</ele>
</trkpt>
<trkpt lat="39.613784998655319" lon="2.465080004185438">
<ele>242</ele>
</trkpt>
<trkpt lat="39.613760020583868" lon="2.465184023603797">
<ele>242</ele>
</trkpt>
<trkpt lat="39.61376303806901" lon="2.465226016938686">
<ele>241</ele>
</trkpt>
<trkpt lat="39.613755997270346" lon="2.465244038030505">
<ele>241</ele>
</trkpt>
<trkpt lat="39.613755997270346" lon="2.465244038030505">
<ele>240</ele>
</trkpt>
<trkpt lat="39.613755997270346" lon="2.465282008051872">
<ele>238</ele>
</trkpt>
<trkpt lat="39.613648960366845" lon="2.465359037742019">
<ele>238</ele>
</trkpt>
<trkpt lat="39.613618031144142" lon="2.465385021641851">
<ele>237</ele>
</trkpt>
<trkpt lat="39.613620964810252" lon="2.465443024411798">
<ele>237</ele>
</trkpt>
<trkpt lat="39.613692965358496" lon="2.465566992759705">
<ele>236</ele>
</trkpt>
<trkpt lat="39.613796984776855" lon="2.465600017458201">
<ele>236</ele>
</trkpt>
<trkpt lat="39.613888012245297" lon="2.465626001358032">
<ele>235</ele>
</trkpt>
<trkpt lat="39.613920031115413" lon="2.465632036328316">
<ele>234</ele>
</trkpt>
<trkpt lat="39.614038970321417" lon="2.465644022449851">
<ele>234</ele>
</trkpt>
<trkpt lat="39.61413100361824" lon="2.465660031884909">
<ele>234</ele>
</trkpt>
<trkpt lat="39.614272993057966" lon="2.465632958337665">
<ele>233</ele>
</trkpt>
<trkpt lat="39.614327978342772" lon="2.465721974149346">
<ele>232</ele>
</trkpt>
<trkpt lat="39.61428003385663" lon="2.465781988576055">
<ele>232</ele>
</trkpt>
<trkpt lat="39.61423602886498" lon="2.465842003002763">
<ele>232</ele>
</trkpt>
<trkpt lat="39.614143995568156" lon="2.465951973572373">
<ele>231</ele>
</trkpt>
<trkpt lat="39.614010974764824" lon="2.466077031567693">
<ele>230</ele>
</trkpt>
<trkpt lat="39.61397803388536" lon="2.466133022680879">
<ele>229</ele>
</trkpt>
<trkpt lat="39.61387300863862" lon="2.466293033212423">
<ele>227</ele>
</trkpt>
<trkpt lat="39.613855993375182" lon="2.466324968263507">
<ele>226</ele>
</trkpt>
<trkpt lat="39.613720960915089" lon="2.466505011543632">
<ele>225</ele>
</trkpt>
<trkpt lat="39.613639991730452" lon="2.466594027355313">
<ele>224</ele>
</trkpt>
<trkpt lat="39.613597998395562" lon="2.466624034568667">
<ele>223</ele>
</trkpt>
<trkpt lat="39.613446034491062" lon="2.466547004878521">
<ele>221</ele>
</trkpt>
<trkpt lat="39.613322988152504" lon="2.466481039300561">
<ele>220</ele>
</trkpt>
<trkpt lat="39.613247970119119" lon="2.4664790276438">
<ele>219</ele>
</trkpt>
<trkpt lat="39.613172030076385" lon="2.466513980180025">
<ele>218</ele>
</trkpt>
<trkpt lat="39.613139005377889" lon="2.466496964916587">
<ele>218</ele>
</trkpt>
<trkpt lat="39.613071028143167" lon="2.466476010158658">
<ele>217</ele>
</trkpt>
<trkpt lat="39.612865000963211" lon="2.466336032375693">
<ele>216</ele>
</trkpt>
<trkpt lat="39.612813033163548" lon="2.466293033212423">
<ele>216</ele>
</trkpt>
<trkpt lat="39.61273499764502" lon="2.466236958280206">
<ele>215</ele>
</trkpt>
<trkpt lat="39.61266903206706" lon="2.466210974380374">
<ele>214</ele>
</trkpt>
<trkpt lat="39.612504998221993" lon="2.466199994087219">
<ele>213</ele>
</trkpt>
<trkpt lat="39.612463004887104" lon="2.466228995472193">
<ele>213</ele>
</trkpt>
<trkpt lat="39.612439032644033" lon="2.466242993250489">
<ele>212</ele>
</trkpt>
<trkpt lat="39.612251026555896" lon="2.466260008513928">
<ele>211</ele>
</trkpt>
<trkpt lat="39.612187994644046" lon="2.466452037915587">
<ele>210</ele>
</trkpt>
<trkpt lat="39.612130997702479" lon="2.466555973514915">
<ele>209</ele>
</trkpt>
<trkpt lat="39.612113982439041" lon="2.466542981564999">
<ele>208</ele>
</trkpt>
<trkpt lat="39.612092021852732" lon="2.466554967686534">
<ele>207</ele>
</trkpt>
<trkpt lat="39.612033013254404" lon="2.466621017083526">
<ele>206</ele>
</trkpt>
<trkpt lat="39.611898986622691" lon="2.466783039271832">
<ele>205</ele>
</trkpt>
<trkpt lat="39.611881971359253" lon="2.466800976544619">
<ele>204</ele>
</trkpt>
<trkpt lat="39.611790021881461" lon="2.466970039531589">
<ele>203</ele>
</trkpt>
<trkpt lat="39.611764959990978" lon="2.467014966532588">
<ele>202</ele>
</trkpt>
<trkpt lat="39.611744005233049" lon="2.467071963474155">
<ele>202</ele>
</trkpt>
<trkpt lat="39.611792033538222" lon="2.467143964022398">
<ele>202</ele>
</trkpt>
<trkpt lat="39.611806031316519" lon="2.467142036184669">
<ele>203</ele>
</trkpt>
<trkpt lat="39.611823968589306" lon="2.467157039791346">
<ele>203</ele>
</trkpt>
<trkpt lat="39.611882977187634" lon="2.467195009812713">
<ele>203</ele>
</trkpt>
<trkpt lat="39.61202597245574" lon="2.467289976775646">
<ele>203</ele>
</trkpt>
<trkpt lat="39.612047011032701" lon="2.467313027009368">
<ele>203</ele>
</trkpt>
<trkpt lat="39.612151030451059" lon="2.467381004244089">
<ele>204</ele>
</trkpt>
<trkpt lat="39.612230993807316" lon="2.46749198064208">
<ele>204</ele>
</trkpt>
<trkpt lat="39.612278016284108" lon="2.467528022825718">
<ele>204</ele>
</trkpt>
<trkpt lat="39.612401984632015" lon="2.467636987566948">
<ele>204</ele>
</trkpt>
<trkpt lat="39.61249896325171" lon="2.46768300421536">
<ele>204</ele>
</trkpt>
<trkpt lat="39.612593008205295" lon="2.46785600669682">
<ele>204</ele>
</trkpt>
<trkpt lat="39.612607005983591" lon="2.467934964224696">
<ele>204</ele>
</trkpt>
<trkpt lat="39.612684035673738" lon="2.468045018613339">
<ele>204</ele>
</trkpt>
<trkpt lat="39.612756036221981" lon="2.468120036646724">
<ele>205</ele>
</trkpt>
<trkpt lat="39.612880004569888" lon="2.468209974467754">
<ele>205</ele>
</trkpt>
<trkpt lat="39.612887967377901" lon="2.46821902692318">
<ele>205</ele>
</trkpt>
<trkpt lat="39.613016964867711" lon="2.468345006927848">
<ele>205</ele>
</trkpt>
<trkpt lat="39.61305602453649" lon="2.468355987221003">
<ele>205</ele>
</trkpt>
<trkpt lat="39.613130958750844" lon="2.468406027182937">
<ele>204</ele>
</trkpt>
<trkpt lat="39.613243024796247" lon="2.468595961108804">
<ele>203</ele>
</trkpt>
<trkpt lat="39.613259034231305" lon="2.468609036877751">
<ele>202</ele>
</trkpt>
<trkpt lat="39.613362969830632" lon="2.468769969418645">
<ele>201</ele>
</trkpt>
<trkpt lat="39.613473024219275" lon="2.468913970515132">
<ele>200</ele>
</trkpt>
<trkpt lat="39.613549970090389" lon="2.469141958281398">
<ele>198</ele>
</trkpt>
<trkpt lat="39.613579977303743" lon="2.469169031828642">
<ele>197</ele>
</trkpt>
<trkpt lat="39.613734958693385" lon="2.469151010736823">
<ele>196</ele>
</trkpt>
<trkpt lat="39.613968981429935" lon="2.469098037108779">
<ele>195</ele>
</trkpt>
<trkpt lat="39.613998988643289" lon="2.469055959954858">
<ele>194</ele>
</trkpt>
<trkpt lat="39.614092027768493" lon="2.468899972736836">
<ele>194</ele>
</trkpt>
<trkpt lat="39.614181965589523" lon="2.468747003003955">
<ele>195</ele>
</trkpt>
<trkpt lat="39.61423896253109" lon="2.468659998849034">
<ele>195</ele>
</trkpt>
<trkpt lat="39.614305011928082" lon="2.468490013852716">
<ele>196</ele>
</trkpt>
<trkpt lat="39.614314986392856" lon="2.4684770219028">
<ele>196</ele>
</trkpt>
<trkpt lat="39.614378018304706" lon="2.468353975564241">
<ele>196</ele>
</trkpt>
<trkpt lat="39.61436896584928" lon="2.468334026634693">
<ele>197</ele>
</trkpt>
<trkpt lat="39.614364020526409" lon="2.468333020806313">
<ele>197</ele>
</trkpt>
<trkpt lat="39.614510033279657" lon="2.468204023316503">
<ele>198</ele>
</trkpt>
<trkpt lat="39.61460298858583" lon="2.468192037194967">
<ele>198</ele>
</trkpt>
<trkpt lat="39.614700973033905" lon="2.468175021931529">
<ele>198</ele>
</trkpt>
<trkpt lat="39.614712037146091" lon="2.46817602775991">
<ele>198</ele>
</trkpt>
<trkpt lat="39.614696027711034" lon="2.468168986961246">
<ele>199</ele>
</trkpt>
<trkpt lat="39.614696027711034" lon="2.468166975304484">
<ele>199</ele>
</trkpt>
<trkpt lat="39.614713964983821" lon="2.468149038031697">
<ele>199</ele>
</trkpt>
<trkpt lat="39.614816978573799" lon="2.468281975015998">
<ele>199</ele>
</trkpt>
<trkpt lat="39.61486098356545" lon="2.468353975564241">
<ele>199</ele>
</trkpt>
<trkpt lat="39.614980006590486" lon="2.468555979430676">
<ele>200</ele>
</trkpt>
<trkpt lat="39.614997021853924" lon="2.468592021614313">
<ele>200</ele>
</trkpt>
<trkpt lat="39.615030968561769" lon="2.46871498413384">
<ele>200</ele>
</trkpt>
<trkpt lat="39.615045972168446" lon="2.468737028539181">
<ele>200</ele>
</trkpt>
<trkpt lat="39.615069022402167" lon="2.468894021585584">
<ele>201</ele>
</trkpt>
<trkpt lat="39.615068016573787" lon="2.468902990221977">
<ele>201</ele>
</trkpt>
<trkpt lat="39.615070028230548" lon="2.468955963850021">
<ele>201</ele>
</trkpt>
<trkpt lat="39.615088971331716" lon="2.46901698410511">
<ele>202</ele>
</trkpt>
<trkpt lat="39.615157032385468" lon="2.469212030991912">
<ele>202</ele>
</trkpt>
<trkpt lat="39.615188967436552" lon="2.469239020720124">
<ele>202</ele>
</trkpt>
<trkpt lat="39.615273959934711" lon="2.46938000433147">
<ele>202</ele>
</trkpt>
<trkpt lat="39.61533104069531" lon="2.469430966302753">
<ele>203</ele>
</trkpt>
<trkpt lat="39.615466995164752" lon="2.469547977671027">
<ele>203</ele>
</trkpt>
<trkpt lat="39.615559028461576" lon="2.469590976834297">
<ele>203</ele>
</trkpt>
<trkpt lat="39.61561200208962" lon="2.469584019854665">
<ele>204</ele>
</trkpt>
<trkpt lat="39.615663969889283" lon="2.469582008197904">
<ele>204</ele>
</trkpt>
<trkpt lat="39.615799002349377" lon="2.46951000764966">
<ele>204</ele>
</trkpt>
<trkpt lat="39.61584996432066" lon="2.469450999051333">
<ele>204</ele>
</trkpt>
<trkpt lat="39.615944009274244" lon="2.469358965754509">
<ele>205</ele>
</trkpt>
<trkpt lat="39.615966975688934" lon="2.469344967976213">
<ele>205</ele>
</trkpt>
<trkpt lat="39.616029001772404" lon="2.469233991578221">
<ele>205</ele>
</trkpt>
<trkpt lat="39.616089016199112" lon="2.469075992703438">
<ele>206</ele>
</trkpt>
<trkpt lat="39.616095973178744" lon="2.46903601102531">
<ele>206</ele>
</trkpt>
<trkpt lat="39.61610502563417" lon="2.468854039907455">
<ele>206</ele>
</trkpt>
<trkpt lat="39.616101002320647" lon="2.468777010217309">
<ele>206</ele>
</trkpt>
<trkpt lat="39.61610896512866" lon="2.468749014660716">
<ele>207</ele>
</trkpt>
<trkpt lat="39.616135032847524" lon="2.468683971092105">
<ele>207</ele>
</trkpt>
<trkpt lat="39.616245003417134" lon="2.468625968322158">
<ele>207</ele>
</trkpt>
<trkpt lat="39.616266964003444" lon="2.468640971928835">
<ele>207</ele>
</trkpt>
<trkpt lat="39.616304012015462" lon="2.468658993020654">
<ele>207</ele>
</trkpt>
<trkpt lat="39.616441978141665" lon="2.468619011342526">
<ele>208</ele>
</trkpt>
<trkpt lat="39.616524036973715" lon="2.46860601939261">
<ele>208</ele>
</trkpt>
<trkpt lat="39.616595031693578" lon="2.468597972765565">
<ele>208</ele>
</trkpt>
<trkpt lat="39.616826036944985" lon="2.468581963330507">
<ele>209</ele>
</trkpt>
<trkpt lat="39.616937013342977" lon="2.468623034656048">
<ele>209</ele>
</trkpt>
<trkpt lat="39.617013959214091" lon="2.468635020777583">
<ele>210</ele>
</trkpt>
<trkpt lat="39.617148991674185" lon="2.468687994405627">
<ele>210</ele>
</trkpt>
<trkpt lat="39.617243958637118" lon="2.468680031597614">
<ele>211</ele>
</trkpt>
<trkpt lat="39.617405980825424" lon="2.468707021325827">
<ele>212</ele>
</trkpt>
<trkpt lat="39.617440011352301" lon="2.468696041032672">
<ele>212</ele>
</trkpt>
<trkpt lat="39.617554005235434" lon="2.468663016334176">
<ele>213</ele>
</trkpt>
<trkpt lat="39.617576971650124" lon="2.468647006899118">
<ele>213</ele>
</trkpt>
<trkpt lat="39.617722984403372" lon="2.46856302022934">
<ele>214</ele>
</trkpt>
<trkpt lat="39.617778975516558" lon="2.468522032722831">
<ele>214</ele>
</trkpt>
<trkpt lat="39.617877965793014" lon="2.468475010246038">
<ele>215</ele>
</trkpt>
<trkpt lat="39.617969999089837" lon="2.468277029693127">
<ele>216</ele>
</trkpt>
<trkpt lat="39.617968993261456" lon="2.468245010823011">
<ele>216</ele>
</trkpt>
<trkpt lat="39.617962958291173" lon="2.468188013881445">
<ele>216</ele>
</trkpt>
<trkpt lat="39.617962958291173" lon="2.46800797060132">
<ele>217</ele>
</trkpt>
<trkpt lat="39.618005035445094" lon="2.467819964513183">
<ele>218</ele>
</trkpt>
<trkpt lat="39.618010986596346" lon="2.467796998098493">
<ele>218</ele>
</trkpt>
<trkpt lat="39.618182983249426" lon="2.467636987566948">
<ele>218</ele>
</trkpt>
<trkpt lat="39.618269987404346" lon="2.467566998675466">
<ele>219</ele>
</trkpt>
<trkpt lat="39.618378030136228" lon="2.467510001733899">
<ele>219</ele>
</trkpt>
<trkpt lat="39.618432009592652" lon="2.467487035319209">
<ele>220</ele>
</trkpt>
<trkpt lat="39.618529994040728" lon="2.467441018670797">
<ele>220</ele>
</trkpt>
<trkpt lat="39.618566958233714" lon="2.467431966215372">
<ele>220</ele>
</trkpt>
<trkpt lat="39.618718000128865" lon="2.467388967052102">
<ele>220</ele>
</trkpt>
<trkpt lat="39.618839034810662" lon="2.467424003407359">
<ele>221</ele>
</trkpt>
<trkpt lat="39.619044978171587" lon="2.46751201339066">
<ele>221</ele>
</trkpt>
<trkpt lat="39.619062999263406" lon="2.467526011168957">
<ele>221</ele>
</trkpt>
<trkpt lat="39.619185961782932" lon="2.467713011428714">
<ele>222</ele>
</trkpt>
<trkpt lat="39.619305990636349" lon="2.467775037512183">
<ele>222</ele>
</trkpt>
<trkpt lat="39.619357036426663" lon="2.467803033068776">
<ele>222</ele>
</trkpt>
<trkpt lat="39.619439011439681" lon="2.467821976169944">
<ele>223</ele>
</trkpt>
<trkpt lat="39.619559962302446" lon="2.467824993655086">
<ele>223</ele>
</trkpt>
<trkpt lat="39.619635986164212" lon="2.467785011976957">
<ele>224</ele>
</trkpt>
<trkpt lat="39.61967303417623" lon="2.467759028077126">
<ele>224</ele>
</trkpt>
<trkpt lat="39.61980496533215" lon="2.467625001445413">
<ele>224</ele>
</trkpt>
<trkpt lat="39.619831033051014" lon="2.46757797896862">
<ele>225</ele>
</trkpt>
<trkpt lat="39.619885012507439" lon="2.467385027557612">
<ele>225</ele>
</trkpt>
<trkpt lat="39.619886018335819" lon="2.467306992039084">
<ele>226</ele>
</trkpt>
<trkpt lat="39.61990999057889" lon="2.467258041724563">
<ele>226</ele>
</trkpt>
<trkpt lat="39.619961036369205" lon="2.467113034799695">
<ele>226</ele>
</trkpt>
<trkpt lat="39.619998000562191" lon="2.466987976804376">
<ele>227</ele>
</trkpt>
<trkpt lat="39.620133033022285" lon="2.46691002510488">
<ele>227</ele>
</trkpt>
<trkpt lat="39.620143007487059" lon="2.466906001791358">
<ele>228</ele>
</trkpt>
<trkpt lat="39.620304023846984" lon="2.466922011226416">
<ele>228</ele>
</trkpt>
<trkpt lat="39.620316009968519" lon="2.466921005398035">
<ele>228</ele>
</trkpt>
<trkpt lat="39.620465962216258" lon="2.466901978477836">
<ele>229</ele>
</trkpt>
<trkpt lat="39.620528994128108" lon="2.466870965436101">
<ele>229</ele>
</trkpt>
<trkpt lat="39.620658997446299" lon="2.46686702594161">
<ele>230</ele>
</trkpt>
<trkpt lat="39.620709959417582" lon="2.4669090192765">
<ele>230</ele>
</trkpt>
<trkpt lat="39.620783971622586" lon="2.466904995962977">
<ele>230</ele>
</trkpt>
<trkpt lat="39.620783971622586" lon="2.466904995962977">
<ele>231</ele>
</trkpt>
<trkpt lat="39.620965020731091" lon="2.467060983181">
<ele>231</ele>
</trkpt>
<trkpt lat="39.620983963832259" lon="2.467085961252451">
<ele>232</ele>
</trkpt>
<trkpt lat="39.621150009334087" lon="2.46721101924777">
<ele>232</ele>
</trkpt>
<trkpt lat="39.62115696631372" lon="2.467221999540925">
<ele>232</ele>
</trkpt>
<trkpt lat="39.621270038187504" lon="2.467255024239421">
<ele>233</ele>
</trkpt>
<trkpt lat="39.621309014037251" lon="2.46725401841104">
<ele>233</ele>
</trkpt>
<trkpt lat="39.621399035677314" lon="2.467228034511209">
<ele>234</ele>
</trkpt>
<trkpt lat="39.621437005698681" lon="2.467202972620726">
<ele>234</ele>
</trkpt>
<trkpt lat="39.62165099568665" lon="2.467161985114217">
<ele>234</ele>
</trkpt>
<trkpt lat="39.621710004284978" lon="2.467151004821062">
<ele>235</ele>
</trkpt>
<trkpt lat="39.621764989569783" lon="2.467102976515889">
<ele>235</ele>
</trkpt>
<trkpt lat="39.621840007603168" lon="2.467114040628076">
<ele>235</ele>
</trkpt>
<trkpt lat="39.621980991214514" lon="2.467099037021399">
<ele>236</ele>
</trkpt>
<trkpt lat="39.622051985934377" lon="2.467131977900863">
<ele>236</ele>
</trkpt>
<trkpt lat="39.622084004804492" lon="2.467133989557624">
<ele>236</ele>
</trkpt>
<trkpt lat="39.622242003679276" lon="2.46721101924777">
<ele>236</ele>
</trkpt>
<trkpt lat="39.622368989512324" lon="2.467262987047434">
<ele>237</ele>
</trkpt>
<trkpt lat="39.622438978403807" lon="2.467241026461124">
<ele>237</ele>
</trkpt>
<trkpt lat="39.622556995600462" lon="2.467251000925899">
<ele>237</ele>
</trkpt>
<trkpt lat="39.622671995311975" lon="2.46723297983408">
<ele>238</ele>
</trkpt>
<trkpt lat="39.62283100001514" lon="2.467239014804363">
<ele>238</ele>
</trkpt>
<trkpt lat="39.622856983914971" lon="2.467234991490841">
<ele>239</ele>
</trkpt>
<trkpt lat="39.622883973643184" lon="2.467226022854447">
<ele>239</ele>
</trkpt>
<trkpt lat="39.62298003025353" lon="2.467200960963965">
<ele>239</ele>
</trkpt>
<trkpt lat="39.623031998053193" lon="2.467183023691177">
<ele>240</ele>
</trkpt>
<trkpt lat="39.623094024136662" lon="2.467059977352619">
<ele>240</ele>
</trkpt>
<trkpt lat="39.62319502606988" lon="2.466981019824743">
<ele>241</ele>
</trkpt>
<trkpt lat="39.623289993032813" lon="2.466913964599371">
<ele>241</ele>
</trkpt>
<trkpt lat="39.623344978317618" lon="2.46686702594161">
<ele>242</ele>
</trkpt>
<trkpt lat="39.623445980250835" lon="2.466764012351632">
<ele>242</ele>
</trkpt>
<trkpt lat="39.623528961092234" lon="2.466656975448132">
<ele>243</ele>
</trkpt>
<trkpt lat="39.623569026589394" lon="2.466580029577017">
<ele>244</ele>
</trkpt>
<trkpt lat="39.623614959418774" lon="2.466530995443463">
<ele>244</ele>
</trkpt>
<trkpt lat="39.623635997995734" lon="2.466535018756986">
<ele>245</ele>
</trkpt>
<trkpt lat="39.623635997995734" lon="2.466534012928605">
<ele>245</ele>
</trkpt>
<trkpt lat="39.623635997995734" lon="2.466534012928605">
<ele>245</ele>
</trkpt>
<trkpt lat="39.623635997995734" lon="2.466534012928605">
<ele>246</ele>
</trkpt>
<trkpt lat="39.623635997995734" lon="2.466534012928605">
<ele>246</ele>
</trkpt>
<trkpt lat="39.623639015480876" lon="2.466535018756986">
<ele>246</ele>
</trkpt>
<trkpt lat="39.623639015480876" lon="2.466535018756986">
<ele>246</ele>
</trkpt>
<trkpt lat="39.623639015480876" lon="2.466535018756986">
<ele>246</ele>
</trkpt>
<trkpt lat="39.623639015480876" lon="2.466535018756986">
<ele>247</ele>
</trkpt>
<trkpt lat="39.623654019087553" lon="2.466508029028773">
<ele>247</ele>
</trkpt>
<trkpt lat="39.623676985502243" lon="2.466489002108574">
<ele>247</ele>
</trkpt>
<trkpt lat="39.623735994100571" lon="2.4663529638201">
<ele>248</ele>
</trkpt>
<trkpt lat="39.623735994100571" lon="2.466280963271856">
<ele>248</ele>
</trkpt>
<trkpt lat="39.623779999092221" lon="2.466123970225453">
<ele>249</ele>
</trkpt>
<trkpt lat="39.623801959678531" lon="2.466103015467525">
<ele>249</ele>
</trkpt>
<trkpt lat="39.623878989368677" lon="2.466023974120617">
<ele>250</ele>
</trkpt>
<trkpt lat="39.623931962996721" lon="2.465958008542657">
<ele>251</ele>
</trkpt>
<trkpt lat="39.623914025723934" lon="2.465759022161365">
<ele>251</ele>
</trkpt>
<trkpt lat="39.623911008238792" lon="2.465746030211449">
<ele>252</ele>
</trkpt>
<trkpt lat="39.623890975490212" lon="2.465586019679904">
<ele>252</ele>
</trkpt>
<trkpt lat="39.623887035995722" lon="2.465565986931324">
<ele>253</ele>
</trkpt>
<trkpt lat="39.623829033225775" lon="2.465421985834837">
<ele>254</ele>
</trkpt>
<trkpt lat="39.623775975778699" lon="2.465346967801452">
<ele>255</ele>
</trkpt>
<trkpt lat="39.623694000765681" lon="2.465239008888602">
<ele>257</ele>
</trkpt>
<trkpt lat="39.623661981895566" lon="2.465197015553713">
<ele>258</ele>
</trkpt>
<trkpt lat="39.623614037409425" lon="2.464983025565743">
<ele>259</ele>
</trkpt>
<trkpt lat="39.623586963862181" lon="2.464764006435871">
<ele>260</ele>
</trkpt>
<trkpt lat="39.623586963862181" lon="2.464755959808826">
<ele>261</ele>
</trkpt>
<trkpt lat="39.623600961640477" lon="2.464629979804158">
<ele>263</ele>
</trkpt>
<trkpt lat="39.623604984954" lon="2.464572982862592">
<ele>264</ele>
</trkpt>
<trkpt lat="39.623569026589394" lon="2.464458988979459">
<ele>265</ele>
</trkpt>
<trkpt lat="39.623549999669194" lon="2.464449014514685">
<ele>266</ele>
</trkpt>
<trkpt lat="39.623461989685893" lon="2.464442979544401">
<ele>267</ele>
</trkpt>
<trkpt lat="39.623351013287902" lon="2.464479021728039">
<ele>269</ele>
</trkpt>
<trkpt lat="39.623242970556021" lon="2.464522020891309">
<ele>270</ele>
</trkpt>
<trkpt lat="39.623130988329649" lon="2.464525960385799">
<ele>271</ele>
</trkpt>
<trkpt lat="39.622999979183078" lon="2.464597960934043">
<ele>272</ele>
</trkpt>
<trkpt lat="39.622890008613467" lon="2.464679013937712">
<ele>273</ele>
</trkpt>
<trkpt lat="39.622825970873237" lon="2.464752020314336">
<ele>275</ele>
</trkpt>
<trkpt lat="39.622686998918653" lon="2.464788984507322">
<ele>276</ele>
</trkpt>
<trkpt lat="39.622656991705298" lon="2.464773980900645">
<ele>277</ele>
</trkpt>
<trkpt lat="39.622568981721997" lon="2.464692005887628">
<ele>279</ele>
</trkpt>
<trkpt lat="39.622546015307307" lon="2.464712960645556">
<ele>280</ele>
</trkpt>
<trkpt lat="39.622494969516993" lon="2.464683037251234">
<ele>282</ele>
</trkpt>
<trkpt lat="39.62240100838244" lon="2.464624028652906">
<ele>284</ele>
</trkpt>
<trkpt lat="39.622312998399138" lon="2.464571977034211">
<ele>286</ele>
</trkpt>
<trkpt lat="39.622236974537373" lon="2.464568037539721">
<ele>287</ele>
</trkpt>
<trkpt lat="39.622151982039213" lon="2.464663004502654">
<ele>289</ele>
</trkpt>
<trkpt lat="39.622141001746058" lon="2.464704997837544">
<ele>291</ele>
</trkpt>
<trkpt lat="39.622118035331368" lon="2.46474196203053">
<ele>292</ele>
</trkpt>
<trkpt lat="39.622034970670938" lon="2.464585974812508">
<ele>294</ele>
</trkpt>
<trkpt lat="39.6220369823277" lon="2.464551022276282">
<ele>295</ele>
</trkpt>
<trkpt lat="39.62205802090466" lon="2.464443985372782">
<ele>296</ele>
</trkpt>
<trkpt lat="39.622125998139381" lon="2.464287998154759">
<ele>297</ele>
</trkpt>
<trkpt lat="39.622173020616174" lon="2.464147014543414">
<ele>298</ele>
</trkpt>
<trkpt lat="39.622211996465921" lon="2.464070990681648">
<ele>299</ele>
</trkpt>
<trkpt lat="39.622215013951063" lon="2.464070990681648">
<ele>300</ele>
</trkpt>
<trkpt lat="39.622215013951063" lon="2.464070990681648">
<ele>300</ele>
</trkpt>
<trkpt lat="39.622215013951063" lon="2.464070990681648">
<ele>300</ele>
</trkpt>
<trkpt lat="39.622215013951063" lon="2.464070990681648">
<ele>299</ele>
</trkpt>
<trkpt lat="39.622216019779444" lon="2.464077025651932">
<ele>299</ele>
</trkpt>
<trkpt lat="39.622219037264585" lon="2.464079037308693">
<ele>299</ele>
</trkpt>
<trkpt lat="39.622219037264585" lon="2.464079037308693">
<ele>299</ele>
</trkpt>
<trkpt lat="39.622219037264585" lon="2.464079037308693">
<ele>299</ele>
</trkpt>
<trkpt lat="39.622211996465921" lon="2.464071996510029">
<ele>298</ele>
</trkpt>
<trkpt lat="39.622211996465921" lon="2.464071996510029">
<ele>298</ele>
</trkpt>
<trkpt lat="39.622216019779444" lon="2.464071996510029">
<ele>298</ele>
</trkpt>
<trkpt lat="39.622219037264585" lon="2.464079037308693">
<ele>298</ele>
</trkpt>
<trkpt lat="39.622219037264585" lon="2.464079037308693">
<ele>298</ele>
</trkpt>
<trkpt lat="39.622219037264585" lon="2.464079037308693">
<ele>297</ele>
</trkpt>
<trkpt lat="39.622216019779444" lon="2.464077025651932">
<ele>297</ele>
</trkpt>
<trkpt lat="39.622215013951063" lon="2.464070990681648">
<ele>297</ele>
</trkpt>
<trkpt lat="39.622215013951063" lon="2.464070990681648">
<ele>297</ele>
</trkpt>
<trkpt lat="39.622173020616174" lon="2.464147014543414">
<ele>297</ele>
</trkpt>
<trkpt lat="39.622125998139381" lon="2.464287998154759">
<ele>296</ele>
</trkpt>
<trkpt lat="39.622071012854576" lon="2.464391011744738">
<ele>296</ele>
</trkpt>
<trkpt lat="39.62205802090466" lon="2.464443985372782">
<ele>296</ele>
</trkpt>
<trkpt lat="39.622034970670938" lon="2.464585974812508">
<ele>294</ele>
</trkpt>
<trkpt lat="39.622118035331368" lon="2.46474196203053">
<ele>292</ele>
</trkpt>
<trkpt lat="39.622151982039213" lon="2.464663004502654">
<ele>290</ele>
</trkpt>
<trkpt lat="39.622215013951063" lon="2.464573988690972">
<ele>288</ele>
</trkpt>
<trkpt lat="39.622236974537373" lon="2.464568037539721">
<ele>286</ele>
</trkpt>
<trkpt lat="39.62240100838244" lon="2.464624028652906">
<ele>285</ele>
</trkpt>
<trkpt lat="39.622494969516993" lon="2.464683037251234">
<ele>283</ele>
</trkpt>
<trkpt lat="39.622546015307307" lon="2.464712960645556">
<ele>281</ele>
</trkpt>
<trkpt lat="39.622656991705298" lon="2.464773980900645">
<ele>279</ele>
</trkpt>
<trkpt lat="39.622686998918653" lon="2.464788984507322">
<ele>277</ele>
</trkpt>
<trkpt lat="39.622825970873237" lon="2.464752020314336">
<ele>276</ele>
</trkpt>
<trkpt lat="39.622890008613467" lon="2.464679013937712">
<ele>275</ele>
</trkpt>
<trkpt lat="39.622999979183078" lon="2.464597960934043">
<ele>273</ele>
</trkpt>
<trkpt lat="39.623130988329649" lon="2.464525960385799">
<ele>272</ele>
</trkpt>
<trkpt lat="39.623242970556021" lon="2.464522020891309">
<ele>271</ele>
</trkpt>
<trkpt lat="39.623351013287902" lon="2.464479021728039">
<ele>270</ele>
</trkpt>
<trkpt lat="39.623461989685893" lon="2.464442979544401">
<ele>269</ele>
</trkpt>
<trkpt lat="39.623484034091234" lon="2.464434010908008">
<ele>267</ele>
</trkpt>
<trkpt lat="39.623569026589394" lon="2.464458988979459">
<ele>266</ele>
</trkpt>
<trkpt lat="39.623604984954" lon="2.464572982862592">
<ele>265</ele>
</trkpt>
<trkpt lat="39.623600961640477" lon="2.464629979804158">
<ele>264</ele>
</trkpt>
<trkpt lat="39.623586963862181" lon="2.464755959808826">
<ele>264</ele>
</trkpt>
<trkpt lat="39.623586963862181" lon="2.464764006435871">
<ele>263</ele>
</trkpt>
<trkpt lat="39.623614037409425" lon="2.464983025565743">
<ele>262</ele>
</trkpt>
<trkpt lat="39.623656030744314" lon="2.465160973370075">
<ele>262</ele>
</trkpt>
<trkpt lat="39.623666005209088" lon="2.465184023603797">
<ele>261</ele>
</trkpt>
<trkpt lat="39.623756026849151" lon="2.465322995558381">
<ele>260</ele>
</trkpt>
<trkpt lat="39.623775975778699" lon="2.465346967801452">
<ele>259</ele>
</trkpt>
<trkpt lat="39.623853005468845" lon="2.465476971119642">
<ele>259</ele>
</trkpt>
<trkpt lat="39.623887035995722" lon="2.465565986931324">
<ele>258</ele>
</trkpt>
<trkpt lat="39.623913019895554" lon="2.465723985806108">
<ele>258</ele>
</trkpt>
<trkpt lat="39.623911008238792" lon="2.465746030211449">
<ele>257</ele>
</trkpt>
<trkpt lat="39.623914025723934" lon="2.465759022161365">
<ele>256</ele>
</trkpt>
<trkpt lat="39.623935986310244" lon="2.465898999944329">
<ele>256</ele>
</trkpt>
<trkpt lat="39.623931962996721" lon="2.465958008542657">
<ele>256</ele>
</trkpt>
<trkpt lat="39.623878989368677" lon="2.466023974120617">
<ele>255</ele>
</trkpt>
<trkpt lat="39.623801959678531" lon="2.466103015467525">
<ele>254</ele>
</trkpt>
<trkpt lat="39.623779999092221" lon="2.466123970225453">
<ele>254</ele>
</trkpt>
<trkpt lat="39.623735994100571" lon="2.466280963271856">
<ele>254</ele>
</trkpt>
<trkpt lat="39.623716967180371" lon="2.466380037367344">
<ele>253</ele>
</trkpt>
<trkpt lat="39.623677991330624" lon="2.466486990451813">
<ele>253</ele>
</trkpt>
<trkpt lat="39.623657958582044" lon="2.466506017372012">
<ele>252</ele>
</trkpt>
<trkpt lat="39.623639015480876" lon="2.466535018756986">
<ele>252</ele>
</trkpt>
<trkpt lat="39.623639015480876" lon="2.466535018756986">
<ele>251</ele>
</trkpt>
<trkpt lat="39.623639015480876" lon="2.466535018756986">
<ele>251</ele>
</trkpt>
<trkpt lat="39.623639015480876" lon="2.466535018756986">
<ele>251</ele>
</trkpt>
<trkpt lat="39.623635997995734" lon="2.466534012928605">
<ele>250</ele>
</trkpt>
<trkpt lat="39.623635997995734" lon="2.466534012928605">
<ele>250</ele>
</trkpt>
<trkpt lat="39.623635997995734" lon="2.466534012928605">
<ele>249</ele>
</trkpt>
<trkpt lat="39.623635997995734" lon="2.466534012928605">
<ele>249</ele>
</trkpt>
<trkpt lat="39.623635997995734" lon="2.466534012928605">
<ele>249</ele>
</trkpt>
<trkpt lat="39.623569026589394" lon="2.466580029577017">
<ele>248</ele>
</trkpt>
<trkpt lat="39.623445980250835" lon="2.466764012351632">
<ele>248</ele>
</trkpt>
<trkpt lat="39.623344978317618" lon="2.46686702594161">
<ele>247</ele>
</trkpt>
<trkpt lat="39.623289993032813" lon="2.466913964599371">
<ele>247</ele>
</trkpt>
<trkpt lat="39.62319502606988" lon="2.466981019824743">
<ele>247</ele>
</trkpt>
<trkpt lat="39.623122019693255" lon="2.467054026201367">
<ele>246</ele>
</trkpt>
<trkpt lat="39.623094024136662" lon="2.467059977352619">
<ele>246</ele>
</trkpt>
<trkpt lat="39.623031998053193" lon="2.467183023691177">
<ele>245</ele>
</trkpt>
<trkpt lat="39.622883973643184" lon="2.467226022854447">
<ele>245</ele>
</trkpt>
<trkpt lat="39.622856983914971" lon="2.467234991490841">
<ele>245</ele>
</trkpt>
<trkpt lat="39.622671995311975" lon="2.46723297983408">
<ele>244</ele>
</trkpt>
<trkpt lat="39.622556995600462" lon="2.467251000925899">
<ele>244</ele>
</trkpt>
<trkpt lat="39.622438978403807" lon="2.467241026461124">
<ele>243</ele>
</trkpt>
<trkpt lat="39.622368989512324" lon="2.467262987047434">
<ele>243</ele>
</trkpt>
<trkpt lat="39.622242003679276" lon="2.46721101924777">
<ele>243</ele>
</trkpt>
<trkpt lat="39.622103031724691" lon="2.467145975679159">
<ele>242</ele>
</trkpt>
<trkpt lat="39.622084004804492" lon="2.467133989557624">
<ele>242</ele>
</trkpt>
<trkpt lat="39.621919970959425" lon="2.467099959030747">
<ele>241</ele>
</trkpt>
<trkpt lat="39.621840007603168" lon="2.467114040628076">
<ele>241</ele>
</trkpt>
<trkpt lat="39.621769012883306" lon="2.467100964859128">
<ele>241</ele>
</trkpt>
<trkpt lat="39.621764989569783" lon="2.467102976515889">
<ele>241</ele>
</trkpt>
<trkpt lat="39.621764989569783" lon="2.467099959030747">
<ele>241</ele>
</trkpt>
<trkpt lat="39.621710004284978" lon="2.467151004821062">
<ele>241</ele>
</trkpt>
<trkpt lat="39.62165099568665" lon="2.467161985114217">
<ele>240</ele>
</trkpt>
<trkpt lat="39.621526021510363" lon="2.467171959578991">
<ele>240</ele>
</trkpt>
<trkpt lat="39.621452009305358" lon="2.467200038954616">
<ele>240</ele>
</trkpt>
<trkpt lat="39.621399035677314" lon="2.467228034511209">
<ele>240</ele>
</trkpt>
<trkpt lat="39.621309014037251" lon="2.46725401841104">
<ele>240</ele>
</trkpt>
<trkpt lat="39.621270038187504" lon="2.467255024239421">
<ele>240</ele>
</trkpt>
<trkpt lat="39.621180016547441" lon="2.467239014804363">
<ele>240</ele>
</trkpt>
<trkpt lat="39.62115696631372" lon="2.467221999540925">
<ele>239</ele>
</trkpt>
<trkpt lat="39.621050013229251" lon="2.467151004821062">
<ele>238</ele>
</trkpt>
<trkpt lat="39.62102604098618" lon="2.467101970687509">
<ele>238</ele>
</trkpt>
<trkpt lat="39.620858989655972" lon="2.466983031481504">
<ele>238</ele>
</trkpt>
<trkpt lat="39.62083300575614" lon="2.466971967369318">
<ele>237</ele>
</trkpt>
<trkpt lat="39.620709959417582" lon="2.4669090192765">
<ele>236</ele>
</trkpt>
<trkpt lat="39.620557995513082" lon="2.466870965436101">
<ele>236</ele>
</trkpt>
<trkpt lat="39.620528994128108" lon="2.466870965436101">
<ele>236</ele>
</trkpt>
<trkpt lat="39.620316009968519" lon="2.466921005398035">
<ele>235</ele>
</trkpt>
<trkpt lat="39.620304023846984" lon="2.466922011226416">
<ele>234</ele>
</trkpt>
<trkpt lat="39.620143007487059" lon="2.466906001791358">
<ele>234</ele>
</trkpt>
<trkpt lat="39.620133033022285" lon="2.46691002510488">
<ele>234</ele>
</trkpt>
<trkpt lat="39.6200199611485" lon="2.466968027874827">
<ele>233</ele>
</trkpt>
<trkpt lat="39.619998000562191" lon="2.466987976804376">
<ele>232</ele>
</trkpt>
<trkpt lat="39.619934968650341" lon="2.467199033126235">
<ele>232</ele>
</trkpt>
<trkpt lat="39.61990999057889" lon="2.467258041724563">
<ele>232</ele>
</trkpt>
<trkpt lat="39.619885012507439" lon="2.467385027557612">
<ele>231</ele>
</trkpt>
<trkpt lat="39.619861962273717" lon="2.467525005340576">
<ele>230</ele>
</trkpt>
<trkpt lat="39.619831033051014" lon="2.46757797896862">
<ele>230</ele>
</trkpt>
<trkpt lat="39.619752997532487" lon="2.467687027528882">
<ele>230</ele>
</trkpt>
<trkpt lat="39.61967303417623" lon="2.467759028077126">
<ele>229</ele>
</trkpt>
<trkpt lat="39.619439011439681" lon="2.467821976169944">
<ele>228</ele>
</trkpt>
<trkpt lat="39.619386959820986" lon="2.46783203445375">
<ele>228</ele>
</trkpt>
<trkpt lat="39.619305990636349" lon="2.467775037512183">
<ele>228</ele>
</trkpt>
<trkpt lat="39.619185961782932" lon="2.467713011428714">
<ele>227</ele>
</trkpt>
<trkpt lat="39.619088983163238" lon="2.467564987018704">
<ele>226</ele>
</trkpt>
<trkpt lat="39.619062999263406" lon="2.467526011168957">
<ele>226</ele>
</trkpt>
<trkpt lat="39.618908017873764" lon="2.467455016449094">
<ele>226</ele>
</trkpt>
<trkpt lat="39.618868036195636" lon="2.467458033934236">
<ele>225</ele>
</trkpt>
<trkpt lat="39.618839034810662" lon="2.467424003407359">
<ele>225</ele>
</trkpt>
<trkpt lat="39.618797041475773" lon="2.467390978708863">
<ele>224</ele>
</trkpt>
<trkpt lat="39.618649017065763" lon="2.467401036992669">
<ele>224</ele>
</trkpt>
<trkpt lat="39.618611969053745" lon="2.467413023114204">
<ele>223</ele>
</trkpt>
<trkpt lat="39.618432009592652" lon="2.467487035319209">
<ele>223</ele>
</trkpt>
<trkpt lat="39.618378030136228" lon="2.467510001733899">
<ele>223</ele>
</trkpt>
<trkpt lat="39.618269987404346" lon="2.467566998675466">
<ele>222</ele>
</trkpt>
<trkpt lat="39.618228999897838" lon="2.4675980117172">
<ele>222</ele>
</trkpt>
<trkpt lat="39.618107965216041" lon="2.467679986730218">
<ele>221</ele>
</trkpt>
<trkpt lat="39.618022972717881" lon="2.467776965349913">
<ele>221</ele>
</trkpt>
<trkpt lat="39.617962958291173" lon="2.46800797060132">
<ele>220</ele>
</trkpt>
<trkpt lat="39.617948960512877" lon="2.468097992241383">
<ele>220</ele>
</trkpt>
<trkpt lat="39.617962958291173" lon="2.468188013881445">
<ele>220</ele>
</trkpt>
<trkpt lat="39.617968993261456" lon="2.468245010823011">
<ele>219</ele>
</trkpt>
<trkpt lat="39.617890035733581" lon="2.468448020517826">
<ele>218</ele>
</trkpt>
<trkpt lat="39.617877965793014" lon="2.468475010246038">
<ele>218</ele>
</trkpt>
<trkpt lat="39.617778975516558" lon="2.468522032722831">
<ele>218</ele>
</trkpt>
<trkpt lat="39.617646960541606" lon="2.468603001907468">
<ele>217</ele>
</trkpt>
<trkpt lat="39.617576971650124" lon="2.468647006899118">
<ele>216</ele>
</trkpt>
<trkpt lat="39.617440011352301" lon="2.468696041032672">
<ele>216</ele>
</trkpt>
<trkpt lat="39.617405980825424" lon="2.468707021325827">
<ele>216</ele>
</trkpt>
<trkpt lat="39.617243958637118" lon="2.468680031597614">
<ele>215</ele>
</trkpt>
<trkpt lat="39.617148991674185" lon="2.468687994405627">
<ele>215</ele>
</trkpt>
<trkpt lat="39.617059975862503" lon="2.468647006899118">
<ele>214</ele>
</trkpt>
<trkpt lat="39.617013959214091" lon="2.468635020777583">
<ele>214</ele>
</trkpt>
<trkpt lat="39.616826036944985" lon="2.468581963330507">
<ele>214</ele>
</trkpt>
<trkpt lat="39.616654962301254" lon="2.468572994694114">
<ele>213</ele>
</trkpt>
<trkpt lat="39.616595031693578" lon="2.468597972765565">
<ele>213</ele>
</trkpt>
<trkpt lat="39.616567036136985" lon="2.468595961108804">
<ele>212</ele>
</trkpt>
<trkpt lat="39.616524036973715" lon="2.46860601939261">
<ele>212</ele>
</trkpt>
<trkpt lat="39.616441978141665" lon="2.468619011342526">
<ele>212</ele>
</trkpt>
<trkpt lat="39.616338964551687" lon="2.468659998849034">
<ele>211</ele>
</trkpt>
<trkpt lat="39.616135032847524" lon="2.468683971092105">
<ele>210</ele>
</trkpt>
<trkpt lat="39.61610896512866" lon="2.468749014660716">
<ele>210</ele>
</trkpt>
<trkpt lat="39.616101002320647" lon="2.468981025740504">
<ele>210</ele>
</trkpt>
<trkpt lat="39.616095973178744" lon="2.46903601102531">
<ele>209</ele>
</trkpt>
<trkpt lat="39.616029001772404" lon="2.469233991578221">
<ele>208</ele>
</trkpt>
<trkpt lat="39.615966975688934" lon="2.469344967976213">
<ele>208</ele>
</trkpt>
<trkpt lat="39.615944009274244" lon="2.469358965754509">
<ele>208</ele>
</trkpt>
<trkpt lat="39.61584996432066" lon="2.469450999051333">
<ele>207</ele>
</trkpt>
<trkpt lat="39.615825992077589" lon="2.469474971294403">
<ele>207</ele>
</trkpt>
<trkpt lat="39.615663969889283" lon="2.469582008197904">
<ele>206</ele>
</trkpt>
<trkpt lat="39.61561200208962" lon="2.469584019854665">
<ele>206</ele>
</trkpt>
<trkpt lat="39.615466995164752" lon="2.469547977671027">
<ele>205</ele>
</trkpt>
<trkpt lat="39.615366999059916" lon="2.469470025971532">
<ele>205</ele>
</trkpt>
<trkpt lat="39.61533104069531" lon="2.469430966302753">
<ele>205</ele>
</trkpt>
<trkpt lat="39.615243030712008" lon="2.469344967976213">
<ele>204</ele>
</trkpt>
<trkpt lat="39.615188967436552" lon="2.469239020720124">
<ele>204</ele>
</trkpt>
<trkpt lat="39.615088971331716" lon="2.46901698410511">
<ele>203</ele>
</trkpt>
<trkpt lat="39.615070028230548" lon="2.468955963850021">
<ele>203</ele>
</trkpt>
<trkpt lat="39.615045972168446" lon="2.468737028539181">
<ele>203</ele>
</trkpt>
<trkpt lat="39.615030968561769" lon="2.46871498413384">
<ele>202</ele>
</trkpt>
<trkpt lat="39.614997021853924" lon="2.468592021614313">
<ele>202</ele>
</trkpt>
<trkpt lat="39.614980006590486" lon="2.468555979430676">
<ele>202</ele>
</trkpt>
<trkpt lat="39.614918986335397" lon="2.468439973890781">
<ele>202</ele>
</trkpt>
<trkpt lat="39.61486098356545" lon="2.468353975564241">
<ele>201</ele>
</trkpt>
<trkpt lat="39.614816978573799" lon="2.468281975015998">
<ele>201</ele>
</trkpt>
<trkpt lat="39.614718994125724" lon="2.46815599501133">
<ele>201</ele>
</trkpt>
<trkpt lat="39.614700973033905" lon="2.468175021931529">
<ele>200</ele>
</trkpt>
<trkpt lat="39.61460298858583" lon="2.468192037194967">
<ele>200</ele>
</trkpt>
<trkpt lat="39.614510033279657" lon="2.468204023316503">
<ele>200</ele>
</trkpt>
<trkpt lat="39.614373994991183" lon="2.468311982229352">
<ele>199</ele>
</trkpt>
<trkpt lat="39.614364020526409" lon="2.468333020806313">
<ele>199</ele>
</trkpt>
<trkpt lat="39.614314986392856" lon="2.4684770219028">
<ele>198</ele>
</trkpt>
<trkpt lat="39.614305011928082" lon="2.468490013852716">
<ele>198</ele>
</trkpt>
<trkpt lat="39.61423896253109" lon="2.468659998849034">
<ele>198</ele>
</trkpt>
<trkpt lat="39.614181965589523" lon="2.468747003003955">
<ele>197</ele>
</trkpt>
<trkpt lat="39.614092027768493" lon="2.468899972736836">
<ele>197</ele>
</trkpt>
<trkpt lat="39.614051962271333" lon="2.468997035175562">
<ele>196</ele>
</trkpt>
<trkpt lat="39.613968981429935" lon="2.469098037108779">
<ele>196</ele>
</trkpt>
<trkpt lat="39.613823974505067" lon="2.469141958281398">
<ele>197</ele>
</trkpt>
<trkpt lat="39.613734958693385" lon="2.469151010736823">
<ele>198</ele>
</trkpt>
<trkpt lat="39.613617025315762" lon="2.469182023778558">
<ele>199</ele>
</trkpt>
<trkpt lat="39.613549970090389" lon="2.469141958281398">
<ele>200</ele>
</trkpt>
<trkpt lat="39.61350898258388" lon="2.468992006033659">
<ele>201</ele>
</trkpt>
<trkpt lat="39.613473024219275" lon="2.468913970515132">
<ele>202</ele>
</trkpt>
<trkpt lat="39.613408986479044" lon="2.468811962753534">
<ele>203</ele>
</trkpt>
<trkpt lat="39.613319970667362" lon="2.468704003840685">
<ele>204</ele>
</trkpt>
<trkpt lat="39.613259034231305" lon="2.468609036877751">
<ele>205</ele>
</trkpt>
<trkpt lat="39.613172030076385" lon="2.468481967225671">
<ele>206</ele>
</trkpt>
<trkpt lat="39.613146968185902" lon="2.468454977497459">
<ele>206</ele>
</trkpt>
<trkpt lat="39.61305602453649" lon="2.468355987221003">
<ele>205</ele>
</trkpt>
<trkpt lat="39.612887967377901" lon="2.46821902692318">
<ele>205</ele>
</trkpt>
<trkpt lat="39.612880004569888" lon="2.468209974467754">
<ele>205</ele>
</trkpt>
<trkpt lat="39.612756036221981" lon="2.468120036646724">
<ele>204</ele>
</trkpt>
<trkpt lat="39.612684035673738" lon="2.468045018613339">
<ele>204</ele>
</trkpt>
<trkpt lat="39.612607005983591" lon="2.467934964224696">
<ele>204</ele>
</trkpt>
<trkpt lat="39.612593008205295" lon="2.46785600669682">
<ele>204</ele>
</trkpt>
<trkpt lat="39.612530982121825" lon="2.46770597063005">
<ele>203</ele>
</trkpt>
<trkpt lat="39.61249896325171" lon="2.46768300421536">
<ele>203</ele>
</trkpt>
<trkpt lat="39.612339036539197" lon="2.4675980117172">
<ele>203</ele>
</trkpt>
<trkpt lat="39.612278016284108" lon="2.467528022825718">
<ele>203</ele>
</trkpt>
<trkpt lat="39.612230993807316" lon="2.46749198064208">
<ele>203</ele>
</trkpt>
<trkpt lat="39.612151030451059" lon="2.467381004244089">
<ele>203</ele>
</trkpt>
<trkpt lat="39.612047011032701" lon="2.467313027009368">
<ele>204</ele>
</trkpt>
<trkpt lat="39.611882977187634" lon="2.467195009812713">
<ele>204</ele>
</trkpt>
<trkpt lat="39.611823968589306" lon="2.467157039791346">
<ele>204</ele>
</trkpt>
<trkpt lat="39.611738976091146" lon="2.467131977900863">
<ele>204</ele>
</trkpt>
<trkpt lat="39.611764959990978" lon="2.467014966532588">
<ele>204</ele>
</trkpt>
<trkpt lat="39.611838972195983" lon="2.46686602011323">
<ele>204</ele>
</trkpt>
<trkpt lat="39.611871996894479" lon="2.466831989586353">
<ele>205</ele>
</trkpt>
<trkpt lat="39.612029995769262" lon="2.4666309915483">
<ele>206</ele>
</trkpt>
<trkpt lat="39.612033013254404" lon="2.466621017083526">
<ele>207</ele>
</trkpt>
<trkpt lat="39.612092021852732" lon="2.466554967686534">
<ele>208</ele>
</trkpt>
<trkpt lat="39.612130997702479" lon="2.466555973514915">
<ele>208</ele>
</trkpt>
<trkpt lat="39.612187994644046" lon="2.466452037915587">
<ele>209</ele>
</trkpt>
<trkpt lat="39.612204004079103" lon="2.466314993798733">
<ele>210</ele>
</trkpt>
<trkpt lat="39.612251026555896" lon="2.466260008513928">
<ele>211</ele>
</trkpt>
<trkpt lat="39.612380024045706" lon="2.466254979372025">
<ele>212</ele>
</trkpt>
<trkpt lat="39.612463004887104" lon="2.466228995472193">
<ele>213</ele>
</trkpt>
<trkpt lat="39.61266903206706" lon="2.466210974380374">
<ele>214</ele>
</trkpt>
<trkpt lat="39.612714964896441" lon="2.466232012957335">
<ele>215</ele>
</trkpt>
<trkpt lat="39.61273499764502" lon="2.466236958280206">
<ele>215</ele>
</trkpt>
<trkpt lat="39.612865000963211" lon="2.466336032375693">
<ele>216</ele>
</trkpt>
<trkpt lat="39.613009002059698" lon="2.466450026258826">
<ele>217</ele>
</trkpt>
<trkpt lat="39.613071028143167" lon="2.466476010158658">
<ele>218</ele>
</trkpt>
<trkpt lat="39.613172030076385" lon="2.466513980180025">
<ele>219</ele>
</trkpt>
<trkpt lat="39.613247970119119" lon="2.4664790276438">
<ele>219</ele>
</trkpt>
<trkpt lat="39.613446034491062" lon="2.466547004878521">
<ele>220</ele>
</trkpt>
<trkpt lat="39.613597998395562" lon="2.466624034568667">
<ele>221</ele>
</trkpt>
<trkpt lat="39.613639991730452" lon="2.466594027355313">
<ele>222</ele>
</trkpt>
<trkpt lat="39.613720960915089" lon="2.466505011543632">
<ele>223</ele>
</trkpt>
<trkpt lat="39.613812994211912" lon="2.466379031538963">
<ele>225</ele>
</trkpt>
<trkpt lat="39.613855993375182" lon="2.466324968263507">
<ele>226</ele>
</trkpt>
<trkpt lat="39.613951966166496" lon="2.466154983267188">
<ele>227</ele>
</trkpt>
<trkpt lat="39.61397803388536" lon="2.466133022680879">
<ele>228</ele>
</trkpt>
<trkpt lat="39.614143995568156" lon="2.465951973572373">
<ele>229</ele>
</trkpt>
<trkpt lat="39.614184983074665" lon="2.465919032692909">
<ele>231</ele>
</trkpt>
<trkpt lat="39.61428003385663" lon="2.465781988576055">
<ele>232</ele>
</trkpt>
<trkpt lat="39.614272993057966" lon="2.465632958337665">
<ele>233</ele>
</trkpt>
<trkpt lat="39.61413100361824" lon="2.465660031884909">
<ele>233</ele>
</trkpt>
<trkpt lat="39.614079035818577" lon="2.465673023834825">
<ele>233</ele>
</trkpt>
<trkpt lat="39.61397903971374" lon="2.465630024671555">
<ele>234</ele>
</trkpt>
<trkpt lat="39.613920031115413" lon="2.465632036328316">
<ele>234</ele>
</trkpt>
<trkpt lat="39.613888012245297" lon="2.465626001358032">
<ele>234</ele>
</trkpt>
<trkpt lat="39.613796984776855" lon="2.465600017458201">
<ele>234</ele>
</trkpt>
<trkpt lat="39.613748034462333" lon="2.465596999973059">
<ele>234</ele>
</trkpt>
<trkpt lat="39.613668993115425" lon="2.465538997203112">
<ele>235</ele>
</trkpt>
<trkpt lat="39.613618031144142" lon="2.465385021641851">
<ele>235</ele>
</trkpt>
<trkpt lat="39.613732025027275" lon="2.465303968638182">
<ele>235</ele>
</trkpt>
<trkpt lat="39.613755997270346" lon="2.465282008051872">
<ele>236</ele>
</trkpt>
<trkpt lat="39.613763960078359" lon="2.465259963646531">
<ele>236</ele>
</trkpt>
<trkpt lat="39.613755997270346" lon="2.465239008888602">
<ele>237</ele>
</trkpt>
<trkpt lat="39.613755997270346" lon="2.465240014716983">
<ele>238</ele>
</trkpt>
<trkpt lat="39.613783992826939" lon="2.465058965608478">
<ele>238</ele>
</trkpt>
<trkpt lat="39.613783992826939" lon="2.465058965608478">
<ele>239</ele>
</trkpt>
<trkpt lat="39.613783992826939" lon="2.465058965608478">
<ele>239</ele>
</trkpt>
<trkpt lat="39.61380603723228" lon="2.465090984478593">
<ele>240</ele>
</trkpt>
<trkpt lat="39.61380603723228" lon="2.465090984478593">
<ele>240</ele>
</trkpt>
<trkpt lat="39.61380603723228" lon="2.465090984478593">
<ele>240</ele>
</trkpt>
<trkpt lat="39.61380603723228" lon="2.465090984478593">
<ele>239</ele>
</trkpt>
<trkpt lat="39.61380603723228" lon="2.465090984478593">
<ele>238</ele>
</trkpt>
<trkpt lat="39.61380603723228" lon="2.465090984478593">
<ele>238</ele>
</trkpt>
<trkpt lat="39.61380603723228" lon="2.465090984478593">
<ele>238</ele>
</trkpt>
<trkpt lat="39.61380603723228" lon="2.465090984478593">
<ele>238</ele>
</trkpt>
<trkpt lat="39.613800002261996" lon="2.465102970600128">
<ele>236</ele>
</trkpt>
<trkpt lat="39.613793967291713" lon="2.465245965868235">
<ele>236</ele>
</trkpt>
<trkpt lat="39.613781981170177" lon="2.465248983353376">
<ele>236</ele>
</trkpt>
<trkpt lat="39.613677961751819" lon="2.465431960299611">
<ele>236</ele>
</trkpt>
<trkpt lat="39.613687014207244" lon="2.465473031625152">
<ele>234</ele>
</trkpt>
<trkpt lat="39.613796984776855" lon="2.465558024123311">
<ele>234</ele>
</trkpt>
<trkpt lat="39.613858005031943" lon="2.465595994144678">
<ele>233</ele>
</trkpt>
<trkpt lat="39.613954983651638" lon="2.465576967224479">
<ele>233</ele>
</trkpt>
<trkpt lat="39.614085992798209" lon="2.465604040771723">
<ele>232</ele>
</trkpt>
<trkpt lat="39.614096973091364" lon="2.465604040771723">
<ele>231</ele>
</trkpt>
<trkpt lat="39.6141969691962" lon="2.465564981102943">
<ele>231</ele>
</trkpt>
<trkpt lat="39.614335019141436" lon="2.465574033558369">
<ele>230</ele>
</trkpt>
<trkpt lat="39.614347005262971" lon="2.465575039386749">
<ele>229</ele>
</trkpt>
<trkpt lat="39.614348011091352" lon="2.465719962492585">
<ele>228</ele>
</trkpt>
<trkpt lat="39.614316998049617" lon="2.465796992182732">
<ele>226</ele>
</trkpt>
<trkpt lat="39.614298976957798" lon="2.465845020487905">
<ele>225</ele>
</trkpt>
<trkpt lat="39.614213984459639" lon="2.465958008542657">
<ele>223</ele>
</trkpt>
<trkpt lat="39.61406797170639" lon="2.466122964397073">
<ele>222</ele>
</trkpt>
<trkpt lat="39.613982979208231" lon="2.466237964108586">
<ele>220</ele>
</trkpt>
<trkpt lat="39.613908967003226" lon="2.466348018497229">
<ele>219</ele>
</trkpt>
<trkpt lat="39.613881977275014" lon="2.466399986296892">
<ele>217</ele>
</trkpt>
<trkpt lat="39.613790027797222" lon="2.466512974351645">
<ele>215</ele>
</trkpt>
<trkpt lat="39.613780975341797" lon="2.46652596630156">
<ele>214</ele>
</trkpt>
<trkpt lat="39.613683996722102" lon="2.466625040397048">
<ele>213</ele>
</trkpt>
<trkpt lat="39.613619958981872" lon="2.466612970456481">
<ele>212</ele>
</trkpt>
<trkpt lat="39.613467995077372" lon="2.466500988230109">
<ele>212</ele>
</trkpt>
<trkpt lat="39.613449973985553" lon="2.466487996280193">
<ele>211</ele>
</trkpt>
<trkpt lat="39.613258028402925" lon="2.466477015987039">
<ele>210</ele>
</trkpt>
<trkpt lat="39.61312098428607" lon="2.466494031250477">
<ele>209</ele>
</trkpt>
<trkpt lat="39.613092988729477" lon="2.466490007936955">
<ele>209</ele>
</trkpt>
<trkpt lat="39.613001961261034" lon="2.466452959924936">
<ele>208</ele>
</trkpt>
<trkpt lat="39.612983018159866" lon="2.466435022652149">
<ele>207</ele>
</trkpt>
<trkpt lat="39.61279702372849" lon="2.466319017112255">
<ele>206</ele>
</trkpt>
<trkpt lat="39.612683029845357" lon="2.466254979372025">
<ele>205</ele>
</trkpt>
<trkpt lat="39.612584039568901" lon="2.466261014342308">
<ele>204</ele>
</trkpt>
<trkpt lat="39.612469039857388" lon="2.466299990192056">
<ele>203</ele>
</trkpt>
<trkpt lat="39.612438026815653" lon="2.466300996020436">
<ele>201</ele>
</trkpt>
<trkpt lat="39.612292014062405" lon="2.466311976313591">
<ele>200</ele>
</trkpt>
<trkpt lat="39.612282961606979" lon="2.466322034597397">
<ele>199</ele>
</trkpt>
<trkpt lat="39.612249014899135" lon="2.466451032087207">
<ele>198</ele>
</trkpt>
<trkpt lat="39.612239040434361" lon="2.466485984623432">
<ele>196</ele>
</trkpt>
<trkpt lat="39.612118005752563" lon="2.466571982949972">
<ele>195</ele>
</trkpt>
<trkpt lat="39.611986996605992" lon="2.466691005975008">
<ele>194</ele>
</trkpt>
<trkpt lat="39.611986996605992" lon="2.466691005975008">
<ele>193</ele>
</trkpt>
<trkpt lat="39.61189697496593" lon="2.466853028163314">
<ele>192</ele>
</trkpt>
<trkpt lat="39.611845007166266" lon="2.466922011226416">
<ele>191</ele>
</trkpt>
<trkpt lat="39.611816005781293" lon="2.46701798401773">
<ele>190</ele>
</trkpt>
<trkpt lat="39.611764037981629" lon="2.467109011486173">
<ele>189</ele>
</trkpt>
<trkpt lat="39.611650966107845" lon="2.467173971235752">
<ele>188</ele>
</trkpt>
<trkpt lat="39.611518029123545" lon="2.467266004532576">
<ele>187</ele>
</trkpt>
<trkpt lat="39.611448962241411" lon="2.467314032837749">
<ele>186</ele>
</trkpt>
<trkpt lat="39.611293980851769" lon="2.467389972880483">
<ele>186</ele>
</trkpt>
<trkpt lat="39.611264979466796" lon="2.467416962608695">
<ele>184</ele>
</trkpt>
<trkpt lat="39.611146962270141" lon="2.467496003955603">
<ele>183</ele>
</trkpt>
<trkpt lat="39.611050989478827" lon="2.467532968148589">
<ele>183</ele>
</trkpt>
<trkpt lat="39.61101402528584" lon="2.467545038089156">
<ele>182</ele>
</trkpt>
<trkpt lat="39.610896008089185" lon="2.467664983123541">
<ele>180</ele>
</trkpt>
<trkpt lat="39.610883016139269" lon="2.467700019478798">
<ele>180</ele>
</trkpt>
<trkpt lat="39.610839011147618" lon="2.467819964513183">
<ele>179</ele>
</trkpt>
<trkpt lat="39.610828030854464" lon="2.467865981161594">
<ele>178</ele>
</trkpt>
<trkpt lat="39.610773967579007" lon="2.468012999743223">
<ele>176</ele>
</trkpt>
<trkpt lat="39.610753012821078" lon="2.468141997233033">
<ele>176</ele>
</trkpt>
<trkpt lat="39.610764998942614" lon="2.46815599501133">
<ele>175</ele>
</trkpt>
<trkpt lat="39.610768016427755" lon="2.468167981132865">
<ele>175</ele>
</trkpt>
<trkpt lat="39.610747983679175" lon="2.468304019421339">
<ele>174</ele>
</trkpt>
<trkpt lat="39.610724011436105" lon="2.468411978334189">
<ele>174</ele>
</trkpt>
<trkpt lat="39.610615968704224" lon="2.46850099414587">
<ele>174</ele>
</trkpt>
<trkpt lat="39.610580010339618" lon="2.468506023287773">
<ele>174</ele>
</trkpt>
<trkpt lat="39.610454030334949" lon="2.468546004965901">
<ele>172</ele>
</trkpt>
<trkpt lat="39.610419999808073" lon="2.46854399330914">
<ele>172</ele>
</trkpt>
<trkpt lat="39.6103719715029" lon="2.468550028279424">
<ele>172</ele>
</trkpt>
<trkpt lat="39.610321009531617" lon="2.468549022451043">
<ele>172</ele>
</trkpt>
<trkpt lat="39.610278010368347" lon="2.468554973602295">
<ele>171</ele>
</trkpt>
<trkpt lat="39.610201986506581" lon="2.468592021614313">
<ele>171</ele>
</trkpt>
<trkpt lat="39.61000501178205" lon="2.468664022162557">
<ele>170</ele>
</trkpt>
<trkpt lat="39.609921025112271" lon="2.468681959435344">
<ele>170</ele>
</trkpt>
<trkpt lat="39.609760008752346" lon="2.46871598996222">
<ele>169</ele>
</trkpt>
<trkpt lat="39.609652971848845" lon="2.468747003003955">
<ele>169</ele>
</trkpt>
<trkpt lat="39.609609972685575" lon="2.468776004388928">
<ele>168</ele>
</trkpt>
<trkpt lat="39.609501007944345" lon="2.468826966360211">
<ele>168</ele>
</trkpt>
<trkpt lat="39.609348038211465" lon="2.468856973573566">
<ele>167</ele>
</trkpt>
<trkpt lat="39.609229015186429" lon="2.468838030472398">
<ele>166</ele>
</trkpt>
<trkpt lat="39.609173024073243" lon="2.468823026865721">
<ele>166</ele>
</trkpt>
<trkpt lat="39.609013013541698" lon="2.468816991895437">
<ele>166</ele>
</trkpt>
<trkpt lat="39.608911005780101" lon="2.468854961916804">
<ele>165</ele>
</trkpt>
<trkpt lat="39.608820984140038" lon="2.468859991058707">
<ele>165</ele>
</trkpt>
<trkpt lat="39.608771027997136" lon="2.468901984393597">
<ele>165</ele>
</trkpt>
<trkpt lat="39.608620991930366" lon="2.469068029895425">
<ele>165</ele>
</trkpt>
<trkpt lat="39.608605988323689" lon="2.469083033502102">
<ele>164</ele>
</trkpt>
<trkpt lat="39.60847900249064" lon="2.469200966879726">
<ele>164</ele>
</trkpt>
<trkpt lat="39.608433991670609" lon="2.469215970486403">
<ele>164</ele>
</trkpt>
<trkpt lat="39.608317986130714" lon="2.469335999339819">
<ele>164</ele>
</trkpt>
<trkpt lat="39.608197035267949" lon="2.469483017921448">
<ele>163</ele>
</trkpt>
<trkpt lat="39.608168033882976" lon="2.469500033184886">
<ele>163</ele>
</trkpt>
<trkpt lat="39.608083963394165" lon="2.469549989327788">
<ele>162</ele>
</trkpt>
<trkpt lat="39.607982961460948" lon="2.469671024009585">
<ele>162</ele>
</trkpt>
<trkpt lat="39.607949014753103" lon="2.469702959060669">
<ele>160</ele>
</trkpt>
<trkpt lat="39.607872990891337" lon="2.469807984307408">
<ele>160</ele>
</trkpt>
<trkpt lat="39.607824040576816" lon="2.469871016219258">
<ele>160</ele>
</trkpt>
<trkpt lat="39.607709962874651" lon="2.469961037859321">
<ele>159</ele>
</trkpt>
<trkpt lat="39.607672998681664" lon="2.470022980123758">
<ele>158</ele>
</trkpt>
<trkpt lat="39.607570990920067" lon="2.470113001763821">
<ele>157</ele>
</trkpt>
<trkpt lat="39.607552969828248" lon="2.470134040340781">
<ele>157</ele>
</trkpt>
<trkpt lat="39.607391031458974" lon="2.47024099342525">
<ele>157</ele>
</trkpt>
<trkpt lat="39.607378039509058" lon="2.47026102617383">
<ele>155</ele>
</trkpt>
<trkpt lat="39.607292041182518" lon="2.470330009236932">
<ele>155</ele>
</trkpt>
<trkpt lat="39.607237977907062" lon="2.470375020056963">
<ele>154</ele>
</trkpt>
<trkpt lat="39.60714996792376" lon="2.470393963158131">
<ele>154</ele>
</trkpt>
<trkpt lat="39.607022982090712" lon="2.470461018383503">
<ele>153</ele>
</trkpt>
<trkpt lat="39.60697503760457" lon="2.470440985634923">
<ele>152</ele>
</trkpt>
<trkpt lat="39.606875041499734" lon="2.470436040312052">
<ele>152</ele>
</trkpt>
<trkpt lat="39.606834976002574" lon="2.470372002571821">
<ele>151</ele>
</trkpt>
<trkpt lat="39.606818966567516" lon="2.470345012843609">
<ele>150</ele>
</trkpt>
<trkpt lat="39.606806980445981" lon="2.47034995816648">
<ele>153</ele>
</trkpt>
<trkpt lat="39.606806980445981" lon="2.47034995816648">
<ele>156</ele>
</trkpt>
<trkpt lat="39.606806980445981" lon="2.47034995816648">
<ele>160</ele>
</trkpt>
<trkpt lat="39.606806980445981" lon="2.47034995816648">
<ele>162</ele>
</trkpt>
<trkpt lat="39.606806980445981" lon="2.47034995816648">
<ele>165</ele>
</trkpt>
<trkpt lat="39.606806980445981" lon="2.47034995816648">
<ele>168</ele>
</trkpt>
<trkpt lat="39.606806980445981" lon="2.47034995816648">
<ele>171</ele>
</trkpt>
<trkpt lat="39.606806980445981" lon="2.47034995816648">
<ele>174</ele>
</trkpt>
<trkpt lat="39.606809997931123" lon="2.470365967601538">
<ele>177</ele>
</trkpt>
<trkpt lat="39.606808992102742" lon="2.470366973429918">
<ele>180</ele>
</trkpt>
<trkpt lat="39.606808992102742" lon="2.470365967601538">
<ele>180</ele>
</trkpt>
<trkpt lat="39.606808992102742" lon="2.470365967601538">
<ele>180</ele>
</trkpt>
<trkpt lat="39.606808992102742" lon="2.470365967601538">
<ele>179</ele>
</trkpt>
<trkpt lat="39.606808992102742" lon="2.470365967601538">
<ele>178</ele>
</trkpt>
<trkpt lat="39.606808992102742" lon="2.470365967601538">
<ele>179</ele>
</trkpt>
<trkpt lat="39.60678300820291" lon="2.470405027270317">
<ele>178</ele>
</trkpt>
<trkpt lat="39.606659961864352" lon="2.470436040312052">
<ele>177</ele>
</trkpt>
<trkpt lat="39.606544962152839" lon="2.470479961484671">
<ele>178</ele>
</trkpt>
<trkpt lat="39.606415964663029" lon="2.470538970082998">
<ele>177</ele>
</trkpt>
<trkpt lat="39.606294007971883" lon="2.470608036965132">
<ele>177</ele>
</trkpt>
<trkpt lat="39.606247991323471" lon="2.470628991723061">
<ele>177</ele>
</trkpt>
<trkpt lat="39.606067026033998" lon="2.470623962581158">
<ele>177</ele>
</trkpt>
<trkpt lat="39.606032995507121" lon="2.470639972016215">
<ele>178</ele>
</trkpt>
<trkpt lat="39.606002988293767" lon="2.470626980066299">
<ele>177</ele>
</trkpt>
<trkpt lat="39.605854041874409" lon="2.47058498673141">
<ele>176</ele>
</trkpt>
<trkpt lat="39.605696965008974" lon="2.470539975911379">
<ele>177</ele>
</trkpt>
<trkpt lat="39.605609038844705" lon="2.470533018931747">
<ele>177</ele>
</trkpt>
<trkpt lat="39.605480963364244" lon="2.470493037253618">
<ele>177</ele>
</trkpt>
<trkpt lat="39.605374010279775" lon="2.470482978969812">
<ele>177</ele>
</trkpt>
<trkpt lat="39.605192961171269" lon="2.470419025048614">
<ele>177</ele>
</trkpt>
<trkpt lat="39.605136970058084" lon="2.470389017835259">
<ele>177</ele>
</trkpt>
<trkpt lat="39.605022976174951" lon="2.470365967601538">
<ele>177</ele>
</trkpt>
<trkpt lat="39.60495600476861" lon="2.470337972044945">
<ele>177</ele>
</trkpt>
<trkpt lat="39.604860031977296" lon="2.470308970659971">
<ele>176</ele>
</trkpt>
<trkpt lat="39.604749977588654" lon="2.470259014517069">
<ele>176</ele>
</trkpt>
<trkpt lat="39.604605976492167" lon="2.470216015353799">
<ele>176</ele>
</trkpt>
<trkpt lat="39.604464992880821" lon="2.470146026462317">
<ele>176</ele>
</trkpt>
<trkpt lat="39.604429034516215" lon="2.470122976228595">
<ele>177</ele>
</trkpt>
<trkpt lat="39.604305988177657" lon="2.470091041177511">
<ele>175</ele>
</trkpt>
<trkpt lat="39.604239016771317" lon="2.470075031742454">
<ele>176</ele>
</trkpt>
<trkpt lat="39.604176990687847" lon="2.47004795819521">
<ele>175</ele>
</trkpt>
<trkpt lat="39.604059979319572" lon="2.470085006207228">
<ele>174</ele>
</trkpt>
<trkpt lat="39.604027960449457" lon="2.470095986500382">
<ele>175</ele>
</trkpt>
<trkpt lat="39.603996025398374" lon="2.470101015642285">
<ele>173</ele>
</trkpt>
<trkpt lat="39.603771977126598" lon="2.470224983990192">
<ele>172</ele>
</trkpt>
<trkpt lat="39.603692013770342" lon="2.470255997031927">
<ele>172</ele>
</trkpt>
<trkpt lat="39.603507025167346" lon="2.470324980095029">
<ele>171</ele>
</trkpt>
<trkpt lat="39.603355983272195" lon="2.470394968986511">
<ele>171</ele>
</trkpt>
<trkpt lat="39.603196978569031" lon="2.470458000898361">
<ele>170</ele>
</trkpt>
<trkpt lat="39.603120032697916" lon="2.470551040023565">
<ele>169</ele>
</trkpt>
<trkpt lat="39.603093964979053" lon="2.470603007823229">
<ele>168</ele>
</trkpt>
<trkpt lat="39.603016013279557" lon="2.470765030011535">
<ele>169</ele>
</trkpt>
<trkpt lat="39.602939989417791" lon="2.470884975045919">
<ele>168</ele>
</trkpt>
<trkpt lat="39.602906964719296" lon="2.470933003351092">
<ele>167</ele>
</trkpt>
<trkpt lat="39.602805962786078" lon="2.471069041639566">
<ele>167</ele>
</trkpt>
<trkpt lat="39.602752989158034" lon="2.471086978912354">
<ele>166</ele>
</trkpt>
<trkpt lat="39.60263698361814" lon="2.471238020807505">
<ele>167</ele>
</trkpt>
<trkpt lat="39.602623991668224" lon="2.471258975565434">
<ele>166</ele>
</trkpt>
<trkpt lat="39.602519972249866" lon="2.471443964168429">
<ele>166</ele>
</trkpt>
<trkpt lat="39.602428022772074" lon="2.47161403298378">
<ele>165</ele>
</trkpt>
<trkpt lat="39.602413019165397" lon="2.471638005226851">
<ele>165</ele>
</trkpt>
<trkpt lat="39.602308999747038" lon="2.471756022423506">
<ele>165</ele>
</trkpt>
<trkpt lat="39.602244962006807" lon="2.471847971901298">
<ele>166</ele>
</trkpt>
<trkpt lat="39.602216966450214" lon="2.471908992156386">
<ele>166</ele>
</trkpt>
<trkpt lat="39.602157035842538" lon="2.472194982692599">
<ele>165</ele>
</trkpt>
<trkpt lat="39.602125016972423" lon="2.47238801792264">
<ele>166</ele>
</trkpt>
<trkpt lat="39.602112025022507" lon="2.472412995994091">
<ele>166</ele>
</trkpt>
<trkpt lat="39.602089980617166" lon="2.472564959898591">
<ele>166</ele>
</trkpt>
<trkpt lat="39.602069025859237" lon="2.472654981538653">
<ele>167</ele>
</trkpt>
<trkpt lat="39.602063996717334" lon="2.472750032320619">
<ele>166</ele>
</trkpt>
<trkpt lat="39.602071959525347" lon="2.472925968468189">
<ele>166</ele>
</trkpt>
<trkpt lat="39.602075982838869" lon="2.472950024530292">
<ele>166</ele>
</trkpt>
<trkpt lat="39.602070031687617" lon="2.473152028396726">
<ele>166</ele>
</trkpt>
<trkpt lat="39.602072965353727" lon="2.473196033388376">
<ele>167</ele>
</trkpt>
<trkpt lat="39.602056033909321" lon="2.473320001736283">
<ele>166</ele>
</trkpt>
<trkpt lat="39.602041030302644" lon="2.47344397008419">
<ele>165</ele>
</trkpt>
<trkpt lat="39.602022003382444" lon="2.473579002544284">
<ele>166</ele>
</trkpt>
<trkpt lat="39.602000964805484" lon="2.473686039447784">
<ele>166</ele>
</trkpt>
<trkpt lat="39.601965006440878" lon="2.473856024444103">
<ele>165</ele>
</trkpt>
<trkpt lat="39.601945979520679" lon="2.47393598780036">
<ele>165</ele>
</trkpt>
<trkpt lat="39.601860987022519" lon="2.474149977788329">
<ele>165</ele>
</trkpt>
<trkpt lat="39.60175696760416" lon="2.474315017461777">
<ele>164</ele>
</trkpt>
<trkpt lat="39.601702988147736" lon="2.474403027445078">
<ele>165</ele>
</trkpt>
<trkpt lat="39.601610032841563" lon="2.474545016884804">
<ele>165</ele>
</trkpt>
<trkpt lat="39.601543983444571" lon="2.474610982462764">
<ele>163</ele>
</trkpt>
<trkpt lat="39.601464020088315" lon="2.474677031859756">
<ele>164</ele>
</trkpt>
<trkpt lat="39.601425966247916" lon="2.474704021587968">
<ele>164</ele>
</trkpt>
<trkpt lat="39.601308032870293" lon="2.474821032956243">
<ele>164</ele>
</trkpt>
<trkpt lat="39.601284982636571" lon="2.474851962178946">
<ele>164</ele>
</trkpt>
<trkpt lat="39.601130001246929" lon="2.47500903904438">
<ele>163</ele>
</trkpt>
<trkpt lat="39.601042997092009" lon="2.47505103237927">
<ele>163</ele>
</trkpt>
<trkpt lat="39.600986000150442" lon="2.47509797103703">
<ele>163</ele>
</trkpt>
<trkpt lat="39.60091701708734" lon="2.475136024877429">
<ele>163</ele>
</trkpt>
<trkpt lat="39.600823977962136" lon="2.475244989618659">
<ele>163</ele>
</trkpt>
<trkpt lat="39.600774021819234" lon="2.475311961025">
<ele>162</ele>
</trkpt>
<trkpt lat="39.600711995735765" lon="2.475412962958217">
<ele>161</ele>
</trkpt>
<trkpt lat="39.600691040977836" lon="2.475450010970235">
<ele>162</ele>
</trkpt>
<trkpt lat="39.600571012124419" lon="2.475619995966554">
<ele>162</ele>
</trkpt>
<trkpt lat="39.600500017404556" lon="2.475687973201275">
<ele>161</ele>
</trkpt>
<trkpt lat="39.600500017404556" lon="2.475687973201275">
<ele>161</ele>
</trkpt>
<trkpt lat="39.60048995912075" lon="2.475667018443346">
<ele>160</ele>
</trkpt>
<trkpt lat="39.600491970777512" lon="2.475665006786585">
<ele>160</ele>
</trkpt>
</trkseg>
</trk>
</gpx>
