<?xml version="1.0" encoding="UTF-8"?>
<gpx xmlns="http://www.topografix.com/GPX/1/1" xsi:schemaLocation="http://www.topografix.com/GPX/1/1 http://www.topografix.com/GPX/1/1/gpx.xsd http://www.topografix.com/GPX/gpx_overlay/0/3 http://www.topografix.com/GPX/gpx_overlay/0/3/gpx_overlay.xsd http://www.topografix.com/GPX/gpx_modified/0/1 http://www.topografix.com/GPX/gpx_modified/0/1/gpx_modified.xsd http://www.topografix.com/GPX/Private/TopoGrafix/0/3 http://www.topografix.com/GPX/Private/TopoGrafix/0/3/topografix.xsd" xmlns:xsi="http://www.w3.org/2001/XMLSchema-instance" version="1.1">
<trk>
<trkseg>
<trkpt lon="13.52179" lat="47.43425"><ele>1050</ele></trkpt>
<trkpt lon="13.5217" lat="47.43459"><ele>1054</ele></trkpt>
<trkpt lon="13.5217" lat="47.43489"><ele>1056</ele></trkpt>
<trkpt lon="13.52186" lat="47.43521"><ele>1057</ele></trkpt>
<trkpt lon="13.52199" lat="47.43556"><ele>1057</ele></trkpt>
<trkpt lon="13.52206" lat="47.43565"><ele>1057</ele></trkpt>
<trkpt lon="13.52215" lat="47.43585"><ele>1057</ele></trkpt>
<trkpt lon="13.52217" lat="47.43602"><ele>1057</ele></trkpt>
<trkpt lon="13.52221" lat="47.4361"><ele>1056</ele></trkpt>
<trkpt lon="13.52226" lat="47.43635"><ele>1056</ele></trkpt>
<trkpt lon="13.52226" lat="47.43661"><ele>1056</ele></trkpt>
<trkpt lon="13.52229" lat="47.4368"><ele>1056</ele></trkpt>
<trkpt lon="13.52236" lat="47.43701"><ele>1056</ele></trkpt>
<trkpt lon="13.52243" lat="47.43719"><ele>1055</ele></trkpt>
<trkpt lon="13.52256" lat="47.43739"><ele>1055</ele></trkpt>
<trkpt lon="13.52272" lat="47.4377"><ele>1055</ele></trkpt>
<trkpt lon="13.52277" lat="47.43791"><ele>1055</ele></trkpt>
<trkpt lon="13.5228" lat="47.4383"><ele>1056</ele></trkpt>
<trkpt lon="13.52277" lat="47.43884"><ele>1057</ele></trkpt>
<trkpt lon="13.52253" lat="47.43909"><ele>1058</ele></trkpt>
<trkpt lon="13.52243" lat="47.43917"><ele>1058</ele></trkpt>
<trkpt lon="13.52232" lat="47.43951"><ele>1060</ele></trkpt>
<trkpt lon="13.52206" lat="47.43991"><ele>1063</ele></trkpt>
<trkpt lon="13.52151" lat="47.44062"><ele>1066</ele></trkpt>
<trkpt lon="13.52124" lat="47.44084"><ele>1069</ele></trkpt>
<trkpt lon="13.52015" lat="47.44152"><ele>1080</ele></trkpt>
<trkpt lon="13.52001" lat="47.44164"><ele>1082</ele></trkpt>
<trkpt lon="13.51979" lat="47.44201"><ele>1083</ele></trkpt>
<trkpt lon="13.51946" lat="47.44296"><ele>1083</ele></trkpt>
<trkpt lon="13.51941" lat="47.44305"><ele>1082</ele></trkpt>
<trkpt lon="13.51944" lat="47.44331"><ele>1079</ele></trkpt>
<trkpt lon="13.51954" lat="47.44339"><ele>1078</ele></trkpt>
<trkpt lon="13.51957" lat="47.44363"><ele>1078</ele></trkpt>
<trkpt lon="13.51966" lat="47.44395"><ele>1079</ele></trkpt>
<trkpt lon="13.52007" lat="47.44418"><ele>1082</ele></trkpt>
<trkpt lon="13.52022" lat="47.44424"><ele>1083</ele></trkpt>
<trkpt lon="13.52051" lat="47.44428"><ele>1086</ele></trkpt>
<trkpt lon="13.52085" lat="47.44442"><ele>1090</ele></trkpt>
<trkpt lon="13.52215" lat="47.44505"><ele>1104</ele></trkpt>
<trkpt lon="13.52213" lat="47.44512"><ele>1104</ele></trkpt>
<trkpt lon="13.52213" lat="47.44528"><ele>1106</ele></trkpt>
<trkpt lon="13.52223" lat="47.4455"><ele>1109</ele></trkpt>
<trkpt lon="13.52238" lat="47.44568"><ele>1112</ele></trkpt>
<trkpt lon="13.52253" lat="47.4458"><ele>1114</ele></trkpt>
<trkpt lon="13.52264" lat="47.44602"><ele>1118</ele></trkpt>
<trkpt lon="13.5227" lat="47.44662"><ele>1128</ele></trkpt>
<trkpt lon="13.52263" lat="47.44676"><ele>1129</ele></trkpt>
<trkpt lon="13.52251" lat="47.44711"><ele>1131</ele></trkpt>
<trkpt lon="13.52242" lat="47.44724"><ele>1131</ele></trkpt>
<trkpt lon="13.52241" lat="47.44746"><ele>1133</ele></trkpt>
<trkpt lon="13.52236" lat="47.44774"><ele>1135</ele></trkpt>
<trkpt lon="13.52197" lat="47.4485"><ele>1141</ele></trkpt>
<trkpt lon="13.52166" lat="47.4489"><ele>1143</ele></trkpt>
<trkpt lon="13.52162" lat="47.44921"><ele>1144</ele></trkpt>
<trkpt lon="13.52165" lat="47.44928"><ele>1144</ele></trkpt>
<trkpt lon="13.52211" lat="47.44942"><ele>1151</ele></trkpt>
<trkpt lon="13.52219" lat="47.44951"><ele>1152</ele></trkpt>
<trkpt lon="13.52229" lat="47.44967"><ele>1154</ele></trkpt>
<trkpt lon="13.52232" lat="47.44985"><ele>1154</ele></trkpt>
<trkpt lon="13.52237" lat="47.44991"><ele>1156</ele></trkpt>
<trkpt lon="13.52243" lat="47.44991"><ele>1158</ele></trkpt>
<trkpt lon="13.52302" lat="47.44922"><ele>1168</ele></trkpt>
<trkpt lon="13.52338" lat="47.44898"><ele>1173</ele></trkpt>
<trkpt lon="13.52364" lat="47.44876"><ele>1174</ele></trkpt>
<trkpt lon="13.52374" lat="47.44862"><ele>1174</ele></trkpt>
<trkpt lon="13.52384" lat="47.44858"><ele>1175</ele></trkpt>
<trkpt lon="13.5239" lat="47.44859"><ele>1177</ele></trkpt>
<trkpt lon="13.52389" lat="47.44866"><ele>1178</ele></trkpt>
<trkpt lon="13.52379" lat="47.44885"><ele>1180</ele></trkpt>
<trkpt lon="13.52382" lat="47.44948"><ele>1193</ele></trkpt>
<trkpt lon="13.52383" lat="47.44959"><ele>1194</ele></trkpt>
<trkpt lon="13.52387" lat="47.44966"><ele>1196</ele></trkpt>
<trkpt lon="13.52392" lat="47.44968"><ele>1198</ele></trkpt>
<trkpt lon="13.52397" lat="47.44966"><ele>1198</ele></trkpt>
<trkpt lon="13.52402" lat="47.44945"><ele>1198</ele></trkpt>
<trkpt lon="13.52409" lat="47.44939"><ele>1198</ele></trkpt>
<trkpt lon="13.52424" lat="47.44933"><ele>1201</ele></trkpt>
<trkpt lon="13.52434" lat="47.44927"><ele>1201</ele></trkpt>
<trkpt lon="13.52452" lat="47.44892"><ele>1199</ele></trkpt>
<trkpt lon="13.52459" lat="47.44887"><ele>1199</ele></trkpt>
<trkpt lon="13.52465" lat="47.44891"><ele>1202</ele></trkpt>
<trkpt lon="13.52468" lat="47.44902"><ele>1204</ele></trkpt>
<trkpt lon="13.52468" lat="47.44919"><ele>1207</ele></trkpt>
<trkpt lon="13.52473" lat="47.44931"><ele>1210</ele></trkpt>
<trkpt lon="13.52471" lat="47.44961"><ele>1215</ele></trkpt>
<trkpt lon="13.524859" lat="47.449671"><ele>1219</ele></trkpt>
<trkpt lon="13.52504" lat="47.449707"><ele>1224</ele></trkpt>
<trkpt lon="13.525281" lat="47.449788"><ele>1233</ele></trkpt>
<trkpt lon="13.52572" lat="47.449883"><ele>1249</ele></trkpt>
<trkpt lon="13.525958" lat="47.449875"><ele>1255</ele></trkpt>
<trkpt lon="13.52622" lat="47.44973"><ele>1258</ele></trkpt>
<trkpt lon="13.52638" lat="47.44976"><ele>1263</ele></trkpt>
<trkpt lon="13.52662" lat="47.44987"><ele>1270</ele></trkpt>
<trkpt lon="13.52671" lat="47.44989"><ele>1272</ele></trkpt>
<trkpt lon="13.52679" lat="47.44988"><ele>1273</ele></trkpt>
<trkpt lon="13.52701" lat="47.44973"><ele>1274</ele></trkpt>
<trkpt lon="13.52727" lat="47.44966"><ele>1277</ele></trkpt>
<trkpt lon="13.527284" lat="47.449653"><ele>1278</ele></trkpt>
<trkpt lon="13.527525" lat="47.449545"><ele>1280</ele></trkpt>
<trkpt lon="13.527725" lat="47.449437"><ele>1282</ele></trkpt>
<trkpt lon="13.527751" lat="47.449428"><ele>1282</ele></trkpt>
<trkpt lon="13.528098" lat="47.449239"><ele>1287</ele></trkpt>
<trkpt lon="13.528152" lat="47.449203"><ele>1288</ele></trkpt>
<trkpt lon="13.528205" lat="47.449177"><ele>1288</ele></trkpt>
<trkpt lon="13.528459" lat="47.449033"><ele>1287</ele></trkpt>
<trkpt lon="13.528806" lat="47.448889"><ele>1287</ele></trkpt>
<trkpt lon="13.529153" lat="47.448889"><ele>1288</ele></trkpt>
<trkpt lon="13.529153" lat="47.44888"><ele>1288</ele></trkpt>
<trkpt lon="13.529473" lat="47.448871"><ele>1290</ele></trkpt>
<trkpt lon="13.529753" lat="47.448889"><ele>1292</ele></trkpt>
<trkpt lon="13.529994" lat="47.448916"><ele>1294</ele></trkpt>
<trkpt lon="13.530341" lat="47.448934"><ele>1298</ele></trkpt>
<trkpt lon="13.530581" lat="47.44897"><ele>1303</ele></trkpt>
<trkpt lon="13.530794" lat="47.448997"><ele>1307</ele></trkpt>
<trkpt lon="13.53081" lat="47.44899"><ele>1308</ele></trkpt>
<trkpt lon="13.53127" lat="47.44886"><ele>1313</ele></trkpt>
<trkpt lon="13.53147" lat="47.44871"><ele>1314</ele></trkpt>
<trkpt lon="13.53152" lat="47.448394"><ele>1314</ele></trkpt>
<trkpt lon="13.532067" lat="47.448143"><ele>1322</ele></trkpt>
<trkpt lon="13.53212" lat="47.448044"><ele>1323</ele></trkpt>
<trkpt lon="13.531931" lat="47.447954"><ele>1319</ele></trkpt>
<trkpt lon="13.531703" lat="47.447875"><ele>1315</ele></trkpt>
<trkpt lon="13.531406" lat="47.447722"><ele>1311</ele></trkpt>
<trkpt lon="13.531117" lat="47.447421"><ele>1310</ele></trkpt>
<trkpt lon="13.53079" lat="47.44698"><ele>1310</ele></trkpt>
<trkpt lon="13.53065" lat="47.44666"><ele>1310</ele></trkpt>
<trkpt lon="13.5306" lat="47.44645"><ele>1310</ele></trkpt>
<trkpt lon="13.53054" lat="47.44585"><ele>1307</ele></trkpt>
<trkpt lon="13.5304" lat="47.4454"><ele>1306</ele></trkpt>
<trkpt lon="13.53019" lat="47.44508"><ele>1304</ele></trkpt>
<trkpt lon="13.52998" lat="47.44453"><ele>1301</ele></trkpt>
<trkpt lon="13.52992" lat="47.44418"><ele>1301</ele></trkpt>
<trkpt lon="13.53001" lat="47.44385"><ele>1300</ele></trkpt>
<trkpt lon="13.53011" lat="47.4436"><ele>1297</ele></trkpt>
<trkpt lon="13.53003" lat="47.4433"><ele>1297</ele></trkpt>
<trkpt lon="13.53002" lat="47.443"><ele>1294</ele></trkpt>
<trkpt lon="13.53005" lat="47.44253"><ele>1290</ele></trkpt>
<trkpt lon="13.53012" lat="47.44221"><ele>1285</ele></trkpt>
<trkpt lon="13.53025" lat="47.44195"><ele>1281</ele></trkpt>
<trkpt lon="13.53034" lat="47.44182"><ele>1280</ele></trkpt>
<trkpt lon="13.53035" lat="47.44175"><ele>1278</ele></trkpt>
<trkpt lon="13.53028" lat="47.4417"><ele>1276</ele></trkpt>
<trkpt lon="13.53015" lat="47.44172"><ele>1275</ele></trkpt>
<trkpt lon="13.52983" lat="47.44183"><ele>1273</ele></trkpt>
<trkpt lon="13.52902" lat="47.44203"><ele>1264</ele></trkpt>
<trkpt lon="13.52877" lat="47.44217"><ele>1262</ele></trkpt>
<trkpt lon="13.52854" lat="47.4424"><ele>1260</ele></trkpt>
<trkpt lon="13.52845" lat="47.44261"><ele>1260</ele></trkpt>
<trkpt lon="13.5283" lat="47.44268"><ele>1256</ele></trkpt>
<trkpt lon="13.52826" lat="47.44238"><ele>1252</ele></trkpt>
<trkpt lon="13.52831" lat="47.44209"><ele>1248</ele></trkpt>
<trkpt lon="13.52956" lat="47.44047"><ele>1231</ele></trkpt>
<trkpt lon="13.52971" lat="47.43999"><ele>1218</ele></trkpt>
<trkpt lon="13.52992" lat="47.43968"><ele>1211</ele></trkpt>
<trkpt lon="13.53024" lat="47.43927"><ele>1200</ele></trkpt>
<trkpt lon="13.53144" lat="47.43808"><ele>1185</ele></trkpt>
<trkpt lon="13.53158" lat="47.4378"><ele>1180</ele></trkpt>
<trkpt lon="13.532064" lat="47.43738"><ele>1172</ele></trkpt>
<trkpt lon="13.532371" lat="47.437057"><ele>1160</ele></trkpt>
<trkpt lon="13.53262" lat="47.436964"><ele>1160</ele></trkpt>
<trkpt lon="13.533446" lat="47.437113"><ele>1166</ele></trkpt>
<trkpt lon="13.534472" lat="47.43741"><ele>1174</ele></trkpt>
<trkpt lon="13.535023" lat="47.437744"><ele>1178</ele></trkpt>
<trkpt lon="13.534955" lat="47.437514"><ele>1176</ele></trkpt>
<trkpt lon="13.534529" lat="47.437062"><ele>1167</ele></trkpt>
<trkpt lon="13.533698" lat="47.436719"><ele>1153</ele></trkpt>
<trkpt lon="13.533162" lat="47.436465"><ele>1150</ele></trkpt>
<trkpt lon="13.532638" lat="47.436287"><ele>1146</ele></trkpt>
<trkpt lon="13.532044" lat="47.436113"><ele>1137</ele></trkpt>
<trkpt lon="13.531374" lat="47.436094"><ele>1131</ele></trkpt>
<trkpt lon="13.530969" lat="47.436132"><ele>1128</ele></trkpt>
<trkpt lon="13.53071" lat="47.43614"><ele>1127</ele></trkpt>
<trkpt lon="13.53062" lat="47.43621"><ele>1125</ele></trkpt>
<trkpt lon="13.53028" lat="47.43631"><ele>1121</ele></trkpt>
<trkpt lon="13.52977" lat="47.4364"><ele>1114</ele></trkpt>
<trkpt lon="13.52873" lat="47.4365"><ele>1098</ele></trkpt>
<trkpt lon="13.5277" lat="47.43658"><ele>1086</ele></trkpt>
<trkpt lon="13.52739" lat="47.43656"><ele>1084</ele></trkpt>
<trkpt lon="13.52685" lat="47.43644"><ele>1084</ele></trkpt>
<trkpt lon="13.52632" lat="47.43631"><ele>1083</ele></trkpt>
<trkpt lon="13.52574" lat="47.43611"><ele>1082</ele></trkpt>
<trkpt lon="13.52502" lat="47.43602"><ele>1075</ele></trkpt>
<trkpt lon="13.52431" lat="47.43586"><ele>1064</ele></trkpt>
<trkpt lon="13.52411" lat="47.43587"><ele>1062</ele></trkpt>
<trkpt lon="13.52336" lat="47.43597"><ele>1059</ele></trkpt>
<trkpt lon="13.52271" lat="47.43602"><ele>1055</ele></trkpt>
<trkpt lon="13.52221" lat="47.4361"><ele>1056</ele></trkpt>
<trkpt lon="13.52222" lat="47.43616"><ele>1056</ele></trkpt>
</trkseg>
</trk>
</gpx>
