<?xml version="1.0" encoding="UTF-8"?>
<!-- track-length = 4780 filtered ascend = 95 plain-ascend = 5 cost=18779 energy=.0kwh time=10m 17s -->
<gpx 
 xmlns="http://www.topografix.com/GPX/1/1" 
 xmlns:xsi="http://www.w3.org/2001/XMLSchema-instance" 
 xsi:schemaLocation="http://www.topografix.com/GPX/1/1 http://www.topografix.com/GPX/1/1/gpx.xsd" 
 creator="BRouter-1.6.3" version="1.1">
 <trk>
  <name>Leupoldstein - Betzenstein - 4.8 km</name>
  <trkseg>
   <trkpt lon="11.409290" lat="49.682653"><ele>525.75</ele></trkpt>
   <trkpt lon="11.409359" lat="49.682577"><ele>526.0</ele></trkpt>
   <trkpt lon="11.409404" lat="49.682513"><ele>525.75</ele></trkpt>
   <trkpt lon="11.409424" lat="49.682462"><ele>525.75</ele></trkpt>
   <trkpt lon="11.409418" lat="49.682408"><ele>525.25</ele></trkpt>
   <trkpt lon="11.409384" lat="49.682246"><ele>524.75</ele></trkpt>
   <trkpt lon="11.409346" lat="49.682084"><ele>524.0</ele></trkpt>
   <trkpt lon="11.409665" lat="49.682020"><ele>523.0</ele></trkpt>
   <trkpt lon="11.409819" lat="49.682010"><ele>522.5</ele></trkpt>
   <trkpt lon="11.409931" lat="49.682035"><ele>522.5</ele></trkpt>
   <trkpt lon="11.410134" lat="49.682093"><ele>522.5</ele></trkpt>
   <trkpt lon="11.410338" lat="49.681987"><ele>520.5</ele></trkpt>
   <trkpt lon="11.410324" lat="49.682147"><ele>522.5</ele></trkpt>
   <trkpt lon="11.410316" lat="49.682244"><ele>523.75</ele></trkpt>
   <trkpt lon="11.410273" lat="49.682338"><ele>525.25</ele></trkpt>
   <trkpt lon="11.410197" lat="49.682406"><ele>526.25</ele></trkpt>
   <trkpt lon="11.409953" lat="49.682584"><ele>529.0</ele></trkpt>
   <trkpt lon="11.409673" lat="49.682696"><ele>529.0</ele></trkpt>
   <trkpt lon="11.409581" lat="49.682851"><ele>529.75</ele></trkpt>
   <trkpt lon="11.409800" lat="49.682797"><ele>531.0</ele></trkpt>
   <trkpt lon="11.409971" lat="49.682771"><ele>532.25</ele></trkpt>
   <trkpt lon="11.409954" lat="49.682837"><ele>533.0</ele></trkpt>
   <trkpt lon="11.409953" lat="49.682867"><ele>533.25</ele></trkpt>
   <trkpt lon="11.409945" lat="49.683110"><ele>537.25</ele></trkpt>
   <trkpt lon="11.409973" lat="49.683306"><ele>537.25</ele></trkpt>
   <trkpt lon="11.409978" lat="49.683337"></trkpt>
   <trkpt lon="11.410035" lat="49.683496"><ele>542.25</ele></trkpt>
   <trkpt lon="11.410051" lat="49.683541"><ele>542.5</ele></trkpt>
   <trkpt lon="11.410347" lat="49.683459"><ele>544.25</ele></trkpt>
   <trkpt lon="11.410446" lat="49.683432"><ele>545.0</ele></trkpt>
   <trkpt lon="11.410766" lat="49.683357"><ele>546.75</ele></trkpt>
   <trkpt lon="11.410977" lat="49.683312"><ele>546.5</ele></trkpt>
   <trkpt lon="11.411068" lat="49.683365"><ele>547.25</ele></trkpt>
   <trkpt lon="11.411159" lat="49.683417"><ele>548.0</ele></trkpt>
   <trkpt lon="11.411479" lat="49.683464"><ele>549.0</ele></trkpt>
   <trkpt lon="11.411582" lat="49.683519"><ele>549.75</ele></trkpt>
   <trkpt lon="11.411413" lat="49.683716"><ele>551.5</ele></trkpt>
   <trkpt lon="11.411461" lat="49.683916"><ele>553.5</ele></trkpt>
   <trkpt lon="11.411671" lat="49.684046"><ele>555.5</ele></trkpt>
   <trkpt lon="11.412124" lat="49.684507"><ele>553.0</ele></trkpt>
   <trkpt lon="11.412176" lat="49.684559"><ele>552.75</ele></trkpt>
   <trkpt lon="11.412221" lat="49.685223"><ele>551.0</ele></trkpt>
   <trkpt lon="11.412226" lat="49.685286"><ele>551.0</ele></trkpt>
   <trkpt lon="11.412286" lat="49.685464"><ele>551.75</ele></trkpt>
   <trkpt lon="11.412395" lat="49.685668"><ele>552.25</ele></trkpt>
   <trkpt lon="11.412637" lat="49.685941"><ele>553.5</ele></trkpt>
   <trkpt lon="11.412774" lat="49.686024"><ele>554.0</ele></trkpt>
   <trkpt lon="11.413005" lat="49.686163"><ele>554.25</ele></trkpt>
   <trkpt lon="11.413007" lat="49.686171"><ele>554.25</ele></trkpt>
   <trkpt lon="11.413115" lat="49.686540"><ele>555.25</ele></trkpt>
   <trkpt lon="11.413348" lat="49.686644"><ele>554.75</ele></trkpt>
   <trkpt lon="11.413783" lat="49.686883"><ele>552.75</ele></trkpt>
   <trkpt lon="11.413769" lat="49.687042"><ele>553.75</ele></trkpt>
   <trkpt lon="11.413745" lat="49.687094"><ele>554.0</ele></trkpt>
   <trkpt lon="11.413704" lat="49.687189"><ele>555.0</ele></trkpt>
   <trkpt lon="11.412957" lat="49.687598"><ele>558.75</ele></trkpt>
   <trkpt lon="11.412796" lat="49.687622"><ele>558.25</ele></trkpt>
   <trkpt lon="11.412438" lat="49.687677"><ele>557.5</ele></trkpt>
   <trkpt lon="11.412260" lat="49.688011"><ele>552.25</ele></trkpt>
   <trkpt lon="11.411904" lat="49.688180"><ele>547.0</ele></trkpt>
   <trkpt lon="11.411793" lat="49.688220"><ele>545.5</ele></trkpt>
   <trkpt lon="11.411677" lat="49.688264"><ele>544.0</ele></trkpt>
   <trkpt lon="11.411348" lat="49.688350"><ele>539.0</ele></trkpt>
   <trkpt lon="11.411026" lat="49.688353"><ele>535.0</ele></trkpt>
   <trkpt lon="11.410486" lat="49.688306"><ele>530.5</ele></trkpt>
   <trkpt lon="11.410529" lat="49.688397"><ele>530.0</ele></trkpt>
   <trkpt lon="11.410470" lat="49.688638"><ele>528.25</ele></trkpt>
   <trkpt lon="11.410515" lat="49.688725"><ele>527.75</ele></trkpt>
   <trkpt lon="11.410690" lat="49.689063"><ele>526.5</ele></trkpt>
   <trkpt lon="11.410703" lat="49.689193"><ele>525.75</ele></trkpt>
   <trkpt lon="11.410534" lat="49.689566"><ele>525.0</ele></trkpt>
   <trkpt lon="11.410449" lat="49.689649"><ele>525.0</ele></trkpt>
   <trkpt lon="11.410261" lat="49.689770"><ele>525.25</ele></trkpt>
   <trkpt lon="11.410343" lat="49.689775"><ele>525.0</ele></trkpt>
   <trkpt lon="11.410261" lat="49.689770"><ele>525.25</ele></trkpt>
   <trkpt lon="11.410120" lat="49.689769"><ele>525.5</ele></trkpt>
   <trkpt lon="11.410056" lat="49.689785"><ele>525.5</ele></trkpt>
   <trkpt lon="11.409997" lat="49.689848"><ele>525.75</ele></trkpt>
   <trkpt lon="11.409752" lat="49.690459"><ele>524.25</ele></trkpt>
   <trkpt lon="11.409749" lat="49.690493"><ele>524.0</ele></trkpt>
   <trkpt lon="11.409688" lat="49.691222"><ele>520.5</ele></trkpt>
   <trkpt lon="11.410221" lat="49.691458"><ele>519.5</ele></trkpt>
   <trkpt lon="11.410392" lat="49.691534"><ele>519.5</ele></trkpt>
   <trkpt lon="11.410727" lat="49.691832"><ele>521.0</ele></trkpt>
   <trkpt lon="11.410801" lat="49.692204"><ele>522.5</ele></trkpt>
   <trkpt lon="11.410750" lat="49.692479"><ele>523.0</ele></trkpt>
   <trkpt lon="11.410802" lat="49.692733"><ele>521.0</ele></trkpt>
   <trkpt lon="11.410816" lat="49.692802"><ele>520.75</ele></trkpt>
   <trkpt lon="11.411093" lat="49.692750"><ele>524.0</ele></trkpt>
   <trkpt lon="11.411205" lat="49.692699"><ele>525.5</ele></trkpt>
   <trkpt lon="11.411358" lat="49.692654"><ele>527.5</ele></trkpt>
   <trkpt lon="11.411549" lat="49.692582"><ele>530.0</ele></trkpt>
   <trkpt lon="11.411677" lat="49.692504"><ele>532.0</ele></trkpt>
   <trkpt lon="11.411901" lat="49.692316"><ele>532.0</ele></trkpt>
   <trkpt lon="11.411953" lat="49.692256"><ele>531.75</ele></trkpt>
   <trkpt lon="11.412000" lat="49.692204"><ele>531.75</ele></trkpt>
   <trkpt lon="11.412087" lat="49.692137"><ele>531.75</ele></trkpt>
   <trkpt lon="11.412228" lat="49.692086"><ele>532.0</ele></trkpt>
   <trkpt lon="11.412298" lat="49.691973"><ele>531.75</ele></trkpt>
   <trkpt lon="11.412484" lat="49.691913"><ele>532.25</ele></trkpt>
   <trkpt lon="11.412493" lat="49.692042"><ele>533.0</ele></trkpt>
   <trkpt lon="11.412507" lat="49.692141"><ele>533.5</ele></trkpt>
   <trkpt lon="11.412529" lat="49.692297"><ele>534.75</ele></trkpt>
   <trkpt lon="11.412267" lat="49.692394"><ele>534.0</ele></trkpt>
   <trkpt lon="11.412223" lat="49.692577"><ele>534.25</ele></trkpt>
   <trkpt lon="11.411619" lat="49.693072"><ele>525.25</ele></trkpt>
   <trkpt lon="11.411399" lat="49.693253"><ele>522.0</ele></trkpt>
   <trkpt lon="11.411596" lat="49.693419"><ele>522.5</ele></trkpt>
   <trkpt lon="11.411854" lat="49.693741"><ele>523.25</ele></trkpt>
   <trkpt lon="11.411869" lat="49.693756"><ele>523.25</ele></trkpt>
   <trkpt lon="11.412295" lat="49.694207"><ele>529.0</ele></trkpt>
   <trkpt lon="11.412313" lat="49.694310"><ele>527.75</ele></trkpt>
   <trkpt lon="11.412362" lat="49.694529"><ele>525.25</ele></trkpt>
   <trkpt lon="11.412483" lat="49.694595"><ele>525.0</ele></trkpt>
   <trkpt lon="11.412803" lat="49.694556"><ele>526.0</ele></trkpt>
   <trkpt lon="11.412895" lat="49.694528"><ele>526.75</ele></trkpt>
   <trkpt lon="11.413097" lat="49.694470"><ele>528.75</ele></trkpt>
   <trkpt lon="11.413188" lat="49.694507"><ele>527.75</ele></trkpt>
   <trkpt lon="11.413365" lat="49.694526"><ele>527.25</ele></trkpt>
   <trkpt lon="11.413465" lat="49.694536"><ele>526.75</ele></trkpt>
   <trkpt lon="11.413678" lat="49.694489"><ele>528.0</ele></trkpt>
   <trkpt lon="11.413691" lat="49.694470"><ele>528.0</ele></trkpt>
   <trkpt lon="11.414322" lat="49.693617"><ele>533.5</ele></trkpt>
   <trkpt lon="11.414328" lat="49.693659"><ele>533.5</ele></trkpt>
   <trkpt lon="11.414322" lat="49.693617"><ele>533.5</ele></trkpt>
   <trkpt lon="11.414249" lat="49.693199"><ele>534.25</ele></trkpt>
   <trkpt lon="11.414188" lat="49.692544"><ele>537.5</ele></trkpt>
   <trkpt lon="11.414196" lat="49.692265"><ele>537.0</ele></trkpt>
   <trkpt lon="11.414228" lat="49.691965"><ele>536.25</ele></trkpt>
   <trkpt lon="11.414253" lat="49.691891"><ele>536.0</ele></trkpt>
   <trkpt lon="11.414319" lat="49.691705"><ele>535.75</ele></trkpt>
   <trkpt lon="11.414872" lat="49.691115"><ele>532.75</ele></trkpt>
   <trkpt lon="11.415005" lat="49.691007"><ele>532.5</ele></trkpt>
   <trkpt lon="11.415134" lat="49.690825"><ele>531.75</ele></trkpt>
   <trkpt lon="11.415221" lat="49.690621"><ele>532.75</ele></trkpt>
   <trkpt lon="11.415236" lat="49.690427"><ele>533.75</ele></trkpt>
   <trkpt lon="11.415223" lat="49.690279"><ele>534.5</ele></trkpt>
   <trkpt lon="11.415218" lat="49.690208"><ele>535.0</ele></trkpt>
   <trkpt lon="11.415064" lat="49.689563"><ele>539.5</ele></trkpt>
   <trkpt lon="11.415012" lat="49.689146"><ele>543.0</ele></trkpt>
   <trkpt lon="11.415043" lat="49.688800"><ele>543.75</ele></trkpt>
   <trkpt lon="11.415167" lat="49.688176"><ele>544.5</ele></trkpt>
   <trkpt lon="11.415237" lat="49.687821"><ele>543.5</ele></trkpt>
   <trkpt lon="11.415303" lat="49.687586"><ele>542.5</ele></trkpt>
   <trkpt lon="11.415420" lat="49.687411"><ele>541.25</ele></trkpt>
   <trkpt lon="11.415475" lat="49.687330"><ele>540.75</ele></trkpt>
   <trkpt lon="11.415535" lat="49.687210"><ele>540.25</ele></trkpt>
   <trkpt lon="11.415801" lat="49.686854"><ele>537.5</ele></trkpt>
   <trkpt lon="11.415886" lat="49.686741"><ele>536.75</ele></trkpt>
   <trkpt lon="11.416106" lat="49.686446"><ele>535.5</ele></trkpt>
   <trkpt lon="11.416165" lat="49.686367"><ele>535.0</ele></trkpt>
   <trkpt lon="11.416542" lat="49.685920"><ele>531.25</ele></trkpt>
   <trkpt lon="11.416612" lat="49.685743"><ele>529.0</ele></trkpt>
   <trkpt lon="11.416630" lat="49.685485"><ele>525.0</ele></trkpt>
   <trkpt lon="11.416695" lat="49.685270"><ele>521.25</ele></trkpt>
   <trkpt lon="11.416694" lat="49.685245"><ele>520.75</ele></trkpt>
   <trkpt lon="11.416770" lat="49.685139"><ele>519.5</ele></trkpt>
   <trkpt lon="11.416884" lat="49.685031"><ele>518.5</ele></trkpt>
   <trkpt lon="11.417115" lat="49.684814"><ele>516.5</ele></trkpt>
   <trkpt lon="11.417056" lat="49.684745"><ele>515.5</ele></trkpt>
   <trkpt lon="11.417037" lat="49.684724"><ele>515.5</ele></trkpt>
   <trkpt lon="11.416859" lat="49.684547"><ele>513.75</ele></trkpt>
   <trkpt lon="11.416852" lat="49.684058"><ele>512.0</ele></trkpt>
   <trkpt lon="11.416851" lat="49.683910"><ele>511.75</ele></trkpt>
   <trkpt lon="11.416735" lat="49.683543"><ele>513.75</ele></trkpt>
   <trkpt lon="11.416625" lat="49.683376"><ele>514.75</ele></trkpt>
   <trkpt lon="11.416488" lat="49.683138"><ele>517.75</ele></trkpt>
   <trkpt lon="11.416472" lat="49.683142"><ele>517.75</ele></trkpt>
   <trkpt lon="11.416488" lat="49.683138"><ele>517.75</ele></trkpt>
   <trkpt lon="11.416737" lat="49.683005"><ele>518.5</ele></trkpt>
   <trkpt lon="11.416912" lat="49.682880"><ele>519.5</ele></trkpt>
   <trkpt lon="11.417052" lat="49.682857"><ele>519.5</ele></trkpt>
   <trkpt lon="11.417136" lat="49.682841"><ele>519.25</ele></trkpt>
   <trkpt lon="11.417503" lat="49.682810"><ele>518.5</ele></trkpt>
   <trkpt lon="11.418343" lat="49.682734"><ele>514.25</ele></trkpt>
   <trkpt lon="11.418312" lat="49.682606"><ele>515.25</ele></trkpt>
   <trkpt lon="11.418289" lat="49.682536"><ele>516.0</ele></trkpt>
   <trkpt lon="11.418222" lat="49.682354"><ele>516.75</ele></trkpt>
   <trkpt lon="11.418162" lat="49.682204"><ele>517.0</ele></trkpt>
   <trkpt lon="11.418060" lat="49.681950"><ele>517.75</ele></trkpt>
   <trkpt lon="11.418042" lat="49.681886"><ele>518.0</ele></trkpt>
   <trkpt lon="11.417961" lat="49.681741"><ele>518.25</ele></trkpt>
   <trkpt lon="11.417690" lat="49.681431"><ele>515.0</ele></trkpt>
   <trkpt lon="11.417560" lat="49.681337"><ele>513.5</ele></trkpt>
   <trkpt lon="11.417493" lat="49.681290"><ele>512.75</ele></trkpt>
   <trkpt lon="11.417385" lat="49.681234"><ele>511.75</ele></trkpt>
   <trkpt lon="11.417263" lat="49.681190"><ele>511.25</ele></trkpt>
   <trkpt lon="11.417121" lat="49.681165"><ele>511.0</ele></trkpt>
   <trkpt lon="11.416838" lat="49.681138"><ele>511.0</ele></trkpt>
   <trkpt lon="11.416629" lat="49.681129"><ele>511.0</ele></trkpt>
   <trkpt lon="11.415877" lat="49.681197"><ele>507.75</ele></trkpt>
   <trkpt lon="11.415566" lat="49.681214"><ele>507.5</ele></trkpt>
   <trkpt lon="11.415410" lat="49.681224"><ele>507.5</ele></trkpt>
   <trkpt lon="11.414962" lat="49.681271"><ele>507.5</ele></trkpt>
   <trkpt lon="11.414885" lat="49.681256"><ele>507.5</ele></trkpt>
   <trkpt lon="11.414708" lat="49.681149"><ele>507.5</ele></trkpt>
   <trkpt lon="11.414207" lat="49.681333"><ele>508.0</ele></trkpt>
   <trkpt lon="11.414048" lat="49.681370"><ele>508.25</ele></trkpt>
   <trkpt lon="11.413902" lat="49.681382"><ele>508.5</ele></trkpt>
   <trkpt lon="11.413738" lat="49.681394"><ele>509.0</ele></trkpt>
   <trkpt lon="11.413346" lat="49.681391"><ele>509.5</ele></trkpt>
   <trkpt lon="11.412661" lat="49.681397"><ele>510.75</ele></trkpt>
   <trkpt lon="11.412725" lat="49.681750"><ele>513.5</ele></trkpt>
   <trkpt lon="11.412643" lat="49.681767"><ele>513.5</ele></trkpt>
   <trkpt lon="11.411764" lat="49.681951"><ele>515.5</ele></trkpt>
   <trkpt lon="11.411210" lat="49.682048"><ele>518.25</ele></trkpt>
   <trkpt lon="11.410531" lat="49.682123"><ele>521.5</ele></trkpt>
  </trkseg>
 </trk>
</gpx>
