<?xml version="1.0" encoding="UTF-8"?>
<!-- track-length = 14837 filtered ascend = 264 plain-ascend = -1 cost=21834 energy=0.1kwh time=3h 3m 58s -->
<gpx 
 xmlns="http://www.topografix.com/GPX/1/1" 
 xmlns:xsi="http://www.w3.org/2001/XMLSchema-instance" 
 xsi:schemaLocation="http://www.topografix.com/GPX/1/1 http://www.topografix.com/GPX/1/1/gpx.xsd" 
 version="1.1" 
 creator="BRouter-Web 0.18.1">
 <trk>
  <name>Schwangau - Alpsee - Tirol - Lechfall- Schwangau (14,8 km)</name>
  <trkseg>
   <trkpt lat="47.571989" lon="10.721588"><ele>796</ele></trkpt>
   <trkpt lat="47.571932" lon="10.721374"><ele>796.25</ele></trkpt>
   <trkpt lat="47.571852" lon="10.720977"><ele>797.25</ele></trkpt>
   <trkpt lat="47.571819" lon="10.720679"><ele>796.75</ele></trkpt>
   <trkpt lat="47.571782" lon="10.720201"><ele>794.75</ele></trkpt>
   <trkpt lat="47.571614" lon="10.720077"><ele>795.25</ele></trkpt>
   <trkpt lat="47.571505" lon="10.720044"><ele>795.5</ele></trkpt>
   <trkpt lat="47.571414" lon="10.720035"><ele>795.5</ele></trkpt>
   <trkpt lat="47.571305" lon="10.720064"><ele>796</ele></trkpt>
   <trkpt lat="47.571072" lon="10.720163"><ele>796.75</ele></trkpt>
   <trkpt lat="47.570402" lon="10.720286"><ele>797.5</ele></trkpt>
   <trkpt lat="47.570356" lon="10.720305"><ele>797.5</ele></trkpt>
   <trkpt lat="47.569968" lon="10.720466"><ele>797.5</ele></trkpt>
   <trkpt lat="47.569684" lon="10.72058"><ele>797.75</ele></trkpt>
   <trkpt lat="47.569528" lon="10.72066"><ele>798</ele></trkpt>
   <trkpt lat="47.569449" lon="10.7207"><ele>798</ele></trkpt>
   <trkpt lat="47.569403" lon="10.720234"><ele>798.25</ele></trkpt>
   <trkpt lat="47.568302" lon="10.719984"><ele>796.75</ele></trkpt>
   <trkpt lat="47.567847" lon="10.71986"><ele>796.25</ele></trkpt>
   <trkpt lat="47.567618" lon="10.719799"><ele>796</ele></trkpt>
   <trkpt lat="47.567541" lon="10.719768"><ele>796</ele></trkpt>
   <trkpt lat="47.56752" lon="10.719873"><ele>796</ele></trkpt>
   <trkpt lat="47.567538" lon="10.719899"><ele>796</ele></trkpt>
   <trkpt lat="47.567496" lon="10.720017"><ele>796</ele></trkpt>
   <trkpt lat="47.567349" lon="10.720465"><ele>796</ele></trkpt>
   <trkpt lat="47.567024" lon="10.721257"><ele>796.75</ele></trkpt>
   <trkpt lat="47.56619" lon="10.7233"><ele>802.5</ele></trkpt>
   <trkpt lat="47.56608" lon="10.723314"><ele>804.5</ele></trkpt>
   <trkpt lat="47.56601" lon="10.723323"><ele>805.75</ele></trkpt>
   <trkpt lat="47.565995" lon="10.723569"><ele>806.5</ele></trkpt>
   <trkpt lat="47.56597" lon="10.72375"><ele>807.5</ele></trkpt>
   <trkpt lat="47.565965" lon="10.723785"><ele>807.5</ele></trkpt>
   <trkpt lat="47.565643" lon="10.724882"><ele>814</ele></trkpt>
   <trkpt lat="47.565467" lon="10.725611"><ele>811</ele></trkpt>
   <trkpt lat="47.565364" lon="10.725923"><ele>809</ele></trkpt>
   <trkpt lat="47.565258" lon="10.726131"><ele>807.75</ele></trkpt>
   <trkpt lat="47.565071" lon="10.726391"><ele>805</ele></trkpt>
   <trkpt lat="47.564959" lon="10.726538"><ele>803</ele></trkpt>
   <trkpt lat="47.564742" lon="10.726768"><ele>802.5</ele></trkpt>
   <trkpt lat="47.564567" lon="10.726952"><ele>803</ele></trkpt>
   <trkpt lat="47.564295" lon="10.7272"><ele>802.5</ele></trkpt>
   <trkpt lat="47.564177" lon="10.727297"><ele>801.75</ele></trkpt>
   <trkpt lat="47.563987" lon="10.727395"><ele>800</ele></trkpt>
   <trkpt lat="47.563821" lon="10.727419"><ele>799.75</ele></trkpt>
   <trkpt lat="47.563583" lon="10.727377"><ele>800.75</ele></trkpt>
   <trkpt lat="47.563351" lon="10.727346"><ele>801.5</ele></trkpt>
   <trkpt lat="47.563144" lon="10.727451"><ele>799.75</ele></trkpt>
   <trkpt lat="47.563034" lon="10.727574"><ele>798.75</ele></trkpt>
   <trkpt lat="47.562941" lon="10.727623"><ele>798.75</ele></trkpt>
   <trkpt lat="47.56265" lon="10.727777"><ele>798.5</ele></trkpt>
   <trkpt lat="47.562495" lon="10.727924"><ele>798.25</ele></trkpt>
   <trkpt lat="47.562001" lon="10.728332"><ele>797</ele></trkpt>
   <trkpt lat="47.561878" lon="10.728449"><ele>796.5</ele></trkpt>
   <trkpt lat="47.561682" lon="10.728661"><ele>796</ele></trkpt>
   <trkpt lat="47.561636" lon="10.728726"><ele>795.75</ele></trkpt>
   <trkpt lat="47.561473" lon="10.728961"><ele>794.75</ele></trkpt>
   <trkpt lat="47.561289" lon="10.729271"><ele>794</ele></trkpt>
   <trkpt lat="47.560898" lon="10.729766"><ele>793.5</ele></trkpt>
   <trkpt lat="47.560696" lon="10.730075"><ele>794</ele></trkpt>
   <trkpt lat="47.560448" lon="10.730521"><ele>794.75</ele></trkpt>
   <trkpt lat="47.560339" lon="10.730756"><ele>795</ele></trkpt>
   <trkpt lat="47.560268" lon="10.730878"><ele>795.25</ele></trkpt>
   <trkpt lat="47.559858" lon="10.731378"><ele>796.75</ele></trkpt>
   <trkpt lat="47.559593" lon="10.731583"><ele>797.25</ele></trkpt>
   <trkpt lat="47.559355" lon="10.731748"><ele>797.75</ele></trkpt>
   <trkpt lat="47.559296" lon="10.731882"><ele>797.75</ele></trkpt>
   <trkpt lat="47.559243" lon="10.732113"><ele>798.25</ele></trkpt>
   <trkpt lat="47.559168" lon="10.732387"><ele>798.75</ele></trkpt>
   <trkpt lat="47.559117" lon="10.732508"><ele>798.75</ele></trkpt>
   <trkpt lat="47.559059" lon="10.732564"><ele>798</ele></trkpt>
   <trkpt lat="47.55896" lon="10.732572"><ele>797.75</ele></trkpt>
   <trkpt lat="47.558898" lon="10.732593"><ele>797.5</ele></trkpt>
   <trkpt lat="47.558848" lon="10.732649"><ele>797.25</ele></trkpt>
   <trkpt lat="47.558718" lon="10.733022"><ele>795.75</ele></trkpt>
   <trkpt lat="47.558555" lon="10.733547"><ele>796.5</ele></trkpt>
   <trkpt lat="47.558485" lon="10.733699"><ele>797.25</ele></trkpt>
   <trkpt lat="47.558309" lon="10.733973"><ele>799.25</ele></trkpt>
   <trkpt lat="47.558242" lon="10.734023"><ele>800</ele></trkpt>
   <trkpt lat="47.558046" lon="10.734084"><ele>801.25</ele></trkpt>
   <trkpt lat="47.557836" lon="10.734419"><ele>804</ele></trkpt>
   <trkpt lat="47.557579" lon="10.734606"><ele>806</ele></trkpt>
   <trkpt lat="47.557505" lon="10.734718"><ele>806.75</ele></trkpt>
   <trkpt lat="47.557434" lon="10.735078"><ele>807.5</ele></trkpt>
   <trkpt lat="47.55738" lon="10.73517"><ele>807.25</ele></trkpt>
   <trkpt lat="47.55722" lon="10.735228"><ele>807</ele></trkpt>
   <trkpt lat="47.557015" lon="10.73539"><ele>806.5</ele></trkpt>
   <trkpt lat="47.556855" lon="10.735815"><ele>806.75</ele></trkpt>
   <trkpt lat="47.556735" lon="10.736076"><ele>806.5</ele></trkpt>
   <trkpt lat="47.556679" lon="10.736414"><ele>806.25</ele></trkpt>
   <trkpt lat="47.556632" lon="10.736707"><ele>807.5</ele></trkpt>
   <trkpt lat="47.556654" lon="10.736818"><ele>807.25</ele></trkpt>
   <trkpt lat="47.556706" lon="10.737005"><ele>807.5</ele></trkpt>
   <trkpt lat="47.556796" lon="10.737244"><ele>808.5</ele></trkpt>
   <trkpt lat="47.556861" lon="10.737609"><ele>810</ele></trkpt>
   <trkpt lat="47.556886" lon="10.737911"><ele>812</ele></trkpt>
   <trkpt lat="47.556884" lon="10.738319"><ele>814.75</ele></trkpt>
   <trkpt lat="47.556742" lon="10.739312"><ele>816.75</ele></trkpt>
   <trkpt lat="47.556691" lon="10.739605"><ele>815.5</ele></trkpt>
   <trkpt lat="47.556712" lon="10.739887"><ele>813.25</ele></trkpt>
   <trkpt lat="47.556779" lon="10.740036"><ele>811.75</ele></trkpt>
   <trkpt lat="47.556677" lon="10.740429"><ele>809.75</ele></trkpt>
   <trkpt lat="47.556596" lon="10.740582"><ele>809.25</ele></trkpt>
   <trkpt lat="47.556511" lon="10.740693"><ele>809.25</ele></trkpt>
   <trkpt lat="47.556452" lon="10.740799"><ele>809.25</ele></trkpt>
   <trkpt lat="47.556268" lon="10.740797"><ele>811</ele></trkpt>
   <trkpt lat="47.556188" lon="10.740766"><ele>811.75</ele></trkpt>
   <trkpt lat="47.556101" lon="10.740702"><ele>813</ele></trkpt>
   <trkpt lat="47.555994" lon="10.740598"><ele>814.25</ele></trkpt>
   <trkpt lat="47.555834" lon="10.740384"><ele>816.5</ele></trkpt>
   <trkpt lat="47.555589" lon="10.740037"><ele>818.75</ele></trkpt>
   <trkpt lat="47.55557" lon="10.739896"><ele>820</ele></trkpt>
   <trkpt lat="47.555179" lon="10.739263"><ele>823.5</ele></trkpt>
   <trkpt lat="47.554997" lon="10.739261"><ele>821.75</ele></trkpt>
   <trkpt lat="47.554961" lon="10.739161"><ele>823</ele></trkpt>
   <trkpt lat="47.554908" lon="10.739009"><ele>824.25</ele></trkpt>
   <trkpt lat="47.5548" lon="10.738549"><ele>826.5</ele></trkpt>
   <trkpt lat="47.554783" lon="10.738438"><ele>826.5</ele></trkpt>
   <trkpt lat="47.554768" lon="10.738227"><ele>826.25</ele></trkpt>
   <trkpt lat="47.554759" lon="10.738073"><ele>826</ele></trkpt>
   <trkpt lat="47.554739" lon="10.737853"><ele>825.25</ele></trkpt>
   <trkpt lat="47.554724" lon="10.737778"><ele>825.25</ele></trkpt>
   <trkpt lat="47.554713" lon="10.737725"><ele>825</ele></trkpt>
   <trkpt lat="47.554559" lon="10.737291"><ele>824.75</ele></trkpt>
   <trkpt lat="47.554325" lon="10.736923"><ele>823.5</ele></trkpt>
   <trkpt lat="47.554128" lon="10.736612"><ele>821</ele></trkpt>
   <trkpt lat="47.553974" lon="10.736356"><ele>821</ele></trkpt>
   <trkpt lat="47.553884" lon="10.736176"><ele>821</ele></trkpt>
   <trkpt lat="47.553833" lon="10.736045"><ele>820.75</ele></trkpt>
   <trkpt lat="47.553769" lon="10.735819"><ele>820.25</ele></trkpt>
   <trkpt lat="47.55375" lon="10.735704"><ele>821.25</ele></trkpt>
   <trkpt lat="47.553748" lon="10.735622"><ele>822</ele></trkpt>
   <trkpt lat="47.553748" lon="10.735569"><ele>822</ele></trkpt>
   <trkpt lat="47.553771" lon="10.735346"><ele>823.75</ele></trkpt>
   <trkpt lat="47.553789" lon="10.734975"><ele>826.5</ele></trkpt>
   <trkpt lat="47.553816" lon="10.734744"><ele>828</ele></trkpt>
   <trkpt lat="47.553847" lon="10.734593"><ele>829.5</ele></trkpt>
   <trkpt lat="47.553946" lon="10.73432"><ele>833.25</ele></trkpt>
   <trkpt lat="47.554037" lon="10.733983"><ele>836</ele></trkpt>
   <trkpt lat="47.554331" lon="10.732757"><ele>846.75</ele></trkpt>
   <trkpt lat="47.554315" lon="10.732345"><ele>850.5</ele></trkpt>
   <trkpt lat="47.554274" lon="10.731782"><ele>856.75</ele></trkpt>
   <trkpt lat="47.554216" lon="10.731276"><ele>862.25</ele></trkpt>
   <trkpt lat="47.55408" lon="10.730341"><ele>868.75</ele></trkpt>
   <trkpt lat="47.553949" lon="10.730011"><ele>867.75</ele></trkpt>
   <trkpt lat="47.553726" lon="10.729454"><ele>866</ele></trkpt>
   <trkpt lat="47.553571" lon="10.729068"><ele>866</ele></trkpt>
   <trkpt lat="47.55334" lon="10.728682"><ele>866.25</ele></trkpt>
   <trkpt lat="47.553206" lon="10.728131"><ele>867.75</ele></trkpt>
   <trkpt lat="47.553183" lon="10.728036"><ele>867.5</ele></trkpt>
   <trkpt lat="47.553125" lon="10.727798"><ele>867.5</ele></trkpt>
   <trkpt lat="47.552987" lon="10.727505"><ele>867.25</ele></trkpt>
   <trkpt lat="47.552828" lon="10.727167"><ele>867.25</ele></trkpt>
   <trkpt lat="47.552693" lon="10.726987"><ele>866.75</ele></trkpt>
   <trkpt lat="47.552618" lon="10.726888"><ele>866.75</ele></trkpt>
   <trkpt lat="47.552488" lon="10.726555"><ele>868.5</ele></trkpt>
   <trkpt lat="47.552459" lon="10.726223"><ele>870.5</ele></trkpt>
   <trkpt lat="47.552459" lon="10.725885"><ele>874</ele></trkpt>
   <trkpt lat="47.552459" lon="10.725523"><ele>877.5</ele></trkpt>
   <trkpt lat="47.552415" lon="10.724077"><ele>883.25</ele></trkpt>
   <trkpt lat="47.552408" lon="10.723476"><ele>884.25</ele></trkpt>
   <trkpt lat="47.552473" lon="10.722972"><ele>885.25</ele></trkpt>
   <trkpt lat="47.55261" lon="10.722158"><ele>888</ele></trkpt>
   <trkpt lat="47.552611" lon="10.720453"><ele>891.25</ele></trkpt>
   <trkpt lat="47.552542" lon="10.719981"><ele>891</ele></trkpt>
   <trkpt lat="47.551945" lon="10.718667"><ele>878.75</ele></trkpt>
   <trkpt lat="47.5518" lon="10.71823"><ele>875.5</ele></trkpt>
   <trkpt lat="47.551713" lon="10.717575"><ele>871.5</ele></trkpt>
   <trkpt lat="47.5518" lon="10.716976"><ele>879.75</ele></trkpt>
   <trkpt lat="47.551756" lon="10.716406"><ele>881.5</ele></trkpt>
   <trkpt lat="47.55159" lon="10.715784"><ele>877.75</ele></trkpt>
   <trkpt lat="47.551276" lon="10.715062"><ele>864</ele></trkpt>
   <trkpt lat="47.551213" lon="10.714915"><ele>864</ele></trkpt>
   <trkpt lat="47.551105" lon="10.714507"><ele>858.75</ele></trkpt>
   <trkpt lat="47.551151" lon="10.713764"><ele>863.25</ele></trkpt>
   <trkpt lat="47.550989" lon="10.712447"><ele>860</ele></trkpt>
   <trkpt lat="47.550779" lon="10.711803"><ele>856.75</ele></trkpt>
   <trkpt lat="47.550585" lon="10.710399"><ele>864.5</ele></trkpt>
   <trkpt lat="47.550245" lon="10.709807"><ele>852.75</ele></trkpt>
   <trkpt lat="47.549968" lon="10.709533"><ele>843.25</ele></trkpt>
   <trkpt lat="47.54958" lon="10.709009"><ele>842.25</ele></trkpt>
   <trkpt lat="47.549429" lon="10.708537"><ele>843.25</ele></trkpt>
   <trkpt lat="47.549238" lon="10.707559"><ele>846.75</ele></trkpt>
   <trkpt lat="47.548896" lon="10.70532"><ele>847.75</ele></trkpt>
   <trkpt lat="47.548531" lon="10.704477"><ele>850</ele></trkpt>
   <trkpt lat="47.548226" lon="10.703441"><ele>849.25</ele></trkpt>
   <trkpt lat="47.548088" lon="10.702759"><ele>846.5</ele></trkpt>
   <trkpt lat="47.547905" lon="10.701847"><ele>846.5</ele></trkpt>
   <trkpt lat="47.547633" lon="10.700373"><ele>852</ele></trkpt>
   <trkpt lat="47.547259" lon="10.698937"><ele>860</ele></trkpt>
   <trkpt lat="47.547189" lon="10.69866"><ele>859.75</ele></trkpt>
   <trkpt lat="47.54683" lon="10.696857"><ele>868</ele></trkpt>
   <trkpt lat="47.546682" lon="10.696538"><ele>870</ele></trkpt>
   <trkpt lat="47.546257" lon="10.69584"><ele>881.25</ele></trkpt>
   <trkpt lat="47.54594" lon="10.695557"><ele>886.25</ele></trkpt>
   <trkpt lat="47.545078" lon="10.695034"><ele>896.75</ele></trkpt>
   <trkpt lat="47.544877" lon="10.694751"><ele>897</ele></trkpt>
   <trkpt lat="47.54486" lon="10.694728"><ele>897</ele></trkpt>
   <trkpt lat="47.544824" lon="10.694634"><ele>897</ele></trkpt>
   <trkpt lat="47.544871" lon="10.694206"><ele>896</ele></trkpt>
   <trkpt lat="47.544854" lon="10.693871"><ele>896.25</ele></trkpt>
   <trkpt lat="47.544522" lon="10.69295"><ele>898.25</ele></trkpt>
   <trkpt lat="47.544365" lon="10.692146"><ele>898.5</ele></trkpt>
   <trkpt lat="47.544311" lon="10.691608"><ele>896.75</ele></trkpt>
   <trkpt lat="47.544277" lon="10.691034"><ele>893</ele></trkpt>
   <trkpt lat="47.54429" lon="10.690641"><ele>890.25</ele></trkpt>
   <trkpt lat="47.54434" lon="10.690198"><ele>886.75</ele></trkpt>
   <trkpt lat="47.544386" lon="10.689958"><ele>885</ele></trkpt>
   <trkpt lat="47.544578" lon="10.689324"><ele>879</ele></trkpt>
   <trkpt lat="47.544599" lon="10.689228"><ele>878</ele></trkpt>
   <trkpt lat="47.544601" lon="10.689092"><ele>875.25</ele></trkpt>
   <trkpt lat="47.544595" lon="10.688892"><ele>871.75</ele></trkpt>
   <trkpt lat="47.544617" lon="10.688675"><ele>869</ele></trkpt>
   <trkpt lat="47.544667" lon="10.688462"><ele>867.75</ele></trkpt>
   <trkpt lat="47.54474" lon="10.688238"><ele>867.25</ele></trkpt>
   <trkpt lat="47.544798" lon="10.688086"><ele>867.25</ele></trkpt>
   <trkpt lat="47.544857" lon="10.687972"><ele>868</ele></trkpt>
   <trkpt lat="47.544905" lon="10.687882"><ele>868</ele></trkpt>
   <trkpt lat="47.544981" lon="10.687679"><ele>867.5</ele></trkpt>
   <trkpt lat="47.545034" lon="10.687469"><ele>865.75</ele></trkpt>
   <trkpt lat="47.545086" lon="10.687247"><ele>863.5</ele></trkpt>
   <trkpt lat="47.545128" lon="10.687035"><ele>861.25</ele></trkpt>
   <trkpt lat="47.545223" lon="10.686674"><ele>858</ele></trkpt>
   <trkpt lat="47.545462" lon="10.685707"><ele>856.75</ele></trkpt>
   <trkpt lat="47.545471" lon="10.685605"><ele>856.25</ele></trkpt>
   <trkpt lat="47.545429" lon="10.685569"><ele>854.25</ele></trkpt>
   <trkpt lat="47.545382" lon="10.685607"><ele>852.5</ele></trkpt>
   <trkpt lat="47.545333" lon="10.685875"><ele>853</ele></trkpt>
   <trkpt lat="47.545269" lon="10.686104"><ele>853</ele></trkpt>
   <trkpt lat="47.545175" lon="10.686364"><ele>852.25</ele></trkpt>
   <trkpt lat="47.545071" lon="10.686588"><ele>850.75</ele></trkpt>
   <trkpt lat="47.544937" lon="10.686845"><ele>850.75</ele></trkpt>
   <trkpt lat="47.544922" lon="10.686876"><ele>850.75</ele></trkpt>
   <trkpt lat="47.544746" lon="10.687177"><ele>851</ele></trkpt>
   <trkpt lat="47.544673" lon="10.687074"><ele>847.25</ele></trkpt>
   <trkpt lat="47.544565" lon="10.68714"><ele>845</ele></trkpt>
   <trkpt lat="47.544495" lon="10.68706"><ele>842</ele></trkpt>
   <trkpt lat="47.544363" lon="10.687064"><ele>838.25</ele></trkpt>
   <trkpt lat="47.544393" lon="10.686896"><ele>837.5</ele></trkpt>
   <trkpt lat="47.544395" lon="10.68689"><ele>837.5</ele></trkpt>
   <trkpt lat="47.544486" lon="10.686268"><ele>833.75</ele></trkpt>
   <trkpt lat="47.544592" lon="10.685724"><ele>831.5</ele></trkpt>
   <trkpt lat="47.544595" lon="10.685578"><ele>830.75</ele></trkpt>
   <trkpt lat="47.544568" lon="10.685436"><ele>829.5</ele></trkpt>
   <trkpt lat="47.544504" lon="10.685294"><ele>828</ele></trkpt>
   <trkpt lat="47.544358" lon="10.68511"><ele>825.25</ele></trkpt>
   <trkpt lat="47.543124" lon="10.683622"><ele>822.25</ele></trkpt>
   <trkpt lat="47.543351" lon="10.68364"><ele>822.25</ele></trkpt>
   <trkpt lat="47.543619" lon="10.683663"><ele>822.25</ele></trkpt>
   <trkpt lat="47.543745" lon="10.683597"><ele>822</ele></trkpt>
   <trkpt lat="47.543873" lon="10.683406"><ele>822.25</ele></trkpt>
   <trkpt lat="47.544123" lon="10.682951"><ele>823.25</ele></trkpt>
   <trkpt lat="47.544733" lon="10.682192"><ele>825.5</ele></trkpt>
   <trkpt lat="47.545212" lon="10.681595"><ele>829.75</ele></trkpt>
   <trkpt lat="47.545484" lon="10.681191"><ele>832.75</ele></trkpt>
   <trkpt lat="47.545722" lon="10.680651"><ele>832</ele></trkpt>
   <trkpt lat="47.545797" lon="10.680213"><ele>830</ele></trkpt>
   <trkpt lat="47.545931" lon="10.679666"><ele>838.75</ele></trkpt>
   <trkpt lat="47.546" lon="10.679389"><ele>838.75</ele></trkpt>
   <trkpt lat="47.546104" lon="10.678625"><ele>841</ele></trkpt>
   <trkpt lat="47.54615" lon="10.677675"><ele>838.75</ele></trkpt>
   <trkpt lat="47.546228" lon="10.677139"><ele>836.75</ele></trkpt>
   <trkpt lat="47.546266" lon="10.676696"><ele>832.5</ele></trkpt>
   <trkpt lat="47.546288" lon="10.676303"><ele>827.75</ele></trkpt>
   <trkpt lat="47.546305" lon="10.676232"><ele>827</ele></trkpt>
   <trkpt lat="47.546352" lon="10.676115"><ele>825.75</ele></trkpt>
   <trkpt lat="47.546532" lon="10.675906"><ele>823</ele></trkpt>
   <trkpt lat="47.546614" lon="10.675866"><ele>822.5</ele></trkpt>
   <trkpt lat="47.54667" lon="10.675879"><ele>823</ele></trkpt>
   <trkpt lat="47.546827" lon="10.675965"><ele>830</ele></trkpt>
   <trkpt lat="47.546924" lon="10.676004"><ele>834</ele></trkpt>
   <trkpt lat="47.547029" lon="10.675997"><ele>837.25</ele></trkpt>
   <trkpt lat="47.547154" lon="10.675948"><ele>839.75</ele></trkpt>
   <trkpt lat="47.54735" lon="10.675737"><ele>839.5</ele></trkpt>
   <trkpt lat="47.547408" lon="10.67564"><ele>838.75</ele></trkpt>
   <trkpt lat="47.547638" lon="10.675219"><ele>839.75</ele></trkpt>
   <trkpt lat="47.547781" lon="10.674977"><ele>842.25</ele></trkpt>
   <trkpt lat="47.547889" lon="10.674751"><ele>845.75</ele></trkpt>
   <trkpt lat="47.547922" lon="10.674704"><ele>846.75</ele></trkpt>
   <trkpt lat="47.548054" lon="10.674466"><ele>848.75</ele></trkpt>
   <trkpt lat="47.548098" lon="10.674355"><ele>848.25</ele></trkpt>
   <trkpt lat="47.548154" lon="10.674214"><ele>847.25</ele></trkpt>
   <trkpt lat="47.548341" lon="10.673775"><ele>851.25</ele></trkpt>
   <trkpt lat="47.548535" lon="10.673454"><ele>857.25</ele></trkpt>
   <trkpt lat="47.548723" lon="10.673252"><ele>862.75</ele></trkpt>
   <trkpt lat="47.549047" lon="10.672935"><ele>875</ele></trkpt>
   <trkpt lat="47.549302" lon="10.672875"><ele>878.5</ele></trkpt>
   <trkpt lat="47.549429" lon="10.672789"><ele>879</ele></trkpt>
   <trkpt lat="47.549864" lon="10.672875"><ele>879.5</ele></trkpt>
   <trkpt lat="47.550161" lon="10.673088"><ele>861.25</ele></trkpt>
   <trkpt lat="47.550547" lon="10.673364"><ele>861.25</ele></trkpt>
   <trkpt lat="47.550762" lon="10.673707"><ele>857.75</ele></trkpt>
   <trkpt lat="47.550818" lon="10.673898"><ele>857.5</ele></trkpt>
   <trkpt lat="47.550856" lon="10.674393"><ele>861.25</ele></trkpt>
   <trkpt lat="47.550873" lon="10.674828"><ele>865.5</ele></trkpt>
   <trkpt lat="47.551052" lon="10.675822"><ele>880.75</ele></trkpt>
   <trkpt lat="47.551238" lon="10.676361"><ele>880.75</ele></trkpt>
   <trkpt lat="47.551281" lon="10.676927"><ele>884</ele></trkpt>
   <trkpt lat="47.551734" lon="10.67879"><ele>855.25</ele></trkpt>
   <trkpt lat="47.551922" lon="10.679034"><ele>852</ele></trkpt>
   <trkpt lat="47.552115" lon="10.679233"><ele>843.5</ele></trkpt>
   <trkpt lat="47.55219" lon="10.679299"><ele>839.5</ele></trkpt>
   <trkpt lat="47.552424" lon="10.67935"><ele>823</ele></trkpt>
   <trkpt lat="47.55258" lon="10.67951"><ele>819</ele></trkpt>
   <trkpt lat="47.552761" lon="10.679753"><ele>819.25</ele></trkpt>
   <trkpt lat="47.55284" lon="10.679777"><ele>817.75</ele></trkpt>
   <trkpt lat="47.553048" lon="10.679655"><ele>811.75</ele></trkpt>
   <trkpt lat="47.553296" lon="10.679502"><ele>805.75</ele></trkpt>
   <trkpt lat="47.553402" lon="10.679847"><ele>806</ele></trkpt>
   <trkpt lat="47.553476" lon="10.679791"><ele>805.5</ele></trkpt>
   <trkpt lat="47.553616" lon="10.680219"><ele>807</ele></trkpt>
   <trkpt lat="47.553635" lon="10.680398"><ele>807.75</ele></trkpt>
   <trkpt lat="47.553684" lon="10.680595"><ele>808.25</ele></trkpt>
   <trkpt lat="47.553777" lon="10.680889"><ele>809</ele></trkpt>
   <trkpt lat="47.553893" lon="10.681164"><ele>811.5</ele></trkpt>
   <trkpt lat="47.553928" lon="10.681225"><ele>811.75</ele></trkpt>
   <trkpt lat="47.554006" lon="10.681301"><ele>810.75</ele></trkpt>
   <trkpt lat="47.554174" lon="10.681565"><ele>808</ele></trkpt>
   <trkpt lat="47.554397" lon="10.681913"><ele>809.5</ele></trkpt>
   <trkpt lat="47.554634" lon="10.682198"><ele>808.5</ele></trkpt>
   <trkpt lat="47.555149" lon="10.682936"><ele>805.25</ele></trkpt>
   <trkpt lat="47.555581" lon="10.684136"><ele>807</ele></trkpt>
   <trkpt lat="47.555673" lon="10.685176"><ele>808.75</ele></trkpt>
   <trkpt lat="47.555697" lon="10.685681"><ele>811.25</ele></trkpt>
   <trkpt lat="47.555865" lon="10.686097"><ele>806.25</ele></trkpt>
   <trkpt lat="47.555865" lon="10.686244"><ele>807.5</ele></trkpt>
   <trkpt lat="47.555954" lon="10.686405"><ele>808.25</ele></trkpt>
   <trkpt lat="47.556145" lon="10.686746"><ele>810</ele></trkpt>
   <trkpt lat="47.556481" lon="10.687342"><ele>811.75</ele></trkpt>
   <trkpt lat="47.55651" lon="10.687443"><ele>812</ele></trkpt>
   <trkpt lat="47.556574" lon="10.687662"><ele>812.25</ele></trkpt>
   <trkpt lat="47.556629" lon="10.687825"><ele>811.5</ele></trkpt>
   <trkpt lat="47.556923" lon="10.688623"><ele>813.5</ele></trkpt>
   <trkpt lat="47.556967" lon="10.688657"><ele>813.25</ele></trkpt>
   <trkpt lat="47.556995" lon="10.688739"><ele>813.75</ele></trkpt>
   <trkpt lat="47.557081" lon="10.689051"><ele>815.75</ele></trkpt>
   <trkpt lat="47.557229" lon="10.689585"><ele>817.25</ele></trkpt>
   <trkpt lat="47.557457" lon="10.69007"><ele>815</ele></trkpt>
   <trkpt lat="47.557494" lon="10.690199"><ele>814.5</ele></trkpt>
   <trkpt lat="47.557508" lon="10.690321"><ele>814.5</ele></trkpt>
   <trkpt lat="47.557525" lon="10.690766"><ele>815.25</ele></trkpt>
   <trkpt lat="47.55748" lon="10.691222"><ele>815.5</ele></trkpt>
   <trkpt lat="47.557466" lon="10.691534"><ele>815</ele></trkpt>
   <trkpt lat="47.557414" lon="10.691793"><ele>815.5</ele></trkpt>
   <trkpt lat="47.557387" lon="10.691843"><ele>816</ele></trkpt>
   <trkpt lat="47.557404" lon="10.691934"><ele>815</ele></trkpt>
   <trkpt lat="47.557476" lon="10.69217"><ele>812.5</ele></trkpt>
   <trkpt lat="47.557673" lon="10.692754"><ele>809.25</ele></trkpt>
   <trkpt lat="47.557813" lon="10.693144"><ele>808</ele></trkpt>
   <trkpt lat="47.558061" lon="10.693811"><ele>807.25</ele></trkpt>
   <trkpt lat="47.558149" lon="10.693961"><ele>807.25</ele></trkpt>
   <trkpt lat="47.558254" lon="10.694381"><ele>807</ele></trkpt>
   <trkpt lat="47.558385" lon="10.694659"><ele>806.75</ele></trkpt>
   <trkpt lat="47.558422" lon="10.694695"><ele>806.5</ele></trkpt>
   <trkpt lat="47.558701" lon="10.694835"><ele>805.5</ele></trkpt>
   <trkpt lat="47.558911" lon="10.695032"><ele>804.75</ele></trkpt>
   <trkpt lat="47.5596" lon="10.695924"><ele>804.5</ele></trkpt>
   <trkpt lat="47.5597" lon="10.696018"><ele>804.75</ele></trkpt>
   <trkpt lat="47.559764" lon="10.696078"><ele>804.75</ele></trkpt>
   <trkpt lat="47.559988" lon="10.69625"><ele>805</ele></trkpt>
   <trkpt lat="47.560237" lon="10.696387"><ele>806.5</ele></trkpt>
   <trkpt lat="47.560432" lon="10.696462"><ele>808</ele></trkpt>
   <trkpt lat="47.560577" lon="10.696477"><ele>809.25</ele></trkpt>
   <trkpt lat="47.56069" lon="10.696438"><ele>809.5</ele></trkpt>
   <trkpt lat="47.560838" lon="10.696202"><ele>808</ele></trkpt>
   <trkpt lat="47.560965" lon="10.695881"><ele>805.75</ele></trkpt>
   <trkpt lat="47.561108" lon="10.695707"><ele>805.5</ele></trkpt>
   <trkpt lat="47.561566" lon="10.69562"><ele>807.75</ele></trkpt>
   <trkpt lat="47.561822" lon="10.695456"><ele>807</ele></trkpt>
   <trkpt lat="47.56186" lon="10.695413"><ele>806.75</ele></trkpt>
   <trkpt lat="47.561887" lon="10.695345"><ele>806</ele></trkpt>
   <trkpt lat="47.561916" lon="10.69527"><ele>805</ele></trkpt>
   <trkpt lat="47.561934" lon="10.69524"><ele>804.75</ele></trkpt>
   <trkpt lat="47.561962" lon="10.695225"><ele>805</ele></trkpt>
   <trkpt lat="47.562058" lon="10.695199"><ele>805.5</ele></trkpt>
   <trkpt lat="47.562055" lon="10.695172"><ele>805.25</ele></trkpt>
   <trkpt lat="47.562012" lon="10.695124"><ele>804</ele></trkpt>
   <trkpt lat="47.56198" lon="10.695102"><ele>803.25</ele></trkpt>
   <trkpt lat="47.561945" lon="10.695094"><ele>802.75</ele></trkpt>
   <trkpt lat="47.561922" lon="10.695129"><ele>803</ele></trkpt>
   <trkpt lat="47.561893" lon="10.695153"><ele>803</ele></trkpt>
   <trkpt lat="47.561922" lon="10.695129"><ele>803</ele></trkpt>
   <trkpt lat="47.561945" lon="10.695094"><ele>802.75</ele></trkpt>
   <trkpt lat="47.56198" lon="10.695102"><ele>803.25</ele></trkpt>
   <trkpt lat="47.562012" lon="10.695124"><ele>804</ele></trkpt>
   <trkpt lat="47.562055" lon="10.695172"><ele>805.25</ele></trkpt>
   <trkpt lat="47.562058" lon="10.695199"><ele>805.5</ele></trkpt>
   <trkpt lat="47.562103" lon="10.695208"><ele>806.25</ele></trkpt>
   <trkpt lat="47.562162" lon="10.695231"><ele>807.25</ele></trkpt>
   <trkpt lat="47.562227" lon="10.69522"><ele>807.75</ele></trkpt>
   <trkpt lat="47.562414" lon="10.695132"><ele>808.75</ele></trkpt>
   <trkpt lat="47.562429" lon="10.695109"><ele>808.5</ele></trkpt>
   <trkpt lat="47.562449" lon="10.695037"><ele>807.75</ele></trkpt>
   <trkpt lat="47.562461" lon="10.695013"><ele>807.5</ele></trkpt>
   <trkpt lat="47.562476" lon="10.695002"><ele>807.5</ele></trkpt>
   <trkpt lat="47.562547" lon="10.694977"><ele>807.25</ele></trkpt>
   <trkpt lat="47.562571" lon="10.694978"><ele>807</ele></trkpt>
   <trkpt lat="47.562622" lon="10.694998"><ele>806.25</ele></trkpt>
   <trkpt lat="47.562751" lon="10.695044"><ele>804.75</ele></trkpt>
   <trkpt lat="47.562775" lon="10.69506"><ele>804.5</ele></trkpt>
   <trkpt lat="47.562816" lon="10.695131"><ele>804.5</ele></trkpt>
   <trkpt lat="47.562838" lon="10.695164"><ele>804.5</ele></trkpt>
   <trkpt lat="47.562863" lon="10.695186"><ele>804.25</ele></trkpt>
   <trkpt lat="47.562923" lon="10.695238"><ele>803.5</ele></trkpt>
   <trkpt lat="47.562974" lon="10.695296"><ele>803.25</ele></trkpt>
   <trkpt lat="47.563023" lon="10.69539"><ele>802.75</ele></trkpt>
   <trkpt lat="47.563055" lon="10.695508"><ele>803</ele></trkpt>
   <trkpt lat="47.563064" lon="10.69561"><ele>803.25</ele></trkpt>
   <trkpt lat="47.563062" lon="10.695678"><ele>803.75</ele></trkpt>
   <trkpt lat="47.56301" lon="10.696109"><ele>808.5</ele></trkpt>
   <trkpt lat="47.563005" lon="10.696198"><ele>809.5</ele></trkpt>
   <trkpt lat="47.563023" lon="10.696341"><ele>810.5</ele></trkpt>
   <trkpt lat="47.563068" lon="10.696457"><ele>810.25</ele></trkpt>
   <trkpt lat="47.563623" lon="10.697483"><ele>812.25</ele></trkpt>
   <trkpt lat="47.563713" lon="10.697665"><ele>813</ele></trkpt>
   <trkpt lat="47.563911" lon="10.698122"><ele>813.25</ele></trkpt>
   <trkpt lat="47.564015" lon="10.69834"><ele>811.25</ele></trkpt>
   <trkpt lat="47.564252" lon="10.698736"><ele>809.5</ele></trkpt>
   <trkpt lat="47.564733" lon="10.699405"><ele>804.75</ele></trkpt>
   <trkpt lat="47.56487" lon="10.699616"><ele>801.75</ele></trkpt>
   <trkpt lat="47.565048" lon="10.699931"><ele>798.25</ele></trkpt>
   <trkpt lat="47.565261" lon="10.700262"><ele>797.75</ele></trkpt>
   <trkpt lat="47.565321" lon="10.700435"><ele>798</ele></trkpt>
   <trkpt lat="47.565369" lon="10.700413"><ele>798</ele></trkpt>
   <trkpt lat="47.5659" lon="10.700191"><ele>799</ele></trkpt>
   <trkpt lat="47.565984" lon="10.700171"><ele>799</ele></trkpt>
   <trkpt lat="47.566092" lon="10.700163"><ele>799.25</ele></trkpt>
   <trkpt lat="47.566279" lon="10.70018"><ele>799.5</ele></trkpt>
   <trkpt lat="47.566405" lon="10.700214"><ele>799.75</ele></trkpt>
   <trkpt lat="47.566463" lon="10.700453"><ele>799.5</ele></trkpt>
   <trkpt lat="47.566498" lon="10.70056"><ele>799.25</ele></trkpt>
   <trkpt lat="47.566471" lon="10.700684"><ele>798.5</ele></trkpt>
   <trkpt lat="47.566509" lon="10.700844"><ele>798</ele></trkpt>
   <trkpt lat="47.566559" lon="10.700999"><ele>797.5</ele></trkpt>
   <trkpt lat="47.566551" lon="10.701035"><ele>797.5</ele></trkpt>
   <trkpt lat="47.566322" lon="10.701159"><ele>796.25</ele></trkpt>
   <trkpt lat="47.566194" lon="10.701228"><ele>796</ele></trkpt>
   <trkpt lat="47.566364" lon="10.701872"><ele>795.25</ele></trkpt>
   <trkpt lat="47.566491" lon="10.702413"><ele>794.5</ele></trkpt>
   <trkpt lat="47.566507" lon="10.702583"><ele>794.5</ele></trkpt>
   <trkpt lat="47.566477" lon="10.702888"><ele>795.25</ele></trkpt>
   <trkpt lat="47.566436" lon="10.703177"><ele>795.75</ele></trkpt>
   <trkpt lat="47.566364" lon="10.703332"><ele>795.75</ele></trkpt>
   <trkpt lat="47.566236" lon="10.703619"><ele>795</ele></trkpt>
   <trkpt lat="47.566152" lon="10.703881"><ele>794.25</ele></trkpt>
   <trkpt lat="47.566009" lon="10.704365"><ele>792.5</ele></trkpt>
   <trkpt lat="47.565828" lon="10.706098"><ele>789.75</ele></trkpt>
   <trkpt lat="47.565863" lon="10.706748"><ele>789</ele></trkpt>
   <trkpt lat="47.565976" lon="10.707425"><ele>790.25</ele></trkpt>
   <trkpt lat="47.56624" lon="10.708368"><ele>789.75</ele></trkpt>
   <trkpt lat="47.566278" lon="10.70847"><ele>789.5</ele></trkpt>
   <trkpt lat="47.566371" lon="10.708673"><ele>789</ele></trkpt>
   <trkpt lat="47.56645" lon="10.708821"><ele>788.5</ele></trkpt>
   <trkpt lat="47.566733" lon="10.709104"><ele>787</ele></trkpt>
   <trkpt lat="47.566768" lon="10.70915"><ele>787</ele></trkpt>
   <trkpt lat="47.566843" lon="10.709241"><ele>786.75</ele></trkpt>
   <trkpt lat="47.566882" lon="10.709339"><ele>786.5</ele></trkpt>
   <trkpt lat="47.566965" lon="10.709457"><ele>786.25</ele></trkpt>
   <trkpt lat="47.56711" lon="10.70964"><ele>785.75</ele></trkpt>
   <trkpt lat="47.567191" lon="10.709783"><ele>785.5</ele></trkpt>
   <trkpt lat="47.567187" lon="10.70985"><ele>785.25</ele></trkpt>
   <trkpt lat="47.567139" lon="10.709982"><ele>785</ele></trkpt>
   <trkpt lat="47.566751" lon="10.710863"><ele>788.75</ele></trkpt>
   <trkpt lat="47.566708" lon="10.711011"><ele>791.5</ele></trkpt>
   <trkpt lat="47.566711" lon="10.711176"><ele>794</ele></trkpt>
   <trkpt lat="47.566837" lon="10.711441"><ele>796.25</ele></trkpt>
   <trkpt lat="47.567002" lon="10.711832"><ele>797.75</ele></trkpt>
   <trkpt lat="47.567457" lon="10.712972"><ele>798.5</ele></trkpt>
   <trkpt lat="47.567577" lon="10.713327"><ele>799.25</ele></trkpt>
   <trkpt lat="47.567611" lon="10.713449"><ele>799.25</ele></trkpt>
   <trkpt lat="47.567698" lon="10.713578"><ele>799</ele></trkpt>
   <trkpt lat="47.567714" lon="10.713638"><ele>799.25</ele></trkpt>
   <trkpt lat="47.567689" lon="10.713943"><ele>800.5</ele></trkpt>
   <trkpt lat="47.567746" lon="10.714039"><ele>800.25</ele></trkpt>
   <trkpt lat="47.568009" lon="10.714415"><ele>798.25</ele></trkpt>
   <trkpt lat="47.568225" lon="10.714784"><ele>795.5</ele></trkpt>
   <trkpt lat="47.568378" lon="10.715078"><ele>793.5</ele></trkpt>
   <trkpt lat="47.568524" lon="10.715386"><ele>792.25</ele></trkpt>
   <trkpt lat="47.568676" lon="10.715927"><ele>791.25</ele></trkpt>
   <trkpt lat="47.568791" lon="10.716252"><ele>791.75</ele></trkpt>
   <trkpt lat="47.568986" lon="10.716802"><ele>793</ele></trkpt>
   <trkpt lat="47.569455" lon="10.717731"><ele>793.25</ele></trkpt>
   <trkpt lat="47.569561" lon="10.717902"><ele>793</ele></trkpt>
   <trkpt lat="47.569639" lon="10.718029"><ele>792.75</ele></trkpt>
   <trkpt lat="47.569808" lon="10.718198"><ele>792</ele></trkpt>
   <trkpt lat="47.570797" lon="10.718734"><ele>790.5</ele></trkpt>
   <trkpt lat="47.571079" lon="10.718892"><ele>790.25</ele></trkpt>
   <trkpt lat="47.571398" lon="10.719107"><ele>790</ele></trkpt>
   <trkpt lat="47.571729" lon="10.719407"><ele>790.25</ele></trkpt>
   <trkpt lat="47.571965" lon="10.719595"><ele>789.5</ele></trkpt>
   <trkpt lat="47.572156" lon="10.719777"><ele>789</ele></trkpt>
   <trkpt lat="47.572295" lon="10.720103"><ele>789.75</ele></trkpt>
   <trkpt lat="47.572351" lon="10.720248"><ele>790.75</ele></trkpt>
   <trkpt lat="47.572372" lon="10.720305"><ele>791</ele></trkpt>
   <trkpt lat="47.572456" lon="10.720414"><ele>791.5</ele></trkpt>
   <trkpt lat="47.57262" lon="10.720558"><ele>793</ele></trkpt>
   <trkpt lat="47.572953" lon="10.720766"><ele>795.25</ele></trkpt>
   <trkpt lat="47.572806" lon="10.720714"><ele>794.5</ele></trkpt>
   <trkpt lat="47.572423" lon="10.720563"><ele>793.25</ele></trkpt>
   <trkpt lat="47.571782" lon="10.720201"><ele>794.75</ele></trkpt>
   <trkpt lat="47.571819" lon="10.720679"><ele>796.75</ele></trkpt>
   <trkpt lat="47.571852" lon="10.720977"><ele>797.25</ele></trkpt>
   <trkpt lat="47.571932" lon="10.721374"><ele>796.25</ele></trkpt>
   <trkpt lat="47.571989" lon="10.721588"><ele>796</ele></trkpt>
   <trkpt lat="47.571971" lon="10.721605"><ele>795.75</ele></trkpt>
  </trkseg>
 </trk>
</gpx>