<?xml version="1.0" encoding="UTF-8" standalone="yes"?>
<gpx version="1.1" creator="outdooractive - http://www.outdooractive.com" xmlns="http://www.topografix.com/GPX/1/1" xmlns:xsi="http://www.w3.org/2001/XMLSchema-instance" xsi:schemaLocation="http://www.topografix.com/GPX/1/1 http://www.topografix.com/GPX/1/1/gpx.xsd" xmlns:oa="http://www.outdooractive.com/GPX/Extensions/1">
  <metadata>
    <name>Stadtrundgang Potsdam</name>
    <author>
      <name>Jana Seidel - Community</name>
    </author>
    <link href="https://www.outdooractive.com/r/222991429"/>
    <time>2025-02-04T10:28:49.054Z</time>
    <extensions>
      <oa:oaCategory>cityTrail</oa:oaCategory>
    </extensions>
  </metadata>
  <trk>
    <name>Stadtrundgang Potsdam</name>
    <desc>23.09.2021 / Stadtrundgang durch die Innenstadt Potsdams</desc>
    <type>cityTrail</type>
    <trkseg>
      <trkpt lat="52.402481" lon="13.057859">
        <ele>33.6</ele>
        <name>52.402481,13.057859</name>
        <extensions>
          <oa:mapZoom>15</oa:mapZoom>
        </extensions>
      </trkpt>
      <trkpt lat="52.402458" lon="13.057858">
        <ele>33.6</ele>
      </trkpt>
      <trkpt lat="52.402218" lon="13.057843">
        <ele>33.5</ele>
      </trkpt>
      <trkpt lat="52.402083" lon="13.057835">
        <ele>33.5</ele>
      </trkpt>
      <trkpt lat="52.401735" lon="13.057814">
        <ele>33.4</ele>
      </trkpt>
      <trkpt lat="52.401731" lon="13.057787">
        <ele>33.4</ele>
      </trkpt>
      <trkpt lat="52.401716" lon="13.057672">
        <ele>33.4</ele>
      </trkpt>
      <trkpt lat="52.401684" lon="13.057419">
        <ele>33.4</ele>
        <name>52.401688,13.057418</name>
        <extensions>
          <oa:mapZoom>15</oa:mapZoom>
        </extensions>
      </trkpt>
      <trkpt lat="52.401656" lon="13.0572">
        <ele>33.4</ele>
      </trkpt>
      <trkpt lat="52.401595" lon="13.056728">
        <ele>33.3</ele>
      </trkpt>
      <trkpt lat="52.401572" lon="13.056553">
        <ele>33.3</ele>
      </trkpt>
      <trkpt lat="52.401507" lon="13.056045">
        <ele>33.3</ele>
      </trkpt>
      <trkpt lat="52.401478" lon="13.055821">
        <ele>33.3</ele>
      </trkpt>
      <trkpt lat="52.401467" lon="13.055735">
        <ele>33.3</ele>
      </trkpt>
      <trkpt lat="52.401456" lon="13.055648">
        <ele>33.3</ele>
      </trkpt>
      <trkpt lat="52.401427" lon="13.055428">
        <ele>33.3</ele>
      </trkpt>
      <trkpt lat="52.401359" lon="13.0549">
        <ele>33.2</ele>
      </trkpt>
      <trkpt lat="52.401303" lon="13.054462">
        <ele>33.2</ele>
      </trkpt>
      <trkpt lat="52.401257" lon="13.054107">
        <ele>33.2</ele>
        <name>52.401257,13.054107</name>
        <extensions>
          <oa:mapZoom>15</oa:mapZoom>
        </extensions>
      </trkpt>
      <trkpt lat="52.401225" lon="13.053856">
        <ele>33.2</ele>
      </trkpt>
      <trkpt lat="52.400852" lon="13.053784">
        <ele>33.1</ele>
      </trkpt>
      <trkpt lat="52.400747" lon="13.053763">
        <ele>33.1</ele>
      </trkpt>
      <trkpt lat="52.400622" lon="13.053739">
        <ele>33.1</ele>
      </trkpt>
      <trkpt lat="52.400457" lon="13.053707">
        <ele>33.0</ele>
      </trkpt>
      <trkpt lat="52.400263" lon="13.053669">
        <ele>33.0</ele>
      </trkpt>
      <trkpt lat="52.400009" lon="13.05362">
        <ele>32.9</ele>
      </trkpt>
      <trkpt lat="52.400008" lon="13.053648">
        <ele>32.9</ele>
      </trkpt>
      <trkpt lat="52.40015" lon="13.053672">
        <ele>32.9</ele>
        <name>52.400150,13.053672</name>
        <extensions>
          <oa:mapZoom>15</oa:mapZoom>
        </extensions>
      </trkpt>
      <trkpt lat="52.400008" lon="13.053648">
        <ele>32.9</ele>
      </trkpt>
      <trkpt lat="52.400009" lon="13.05362">
        <ele>32.9</ele>
      </trkpt>
      <trkpt lat="52.399903" lon="13.0536">
        <ele>32.9</ele>
      </trkpt>
      <trkpt lat="52.399652" lon="13.053551">
        <ele>32.8</ele>
      </trkpt>
      <trkpt lat="52.399329" lon="13.053488">
        <ele>32.8</ele>
      </trkpt>
      <trkpt lat="52.399309" lon="13.053332">
        <ele>32.8</ele>
      </trkpt>
      <trkpt lat="52.399288" lon="13.053157">
        <ele>32.7</ele>
      </trkpt>
      <trkpt lat="52.399236" lon="13.052737">
        <ele>32.7</ele>
      </trkpt>
      <trkpt lat="52.399185" lon="13.052318">
        <ele>32.7</ele>
      </trkpt>
      <trkpt lat="52.399107" lon="13.051687">
        <ele>32.7</ele>
      </trkpt>
      <trkpt lat="52.399086" lon="13.051515">
        <ele>32.7</ele>
      </trkpt>
      <trkpt lat="52.399002" lon="13.051488">
        <ele>32.7</ele>
      </trkpt>
      <trkpt lat="52.398983" lon="13.051482">
        <ele>32.7</ele>
      </trkpt>
      <trkpt lat="52.398995" lon="13.051702">
        <ele>32.7</ele>
      </trkpt>
      <trkpt lat="52.399007" lon="13.051941">
        <ele>32.7</ele>
        <name>52.399027,13.051938</name>
        <extensions>
          <oa:mapZoom>15</oa:mapZoom>
        </extensions>
      </trkpt>
      <trkpt lat="52.398995" lon="13.051702">
        <ele>32.7</ele>
      </trkpt>
      <trkpt lat="52.398983" lon="13.051482">
        <ele>32.7</ele>
      </trkpt>
      <trkpt lat="52.399002" lon="13.051488">
        <ele>32.7</ele>
      </trkpt>
      <trkpt lat="52.399086" lon="13.051515">
        <ele>32.7</ele>
      </trkpt>
      <trkpt lat="52.399391" lon="13.051616">
        <ele>32.7</ele>
      </trkpt>
      <trkpt lat="52.399704" lon="13.051719">
        <ele>32.7</ele>
      </trkpt>
      <trkpt lat="52.399878" lon="13.051776">
        <ele>32.7</ele>
      </trkpt>
      <trkpt lat="52.400028" lon="13.051826">
        <ele>32.8</ele>
      </trkpt>
      <trkpt lat="52.400159" lon="13.05187">
        <ele>32.8</ele>
      </trkpt>
      <trkpt lat="52.400554" lon="13.052007">
        <ele>33.0</ele>
      </trkpt>
      <trkpt lat="52.40078" lon="13.052085">
        <ele>33.0</ele>
      </trkpt>
      <trkpt lat="52.401007" lon="13.052164">
        <ele>33.1</ele>
      </trkpt>
      <trkpt lat="52.401224" lon="13.052239">
        <ele>33.2</ele>
      </trkpt>
      <trkpt lat="52.401317" lon="13.052272">
        <ele>33.2</ele>
      </trkpt>
      <trkpt lat="52.401479" lon="13.052328">
        <ele>33.2</ele>
      </trkpt>
      <trkpt lat="52.401567" lon="13.052358">
        <ele>33.2</ele>
      </trkpt>
      <trkpt lat="52.40174" lon="13.052418">
        <ele>33.3</ele>
      </trkpt>
      <trkpt lat="52.402089" lon="13.052539">
        <ele>33.3</ele>
      </trkpt>
      <trkpt lat="52.402276" lon="13.052604">
        <ele>33.3</ele>
        <name>52.402276,13.052604</name>
        <extensions>
          <oa:mapZoom>15</oa:mapZoom>
        </extensions>
      </trkpt>
      <trkpt lat="52.402313" lon="13.052617">
        <ele>33.3</ele>
      </trkpt>
      <trkpt lat="52.402283" lon="13.052417">
        <ele>33.3</ele>
      </trkpt>
      <trkpt lat="52.402182" lon="13.051801">
        <ele>33.4</ele>
      </trkpt>
      <trkpt lat="52.40208" lon="13.051185">
        <ele>33.4</ele>
      </trkpt>
      <trkpt lat="52.401978" lon="13.050569">
        <ele>33.4</ele>
      </trkpt>
      <trkpt lat="52.401877" lon="13.049953">
        <ele>33.3</ele>
      </trkpt>
      <trkpt lat="52.401851" lon="13.049797">
        <ele>33.3</ele>
        <name>52.401850,13.049797</name>
        <extensions>
          <oa:mapZoom>15</oa:mapZoom>
        </extensions>
      </trkpt>
      <trkpt lat="52.401775" lon="13.049337">
        <ele>33.4</ele>
      </trkpt>
      <trkpt lat="52.401413" lon="13.04946">
        <ele>33.2</ele>
      </trkpt>
      <trkpt lat="52.401052" lon="13.049582">
        <ele>33.0</ele>
      </trkpt>
      <trkpt lat="52.40069" lon="13.049705">
        <ele>32.9</ele>
      </trkpt>
      <trkpt lat="52.400376" lon="13.04981">
        <ele>32.8</ele>
      </trkpt>
      <trkpt lat="52.400255" lon="13.049852">
        <ele>32.8</ele>
      </trkpt>
      <trkpt lat="52.399897" lon="13.049972">
        <ele>32.8</ele>
      </trkpt>
      <trkpt lat="52.399904" lon="13.050022">
        <ele>32.8</ele>
        <name>52.399904,13.050022</name>
        <extensions>
          <oa:mapZoom>15</oa:mapZoom>
        </extensions>
      </trkpt>
      <trkpt lat="52.399897" lon="13.049972">
        <ele>32.8</ele>
      </trkpt>
      <trkpt lat="52.399889" lon="13.049913">
        <ele>32.8</ele>
      </trkpt>
      <trkpt lat="52.399835" lon="13.049931">
        <ele>32.8</ele>
      </trkpt>
      <trkpt lat="52.399777" lon="13.049461">
        <ele>32.7</ele>
      </trkpt>
      <trkpt lat="52.399719" lon="13.048991">
        <ele>32.6</ele>
      </trkpt>
      <trkpt lat="52.399671" lon="13.048609">
        <ele>32.5</ele>
      </trkpt>
      <trkpt lat="52.399621" lon="13.048625">
        <ele>32.5</ele>
      </trkpt>
      <trkpt lat="52.399574" lon="13.048247">
        <ele>32.5</ele>
      </trkpt>
      <trkpt lat="52.39956" lon="13.048146">
        <ele>32.5</ele>
      </trkpt>
      <trkpt lat="52.399541" lon="13.047985">
        <ele>32.4</ele>
      </trkpt>
      <trkpt lat="52.399538" lon="13.047949">
        <ele>32.4</ele>
      </trkpt>
      <trkpt lat="52.399536" lon="13.047936">
        <ele>32.4</ele>
        <name>52.399554,13.047932</name>
        <extensions>
          <oa:mapZoom>15</oa:mapZoom>
        </extensions>
      </trkpt>
      <trkpt lat="52.399528" lon="13.047849">
        <ele>32.4</ele>
      </trkpt>
      <trkpt lat="52.399519" lon="13.047756">
        <ele>32.4</ele>
      </trkpt>
      <trkpt lat="52.399902" lon="13.047644">
        <ele>32.5</ele>
      </trkpt>
      <trkpt lat="52.399952" lon="13.047644">
        <ele>32.5</ele>
      </trkpt>
      <trkpt lat="52.399906" lon="13.047296">
        <ele>32.4</ele>
      </trkpt>
      <trkpt lat="52.399847" lon="13.046839">
        <ele>32.4</ele>
      </trkpt>
      <trkpt lat="52.399787" lon="13.046381">
        <ele>32.4</ele>
      </trkpt>
      <trkpt lat="52.399533" lon="13.046473">
        <ele>32.3</ele>
      </trkpt>
      <trkpt lat="52.399278" lon="13.046566">
        <ele>32.2</ele>
      </trkpt>
      <trkpt lat="52.399286" lon="13.046611">
        <ele>32.2</ele>
        <name>52.399286,13.046611</name>
        <extensions>
          <oa:mapZoom>18</oa:mapZoom>
        </extensions>
      </trkpt>
      <trkpt lat="52.399278" lon="13.046566">
        <ele>32.2</ele>
      </trkpt>
      <trkpt lat="52.399055" lon="13.046649">
        <ele>32.2</ele>
      </trkpt>
      <trkpt lat="52.398832" lon="13.046733">
        <ele>32.2</ele>
      </trkpt>
      <trkpt lat="52.398894" lon="13.046891">
        <ele>32.3</ele>
      </trkpt>
      <trkpt lat="52.398905" lon="13.046938">
        <ele>32.3</ele>
      </trkpt>
      <trkpt lat="52.398849" lon="13.046968">
        <ele>32.3</ele>
      </trkpt>
      <trkpt lat="52.398784" lon="13.047002">
        <ele>32.3</ele>
      </trkpt>
      <trkpt lat="52.39863" lon="13.047085">
        <ele>32.3</ele>
      </trkpt>
      <trkpt lat="52.398573" lon="13.047007">
        <ele>32.3</ele>
      </trkpt>
      <trkpt lat="52.398494" lon="13.046955">
        <ele>32.3</ele>
      </trkpt>
      <trkpt lat="52.398462" lon="13.046978">
        <ele>32.3</ele>
      </trkpt>
      <trkpt lat="52.39844" lon="13.046983">
        <ele>32.3</ele>
      </trkpt>
      <trkpt lat="52.398422" lon="13.046991">
        <ele>32.3</ele>
      </trkpt>
      <trkpt lat="52.398407" lon="13.046999">
        <ele>32.3</ele>
      </trkpt>
      <trkpt lat="52.398363" lon="13.047019">
        <ele>32.3</ele>
      </trkpt>
      <trkpt lat="52.398106" lon="13.046622">
        <ele>32.1</ele>
      </trkpt>
      <trkpt lat="52.398054" lon="13.046574">
        <ele>32.1</ele>
      </trkpt>
      <trkpt lat="52.397923" lon="13.046453">
        <ele>32.0</ele>
      </trkpt>
      <trkpt lat="52.397884" lon="13.046423">
        <ele>32.0</ele>
      </trkpt>
      <trkpt lat="52.397821" lon="13.046374">
        <ele>32.0</ele>
      </trkpt>
      <trkpt lat="52.397725" lon="13.046297">
        <ele>32.0</ele>
      </trkpt>
      <trkpt lat="52.397652" lon="13.046236">
        <ele>32.0</ele>
      </trkpt>
      <trkpt lat="52.397632" lon="13.046124">
        <ele>32.0</ele>
      </trkpt>
      <trkpt lat="52.397399" lon="13.045832">
        <ele>32.0</ele>
        <name>52.397399,13.045832</name>
        <extensions>
          <oa:mapZoom>18</oa:mapZoom>
        </extensions>
      </trkpt>
      <trkpt lat="52.397301" lon="13.045709">
        <ele>32.0</ele>
      </trkpt>
      <trkpt lat="52.397119" lon="13.045481">
        <ele>32.0</ele>
      </trkpt>
      <trkpt lat="52.396919" lon="13.04523">
        <ele>32.0</ele>
      </trkpt>
      <trkpt lat="52.396939" lon="13.04519">
        <ele>32.0</ele>
      </trkpt>
      <trkpt lat="52.396923" lon="13.045164">
        <ele>32.1</ele>
      </trkpt>
      <trkpt lat="52.396931" lon="13.044989">
        <ele>32.1</ele>
      </trkpt>
      <trkpt lat="52.396953" lon="13.044844">
        <ele>32.1</ele>
      </trkpt>
      <trkpt lat="52.39688" lon="13.044862">
        <ele>32.1</ele>
      </trkpt>
      <trkpt lat="52.396707" lon="13.044811">
        <ele>32.1</ele>
      </trkpt>
      <trkpt lat="52.396666" lon="13.044792">
        <ele>32.1</ele>
      </trkpt>
      <trkpt lat="52.396662" lon="13.044821">
        <ele>32.1</ele>
        <name>52.396662,13.044821</name>
        <extensions>
          <oa:mapZoom>18</oa:mapZoom>
        </extensions>
      </trkpt>
      <trkpt lat="52.396666" lon="13.044792">
        <ele>32.1</ele>
      </trkpt>
      <trkpt lat="52.396749" lon="13.044219">
        <ele>32.1</ele>
      </trkpt>
      <trkpt lat="52.396833" lon="13.043646">
        <ele>32.2</ele>
      </trkpt>
      <trkpt lat="52.396784" lon="13.043627">
        <ele>32.2</ele>
      </trkpt>
      <trkpt lat="52.396714" lon="13.043486">
        <ele>32.1</ele>
      </trkpt>
      <trkpt lat="52.396667" lon="13.043401">
        <ele>32.1</ele>
      </trkpt>
      <trkpt lat="52.39659" lon="13.04391">
        <ele>32.0</ele>
      </trkpt>
      <trkpt lat="52.396506" lon="13.04449">
        <ele>31.8</ele>
      </trkpt>
      <trkpt lat="52.396431" lon="13.04442">
        <ele>31.6</ele>
        <name>52.396436,13.044406</name>
        <extensions>
          <oa:mapZoom>18</oa:mapZoom>
        </extensions>
      </trkpt>
      <trkpt lat="52.396347" lon="13.044343">
        <ele>31.4</ele>
      </trkpt>
      <trkpt lat="52.396154" lon="13.044165">
        <ele>31.2</ele>
      </trkpt>
      <trkpt lat="52.396049" lon="13.044074">
        <ele>31.1</ele>
        <name>52.396059,13.044043</name>
        <extensions>
          <oa:mapZoom>15</oa:mapZoom>
        </extensions>
      </trkpt>
      <trkpt lat="52.396031" lon="13.044058">
        <ele>31.1</ele>
      </trkpt>
      <trkpt lat="52.395894" lon="13.043923">
        <ele>31.1</ele>
      </trkpt>
      <trkpt lat="52.395863" lon="13.044146">
        <ele>30.8</ele>
      </trkpt>
      <trkpt lat="52.395992" lon="13.044518">
        <ele>29.9</ele>
      </trkpt>
      <trkpt lat="52.396119" lon="13.044821">
        <ele>29.3</ele>
      </trkpt>
      <trkpt lat="52.396246" lon="13.045125">
        <ele>30.0</ele>
      </trkpt>
      <trkpt lat="52.396255" lon="13.045159">
        <ele>30.1</ele>
      </trkpt>
      <trkpt lat="52.396257" lon="13.045192">
        <ele>30.2</ele>
      </trkpt>
      <trkpt lat="52.396251" lon="13.045221">
        <ele>30.1</ele>
      </trkpt>
      <trkpt lat="52.396242" lon="13.04524">
        <ele>30.1</ele>
      </trkpt>
      <trkpt lat="52.396042" lon="13.04558">
        <ele>30.1</ele>
      </trkpt>
      <trkpt lat="52.395877" lon="13.045814">
        <ele>30.2</ele>
      </trkpt>
      <trkpt lat="52.395696" lon="13.046048">
        <ele>30.1</ele>
      </trkpt>
      <trkpt lat="52.395627" lon="13.046219">
        <ele>30.6</ele>
      </trkpt>
      <trkpt lat="52.395593" lon="13.046446">
        <ele>30.4</ele>
      </trkpt>
      <trkpt lat="52.395581" lon="13.046527">
        <ele>30.3</ele>
      </trkpt>
      <trkpt lat="52.395578" lon="13.046548">
        <ele>30.2</ele>
      </trkpt>
      <trkpt lat="52.395544" lon="13.046587">
        <ele>29.9</ele>
      </trkpt>
      <trkpt lat="52.395479" lon="13.046988">
        <ele>30.0</ele>
      </trkpt>
      <trkpt lat="52.395639" lon="13.047048">
        <ele>30.8</ele>
      </trkpt>
      <trkpt lat="52.395636" lon="13.04707">
        <ele>30.8</ele>
      </trkpt>
      <trkpt lat="52.395629" lon="13.047111">
        <ele>30.8</ele>
      </trkpt>
      <trkpt lat="52.395607" lon="13.047252">
        <ele>30.8</ele>
      </trkpt>
      <trkpt lat="52.395648" lon="13.047435">
        <ele>31.0</ele>
      </trkpt>
      <trkpt lat="52.395457" lon="13.047645">
        <ele>30.6</ele>
      </trkpt>
      <trkpt lat="52.395266" lon="13.047854">
        <ele>30.6</ele>
      </trkpt>
      <trkpt lat="52.395098" lon="13.048044">
        <ele>30.8</ele>
      </trkpt>
      <trkpt lat="52.39498" lon="13.047968">
        <ele>30.4</ele>
      </trkpt>
      <trkpt lat="52.394878" lon="13.048025">
        <ele>30.4</ele>
        <name>52.394879,13.048028</name>
        <extensions>
          <oa:mapZoom>15</oa:mapZoom>
        </extensions>
      </trkpt>
      <trkpt lat="52.39498" lon="13.047968">
        <ele>30.4</ele>
      </trkpt>
      <trkpt lat="52.395098" lon="13.048044">
        <ele>30.8</ele>
      </trkpt>
      <trkpt lat="52.395155" lon="13.048082">
        <ele>30.9</ele>
      </trkpt>
      <trkpt lat="52.395322" lon="13.048385">
        <ele>31.1</ele>
      </trkpt>
      <trkpt lat="52.395414" lon="13.048477">
        <ele>31.2</ele>
      </trkpt>
      <trkpt lat="52.395437" lon="13.048414">
        <ele>31.2</ele>
      </trkpt>
      <trkpt lat="52.395445" lon="13.048406">
        <ele>31.2</ele>
        <name>Große liegende Figur</name>
        <extensions>
          <oa:mapZoom>15</oa:mapZoom>
        </extensions>
      </trkpt>
      <trkpt lat="52.395488" lon="13.048366">
        <ele>31.2</ele>
      </trkpt>
      <trkpt lat="52.395614" lon="13.048311">
        <ele>31.3</ele>
      </trkpt>
      <trkpt lat="52.395831" lon="13.048216">
        <ele>31.4</ele>
      </trkpt>
      <trkpt lat="52.395916" lon="13.0482">
        <ele>31.5</ele>
      </trkpt>
      <trkpt lat="52.395942" lon="13.048204">
        <ele>31.5</ele>
      </trkpt>
      <trkpt lat="52.395921" lon="13.04837">
        <ele>31.5</ele>
      </trkpt>
      <trkpt lat="52.395908" lon="13.048475">
        <ele>31.5</ele>
      </trkpt>
      <trkpt lat="52.395892" lon="13.048607">
        <ele>31.5</ele>
      </trkpt>
      <trkpt lat="52.395949" lon="13.048629">
        <ele>31.5</ele>
      </trkpt>
      <trkpt lat="52.396052" lon="13.048668">
        <ele>31.5</ele>
      </trkpt>
      <trkpt lat="52.396103" lon="13.048688">
        <ele>31.6</ele>
      </trkpt>
      <trkpt lat="52.396082" lon="13.04886">
        <ele>31.5</ele>
      </trkpt>
      <trkpt lat="52.396011" lon="13.049429">
        <ele>31.5</ele>
      </trkpt>
      <trkpt lat="52.395976" lon="13.049721">
        <ele>31.5</ele>
        <name>52.395995,13.049728</name>
        <extensions>
          <oa:mapZoom>15</oa:mapZoom>
        </extensions>
      </trkpt>
      <trkpt lat="52.395941" lon="13.049999">
        <ele>31.5</ele>
      </trkpt>
      <trkpt lat="52.395871" lon="13.050569">
        <ele>31.5</ele>
      </trkpt>
      <trkpt lat="52.396067" lon="13.050632">
        <ele>31.5</ele>
      </trkpt>
      <trkpt lat="52.396078" lon="13.050542">
        <ele>31.5</ele>
      </trkpt>
      <trkpt lat="52.396121" lon="13.05055">
        <ele>31.5</ele>
      </trkpt>
      <trkpt lat="52.396178" lon="13.050568">
        <ele>31.6</ele>
      </trkpt>
      <trkpt lat="52.396341" lon="13.05062">
        <ele>31.6</ele>
      </trkpt>
      <trkpt lat="52.396697" lon="13.050733">
        <ele>31.6</ele>
      </trkpt>
      <trkpt lat="52.396891" lon="13.050795">
        <ele>31.6</ele>
        <name>Großes Militär-Waisenhaus</name>
        <extensions>
          <oa:mapZoom>15</oa:mapZoom>
        </extensions>
      </trkpt>
      <trkpt lat="52.397052" lon="13.050846">
        <ele>31.6</ele>
      </trkpt>
      <trkpt lat="52.396991" lon="13.051359">
        <ele>31.6</ele>
      </trkpt>
      <trkpt lat="52.39693" lon="13.051873">
        <ele>31.6</ele>
      </trkpt>
      <trkpt lat="52.396868" lon="13.052387">
        <ele>31.6</ele>
      </trkpt>
      <trkpt lat="52.396831" lon="13.052696">
        <ele>31.6</ele>
      </trkpt>
      <trkpt lat="52.397212" lon="13.052765">
        <ele>31.7</ele>
      </trkpt>
      <trkpt lat="52.397553" lon="13.052827">
        <ele>31.8</ele>
      </trkpt>
      <trkpt lat="52.397611" lon="13.052837">
        <ele>31.8</ele>
      </trkpt>
      <trkpt lat="52.397605" lon="13.05289">
        <ele>31.8</ele>
      </trkpt>
      <trkpt lat="52.397593" lon="13.053008">
        <ele>31.8</ele>
      </trkpt>
      <trkpt lat="52.397538" lon="13.052993">
        <ele>31.8</ele>
        <name>52.397538,13.052989</name>
        <extensions>
          <oa:mapZoom>15</oa:mapZoom>
        </extensions>
      </trkpt>
      <trkpt lat="52.397593" lon="13.053008">
        <ele>31.8</ele>
      </trkpt>
      <trkpt lat="52.397579" lon="13.053143">
        <ele>31.8</ele>
      </trkpt>
      <trkpt lat="52.397515" lon="13.053165">
        <ele>31.7</ele>
      </trkpt>
      <trkpt lat="52.397491" lon="13.053175">
        <ele>31.7</ele>
      </trkpt>
      <trkpt lat="52.397475" lon="13.053216">
        <ele>31.7</ele>
      </trkpt>
      <trkpt lat="52.397165" lon="13.053155">
        <ele>31.6</ele>
      </trkpt>
      <trkpt lat="52.396856" lon="13.053094">
        <ele>31.6</ele>
      </trkpt>
      <trkpt lat="52.396837" lon="13.05309">
        <ele>31.6</ele>
      </trkpt>
      <trkpt lat="52.396785" lon="13.053079">
        <ele>31.6</ele>
      </trkpt>
      <trkpt lat="52.396804" lon="13.052926">
        <ele>31.6</ele>
      </trkpt>
      <trkpt lat="52.396818" lon="13.052808">
        <ele>31.6</ele>
      </trkpt>
      <trkpt lat="52.396754" lon="13.052874">
        <ele>31.6</ele>
      </trkpt>
      <trkpt lat="52.396713" lon="13.052927">
        <ele>31.6</ele>
      </trkpt>
      <trkpt lat="52.396466" lon="13.052921">
        <ele>31.5</ele>
      </trkpt>
      <trkpt lat="52.396219" lon="13.052915">
        <ele>31.5</ele>
      </trkpt>
      <trkpt lat="52.396186" lon="13.052914">
        <ele>31.5</ele>
      </trkpt>
      <trkpt lat="52.396059" lon="13.052894">
        <ele>31.5</ele>
        <name>Kunst- und Kreativhaus Rechenzentrum</name>
        <extensions>
          <oa:mapZoom>15</oa:mapZoom>
        </extensions>
      </trkpt>
      <trkpt lat="52.395907" lon="13.052871">
        <ele>31.5</ele>
      </trkpt>
      <trkpt lat="52.395627" lon="13.052828">
        <ele>31.5</ele>
      </trkpt>
      <trkpt lat="52.395588" lon="13.052881">
        <ele>31.5</ele>
      </trkpt>
      <trkpt lat="52.395565" lon="13.05307">
        <ele>31.5</ele>
      </trkpt>
      <trkpt lat="52.395528" lon="13.053374">
        <ele>31.5</ele>
      </trkpt>
      <trkpt lat="52.395431" lon="13.05359">
        <ele>31.5</ele>
      </trkpt>
      <trkpt lat="52.395391" lon="13.053906">
        <ele>31.5</ele>
      </trkpt>
      <trkpt lat="52.395391" lon="13.05395">
        <ele>31.5</ele>
      </trkpt>
      <trkpt lat="52.395395" lon="13.054155">
        <ele>31.5</ele>
      </trkpt>
      <trkpt lat="52.395779" lon="13.054266">
        <ele>31.5</ele>
      </trkpt>
      <trkpt lat="52.395769" lon="13.054302">
        <ele>31.5</ele>
        <name>52.395755,13.054292</name>
        <extensions>
          <oa:mapZoom>15</oa:mapZoom>
        </extensions>
      </trkpt>
      <trkpt lat="52.395709" lon="13.054531">
        <ele>31.5</ele>
      </trkpt>
      <trkpt lat="52.395657" lon="13.054939">
        <ele>31.5</ele>
      </trkpt>
      <trkpt lat="52.395605" lon="13.055347">
        <ele>31.5</ele>
      </trkpt>
      <trkpt lat="52.395821" lon="13.055432">
        <ele>31.5</ele>
        <name>52.395824,13.055404</name>
        <extensions>
          <oa:mapZoom>15</oa:mapZoom>
        </extensions>
      </trkpt>
      <trkpt lat="52.395944" lon="13.05548">
        <ele>31.5</ele>
      </trkpt>
      <trkpt lat="52.396015" lon="13.055594">
        <ele>31.5</ele>
      </trkpt>
      <trkpt lat="52.39643" lon="13.055781">
        <ele>31.5</ele>
      </trkpt>
      <trkpt lat="52.396419" lon="13.055867">
        <ele>31.5</ele>
      </trkpt>
      <trkpt lat="52.396413" lon="13.055913">
        <ele>31.5</ele>
      </trkpt>
      <trkpt lat="52.396395" lon="13.056063">
        <ele>31.5</ele>
      </trkpt>
      <trkpt lat="52.396376" lon="13.056094">
        <ele>31.5</ele>
      </trkpt>
      <trkpt lat="52.396312" lon="13.056591">
        <ele>31.4</ele>
      </trkpt>
      <trkpt lat="52.396301" lon="13.056669">
        <ele>31.4</ele>
      </trkpt>
      <trkpt lat="52.39628" lon="13.056668">
        <ele>31.4</ele>
      </trkpt>
      <trkpt lat="52.396257" lon="13.056839">
        <ele>31.4</ele>
      </trkpt>
      <trkpt lat="52.396255" lon="13.05686">
        <ele>31.4</ele>
      </trkpt>
      <trkpt lat="52.396236" lon="13.056998">
        <ele>31.4</ele>
        <name>52.396236,13.056998</name>
        <extensions>
          <oa:mapZoom>15</oa:mapZoom>
        </extensions>
      </trkpt>
      <trkpt lat="52.396227" lon="13.057069">
        <ele>31.4</ele>
      </trkpt>
      <trkpt lat="52.396208" lon="13.057195">
        <ele>31.4</ele>
      </trkpt>
      <trkpt lat="52.396147" lon="13.057766">
        <ele>31.4</ele>
      </trkpt>
      <trkpt lat="52.396112" lon="13.057755">
        <ele>31.4</ele>
      </trkpt>
      <trkpt lat="52.395858" lon="13.057668">
        <ele>31.5</ele>
      </trkpt>
      <trkpt lat="52.395604" lon="13.057582">
        <ele>31.5</ele>
      </trkpt>
      <trkpt lat="52.395545" lon="13.057563">
        <ele>31.5</ele>
      </trkpt>
      <trkpt lat="52.395533" lon="13.057649">
        <ele>31.5</ele>
      </trkpt>
      <trkpt lat="52.395468" lon="13.058119">
        <ele>31.6</ele>
      </trkpt>
      <trkpt lat="52.395402" lon="13.058589">
        <ele>31.7</ele>
      </trkpt>
      <trkpt lat="52.39547" lon="13.058836">
        <ele>31.7</ele>
      </trkpt>
      <trkpt lat="52.395182" lon="13.059128">
        <ele>31.8</ele>
      </trkpt>
      <trkpt lat="52.395146" lon="13.059149">
        <ele>31.8</ele>
      </trkpt>
      <trkpt lat="52.39485" lon="13.058865">
        <ele>31.6</ele>
      </trkpt>
      <trkpt lat="52.3947" lon="13.059253">
        <ele>31.9</ele>
      </trkpt>
      <trkpt lat="52.394696" lon="13.059288">
        <ele>31.9</ele>
      </trkpt>
      <trkpt lat="52.394696" lon="13.059314">
        <ele>31.9</ele>
      </trkpt>
      <trkpt lat="52.394695" lon="13.059344">
        <ele>31.9</ele>
      </trkpt>
      <trkpt lat="52.394692" lon="13.059369">
        <ele>31.9</ele>
      </trkpt>
      <trkpt lat="52.394691" lon="13.05941">
        <ele>32.0</ele>
      </trkpt>
      <trkpt lat="52.394557" lon="13.059498">
        <ele>32.0</ele>
      </trkpt>
      <trkpt lat="52.394527" lon="13.059534">
        <ele>32.0</ele>
      </trkpt>
      <trkpt lat="52.394459" lon="13.059615">
        <ele>32.1</ele>
      </trkpt>
      <trkpt lat="52.394409" lon="13.059766">
        <ele>32.1</ele>
        <name>52.394375,13.059736</name>
        <extensions>
          <oa:mapZoom>15</oa:mapZoom>
        </extensions>
      </trkpt>
      <trkpt lat="52.394396" lon="13.059805">
        <ele>32.2</ele>
      </trkpt>
      <trkpt lat="52.394328" lon="13.060338">
        <ele>32.7</ele>
      </trkpt>
      <trkpt lat="52.39426" lon="13.060872">
        <ele>33.5</ele>
      </trkpt>
      <trkpt lat="52.39423" lon="13.061094">
        <ele>33.7</ele>
      </trkpt>
      <trkpt lat="52.394205" lon="13.061228">
        <ele>33.5</ele>
      </trkpt>
      <trkpt lat="52.394185" lon="13.061303">
        <ele>33.2</ele>
      </trkpt>
      <trkpt lat="52.394143" lon="13.061238">
        <ele>33.8</ele>
      </trkpt>
      <trkpt lat="52.394136" lon="13.061227">
        <ele>33.9</ele>
      </trkpt>
      <trkpt lat="52.39412" lon="13.061204">
        <ele>34.0</ele>
      </trkpt>
      <trkpt lat="52.39404" lon="13.06108">
        <ele>34.3</ele>
      </trkpt>
      <trkpt lat="52.393963" lon="13.060962">
        <ele>34.2</ele>
      </trkpt>
      <trkpt lat="52.393926" lon="13.060905">
        <ele>34.0</ele>
        <name>Lange Brücke</name>
        <extensions>
          <oa:mapZoom>15</oa:mapZoom>
        </extensions>
      </trkpt>
      <trkpt lat="52.393911" lon="13.060883">
        <ele>34.0</ele>
      </trkpt>
      <trkpt lat="52.393894" lon="13.06091">
        <ele>34.1</ele>
      </trkpt>
      <trkpt lat="52.393737" lon="13.061143">
        <ele>34.0</ele>
      </trkpt>
      <trkpt lat="52.393568" lon="13.061387">
        <ele>33.9</ele>
      </trkpt>
      <trkpt lat="52.3934" lon="13.061631">
        <ele>33.8</ele>
      </trkpt>
      <trkpt lat="52.393089" lon="13.062045">
        <ele>35.5</ele>
      </trkpt>
      <trkpt lat="52.393014" lon="13.062146">
        <ele>33.8</ele>
      </trkpt>
      <trkpt lat="52.392939" lon="13.062251">
        <ele>34.0</ele>
        <name>52.392982,13.062333</name>
        <extensions>
          <oa:mapZoom>15</oa:mapZoom>
        </extensions>
      </trkpt>
      <trkpt lat="52.392775" lon="13.062481">
        <ele>34.3</ele>
      </trkpt>
      <trkpt lat="52.392535" lon="13.062816">
        <ele>34.7</ele>
      </trkpt>
      <trkpt lat="52.392484" lon="13.062864">
        <ele>35.9</ele>
      </trkpt>
      <trkpt lat="52.392542" lon="13.062978">
        <ele>35.9</ele>
      </trkpt>
      <trkpt lat="52.392612" lon="13.063109">
        <ele>35.5</ele>
      </trkpt>
      <trkpt lat="52.392696" lon="13.063263">
        <ele>35.5</ele>
      </trkpt>
      <trkpt lat="52.392702" lon="13.063276">
        <ele>35.4</ele>
      </trkpt>
      <trkpt lat="52.392713" lon="13.063295">
        <ele>35.4</ele>
      </trkpt>
      <trkpt lat="52.392746" lon="13.063356">
        <ele>35.3</ele>
      </trkpt>
      <trkpt lat="52.39277" lon="13.063326">
        <ele>34.9</ele>
        <name>52.392770,13.063326</name>
        <extensions>
          <oa:mapZoom>18</oa:mapZoom>
        </extensions>
      </trkpt>
      <trkpt lat="52.392789" lon="13.063302">
        <ele>34.6</ele>
      </trkpt>
      <trkpt lat="52.393028" lon="13.062967">
        <ele>34.2</ele>
      </trkpt>
      <trkpt lat="52.393268" lon="13.062632">
        <ele>33.8</ele>
      </trkpt>
      <trkpt lat="52.393372" lon="13.062491">
        <ele>35.4</ele>
      </trkpt>
      <trkpt lat="52.39353" lon="13.062268">
        <ele>35.3</ele>
      </trkpt>
      <trkpt lat="52.393646" lon="13.062096">
        <ele>34.0</ele>
      </trkpt>
      <trkpt lat="52.3939" lon="13.061742">
        <ele>33.4</ele>
      </trkpt>
      <trkpt lat="52.394154" lon="13.061389">
        <ele>32.7</ele>
      </trkpt>
      <trkpt lat="52.394185" lon="13.061303">
        <ele>33.2</ele>
      </trkpt>
      <trkpt lat="52.39422" lon="13.061353">
        <ele>32.8</ele>
      </trkpt>
      <trkpt lat="52.394199" lon="13.061435">
        <ele>32.2</ele>
      </trkpt>
      <trkpt lat="52.394174" lon="13.061471">
        <ele>31.9</ele>
      </trkpt>
      <trkpt lat="52.394154" lon="13.061501">
        <ele>31.6</ele>
      </trkpt>
      <trkpt lat="52.394032" lon="13.061678">
        <ele>29.8</ele>
      </trkpt>
      <trkpt lat="52.394233" lon="13.061981">
        <ele>29.0</ele>
      </trkpt>
      <trkpt lat="52.394274" lon="13.061914">
        <ele>29.8</ele>
      </trkpt>
      <trkpt lat="52.394306" lon="13.061967">
        <ele>29.7</ele>
        <name>52.394310,13.061961</name>
        <extensions>
          <oa:mapZoom>18</oa:mapZoom>
        </extensions>
      </trkpt>
      <trkpt lat="52.394307" lon="13.061968">
        <ele>29.7</ele>
      </trkpt>
      <trkpt lat="52.39437" lon="13.062057">
        <ele>29.8</ele>
      </trkpt>
      <trkpt lat="52.394443" lon="13.062152">
        <ele>29.8</ele>
      </trkpt>
      <trkpt lat="52.394684" lon="13.062469">
        <ele>29.8</ele>
      </trkpt>
      <trkpt lat="52.394924" lon="13.062786">
        <ele>29.9</ele>
      </trkpt>
      <trkpt lat="52.395005" lon="13.062892">
        <ele>29.9</ele>
      </trkpt>
      <trkpt lat="52.395146" lon="13.063102">
        <ele>29.8</ele>
        <name>Florales Gitter</name>
        <extensions>
          <oa:mapZoom>15</oa:mapZoom>
        </extensions>
      </trkpt>
      <trkpt lat="52.395164" lon="13.06313">
        <ele>29.7</ele>
      </trkpt>
      <trkpt lat="52.395343" lon="13.063393">
        <ele>29.6</ele>
      </trkpt>
      <trkpt lat="52.395522" lon="13.063657">
        <ele>29.5</ele>
      </trkpt>
      <trkpt lat="52.395541" lon="13.063674">
        <ele>29.5</ele>
      </trkpt>
      <trkpt lat="52.395652" lon="13.063701">
        <ele>30.0</ele>
      </trkpt>
      <trkpt lat="52.395795" lon="13.063722">
        <ele>30.7</ele>
      </trkpt>
      <trkpt lat="52.395856" lon="13.063694">
        <ele>30.9</ele>
        <name>Reliefstele</name>
        <extensions>
          <oa:mapZoom>15</oa:mapZoom>
        </extensions>
      </trkpt>
      <trkpt lat="52.395948" lon="13.063651">
        <ele>31.3</ele>
      </trkpt>
      <trkpt lat="52.396106" lon="13.063445">
        <ele>31.3</ele>
      </trkpt>
      <trkpt lat="52.396083" lon="13.063293">
        <ele>31.2</ele>
      </trkpt>
      <trkpt lat="52.396112" lon="13.063131">
        <ele>31.2</ele>
      </trkpt>
      <trkpt lat="52.395946" lon="13.06284">
        <ele>31.2</ele>
      </trkpt>
      <trkpt lat="52.39578" lon="13.062549">
        <ele>31.3</ele>
      </trkpt>
      <trkpt lat="52.395627" lon="13.06228">
        <ele>31.3</ele>
      </trkpt>
      <trkpt lat="52.395565" lon="13.062172">
        <ele>31.3</ele>
      </trkpt>
      <trkpt lat="52.395569" lon="13.062061">
        <ele>31.3</ele>
      </trkpt>
      <trkpt lat="52.395618" lon="13.061971">
        <ele>31.3</ele>
      </trkpt>
      <trkpt lat="52.395623" lon="13.061968">
        <ele>31.3</ele>
        <name>Knobelsdorff-Haus</name>
        <extensions>
          <oa:mapZoom>15</oa:mapZoom>
        </extensions>
      </trkpt>
      <trkpt lat="52.395618" lon="13.061971">
        <ele>31.3</ele>
      </trkpt>
      <trkpt lat="52.395575" lon="13.061901">
        <ele>31.3</ele>
      </trkpt>
      <trkpt lat="52.395506" lon="13.061781">
        <ele>31.4</ele>
      </trkpt>
      <trkpt lat="52.395412" lon="13.061613">
        <ele>31.4</ele>
      </trkpt>
      <trkpt lat="52.395585" lon="13.061195">
        <ele>31.4</ele>
      </trkpt>
      <trkpt lat="52.395758" lon="13.060777">
        <ele>31.2</ele>
      </trkpt>
      <trkpt lat="52.395613" lon="13.060698">
        <ele>31.3</ele>
      </trkpt>
      <trkpt lat="52.395538" lon="13.060672">
        <ele>31.4</ele>
      </trkpt>
      <trkpt lat="52.395193" lon="13.060561">
        <ele>31.6</ele>
      </trkpt>
      <trkpt lat="52.394882" lon="13.060461">
        <ele>31.8</ele>
        <name>52.394882,13.060461</name>
        <extensions>
          <oa:mapZoom>15</oa:mapZoom>
        </extensions>
      </trkpt>
      <trkpt lat="52.395193" lon="13.060561">
        <ele>31.6</ele>
      </trkpt>
      <trkpt lat="52.395538" lon="13.060672">
        <ele>31.4</ele>
      </trkpt>
      <trkpt lat="52.395613" lon="13.060698">
        <ele>31.3</ele>
      </trkpt>
      <trkpt lat="52.395621" lon="13.060636">
        <ele>31.3</ele>
      </trkpt>
      <trkpt lat="52.395612" lon="13.060633">
        <ele>31.3</ele>
      </trkpt>
      <trkpt lat="52.395615" lon="13.060607">
        <ele>31.3</ele>
      </trkpt>
      <trkpt lat="52.395607" lon="13.060604">
        <ele>31.3</ele>
      </trkpt>
      <trkpt lat="52.395605" lon="13.060577">
        <ele>31.3</ele>
      </trkpt>
      <trkpt lat="52.395602" lon="13.060552">
        <ele>31.3</ele>
      </trkpt>
      <trkpt lat="52.395596" lon="13.060526">
        <ele>31.3</ele>
      </trkpt>
      <trkpt lat="52.395588" lon="13.060496">
        <ele>31.3</ele>
      </trkpt>
      <trkpt lat="52.395583" lon="13.060481">
        <ele>31.3</ele>
      </trkpt>
      <trkpt lat="52.395578" lon="13.060468">
        <ele>31.3</ele>
      </trkpt>
      <trkpt lat="52.395569" lon="13.060449">
        <ele>31.3</ele>
      </trkpt>
      <trkpt lat="52.395554" lon="13.060425">
        <ele>31.0</ele>
        <name>52.395554,13.060425</name>
        <extensions>
          <oa:mapZoom>15</oa:mapZoom>
        </extensions>
      </trkpt>
      <trkpt lat="52.395693" lon="13.060259">
        <ele>31.0</ele>
      </trkpt>
      <trkpt lat="52.39555" lon="13.059038">
        <ele>31.8</ele>
        <name>52.395550,13.059038</name>
        <extensions>
          <oa:mapZoom>15</oa:mapZoom>
        </extensions>
      </trkpt>
      <trkpt lat="52.395553" lon="13.059036">
        <ele>31.8</ele>
      </trkpt>
      <trkpt lat="52.395593" lon="13.059011">
        <ele>31.8</ele>
      </trkpt>
      <trkpt lat="52.395622" lon="13.058992">
        <ele>31.8</ele>
      </trkpt>
      <trkpt lat="52.395908" lon="13.058886">
        <ele>31.7</ele>
      </trkpt>
      <trkpt lat="52.396193" lon="13.05878">
        <ele>31.5</ele>
      </trkpt>
      <trkpt lat="52.396375" lon="13.058713">
        <ele>31.4</ele>
      </trkpt>
      <trkpt lat="52.396702" lon="13.0586">
        <ele>31.1</ele>
      </trkpt>
      <trkpt lat="52.397069" lon="13.058489">
        <ele>30.8</ele>
      </trkpt>
      <trkpt lat="52.397181" lon="13.058469">
        <ele>30.7</ele>
      </trkpt>
      <trkpt lat="52.397176" lon="13.058423">
        <ele>30.8</ele>
      </trkpt>
      <trkpt lat="52.397172" lon="13.058399">
        <ele>30.8</ele>
        <name>52.397172,13.058399</name>
        <extensions>
          <oa:mapZoom>18</oa:mapZoom>
        </extensions>
      </trkpt>
      <trkpt lat="52.397171" lon="13.058387">
        <ele>30.8</ele>
      </trkpt>
      <trkpt lat="52.397285" lon="13.058383">
        <ele>30.8</ele>
      </trkpt>
      <trkpt lat="52.397462" lon="13.058356">
        <ele>30.8</ele>
      </trkpt>
      <trkpt lat="52.397508" lon="13.058346">
        <ele>30.8</ele>
      </trkpt>
      <trkpt lat="52.397561" lon="13.058335">
        <ele>30.9</ele>
      </trkpt>
      <trkpt lat="52.397586" lon="13.05833">
        <ele>30.9</ele>
      </trkpt>
      <trkpt lat="52.397599" lon="13.058449">
        <ele>30.8</ele>
      </trkpt>
      <trkpt lat="52.397905" lon="13.058378">
        <ele>31.1</ele>
      </trkpt>
      <trkpt lat="52.398211" lon="13.058307">
        <ele>31.3</ele>
      </trkpt>
      <trkpt lat="52.398517" lon="13.058236">
        <ele>31.5</ele>
      </trkpt>
      <trkpt lat="52.398953" lon="13.058136">
        <ele>31.9</ele>
      </trkpt>
      <trkpt lat="52.398945" lon="13.05806">
        <ele>31.9</ele>
      </trkpt>
      <trkpt lat="52.399064" lon="13.058022">
        <ele>32.0</ele>
      </trkpt>
      <trkpt lat="52.399247" lon="13.057896">
        <ele>32.2</ele>
      </trkpt>
      <trkpt lat="52.39933" lon="13.057859">
        <ele>32.2</ele>
      </trkpt>
      <trkpt lat="52.399612" lon="13.057794">
        <ele>32.5</ele>
      </trkpt>
      <trkpt lat="52.399748" lon="13.057725">
        <ele>32.6</ele>
      </trkpt>
      <trkpt lat="52.399751" lon="13.057743">
        <ele>32.6</ele>
      </trkpt>
      <trkpt lat="52.399783" lon="13.057974">
        <ele>32.5</ele>
      </trkpt>
      <trkpt lat="52.399812" lon="13.058199">
        <ele>32.4</ele>
        <name>52.399812,13.058199</name>
        <extensions>
          <oa:mapZoom>18</oa:mapZoom>
        </extensions>
      </trkpt>
      <trkpt lat="52.399871" lon="13.058656">
        <ele>32.3</ele>
      </trkpt>
      <trkpt lat="52.399944" lon="13.059225">
        <ele>32.1</ele>
        <name>52.399940,13.059226</name>
        <extensions>
          <oa:mapZoom>18</oa:mapZoom>
        </extensions>
      </trkpt>
      <trkpt lat="52.399958" lon="13.059338">
        <ele>32.1</ele>
      </trkpt>
      <trkpt lat="52.399985" lon="13.059471">
        <ele>32.0</ele>
      </trkpt>
      <trkpt lat="52.400043" lon="13.05945">
        <ele>32.1</ele>
      </trkpt>
      <trkpt lat="52.400078" lon="13.05945">
        <ele>32.1</ele>
      </trkpt>
      <trkpt lat="52.400338" lon="13.05936">
        <ele>32.3</ele>
      </trkpt>
      <trkpt lat="52.400597" lon="13.059271">
        <ele>32.4</ele>
      </trkpt>
      <trkpt lat="52.400698" lon="13.059236">
        <ele>32.5</ele>
      </trkpt>
      <trkpt lat="52.400798" lon="13.059201">
        <ele>32.5</ele>
        <name>52.400798,13.059201</name>
        <extensions>
          <oa:mapZoom>18</oa:mapZoom>
        </extensions>
      </trkpt>
      <trkpt lat="52.40096" lon="13.059145">
        <ele>32.6</ele>
      </trkpt>
      <trkpt lat="52.401224" lon="13.059054">
        <ele>32.8</ele>
      </trkpt>
      <trkpt lat="52.401492" lon="13.058961">
        <ele>32.9</ele>
      </trkpt>
      <trkpt lat="52.401761" lon="13.058869">
        <ele>33.1</ele>
      </trkpt>
      <trkpt lat="52.401841" lon="13.059495">
        <ele>32.9</ele>
      </trkpt>
      <trkpt lat="52.401922" lon="13.060122">
        <ele>32.7</ele>
      </trkpt>
      <trkpt lat="52.401972" lon="13.060104">
        <ele>32.8</ele>
      </trkpt>
      <trkpt lat="52.402021" lon="13.060087">
        <ele>32.8</ele>
      </trkpt>
      <trkpt lat="52.402071" lon="13.060479">
        <ele>32.7</ele>
      </trkpt>
      <trkpt lat="52.402078" lon="13.060533">
        <ele>32.7</ele>
        <name>52.402078,13.060533</name>
        <extensions>
          <oa:mapZoom>15</oa:mapZoom>
        </extensions>
      </trkpt>
      <trkpt lat="52.402121" lon="13.06087">
        <ele>32.6</ele>
      </trkpt>
      <trkpt lat="52.402418" lon="13.060773">
        <ele>32.7</ele>
      </trkpt>
      <trkpt lat="52.402715" lon="13.060675">
        <ele>32.8</ele>
      </trkpt>
      <trkpt lat="52.402964" lon="13.060593">
        <ele>32.9</ele>
        <name>52.402964,13.060593</name>
        <extensions>
          <oa:mapZoom>15</oa:mapZoom>
        </extensions>
      </trkpt>
      <trkpt lat="52.403012" lon="13.060577">
        <ele>32.9</ele>
      </trkpt>
      <trkpt lat="52.402924" lon="13.059933">
        <ele>33.1</ele>
      </trkpt>
      <trkpt lat="52.402836" lon="13.059288">
        <ele>33.3</ele>
      </trkpt>
      <trkpt lat="52.402748" lon="13.058644">
        <ele>33.5</ele>
      </trkpt>
      <trkpt lat="52.40266" lon="13.058">
        <ele>33.7</ele>
      </trkpt>
      <trkpt lat="52.402647" lon="13.057894">
        <ele>33.7</ele>
      </trkpt>
      <trkpt lat="52.402644" lon="13.057867">
        <ele>33.7</ele>
      </trkpt>
      <trkpt lat="52.402481" lon="13.057859">
        <ele>33.6</ele>
        <name>52.402481,13.057834</name>
      </trkpt>
    </trkseg>
  </trk>
</gpx>