<?xml version="1.0" encoding="UTF-8"?>
<!-- track-length = 8876 filtered ascend = 141 plain-ascend = 4 cost=10762 energy=0.0kwh time=1h 50m 23s -->
<gpx 
 xmlns="http://www.topografix.com/GPX/1/1" 
 xmlns:xsi="http://www.w3.org/2001/XMLSchema-instance" 
 xsi:schemaLocation="http://www.topografix.com/GPX/1/1 http://www.topografix.com/GPX/1/1/gpx.xsd" 
 version="1.1" 
 creator="BRouter-Web 0.18.1">
 <trk>
  <name>Pottenstein - Elbersberg (8,9 km)</name>
  <trkseg>
   <trkpt lat="49.754492" lon="11.420637"><ele>409</ele></trkpt>
   <trkpt lat="49.754543" lon="11.420559"><ele>410</ele></trkpt>
   <trkpt lat="49.754506" lon="11.420455"><ele>412</ele></trkpt>
   <trkpt lat="49.754446" lon="11.420307"><ele>415</ele></trkpt>
   <trkpt lat="49.754368" lon="11.420442"><ele>413.5</ele></trkpt>
   <trkpt lat="49.754244" lon="11.420596"><ele>411.75</ele></trkpt>
   <trkpt lat="49.754127" lon="11.420999"><ele>406.25</ele></trkpt>
   <trkpt lat="49.75409" lon="11.42103"><ele>407.25</ele></trkpt>
   <trkpt lat="49.753962" lon="11.421409"><ele>407.25</ele></trkpt>
   <trkpt lat="49.753915" lon="11.421581"><ele>407</ele></trkpt>
   <trkpt lat="49.753764" lon="11.421802"><ele>410.25</ele></trkpt>
   <trkpt lat="49.753702" lon="11.422007"><ele>410.75</ele></trkpt>
   <trkpt lat="49.75357" lon="11.422394"><ele>411</ele></trkpt>
   <trkpt lat="49.753516" lon="11.422831"><ele>408.5</ele></trkpt>
   <trkpt lat="49.753404" lon="11.423257"><ele>405</ele></trkpt>
   <trkpt lat="49.753085" lon="11.424394"><ele>408.5</ele></trkpt>
   <trkpt lat="49.752955" lon="11.424677"><ele>410.75</ele></trkpt>
   <trkpt lat="49.752679" lon="11.425138"><ele>413</ele></trkpt>
   <trkpt lat="49.752519" lon="11.425675"><ele>409.75</ele></trkpt>
   <trkpt lat="49.75235" lon="11.42594"><ele>411</ele></trkpt>
   <trkpt lat="49.752319" lon="11.426083"><ele>411.5</ele></trkpt>
   <trkpt lat="49.752056" lon="11.426388"><ele>412</ele></trkpt>
   <trkpt lat="49.751957" lon="11.426537"><ele>410.5</ele></trkpt>
   <trkpt lat="49.751584" lon="11.42715"><ele>405.5</ele></trkpt>
   <trkpt lat="49.75145" lon="11.427298"><ele>403</ele></trkpt>
   <trkpt lat="49.751298" lon="11.427331"><ele>400.25</ele></trkpt>
   <trkpt lat="49.751281" lon="11.427323"><ele>400</ele></trkpt>
   <trkpt lat="49.75124" lon="11.427273"><ele>399.25</ele></trkpt>
   <trkpt lat="49.751192" lon="11.427285"><ele>398.5</ele></trkpt>
   <trkpt lat="49.751216" lon="11.427471"><ele>398.25</ele></trkpt>
   <trkpt lat="49.751225" lon="11.427559"><ele>400</ele></trkpt>
   <trkpt lat="49.751376" lon="11.427505"><ele>401.5</ele></trkpt>
   <trkpt lat="49.751484" lon="11.427447"><ele>403.5</ele></trkpt>
   <trkpt lat="49.751604" lon="11.427369"><ele>405.75</ele></trkpt>
   <trkpt lat="49.751717" lon="11.427272"><ele>408</ele></trkpt>
   <trkpt lat="49.751754" lon="11.427441"><ele>409.25</ele></trkpt>
   <trkpt lat="49.751389" lon="11.427918"><ele>413.75</ele></trkpt>
   <trkpt lat="49.751152" lon="11.42812"><ele>414.75</ele></trkpt>
   <trkpt lat="49.751234" lon="11.428212"><ele>419</ele></trkpt>
   <trkpt lat="49.751091" lon="11.428258"><ele>417.25</ele></trkpt>
   <trkpt lat="49.751158" lon="11.428378"><ele>422</ele></trkpt>
   <trkpt lat="49.751038" lon="11.428486"><ele>422.25</ele></trkpt>
   <trkpt lat="49.750852" lon="11.428574"><ele>421.25</ele></trkpt>
   <trkpt lat="49.750723" lon="11.42885"><ele>426.25</ele></trkpt>
   <trkpt lat="49.750702" lon="11.428879"><ele>426.75</ele></trkpt>
   <trkpt lat="49.750614" lon="11.429208"><ele>432</ele></trkpt>
   <trkpt lat="49.750638" lon="11.429451"><ele>434.75</ele></trkpt>
   <trkpt lat="49.750667" lon="11.429743"><ele>438.5</ele></trkpt>
   <trkpt lat="49.750939" lon="11.43106"><ele>452.25</ele></trkpt>
   <trkpt lat="49.75103" lon="11.43136"><ele>453.75</ele></trkpt>
   <trkpt lat="49.751599" lon="11.431788"><ele>460.25</ele></trkpt>
   <trkpt lat="49.751778" lon="11.431996"><ele>461.25</ele></trkpt>
   <trkpt lat="49.751862" lon="11.432283"><ele>462.25</ele></trkpt>
   <trkpt lat="49.751883" lon="11.43258"><ele>463</ele></trkpt>
   <trkpt lat="49.751851" lon="11.433046"><ele>462</ele></trkpt>
   <trkpt lat="49.751689" lon="11.434459"><ele>459.5</ele></trkpt>
   <trkpt lat="49.75166" lon="11.434816"><ele>460.5</ele></trkpt>
   <trkpt lat="49.751668" lon="11.435323"><ele>462</ele></trkpt>
   <trkpt lat="49.751664" lon="11.437232"><ele>468.5</ele></trkpt>
   <trkpt lat="49.751639" lon="11.437481"><ele>469.75</ele></trkpt>
   <trkpt lat="49.751322" lon="11.438235"><ele>471.75</ele></trkpt>
   <trkpt lat="49.751288" lon="11.438319"><ele>471.75</ele></trkpt>
   <trkpt lat="49.751104" lon="11.438964"><ele>474</ele></trkpt>
   <trkpt lat="49.751065" lon="11.439325"><ele>474.75</ele></trkpt>
   <trkpt lat="49.751042" lon="11.439968"><ele>476</ele></trkpt>
   <trkpt lat="49.751047" lon="11.440169"><ele>476.25</ele></trkpt>
   <trkpt lat="49.751235" lon="11.441152"><ele>479.25</ele></trkpt>
   <trkpt lat="49.751301" lon="11.441384"><ele>480.25</ele></trkpt>
   <trkpt lat="49.751494" lon="11.442212"><ele>482.5</ele></trkpt>
   <trkpt lat="49.751516" lon="11.442309"><ele>482.75</ele></trkpt>
   <trkpt lat="49.751554" lon="11.442502"><ele>483.25</ele></trkpt>
   <trkpt lat="49.751679" lon="11.443142"><ele>483.25</ele></trkpt>
   <trkpt lat="49.751748" lon="11.44337"><ele>483</ele></trkpt>
   <trkpt lat="49.7519" lon="11.443723"><ele>482.25</ele></trkpt>
   <trkpt lat="49.752108" lon="11.44415"><ele>481.5</ele></trkpt>
   <trkpt lat="49.75214" lon="11.44411"><ele>481.75</ele></trkpt>
   <trkpt lat="49.752162" lon="11.444102"><ele>481.75</ele></trkpt>
   <trkpt lat="49.752184" lon="11.444107"><ele>482</ele></trkpt>
   <trkpt lat="49.752204" lon="11.444123"><ele>482</ele></trkpt>
   <trkpt lat="49.752219" lon="11.444148"><ele>482</ele></trkpt>
   <trkpt lat="49.752228" lon="11.44418"><ele>481.75</ele></trkpt>
   <trkpt lat="49.75223" lon="11.444215"><ele>481.75</ele></trkpt>
   <trkpt lat="49.752224" lon="11.444248"><ele>481.75</ele></trkpt>
   <trkpt lat="49.752434" lon="11.444654"><ele>482</ele></trkpt>
   <trkpt lat="49.752679" lon="11.444934"><ele>482.5</ele></trkpt>
   <trkpt lat="49.75281" lon="11.444966"><ele>482.75</ele></trkpt>
   <trkpt lat="49.753063" lon="11.444981"><ele>483.25</ele></trkpt>
   <trkpt lat="49.753256" lon="11.445041"><ele>483.5</ele></trkpt>
   <trkpt lat="49.753419" lon="11.445073"><ele>483.25</ele></trkpt>
   <trkpt lat="49.753494" lon="11.445143"><ele>482.75</ele></trkpt>
   <trkpt lat="49.753746" lon="11.445182"><ele>481.75</ele></trkpt>
   <trkpt lat="49.754022" lon="11.445116"><ele>480.75</ele></trkpt>
   <trkpt lat="49.754328" lon="11.445019"><ele>479.25</ele></trkpt>
   <trkpt lat="49.754912" lon="11.445014"><ele>476.25</ele></trkpt>
   <trkpt lat="49.75575" lon="11.445115"><ele>478.75</ele></trkpt>
   <trkpt lat="49.756675" lon="11.445182"><ele>484.5</ele></trkpt>
   <trkpt lat="49.75675" lon="11.445173"><ele>484.75</ele></trkpt>
   <trkpt lat="49.756906" lon="11.445128"><ele>485.75</ele></trkpt>
   <trkpt lat="49.757054" lon="11.445061"><ele>486.5</ele></trkpt>
   <trkpt lat="49.757286" lon="11.444959"><ele>488</ele></trkpt>
   <trkpt lat="49.75763" lon="11.444849"><ele>490</ele></trkpt>
   <trkpt lat="49.757708" lon="11.444825"><ele>490</ele></trkpt>
   <trkpt lat="49.758052" lon="11.444569"><ele>492</ele></trkpt>
   <trkpt lat="49.758198" lon="11.444179"><ele>494.25</ele></trkpt>
   <trkpt lat="49.758221" lon="11.444071"><ele>494.5</ele></trkpt>
   <trkpt lat="49.758244" lon="11.443959"><ele>494.75</ele></trkpt>
   <trkpt lat="49.758252" lon="11.443796"><ele>495</ele></trkpt>
   <trkpt lat="49.758247" lon="11.443681"><ele>495</ele></trkpt>
   <trkpt lat="49.758207" lon="11.443267"><ele>495.25</ele></trkpt>
   <trkpt lat="49.758199" lon="11.443119"><ele>494.75</ele></trkpt>
   <trkpt lat="49.758222" lon="11.442647"><ele>494</ele></trkpt>
   <trkpt lat="49.758261" lon="11.442127"><ele>493.25</ele></trkpt>
   <trkpt lat="49.758298" lon="11.441859"><ele>493</ele></trkpt>
   <trkpt lat="49.758334" lon="11.441677"><ele>493</ele></trkpt>
   <trkpt lat="49.758473" lon="11.441131"><ele>492</ele></trkpt>
   <trkpt lat="49.758779" lon="11.439979"><ele>494.5</ele></trkpt>
   <trkpt lat="49.758909" lon="11.439207"><ele>491.25</ele></trkpt>
   <trkpt lat="49.758936" lon="11.439079"><ele>490.75</ele></trkpt>
   <trkpt lat="49.759016" lon="11.438627"><ele>489.25</ele></trkpt>
   <trkpt lat="49.759044" lon="11.438521"><ele>488.75</ele></trkpt>
   <trkpt lat="49.759094" lon="11.43841"><ele>488.25</ele></trkpt>
   <trkpt lat="49.759253" lon="11.438145"><ele>487.75</ele></trkpt>
   <trkpt lat="49.759381" lon="11.437796"><ele>488.25</ele></trkpt>
   <trkpt lat="49.759489" lon="11.437372"><ele>489</ele></trkpt>
   <trkpt lat="49.759563" lon="11.436921"><ele>489</ele></trkpt>
   <trkpt lat="49.759579" lon="11.436612"><ele>489</ele></trkpt>
   <trkpt lat="49.759536" lon="11.436085"><ele>490.5</ele></trkpt>
   <trkpt lat="49.759524" lon="11.435744"><ele>491.25</ele></trkpt>
   <trkpt lat="49.759579" lon="11.434986"><ele>494.25</ele></trkpt>
   <trkpt lat="49.759609" lon="11.434785"><ele>494.25</ele></trkpt>
   <trkpt lat="49.759679" lon="11.43448"><ele>494.5</ele></trkpt>
   <trkpt lat="49.759748" lon="11.434055"><ele>494</ele></trkpt>
   <trkpt lat="49.759825" lon="11.433801"><ele>493.25</ele></trkpt>
   <trkpt lat="49.759884" lon="11.433686"><ele>493</ele></trkpt>
   <trkpt lat="49.760205" lon="11.433317"><ele>492</ele></trkpt>
   <trkpt lat="49.760271" lon="11.433255"><ele>491.75</ele></trkpt>
   <trkpt lat="49.760353" lon="11.433195"><ele>491.5</ele></trkpt>
   <trkpt lat="49.760496" lon="11.43318"><ele>491.5</ele></trkpt>
   <trkpt lat="49.760626" lon="11.433145"><ele>491.5</ele></trkpt>
   <trkpt lat="49.760721" lon="11.433101"><ele>491.25</ele></trkpt>
   <trkpt lat="49.760903" lon="11.432994"><ele>490.75</ele></trkpt>
   <trkpt lat="49.761074" lon="11.432835"><ele>490</ele></trkpt>
   <trkpt lat="49.761129" lon="11.432722"><ele>489.5</ele></trkpt>
   <trkpt lat="49.761169" lon="11.432591"><ele>489</ele></trkpt>
   <trkpt lat="49.761344" lon="11.431717"><ele>489</ele></trkpt>
   <trkpt lat="49.761423" lon="11.431406"><ele>490.5</ele></trkpt>
   <trkpt lat="49.761531" lon="11.430877"><ele>494</ele></trkpt>
   <trkpt lat="49.761553" lon="11.430771"><ele>494</ele></trkpt>
   <trkpt lat="49.761611" lon="11.430093"><ele>493.25</ele></trkpt>
   <trkpt lat="49.761639" lon="11.429969"><ele>493.25</ele></trkpt>
   <trkpt lat="49.761966" lon="11.4291"><ele>491.75</ele></trkpt>
   <trkpt lat="49.762079" lon="11.428886"><ele>491.75</ele></trkpt>
   <trkpt lat="49.762129" lon="11.428759"><ele>492</ele></trkpt>
   <trkpt lat="49.762182" lon="11.428547"><ele>492</ele></trkpt>
   <trkpt lat="49.762211" lon="11.428464"><ele>492.25</ele></trkpt>
   <trkpt lat="49.76227" lon="11.428367"><ele>492.25</ele></trkpt>
   <trkpt lat="49.762321" lon="11.42831"><ele>492.5</ele></trkpt>
   <trkpt lat="49.762447" lon="11.428216"><ele>492.5</ele></trkpt>
   <trkpt lat="49.762688" lon="11.427949"><ele>492</ele></trkpt>
   <trkpt lat="49.762796" lon="11.427846"><ele>492</ele></trkpt>
   <trkpt lat="49.762915" lon="11.427752"><ele>492.25</ele></trkpt>
   <trkpt lat="49.763037" lon="11.42754"><ele>493.5</ele></trkpt>
   <trkpt lat="49.763262" lon="11.426966"><ele>496.5</ele></trkpt>
   <trkpt lat="49.763519" lon="11.426075"><ele>497.25</ele></trkpt>
   <trkpt lat="49.763602" lon="11.425733"><ele>497.25</ele></trkpt>
   <trkpt lat="49.763749" lon="11.425053"><ele>495.5</ele></trkpt>
   <trkpt lat="49.763851" lon="11.424858"><ele>495</ele></trkpt>
   <trkpt lat="49.764089" lon="11.424455"><ele>495.5</ele></trkpt>
   <trkpt lat="49.764152" lon="11.424256"><ele>495.75</ele></trkpt>
   <trkpt lat="49.764205" lon="11.424061"><ele>495.25</ele></trkpt>
   <trkpt lat="49.764328" lon="11.423789"><ele>494</ele></trkpt>
   <trkpt lat="49.764385" lon="11.423637"><ele>493.5</ele></trkpt>
   <trkpt lat="49.764427" lon="11.423463"><ele>493.25</ele></trkpt>
   <trkpt lat="49.764514" lon="11.423175"><ele>492.75</ele></trkpt>
   <trkpt lat="49.764572" lon="11.423023"><ele>492.25</ele></trkpt>
   <trkpt lat="49.764633" lon="11.422972"><ele>492.25</ele></trkpt>
   <trkpt lat="49.764704" lon="11.422934"><ele>492.25</ele></trkpt>
   <trkpt lat="49.76474" lon="11.422914"><ele>492.5</ele></trkpt>
   <trkpt lat="49.764767" lon="11.422862"><ele>492.25</ele></trkpt>
   <trkpt lat="49.764779" lon="11.422819"><ele>492.25</ele></trkpt>
   <trkpt lat="49.764806" lon="11.422726"><ele>491.75</ele></trkpt>
   <trkpt lat="49.76482" lon="11.42255"><ele>491</ele></trkpt>
   <trkpt lat="49.764849" lon="11.422459"><ele>490.5</ele></trkpt>
   <trkpt lat="49.765013" lon="11.422157"><ele>488.5</ele></trkpt>
   <trkpt lat="49.765056" lon="11.42204"><ele>487.5</ele></trkpt>
   <trkpt lat="49.765086" lon="11.42189"><ele>486</ele></trkpt>
   <trkpt lat="49.76517" lon="11.421705"><ele>484.5</ele></trkpt>
   <trkpt lat="49.765242" lon="11.421571"><ele>483.75</ele></trkpt>
   <trkpt lat="49.765302" lon="11.421479"><ele>483.5</ele></trkpt>
   <trkpt lat="49.765452" lon="11.421294"><ele>482.75</ele></trkpt>
   <trkpt lat="49.765588" lon="11.421147"><ele>482.25</ele></trkpt>
   <trkpt lat="49.76567" lon="11.421011"><ele>481.75</ele></trkpt>
   <trkpt lat="49.765755" lon="11.420851"><ele>481</ele></trkpt>
   <trkpt lat="49.766004" lon="11.420866"><ele>481</ele></trkpt>
   <trkpt lat="49.766061" lon="11.420897"><ele>481</ele></trkpt>
   <trkpt lat="49.766037" lon="11.420729"><ele>481</ele></trkpt>
   <trkpt lat="49.76603" lon="11.420429"><ele>481</ele></trkpt>
   <trkpt lat="49.765988" lon="11.419991"><ele>480.75</ele></trkpt>
   <trkpt lat="49.765989" lon="11.419956"><ele>480.25</ele></trkpt>
   <trkpt lat="49.766036" lon="11.419054"><ele>480.25</ele></trkpt>
   <trkpt lat="49.765971" lon="11.418753"><ele>479.75</ele></trkpt>
   <trkpt lat="49.765994" lon="11.418529"><ele>479.75</ele></trkpt>
   <trkpt lat="49.766008" lon="11.418479"><ele>479.75</ele></trkpt>
   <trkpt lat="49.766124" lon="11.418061"><ele>479.25</ele></trkpt>
   <trkpt lat="49.766309" lon="11.41713"><ele>475.75</ele></trkpt>
   <trkpt lat="49.76632" lon="11.416854"><ele>474.25</ele></trkpt>
   <trkpt lat="49.766367" lon="11.416524"><ele>472.75</ele></trkpt>
   <trkpt lat="49.766516" lon="11.415713"><ele>469.25</ele></trkpt>
   <trkpt lat="49.766582" lon="11.415396"><ele>466</ele></trkpt>
   <trkpt lat="49.766831" lon="11.415032"><ele>462.5</ele></trkpt>
   <trkpt lat="49.766916" lon="11.415013"><ele>462.25</ele></trkpt>
   <trkpt lat="49.76708" lon="11.414826"><ele>460.75</ele></trkpt>
   <trkpt lat="49.767185" lon="11.414583"><ele>458.5</ele></trkpt>
   <trkpt lat="49.767305" lon="11.414496"><ele>457.5</ele></trkpt>
   <trkpt lat="49.767392" lon="11.414483"><ele>457.5</ele></trkpt>
   <trkpt lat="49.767637" lon="11.414525"><ele>458.25</ele></trkpt>
   <trkpt lat="49.767858" lon="11.414642"><ele>460.25</ele></trkpt>
   <trkpt lat="49.767801" lon="11.41457"><ele>459.25</ele></trkpt>
   <trkpt lat="49.767798" lon="11.414448"><ele>458.25</ele></trkpt>
   <trkpt lat="49.767943" lon="11.413936"><ele>454.25</ele></trkpt>
   <trkpt lat="49.767984" lon="11.413696"><ele>452.25</ele></trkpt>
   <trkpt lat="49.768013" lon="11.41332"><ele>448.5</ele></trkpt>
   <trkpt lat="49.768222" lon="11.41289"><ele>441.25</ele></trkpt>
   <trkpt lat="49.768303" lon="11.412752"><ele>438.75</ele></trkpt>
   <trkpt lat="49.768381" lon="11.412663"><ele>437.5</ele></trkpt>
   <trkpt lat="49.768457" lon="11.412602"><ele>437.5</ele></trkpt>
   <trkpt lat="49.768521" lon="11.412567"><ele>437.75</ele></trkpt>
   <trkpt lat="49.768641" lon="11.412556"><ele>439.25</ele></trkpt>
   <trkpt lat="49.76887" lon="11.412586"><ele>443</ele></trkpt>
   <trkpt lat="49.768933" lon="11.412565"><ele>443.5</ele></trkpt>
   <trkpt lat="49.768995" lon="11.412508"><ele>443.5</ele></trkpt>
   <trkpt lat="49.769059" lon="11.412386"><ele>441.75</ele></trkpt>
   <trkpt lat="49.769148" lon="11.412133"><ele>437.25</ele></trkpt>
   <trkpt lat="49.769269" lon="11.411588"><ele>426.75</ele></trkpt>
   <trkpt lat="49.769321" lon="11.411422"><ele>424</ele></trkpt>
   <trkpt lat="49.769843" lon="11.409988"><ele>405.75</ele></trkpt>
   <trkpt lat="49.769883" lon="11.409843"><ele>406</ele></trkpt>
   <trkpt lat="49.769891" lon="11.409766"><ele>405.75</ele></trkpt>
   <trkpt lat="49.769866" lon="11.4097"><ele>404.5</ele></trkpt>
   <trkpt lat="49.769806" lon="11.409663"><ele>402.25</ele></trkpt>
   <trkpt lat="49.769864" lon="11.409566"><ele>403.25</ele></trkpt>
   <trkpt lat="49.769903" lon="11.409527"><ele>404.25</ele></trkpt>
   <trkpt lat="49.769958" lon="11.409499"><ele>406</ele></trkpt>
   <trkpt lat="49.770003" lon="11.409518"><ele>407.25</ele></trkpt>
   <trkpt lat="49.770052" lon="11.409586"><ele>406</ele></trkpt>
   <trkpt lat="49.77015" lon="11.409777"><ele>403.75</ele></trkpt>
   <trkpt lat="49.770314" lon="11.410031"><ele>399.25</ele></trkpt>
   <trkpt lat="49.770457" lon="11.410318"><ele>396.75</ele></trkpt>
   <trkpt lat="49.770532" lon="11.410475"><ele>395</ele></trkpt>
   <trkpt lat="49.770587" lon="11.410626"><ele>394.25</ele></trkpt>
   <trkpt lat="49.770698" lon="11.410989"><ele>392.5</ele></trkpt>
   <trkpt lat="49.770795" lon="11.411211"><ele>389.5</ele></trkpt>
   <trkpt lat="49.770868" lon="11.41101"><ele>385.5</ele></trkpt>
   <trkpt lat="49.770975" lon="11.411076"><ele>383.5</ele></trkpt>
   <trkpt lat="49.771223" lon="11.411107"><ele>377.75</ele></trkpt>
   <trkpt lat="49.771259" lon="11.411099"><ele>377</ele></trkpt>
   <trkpt lat="49.77121" lon="11.410731"><ele>376.75</ele></trkpt>
   <trkpt lat="49.771205" lon="11.410694"><ele>376.75</ele></trkpt>
   <trkpt lat="49.771441" lon="11.410655"><ele>372</ele></trkpt>
   <trkpt lat="49.771496" lon="11.410635"><ele>371</ele></trkpt>
   <trkpt lat="49.77155" lon="11.410569"><ele>369.75</ele></trkpt>
   <trkpt lat="49.771581" lon="11.410477"><ele>369</ele></trkpt>
   <trkpt lat="49.771562" lon="11.410257"><ele>369</ele></trkpt>
   <trkpt lat="49.771533" lon="11.410173"><ele>369.25</ele></trkpt>
   <trkpt lat="49.77153" lon="11.410046"><ele>369</ele></trkpt>
   <trkpt lat="49.771535" lon="11.409975"><ele>368.75</ele></trkpt>
   <trkpt lat="49.771579" lon="11.409703"><ele>367</ele></trkpt>
   <trkpt lat="49.772007" lon="11.410011"><ele>369.25</ele></trkpt>
   <trkpt lat="49.772026" lon="11.410023"><ele>369.5</ele></trkpt>
   <trkpt lat="49.772065" lon="11.410047"><ele>369.75</ele></trkpt>
   <trkpt lat="49.772081" lon="11.410059"><ele>370</ele></trkpt>
   <trkpt lat="49.772109" lon="11.409828"><ele>369.5</ele></trkpt>
   <trkpt lat="49.772113" lon="11.40971"><ele>369</ele></trkpt>
   <trkpt lat="49.772098" lon="11.409513"><ele>367.5</ele></trkpt>
   <trkpt lat="49.772087" lon="11.409358"><ele>367.5</ele></trkpt>
   <trkpt lat="49.772064" lon="11.409158"><ele>366.75</ele></trkpt>
   <trkpt lat="49.772048" lon="11.409022"><ele>366.75</ele></trkpt>
   <trkpt lat="49.772007" lon="11.408824"><ele>366.25</ele></trkpt>
   <trkpt lat="49.771988" lon="11.408757"><ele>366.25</ele></trkpt>
   <trkpt lat="49.771942" lon="11.408591"><ele>365.5</ele></trkpt>
   <trkpt lat="49.771873" lon="11.408395"><ele>364.75</ele></trkpt>
   <trkpt lat="49.771824" lon="11.408264"><ele>364</ele></trkpt>
   <trkpt lat="49.771732" lon="11.407986"><ele>363</ele></trkpt>
   <trkpt lat="49.771655" lon="11.407782"><ele>362</ele></trkpt>
   <trkpt lat="49.771579" lon="11.407587"><ele>362.5</ele></trkpt>
   <trkpt lat="49.771525" lon="11.407492"><ele>363</ele></trkpt>
   <trkpt lat="49.77146" lon="11.407379"><ele>363.25</ele></trkpt>
   <trkpt lat="49.771342" lon="11.407217"><ele>363.75</ele></trkpt>
   <trkpt lat="49.771226" lon="11.407083"><ele>364</ele></trkpt>
   <trkpt lat="49.771113" lon="11.406984"><ele>364</ele></trkpt>
   <trkpt lat="49.771023" lon="11.406922"><ele>364</ele></trkpt>
   <trkpt lat="49.770909" lon="11.406873"><ele>364</ele></trkpt>
   <trkpt lat="49.770786" lon="11.406851"><ele>364.25</ele></trkpt>
   <trkpt lat="49.770678" lon="11.406848"><ele>364.75</ele></trkpt>
   <trkpt lat="49.770625" lon="11.406848"><ele>365</ele></trkpt>
   <trkpt lat="49.770506" lon="11.40685"><ele>365.5</ele></trkpt>
   <trkpt lat="49.770466" lon="11.406819"><ele>365.25</ele></trkpt>
   <trkpt lat="49.77034" lon="11.406719"><ele>365</ele></trkpt>
   <trkpt lat="49.770174" lon="11.406654"><ele>365.25</ele></trkpt>
   <trkpt lat="49.770037" lon="11.406649"><ele>365.75</ele></trkpt>
   <trkpt lat="49.769914" lon="11.406675"><ele>366.25</ele></trkpt>
   <trkpt lat="49.769805" lon="11.406718"><ele>367</ele></trkpt>
   <trkpt lat="49.76969" lon="11.406789"><ele>368</ele></trkpt>
   <trkpt lat="49.769582" lon="11.406876"><ele>369</ele></trkpt>
   <trkpt lat="49.769471" lon="11.407007"><ele>370</ele></trkpt>
   <trkpt lat="49.769391" lon="11.407119"><ele>370.75</ele></trkpt>
   <trkpt lat="49.769297" lon="11.407431"><ele>372.75</ele></trkpt>
   <trkpt lat="49.769272" lon="11.407817"><ele>375.75</ele></trkpt>
   <trkpt lat="49.769201" lon="11.407809"><ele>375</ele></trkpt>
   <trkpt lat="49.769146" lon="11.407805"><ele>375</ele></trkpt>
   <trkpt lat="49.769126" lon="11.407956"><ele>376.25</ele></trkpt>
   <trkpt lat="49.769014" lon="11.408116"><ele>378</ele></trkpt>
   <trkpt lat="49.768862" lon="11.408205"><ele>379.5</ele></trkpt>
   <trkpt lat="49.768878" lon="11.408278"><ele>379.25</ele></trkpt>
   <trkpt lat="49.768624" lon="11.408415"><ele>379.75</ele></trkpt>
   <trkpt lat="49.768615" lon="11.408519"><ele>378.75</ele></trkpt>
   <trkpt lat="49.768227" lon="11.408921"><ele>375.75</ele></trkpt>
   <trkpt lat="49.768081" lon="11.408983"><ele>376.75</ele></trkpt>
   <trkpt lat="49.768014" lon="11.409032"><ele>376.5</ele></trkpt>
   <trkpt lat="49.767915" lon="11.409049"><ele>377.25</ele></trkpt>
   <trkpt lat="49.767758" lon="11.409053"><ele>379</ele></trkpt>
   <trkpt lat="49.767549" lon="11.409078"><ele>380.25</ele></trkpt>
   <trkpt lat="49.76746" lon="11.409107"><ele>379.75</ele></trkpt>
   <trkpt lat="49.767284" lon="11.409207"><ele>378.75</ele></trkpt>
   <trkpt lat="49.766964" lon="11.409343"><ele>380.25</ele></trkpt>
   <trkpt lat="49.766703" lon="11.409394"><ele>381.75</ele></trkpt>
   <trkpt lat="49.766381" lon="11.409605"><ele>382</ele></trkpt>
   <trkpt lat="49.766073" lon="11.409734"><ele>382.5</ele></trkpt>
   <trkpt lat="49.765959" lon="11.409866"><ele>380.5</ele></trkpt>
   <trkpt lat="49.765719" lon="11.410016"><ele>381.5</ele></trkpt>
   <trkpt lat="49.765543" lon="11.410266"><ele>385.25</ele></trkpt>
   <trkpt lat="49.765159" lon="11.410603"><ele>385.5</ele></trkpt>
   <trkpt lat="49.763785" lon="11.411438"><ele>389.5</ele></trkpt>
   <trkpt lat="49.763643" lon="11.411716"><ele>387</ele></trkpt>
   <trkpt lat="49.763542" lon="11.411792"><ele>388.5</ele></trkpt>
   <trkpt lat="49.763526" lon="11.411817"><ele>387.75</ele></trkpt>
   <trkpt lat="49.763434" lon="11.411969"><ele>387.75</ele></trkpt>
   <trkpt lat="49.762931" lon="11.412238"><ele>385.75</ele></trkpt>
   <trkpt lat="49.762674" lon="11.412289"><ele>385.5</ele></trkpt>
   <trkpt lat="49.762549" lon="11.412314"><ele>385.5</ele></trkpt>
   <trkpt lat="49.762167" lon="11.412505"><ele>382.5</ele></trkpt>
   <trkpt lat="49.762047" lon="11.412633"><ele>382.75</ele></trkpt>
   <trkpt lat="49.762" lon="11.412685"><ele>383</ele></trkpt>
   <trkpt lat="49.761983" lon="11.412695"><ele>383</ele></trkpt>
   <trkpt lat="49.761913" lon="11.412748"><ele>383.25</ele></trkpt>
   <trkpt lat="49.761882" lon="11.412784"><ele>383.25</ele></trkpt>
   <trkpt lat="49.761836" lon="11.412811"><ele>383.25</ele></trkpt>
   <trkpt lat="49.761777" lon="11.412947"><ele>383</ele></trkpt>
   <trkpt lat="49.761712" lon="11.413175"><ele>382.5</ele></trkpt>
   <trkpt lat="49.761538" lon="11.413509"><ele>384.5</ele></trkpt>
   <trkpt lat="49.761423" lon="11.413577"><ele>386.75</ele></trkpt>
   <trkpt lat="49.761299" lon="11.413592"><ele>389.75</ele></trkpt>
   <trkpt lat="49.761236" lon="11.41363"><ele>390.75</ele></trkpt>
   <trkpt lat="49.761106" lon="11.413643"><ele>393.75</ele></trkpt>
   <trkpt lat="49.761083" lon="11.413656"><ele>394.25</ele></trkpt>
   <trkpt lat="49.760781" lon="11.413947"><ele>395.25</ele></trkpt>
   <trkpt lat="49.760741" lon="11.413973"><ele>395</ele></trkpt>
   <trkpt lat="49.760705" lon="11.413985"><ele>395</ele></trkpt>
   <trkpt lat="49.760563" lon="11.414005"><ele>395.75</ele></trkpt>
   <trkpt lat="49.760444" lon="11.413982"><ele>397</ele></trkpt>
   <trkpt lat="49.760327" lon="11.413929"><ele>399</ele></trkpt>
   <trkpt lat="49.760286" lon="11.413933"><ele>399.25</ele></trkpt>
   <trkpt lat="49.760153" lon="11.414006"><ele>398.75</ele></trkpt>
   <trkpt lat="49.759997" lon="11.414057"><ele>398.5</ele></trkpt>
   <trkpt lat="49.759649" lon="11.414109"><ele>399.5</ele></trkpt>
   <trkpt lat="49.758772" lon="11.414666"><ele>399.5</ele></trkpt>
   <trkpt lat="49.758492" lon="11.414692"><ele>405.5</ele></trkpt>
   <trkpt lat="49.758077" lon="11.415186"><ele>407.5</ele></trkpt>
   <trkpt lat="49.757858" lon="11.415603"><ele>407.5</ele></trkpt>
   <trkpt lat="49.757527" lon="11.416064"><ele>407.25</ele></trkpt>
   <trkpt lat="49.757134" lon="11.41669"><ele>412.25</ele></trkpt>
   <trkpt lat="49.757067" lon="11.41695"><ele>412.5</ele></trkpt>
   <trkpt lat="49.756876" lon="11.417411"><ele>411.5</ele></trkpt>
   <trkpt lat="49.756685" lon="11.417959"><ele>407.5</ele></trkpt>
   <trkpt lat="49.75644" lon="11.41846"><ele>409.5</ele></trkpt>
   <trkpt lat="49.756349" lon="11.418735"><ele>411</ele></trkpt>
   <trkpt lat="49.756334" lon="11.419018"><ele>410.5</ele></trkpt>
   <trkpt lat="49.7563" lon="11.419183"><ele>410.25</ele></trkpt>
   <trkpt lat="49.756237" lon="11.419349"><ele>411</ele></trkpt>
   <trkpt lat="49.756163" lon="11.419414"><ele>411</ele></trkpt>
   <trkpt lat="49.756084" lon="11.419521"><ele>410.25</ele></trkpt>
   <trkpt lat="49.756037" lon="11.419645"><ele>409.5</ele></trkpt>
   <trkpt lat="49.756014" lon="11.41967"><ele>409</ele></trkpt>
   <trkpt lat="49.755916" lon="11.419654"><ele>407.75</ele></trkpt>
   <trkpt lat="49.755837" lon="11.419653"><ele>406.75</ele></trkpt>
   <trkpt lat="49.755725" lon="11.419704"><ele>407.5</ele></trkpt>
   <trkpt lat="49.755041" lon="11.420265"><ele>407.75</ele></trkpt>
   <trkpt lat="49.754856" lon="11.420418"><ele>408.75</ele></trkpt>
  </trkseg>
 </trk>
</gpx>