<?xml version="1.0" encoding="UTF-8"?>
<!-- track-length = 5833 filtered ascend = 11 plain-ascend = 5 cost=8071 energy=0.0kwh time=1h 9m 22s -->
<gpx 
 xmlns="http://www.topografix.com/GPX/1/1" 
 xmlns:xsi="http://www.w3.org/2001/XMLSchema-instance" 
 xsi:schemaLocation="http://www.topografix.com/GPX/1/1 http://www.topografix.com/GPX/1/1/gpx.xsd" 
 version="1.1" 
 creator="BRouter-Web 0.18.1">
 <trk>
  <name>Spiekeroog (5,8 km)</name>
  <trkseg>
   <trkpt lat="53.764883" lon="7.6959"><ele>0.75</ele></trkpt>
   <trkpt lat="53.765056" lon="7.695904"><ele>0.75</ele></trkpt>
   <trkpt lat="53.765262" lon="7.695577"><ele>1</ele></trkpt>
   <trkpt lat="53.765319" lon="7.695658"><ele>1</ele></trkpt>
   <trkpt lat="53.765654" lon="7.695669"><ele>1</ele></trkpt>
   <trkpt lat="53.766114" lon="7.695683"><ele>1.25</ele></trkpt>
   <trkpt lat="53.766196" lon="7.695591"><ele>1.5</ele></trkpt>
   <trkpt lat="53.766447" lon="7.695028"><ele>1.75</ele></trkpt>
   <trkpt lat="53.766729" lon="7.694151"><ele>0</ele></trkpt>
   <trkpt lat="53.766875" lon="7.69392"><ele>0</ele></trkpt>
   <trkpt lat="53.766887" lon="7.693798"><ele>-0.25</ele></trkpt>
   <trkpt lat="53.76715" lon="7.693303"><ele>-0.25</ele></trkpt>
   <trkpt lat="53.767941" lon="7.691643"><ele>0.5</ele></trkpt>
   <trkpt lat="53.768588" lon="7.690252"><ele>1.5</ele></trkpt>
   <trkpt lat="53.768722" lon="7.689925"><ele>1.75</ele></trkpt>
   <trkpt lat="53.768775" lon="7.689708"><ele>1.5</ele></trkpt>
   <trkpt lat="53.768885" lon="7.68976"><ele>2</ele></trkpt>
   <trkpt lat="53.768949" lon="7.68965"><ele>2</ele></trkpt>
   <trkpt lat="53.769311" lon="7.689386"><ele>2.5</ele></trkpt>
   <trkpt lat="53.76946" lon="7.689276"><ele>2.5</ele></trkpt>
   <trkpt lat="53.769554" lon="7.689206"><ele>2.75</ele></trkpt>
   <trkpt lat="53.76957" lon="7.689194"><ele>2.75</ele></trkpt>
   <trkpt lat="53.769725" lon="7.688764"><ele>3</ele></trkpt>
   <trkpt lat="53.769735" lon="7.688738"><ele>3</ele></trkpt>
   <trkpt lat="53.769749" lon="7.688702"><ele>3</ele></trkpt>
   <trkpt lat="53.769856" lon="7.688536"><ele>3.75</ele></trkpt>
   <trkpt lat="53.77" lon="7.688315"><ele>3.75</ele></trkpt>
   <trkpt lat="53.770437" lon="7.687668"><ele>3</ele></trkpt>
   <trkpt lat="53.770481" lon="7.687624"><ele>3.25</ele></trkpt>
   <trkpt lat="53.770427" lon="7.687358"><ele>2.75</ele></trkpt>
   <trkpt lat="53.770375" lon="7.687194"><ele>2.5</ele></trkpt>
   <trkpt lat="53.770343" lon="7.687089"><ele>2.5</ele></trkpt>
   <trkpt lat="53.770543" lon="7.686874"><ele>3</ele></trkpt>
   <trkpt lat="53.770614" lon="7.68675"><ele>3</ele></trkpt>
   <trkpt lat="53.770964" lon="7.68577"><ele>3.25</ele></trkpt>
   <trkpt lat="53.771167" lon="7.685337"><ele>3.5</ele></trkpt>
   <trkpt lat="53.771736" lon="7.684356"><ele>4</ele></trkpt>
   <trkpt lat="53.771827" lon="7.684203"><ele>4</ele></trkpt>
   <trkpt lat="53.772052" lon="7.683831"><ele>4</ele></trkpt>
   <trkpt lat="53.772145" lon="7.683736"><ele>4</ele></trkpt>
   <trkpt lat="53.772543" lon="7.683973"><ele>4</ele></trkpt>
   <trkpt lat="53.772715" lon="7.684142"><ele>4.25</ele></trkpt>
   <trkpt lat="53.772756" lon="7.684198"><ele>4.25</ele></trkpt>
   <trkpt lat="53.772848" lon="7.684306"><ele>4.5</ele></trkpt>
   <trkpt lat="53.77327" lon="7.684727"><ele>5.5</ele></trkpt>
   <trkpt lat="53.773329" lon="7.684813"><ele>5.75</ele></trkpt>
   <trkpt lat="53.773535" lon="7.686816"><ele>8.25</ele></trkpt>
   <trkpt lat="53.77355" lon="7.686958"><ele>8.25</ele></trkpt>
   <trkpt lat="53.774121" lon="7.687504"><ele>9</ele></trkpt>
   <trkpt lat="53.774254" lon="7.687713"><ele>9.75</ele></trkpt>
   <trkpt lat="53.774405" lon="7.688083"><ele>11</ele></trkpt>
   <trkpt lat="53.774651" lon="7.688244"><ele>12</ele></trkpt>
   <trkpt lat="53.774833" lon="7.688385"><ele>12.5</ele></trkpt>
   <trkpt lat="53.774949" lon="7.688527"><ele>12.5</ele></trkpt>
   <trkpt lat="53.775004" lon="7.688626"><ele>12.5</ele></trkpt>
   <trkpt lat="53.77502" lon="7.688685"><ele>12.5</ele></trkpt>
   <trkpt lat="53.775067" lon="7.689225"><ele>11.75</ele></trkpt>
   <trkpt lat="53.775662" lon="7.689229"><ele>12.5</ele></trkpt>
   <trkpt lat="53.776083" lon="7.689213"><ele>12</ele></trkpt>
   <trkpt lat="53.776711" lon="7.688968"><ele>9.75</ele></trkpt>
   <trkpt lat="53.776696" lon="7.688697"><ele>9.75</ele></trkpt>
   <trkpt lat="53.776893" lon="7.688309"/>
   <trkpt lat="53.777015" lon="7.687916"/>
   <trkpt lat="53.777088" lon="7.687473"/>
   <trkpt lat="53.777096" lon="7.687183"/>
   <trkpt lat="53.777084" lon="7.686935"/>
   <trkpt lat="53.777232" lon="7.686746"/>
   <trkpt lat="53.77766" lon="7.687961"/>
   <trkpt lat="53.777848" lon="7.688437"/>
   <trkpt lat="53.778162" lon="7.689229"/>
   <trkpt lat="53.778632" lon="7.690729"/>
   <trkpt lat="53.778735" lon="7.691309"/>
   <trkpt lat="53.778786" lon="7.691426"/>
   <trkpt lat="53.779072" lon="7.692646"/>
   <trkpt lat="53.779148" lon="7.693084"/>
   <trkpt lat="53.779273" lon="7.693899"/>
   <trkpt lat="53.779188" lon="7.694232"/>
   <trkpt lat="53.779075" lon="7.694747"/>
   <trkpt lat="53.779063" lon="7.69485"><ele>9.75</ele></trkpt>
   <trkpt lat="53.779046" lon="7.695013"><ele>9.75</ele></trkpt>
   <trkpt lat="53.779061" lon="7.695288"><ele>9.75</ele></trkpt>
   <trkpt lat="53.779061" lon="7.695546"><ele>9.75</ele></trkpt>
   <trkpt lat="53.779027" lon="7.695698"><ele>9.75</ele></trkpt>
   <trkpt lat="53.778961" lon="7.695911"><ele>9.75</ele></trkpt>
   <trkpt lat="53.778801" lon="7.696273"><ele>9.75</ele></trkpt>
   <trkpt lat="53.778674" lon="7.6965"><ele>9.75</ele></trkpt>
   <trkpt lat="53.778525" lon="7.69667"><ele>9.75</ele></trkpt>
   <trkpt lat="53.778398" lon="7.696772"><ele>9.75</ele></trkpt>
   <trkpt lat="53.778157" lon="7.696996"><ele>8.5</ele></trkpt>
   <trkpt lat="53.777904" lon="7.697271"><ele>7</ele></trkpt>
   <trkpt lat="53.777119" lon="7.697976"><ele>5.5</ele></trkpt>
   <trkpt lat="53.776661" lon="7.698255"><ele>6.75</ele></trkpt>
   <trkpt lat="53.77666" lon="7.698451"><ele>6.75</ele></trkpt>
   <trkpt lat="53.776619" lon="7.699073"><ele>6.75</ele></trkpt>
   <trkpt lat="53.776601" lon="7.699232"><ele>6.75</ele></trkpt>
   <trkpt lat="53.776639" lon="7.699487"><ele>7.25</ele></trkpt>
   <trkpt lat="53.776662" lon="7.69956"><ele>7.25</ele></trkpt>
   <trkpt lat="53.776678" lon="7.699587"><ele>7.25</ele></trkpt>
   <trkpt lat="53.776723" lon="7.699592"><ele>7.25</ele></trkpt>
   <trkpt lat="53.776759" lon="7.699623"><ele>7.25</ele></trkpt>
   <trkpt lat="53.776761" lon="7.699639"><ele>7.25</ele></trkpt>
   <trkpt lat="53.776762" lon="7.699677"><ele>7.25</ele></trkpt>
   <trkpt lat="53.776748" lon="7.699729"><ele>7.25</ele></trkpt>
   <trkpt lat="53.776715" lon="7.699829"><ele>7.75</ele></trkpt>
   <trkpt lat="53.776748" lon="7.699729"><ele>7.25</ele></trkpt>
   <trkpt lat="53.776762" lon="7.699677"><ele>7.25</ele></trkpt>
   <trkpt lat="53.776761" lon="7.699639"><ele>7.25</ele></trkpt>
   <trkpt lat="53.776759" lon="7.699623"><ele>7.25</ele></trkpt>
   <trkpt lat="53.776723" lon="7.699592"><ele>7.25</ele></trkpt>
   <trkpt lat="53.776678" lon="7.699587"><ele>7.25</ele></trkpt>
   <trkpt lat="53.776662" lon="7.69956"><ele>7.25</ele></trkpt>
   <trkpt lat="53.776639" lon="7.699487"><ele>7.25</ele></trkpt>
   <trkpt lat="53.776601" lon="7.699232"><ele>6.75</ele></trkpt>
   <trkpt lat="53.776619" lon="7.699073"><ele>6.75</ele></trkpt>
   <trkpt lat="53.776472" lon="7.698952"><ele>6.25</ele></trkpt>
   <trkpt lat="53.776342" lon="7.698779"><ele>5.75</ele></trkpt>
   <trkpt lat="53.776232" lon="7.698597"><ele>5.25</ele></trkpt>
   <trkpt lat="53.776139" lon="7.69837"><ele>5</ele></trkpt>
   <trkpt lat="53.77579" lon="7.698416"><ele>3.75</ele></trkpt>
   <trkpt lat="53.775472" lon="7.697643"><ele>4.25</ele></trkpt>
   <trkpt lat="53.77541" lon="7.697446"><ele>4.25</ele></trkpt>
   <trkpt lat="53.775374" lon="7.697237"><ele>4.25</ele></trkpt>
   <trkpt lat="53.775333" lon="7.696969"><ele>4.25</ele></trkpt>
   <trkpt lat="53.775289" lon="7.696869"><ele>4.25</ele></trkpt>
   <trkpt lat="53.775242" lon="7.696783"><ele>4.25</ele></trkpt>
   <trkpt lat="53.775186" lon="7.696718"><ele>4</ele></trkpt>
   <trkpt lat="53.775119" lon="7.696658"><ele>4</ele></trkpt>
   <trkpt lat="53.774789" lon="7.696552"><ele>4.5</ele></trkpt>
   <trkpt lat="53.774623" lon="7.696451"><ele>4.75</ele></trkpt>
   <trkpt lat="53.774308" lon="7.696041"><ele>5</ele></trkpt>
   <trkpt lat="53.77401" lon="7.696003"><ele>5</ele></trkpt>
   <trkpt lat="53.773644" lon="7.695978"><ele>5</ele></trkpt>
   <trkpt lat="53.773434" lon="7.69594"><ele>5</ele></trkpt>
   <trkpt lat="53.773389" lon="7.69592"><ele>5</ele></trkpt>
   <trkpt lat="53.773348" lon="7.695865"><ele>5</ele></trkpt>
   <trkpt lat="53.773293" lon="7.69574"><ele>4.75</ele></trkpt>
   <trkpt lat="53.773205" lon="7.695469"><ele>4.25</ele></trkpt>
   <trkpt lat="53.773075" lon="7.69517"><ele>4</ele></trkpt>
   <trkpt lat="53.772993" lon="7.694921"><ele>4</ele></trkpt>
   <trkpt lat="53.772951" lon="7.694716"><ele>4</ele></trkpt>
   <trkpt lat="53.772938" lon="7.694466"><ele>4.25</ele></trkpt>
   <trkpt lat="53.772944" lon="7.694284"><ele>4.25</ele></trkpt>
   <trkpt lat="53.772931" lon="7.694081"><ele>4.25</ele></trkpt>
   <trkpt lat="53.7729" lon="7.69377"><ele>4.5</ele></trkpt>
   <trkpt lat="53.772889" lon="7.693583"><ele>4.5</ele></trkpt>
   <trkpt lat="53.772891" lon="7.693288"><ele>4.5</ele></trkpt>
   <trkpt lat="53.772883" lon="7.693183"><ele>4.5</ele></trkpt>
   <trkpt lat="53.77285" lon="7.693084"><ele>4.5</ele></trkpt>
   <trkpt lat="53.772611" lon="7.692488"><ele>4.75</ele></trkpt>
   <trkpt lat="53.772545" lon="7.692368"><ele>5</ele></trkpt>
   <trkpt lat="53.77239" lon="7.692192"><ele>5</ele></trkpt>
   <trkpt lat="53.772371" lon="7.692195"><ele>5</ele></trkpt>
   <trkpt lat="53.772352" lon="7.692199"><ele>5</ele></trkpt>
   <trkpt lat="53.772225" lon="7.692222"><ele>5</ele></trkpt>
   <trkpt lat="53.772071" lon="7.692251"><ele>5</ele></trkpt>
   <trkpt lat="53.771954" lon="7.692272"><ele>5</ele></trkpt>
   <trkpt lat="53.771798" lon="7.692301"><ele>5</ele></trkpt>
   <trkpt lat="53.771798" lon="7.692375"><ele>5</ele></trkpt>
   <trkpt lat="53.771714" lon="7.692783"><ele>4.5</ele></trkpt>
   <trkpt lat="53.771759" lon="7.693662"><ele>4.25</ele></trkpt>
   <trkpt lat="53.77173" lon="7.693662"><ele>4.25</ele></trkpt>
   <trkpt lat="53.771737" lon="7.69377"><ele>4.5</ele></trkpt>
   <trkpt lat="53.771791" lon="7.695235"><ele>5.5</ele></trkpt>
   <trkpt lat="53.771786" lon="7.695562"><ele>5.5</ele></trkpt>
   <trkpt lat="53.771692" lon="7.696202"><ele>5.75</ele></trkpt>
   <trkpt lat="53.771696" lon="7.696536"><ele>5.75</ele></trkpt>
   <trkpt lat="53.771685" lon="7.697029"><ele>5.75</ele></trkpt>
   <trkpt lat="53.771666" lon="7.697659"><ele>5.75</ele></trkpt>
   <trkpt lat="53.771657" lon="7.697918"><ele>5.25</ele></trkpt>
   <trkpt lat="53.771591" lon="7.698528"><ele>5</ele></trkpt>
   <trkpt lat="53.771583" lon="7.698968"><ele>5</ele></trkpt>
   <trkpt lat="53.771761" lon="7.699989"><ele>5.75</ele></trkpt>
   <trkpt lat="53.771796" lon="7.700243"><ele>5.5</ele></trkpt>
   <trkpt lat="53.771798" lon="7.70033"><ele>5.5</ele></trkpt>
   <trkpt lat="53.771792" lon="7.700424"><ele>5.75</ele></trkpt>
   <trkpt lat="53.771757" lon="7.700627"><ele>5.75</ele></trkpt>
   <trkpt lat="53.771718" lon="7.700734"><ele>5.75</ele></trkpt>
   <trkpt lat="53.771624" lon="7.700785"><ele>5.75</ele></trkpt>
   <trkpt lat="53.771361" lon="7.700839"><ele>5.5</ele></trkpt>
   <trkpt lat="53.771345" lon="7.700842"><ele>5</ele></trkpt>
   <trkpt lat="53.771361" lon="7.700839"><ele>5.5</ele></trkpt>
   <trkpt lat="53.77132" lon="7.700595"><ele>5.5</ele></trkpt>
   <trkpt lat="53.771306" lon="7.700519"><ele>5.5</ele></trkpt>
   <trkpt lat="53.771245" lon="7.700409"><ele>5.25</ele></trkpt>
   <trkpt lat="53.771124" lon="7.699485"><ele>5.5</ele></trkpt>
   <trkpt lat="53.771076" lon="7.699132"><ele>5.5</ele></trkpt>
   <trkpt lat="53.77107" lon="7.698574"><ele>5.5</ele></trkpt>
   <trkpt lat="53.771069" lon="7.698484"><ele>5.5</ele></trkpt>
   <trkpt lat="53.771054" lon="7.69821"><ele>5.5</ele></trkpt>
   <trkpt lat="53.771026" lon="7.697834"><ele>5.25</ele></trkpt>
   <trkpt lat="53.770952" lon="7.69726"><ele>5</ele></trkpt>
   <trkpt lat="53.770677" lon="7.696192"><ele>5.25</ele></trkpt>
   <trkpt lat="53.770543" lon="7.695122"><ele>5.75</ele></trkpt>
   <trkpt lat="53.770438" lon="7.69445"><ele>5.25</ele></trkpt>
   <trkpt lat="53.770407" lon="7.694415"><ele>5.25</ele></trkpt>
   <trkpt lat="53.770375" lon="7.694364"><ele>5</ele></trkpt>
   <trkpt lat="53.770323" lon="7.694223"><ele>5</ele></trkpt>
   <trkpt lat="53.770274" lon="7.694067"><ele>4.75</ele></trkpt>
   <trkpt lat="53.770266" lon="7.694041"><ele>4.75</ele></trkpt>
   <trkpt lat="53.770197" lon="7.693802"><ele>4.75</ele></trkpt>
   <trkpt lat="53.770177" lon="7.693727"><ele>4.75</ele></trkpt>
   <trkpt lat="53.769968" lon="7.69384"><ele>4.75</ele></trkpt>
   <trkpt lat="53.76994" lon="7.693948"><ele>4.75</ele></trkpt>
   <trkpt lat="53.769612" lon="7.693968"><ele>4.5</ele></trkpt>
   <trkpt lat="53.769172" lon="7.693964"><ele>4</ele></trkpt>
   <trkpt lat="53.769028" lon="7.693965"><ele>3.5</ele></trkpt>
   <trkpt lat="53.768569" lon="7.693942"><ele>2.75</ele></trkpt>
   <trkpt lat="53.768106" lon="7.69393"><ele>1.5</ele></trkpt>
   <trkpt lat="53.766959" lon="7.693848"><ele>0</ele></trkpt>
   <trkpt lat="53.766932" lon="7.693869"><ele>0</ele></trkpt>
   <trkpt lat="53.766875" lon="7.69392"><ele>0</ele></trkpt>
   <trkpt lat="53.766729" lon="7.694151"><ele>0</ele></trkpt>
   <trkpt lat="53.766447" lon="7.695028"><ele>1.75</ele></trkpt>
   <trkpt lat="53.766196" lon="7.695591"><ele>1.5</ele></trkpt>
   <trkpt lat="53.766114" lon="7.695683"><ele>1.25</ele></trkpt>
   <trkpt lat="53.765654" lon="7.695669"><ele>1</ele></trkpt>
   <trkpt lat="53.765319" lon="7.695658"><ele>1</ele></trkpt>
   <trkpt lat="53.765262" lon="7.695577"><ele>1</ele></trkpt>
   <trkpt lat="53.765056" lon="7.695904"><ele>0.75</ele></trkpt>
   <trkpt lat="53.764897" lon="7.6959"><ele>0.75</ele></trkpt>
  </trkseg>
 </trk>
</gpx>