<?xml version="1.0" encoding="UTF-8"?>
<gpx version="1.1"
creator="Smartprofil-Office - http://www.rother.de"
xmlns:xsi="http://www.w3.org/2001/XMLSchema-instance"
xmlns="http://www.topografix.com/GPX/1/1"
xsi:schemaLocation="http://www.topografix.com/GPX/1/1 http://www.topografix.com/GPX/1/1/gpx.xsd">
<metadata>

<bounds minlat="48.845720440149307" minlon="-3.248182190582156" maxlat="48.868499770760536" maxlon="-3.211161503568292"/>
</metadata>
<wpt lat="48.866552235558629" lon="-3.231793222948909">
<ele>16</ele>
<name>15_Castel Meur (1)</name>
<cmt></cmt>
<desc></desc>
<sym>Crossing</sym>
</wpt>

<wpt lat="48.868499770760536" lon="-3.224832303822041">
<ele>25</ele>
<name>15_Pointe du Château (2)</name>
<cmt></cmt>
<desc></desc>
<sym>Crossing</sym>
</wpt>

<wpt lat="48.848959039896727" lon="-3.211572468280792">
<ele>6</ele>
<name>15_Beg ar Vilin (3)</name>
<cmt></cmt>
<desc></desc>
<sym>Crossing</sym>
</wpt>

<wpt lat="48.847993947565556" lon="-3.239900451153517">
<ele>30</ele>
<name>15_Le Roudour (4)</name>
<cmt></cmt>
<desc></desc>
<sym>Crossing</sym>
</wpt>

<wpt lat="48.852943880483508" lon="-3.248182190582156">
<ele>8</ele>
<name>15_Porz Scaff (5)</name>
<cmt></cmt>
<desc></desc>
<sym>Crossing</sym>
</wpt>

<wpt lat="48.858490018174052" lon="-3.243284225463867">
<ele>9</ele>
<name>15_Crech Mélo (6)</name>
<cmt></cmt>
<desc></desc>
<sym>Crossing</sym>
</wpt>

<trk>
<name>BRET_15_Gouffre</name><trkseg>
<trkpt lat="48.866552235558629" lon="-3.231793222948909">
<ele>16</ele>
</trkpt>
<trkpt lat="48.86733166873455" lon="-3.231023512780666">
<ele>16</ele>
</trkpt>
<trkpt lat="48.867459576576948" lon="-3.230695780366659">
<ele>16</ele>
</trkpt>
<trkpt lat="48.867461001500487" lon="-3.230183813720942">
<ele>17</ele>
</trkpt>
<trkpt lat="48.867476927116513" lon="-3.229844095185399">
<ele>17</ele>
</trkpt>
<trkpt lat="48.867435185238719" lon="-3.229293236508966">
<ele>17</ele>
</trkpt>
<trkpt lat="48.867255728691816" lon="-3.228795938193798">
<ele>17</ele>
</trkpt>
<trkpt lat="48.867141902446747" lon="-3.228339795023203">
<ele>17</ele>
</trkpt>
<trkpt lat="48.867008797824383" lon="-3.22781341150403">
<ele>18</ele>
</trkpt>
<trkpt lat="48.867163946852088" lon="-3.227386185899377">
<ele>18</ele>
</trkpt>
<trkpt lat="48.867410374805331" lon="-3.226934652775526">
<ele>18</ele>
</trkpt>
<trkpt lat="48.86767121963203" lon="-3.22665536776185">
<ele>19</ele>
</trkpt>
<trkpt lat="48.867842378094792" lon="-3.226366527378559">
<ele>20</ele>
</trkpt>
<trkpt lat="48.867891831323504" lon="-3.225791361182928">
<ele>22</ele>
</trkpt>
<trkpt lat="48.86799082159996" lon="-3.225119132548571">
<ele>23</ele>
</trkpt>
<trkpt lat="48.868229286745191" lon="-3.224837416782975">
<ele>24</ele>
</trkpt>
<trkpt lat="48.868499770760536" lon="-3.224832303822041">
<ele>25</ele>
</trkpt>
<trkpt lat="48.868229286745191" lon="-3.224837416782975">
<ele>24</ele>
</trkpt>
<trkpt lat="48.86799082159996" lon="-3.225119132548571">
<ele>23</ele>
</trkpt>
<trkpt lat="48.8677728921175" lon="-3.224481102079153">
<ele>22</ele>
</trkpt>
<trkpt lat="48.867294117808342" lon="-3.224122356623411">
<ele>21</ele>
</trkpt>
<trkpt lat="48.866997817531228" lon="-3.223714912310243">
<ele>20</ele>
</trkpt>
<trkpt lat="48.866680478677154" lon="-3.222793154418469">
<ele>18</ele>
</trkpt>
<trkpt lat="48.866520216688514" lon="-3.22236618027091">
<ele>17</ele>
</trkpt>
<trkpt lat="48.866526251658797" lon="-3.221274269744754">
<ele>16</ele>
</trkpt>
<trkpt lat="48.866567490622401" lon="-3.220390984788537">
<ele>15</ele>
</trkpt>
<trkpt lat="48.866275968030095" lon="-3.219881616532803">
<ele>14</ele>
</trkpt>
<trkpt lat="48.866000454872847" lon="-3.21951063349843">
<ele>14</ele>
</trkpt>
<trkpt lat="48.865431826561689" lon="-3.2186643127352">
<ele>14</ele>
</trkpt>
<trkpt lat="48.864464890211821" lon="-3.218628857284784">
<ele>14</ele>
</trkpt>
<trkpt lat="48.864027187228203" lon="-3.218984920531511">
<ele>14</ele>
</trkpt>
<trkpt lat="48.863443303853273" lon="-3.218776881694794">
<ele>14</ele>
</trkpt>
<trkpt lat="48.863173825666308" lon="-3.218815941363573">
<ele>15</ele>
</trkpt>
<trkpt lat="48.863021107390523" lon="-3.218880901113153">
<ele>15</ele>
</trkpt>
<trkpt lat="48.862958243116736" lon="-3.218685938045383">
<ele>15</ele>
</trkpt>
<trkpt lat="48.862994117662311" lon="-3.218399863690138">
<ele>15</ele>
</trkpt>
<trkpt lat="48.862994117662311" lon="-3.218204816803336">
<ele>15</ele>
</trkpt>
<trkpt lat="48.86308397166431" lon="-3.218035837635398">
<ele>15</ele>
</trkpt>
<trkpt lat="48.863110961392522" lon="-3.217905834317207">
<ele>14</ele>
</trkpt>
<trkpt lat="48.862994117662311" lon="-3.217775830999017">
<ele>14</ele>
</trkpt>
<trkpt lat="48.862769566476345" lon="-3.217255733907223">
<ele>14</ele>
</trkpt>
<trkpt lat="48.86261684820056" lon="-3.21680068038404">
<ele>14</ele>
</trkpt>
<trkpt lat="48.862589942291379" lon="-3.216605633497238">
<ele>13</ele>
</trkpt>
<trkpt lat="48.862509056925774" lon="-3.216566657647491">
<ele>13</ele>
</trkpt>
<trkpt lat="48.862365307286382" lon="-3.216514606028795">
<ele>13</ele>
</trkpt>
<trkpt lat="48.862230610102415" lon="-3.216501614078879">
<ele>12</ele>
</trkpt>
<trkpt lat="48.862122818827629" lon="-3.216475630179048">
<ele>12</ele>
</trkpt>
<trkpt lat="48.861988037824631" lon="-3.216384602710605">
<ele>12</ele>
</trkpt>
<trkpt lat="48.861853256821632" lon="-3.216306651011109">
<ele>12</ele>
</trkpt>
<trkpt lat="48.861790392547846" lon="-3.216215623542666">
<ele>13</ele>
</trkpt>
<trkpt lat="48.861538851633668" lon="-3.216111604124308">
<ele>13</ele>
</trkpt>
<trkpt lat="48.861296363174915" lon="-3.216085620224476">
<ele>13</ele>
</trkpt>
<trkpt lat="48.861071728169918" lon="-3.216150579974055">
<ele>13</ele>
</trkpt>
<trkpt lat="48.860981957986951" lon="-3.216215623542666">
<ele>13</ele>
</trkpt>
<trkpt lat="48.860640563070774" lon="-3.216059552505612">
<ele>14</ele>
</trkpt>
<trkpt lat="48.860299168154597" lon="-3.215890573337674">
<ele>14</ele>
</trkpt>
<trkpt lat="48.860263293609023" lon="-3.215760570019484">
<ele>14</ele>
</trkpt>
<trkpt lat="48.860263293609023" lon="-3.215630566701293">
<ele>15</ele>
</trkpt>
<trkpt lat="48.860191376879811" lon="-3.215526547282934">
<ele>16</ele>
</trkpt>
<trkpt lat="48.860038658604026" lon="-3.215474495664239">
<ele>16</ele>
</trkpt>
<trkpt lat="48.859876971691847" lon="-3.215474495664239">
<ele>17</ele>
</trkpt>
<trkpt lat="48.859625430777669" lon="-3.215500479564071">
<ele>18</ele>
</trkpt>
<trkpt lat="48.859382942318916" lon="-3.215526547282934">
<ele>19</ele>
</trkpt>
<trkpt lat="48.859185297042131" lon="-3.21553953923285">
<ele>20</ele>
</trkpt>
<trkpt lat="48.859050516039133" lon="-3.215630566701293">
<ele>20</ele>
</trkpt>
<trkpt lat="48.858458753675222" lon="-3.215560577809811">
<ele>21</ele>
</trkpt>
<trkpt lat="48.858045609667897" lon="-3.215243155136704">
<ele>22</ele>
</trkpt>
<trkpt lat="48.857469018548727" lon="-3.214566819369793">
<ele>21</ele>
</trkpt>
<trkpt lat="48.857025029137731" lon="-3.213460994884372">
<ele>20</ele>
</trkpt>
<trkpt lat="48.856643568724394" lon="-3.212464302778244">
<ele>18</ele>
</trkpt>
<trkpt lat="48.856292953714728" lon="-3.212256012484431">
<ele>17</ele>
</trkpt>
<trkpt lat="48.856028923764825" lon="-3.212603190913796">
<ele>16</ele>
</trkpt>
<trkpt lat="48.855463815853" lon="-3.212645100429654">
<ele>15</ele>
</trkpt>
<trkpt lat="48.855104986578226" lon="-3.212128691375256">
<ele>14</ele>
</trkpt>
<trkpt lat="48.854755712673068" lon="-3.211408518254757">
<ele>12</ele>
</trkpt>
<trkpt lat="48.854361763224006" lon="-3.211161503568292">
<ele>11</ele>
</trkpt>
<trkpt lat="48.853888101875782" lon="-3.211656957864761">
<ele>10</ele>
</trkpt>
<trkpt lat="48.853010851889849" lon="-3.211631225422025">
<ele>9</ele>
</trkpt>
<trkpt lat="48.852463429793715" lon="-3.211777321994305">
<ele>9</ele>
</trkpt>
<trkpt lat="48.851896980777383" lon="-3.212331030517817">
<ele>8</ele>
</trkpt>
<trkpt lat="48.850856451317668" lon="-3.212424321100116">
<ele>8</ele>
</trkpt>
<trkpt lat="48.850334342569113" lon="-3.212027018889785">
<ele>7</ele>
</trkpt>
<trkpt lat="48.849303368479013" lon="-3.211916545405984">
<ele>7</ele>
</trkpt>
<trkpt lat="48.848959039896727" lon="-3.211572468280792">
<ele>6</ele>
</trkpt>
<trkpt lat="48.848724011331797" lon="-3.212264059111476">
<ele>11</ele>
</trkpt>
<trkpt lat="48.848203998059034" lon="-3.212788598611951">
<ele>15</ele>
</trkpt>
<trkpt lat="48.847639309242368" lon="-3.213786128908396">
<ele>20</ele>
</trkpt>
<trkpt lat="48.847553478553891" lon="-3.215142153203487">
<ele>25</ele>
</trkpt>
<trkpt lat="48.84700370952487" lon="-3.217267552390695">
<ele>30</ele>
</trkpt>
<trkpt lat="48.846374899148941" lon="-3.218189813196659">
<ele>34</ele>
</trkpt>
<trkpt lat="48.846034342423081" lon="-3.219211315736175">
<ele>39</ele>
</trkpt>
<trkpt lat="48.845972651615739" lon="-3.221013592556119">
<ele>44</ele>
</trkpt>
<trkpt lat="48.845720440149307" lon="-3.223034301772714">
<ele>48</ele>
</trkpt>
<trkpt lat="48.847070010378957" lon="-3.223076798021793">
<ele>53</ele>
</trkpt>
<trkpt lat="48.847561273723841" lon="-3.227020483464003">
<ele>52</ele>
</trkpt>
<trkpt lat="48.848404912278056" lon="-3.226803978905082">
<ele>50</ele>
</trkpt>
<trkpt lat="48.848822582513094" lon="-3.226541625335813">
<ele>49</ele>
</trkpt>
<trkpt lat="48.849349385127425" lon="-3.226837171241641">
<ele>48</ele>
</trkpt>
<trkpt lat="48.850536933168769" lon="-3.226009039208293">
<ele>46</ele>
</trkpt>
<trkpt lat="48.851737389340997" lon="-3.225387101992965">
<ele>45</ele>
</trkpt>
<trkpt lat="48.851808300241828" lon="-3.226760057732463">
<ele>44</ele>
</trkpt>
<trkpt lat="48.851736634969711" lon="-3.22781047783792">
<ele>43</ele>
</trkpt>
<trkpt lat="48.851285688579082" lon="-3.229263899847865">
<ele>41</ele>
</trkpt>
<trkpt lat="48.850887129083276" lon="-3.229596493765712">
<ele>40</ele>
</trkpt>
<trkpt lat="48.850826695561409" lon="-3.230887055397034">
<ele>40</ele>
</trkpt>
<trkpt lat="48.851246377453208" lon="-3.231546627357602">
<ele>41</ele>
</trkpt>
<trkpt lat="48.85049887932837" lon="-3.232114752754569">
<ele>41</ele>
</trkpt>
<trkpt lat="48.849695390090346" lon="-3.232437958940864">
<ele>42</ele>
</trkpt>
<trkpt lat="48.849839642643929" lon="-3.233204400166869">
<ele>42</ele>
</trkpt>
<trkpt lat="48.849777448922396" lon="-3.234050972387195">
<ele>42</ele>
</trkpt>
<trkpt lat="48.849532529711723" lon="-3.233990538865328">
<ele>43</ele>
</trkpt>
<trkpt lat="48.849590364843607" lon="-3.234679363667965">
<ele>43</ele>
</trkpt>
<trkpt lat="48.84917906485498" lon="-3.235283615067601">
<ele>44</ele>
</trkpt>
<trkpt lat="48.849145621061325" lon="-3.235996831208468">
<ele>44</ele>
</trkpt>
<trkpt lat="48.848659051582217" lon="-3.23628575541079">
<ele>42</ele>
</trkpt>
<trkpt lat="48.848768183961511" lon="-3.237321507185698">
<ele>39</ele>
</trkpt>
<trkpt lat="48.848566683009267" lon="-3.238255502656102">
<ele>37</ele>
</trkpt>
<trkpt lat="48.848488479852676" lon="-3.238963857293129">
<ele>35</ele>
</trkpt>
<trkpt lat="48.848278848454356" lon="-3.23958981782198">
<ele>32</ele>
</trkpt>
<trkpt lat="48.847993947565556" lon="-3.239900451153517">
<ele>30</ele>
</trkpt>
<trkpt lat="48.848207099363208" lon="-3.240640154108405">
<ele>28</ele>
</trkpt>
<trkpt lat="48.848543465137482" lon="-3.241632068529725">
<ele>25</ele>
</trkpt>
<trkpt lat="48.849060880020261" lon="-3.243087250739336">
<ele>23</ele>
</trkpt>
<trkpt lat="48.849371429532766" lon="-3.243189007043839">
<ele>20</ele>
</trkpt>
<trkpt lat="48.851025179028511" lon="-3.243469633162022">
<ele>18</ele>
</trkpt>
<trkpt lat="48.85147713124752" lon="-3.245839448645711">
<ele>15</ele>
</trkpt>
<trkpt lat="48.851437233388424" lon="-3.246688451617956">
<ele>13</ele>
</trkpt>
<trkpt lat="48.85205858387053" lon="-3.247847752645612">
<ele>10</ele>
</trkpt>
<trkpt lat="48.852943880483508" lon="-3.248182190582156">
<ele>8</ele>
</trkpt>
<trkpt lat="48.853398514911532" lon="-3.248094683513045">
<ele>8</ele>
</trkpt>
<trkpt lat="48.853899501264095" lon="-3.247500155121088">
<ele>8</ele>
</trkpt>
<trkpt lat="48.854496628046036" lon="-3.247257331386209">
<ele>8</ele>
</trkpt>
<trkpt lat="48.854936845600605" lon="-3.247475512325764">
<ele>8</ele>
</trkpt>
<trkpt lat="48.855221746489406" lon="-3.247164878994227">
<ele>8</ele>
</trkpt>
<trkpt lat="48.855412267148495" lon="-3.246946446597576">
<ele>8</ele>
</trkpt>
<trkpt lat="48.856323044747114" lon="-3.246259549632669">
<ele>8</ele>
</trkpt>
<trkpt lat="48.85684959590435" lon="-3.245599390938878">
<ele>9</ele>
</trkpt>
<trkpt lat="48.856982365250587" lon="-3.2451699860394">
<ele>9</ele>
</trkpt>
<trkpt lat="48.857328118756413" lon="-3.245002431795001">
<ele>9</ele>
</trkpt>
<trkpt lat="48.857494499534369" lon="-3.244337579235435">
<ele>9</ele>
</trkpt>
<trkpt lat="48.858070755377412" lon="-3.244058294221759">
<ele>9</ele>
</trkpt>
<trkpt lat="48.858394045382738" lon="-3.24388830922544">
<ele>9</ele>
</trkpt>
<trkpt lat="48.858490018174052" lon="-3.243284225463867">
<ele>9</ele>
</trkpt>
<trkpt lat="48.858848512172699" lon="-3.242844846099615">
<ele>9</ele>
</trkpt>
<trkpt lat="48.859107680618763" lon="-3.242121739313006">
<ele>9</ele>
</trkpt>
<trkpt lat="48.859184375032783" lon="-3.241447247564793">
<ele>9</ele>
</trkpt>
<trkpt lat="48.859562147408724" lon="-3.241078276187182">
<ele>9</ele>
</trkpt>
<trkpt lat="48.859984008595347" lon="-3.237846298143268">
<ele>8</ele>
</trkpt>
<trkpt lat="48.860312243923545" lon="-3.238052325323224">
<ele>8</ele>
</trkpt>
<trkpt lat="48.860880369320512" lon="-3.237464921548963">
<ele>8</ele>
</trkpt>
<trkpt lat="48.861549580469728" lon="-3.237605234608054">
<ele>8</ele>
</trkpt>
<trkpt lat="48.861314048990607" lon="-3.236862933263183">
<ele>8</ele>
</trkpt>
<trkpt lat="48.861361658200622" lon="-3.235365841537714">
<ele>8</ele>
</trkpt>
<trkpt lat="48.861702550202608" lon="-3.234822191298008">
<ele>8</ele>
</trkpt>
<trkpt lat="48.862453149631619" lon="-3.234186004847288">
<ele>9</ele>
</trkpt>
<trkpt lat="48.86293494142592" lon="-3.233998836949468">
<ele>9</ele>
</trkpt>
<trkpt lat="48.863517567515373" lon="-3.23358359746635">
<ele>10</ele>
</trkpt>
<trkpt lat="48.864116035401821" lon="-3.232828555628657">
<ele>10</ele>
</trkpt>
<trkpt lat="48.864385010674596" lon="-3.232857473194599">
<ele>10</ele>
</trkpt>
<trkpt lat="48.864825312048197" lon="-3.233075570315123">
<ele>11</ele>
</trkpt>
<trkpt lat="48.865414559841156" lon="-3.233480416238308">
<ele>11</ele>
</trkpt>
<trkpt lat="48.86570599861443" lon="-3.233989784494042">
<ele>12</ele>
</trkpt>
<trkpt lat="48.865669453516603" lon="-3.234771145507693">
<ele>12</ele>
</trkpt>
<trkpt lat="48.865948151797056" lon="-3.235552338883281">
<ele>12</ele>
</trkpt>
<trkpt lat="48.866343693807721" lon="-3.235765574499965">
<ele>13</ele>
</trkpt>
<trkpt lat="48.866656171157956" lon="-3.237267443910241">
<ele>13</ele>
</trkpt>
<trkpt lat="48.866728506982327" lon="-3.238128768280149">
<ele>13</ele>
</trkpt>
<trkpt lat="48.866656171157956" lon="-3.237267443910241">
<ele>14</ele>
</trkpt>
<trkpt lat="48.866343693807721" lon="-3.235765574499965">
<ele>14</ele>
</trkpt>
<trkpt lat="48.865948151797056" lon="-3.235552338883281">
<ele>14</ele>
</trkpt>
<trkpt lat="48.865669453516603" lon="-3.234771145507693">
<ele>14</ele>
</trkpt>
<trkpt lat="48.86570599861443" lon="-3.233989784494042">
<ele>15</ele>
</trkpt>
<trkpt lat="48.86617018841207" lon="-3.233698345720768">
<ele>15</ele>
</trkpt>
<trkpt lat="48.866366827860475" lon="-3.232865855097771">
<ele>15</ele>
</trkpt>
<trkpt lat="48.866276973858476" lon="-3.231900176033378">
<ele>16</ele>
</trkpt>
<trkpt lat="48.866552235558629" lon="-3.231793222948909">
<ele>16</ele>
</trkpt>
</trkseg>
</trk>
</gpx>
