<?xml version="1.0" encoding="UTF-8"?>
<gpx version="1.1"
creator="Smartprofil XE - http://www.rother.de"
xmlns:xsi="http://www.w3.org/2001/XMLSchema-instance"
xmlns="http://www.topografix.com/GPX/1/1"
xsi:schemaLocation="http://www.topografix.com/GPX/1/1 http://www.topografix.com/GPX/1/1/gpx.xsd">
<metadata>
<copyright author="Bergverlag Rother GmbH" />
<link href="https://www.rother.de/"><text>Bergverlag Rother</text></link>
<keywords>Rother, Bergverlag, GPS, GPX, Wandern, Wanderführer</keywords>
<bounds minlat="44.135041236877441" minlon="9.649009136483073" maxlat="44.146542549133301" maxlon="9.68431924469769"/>
</metadata>
<wpt lat="44.145676111802459" lon="9.649009136483073">
<ele>8</ele>
<name>19_Monterosso al Mare/ Stazione F.S.</name>
<cmt></cmt>
<desc></desc>
<sym>Crossing</sym>
</wpt>

<wpt lat="44.144332408905029" lon="9.669899940490723">
<ele>150</ele>
<name>19_Fosso Molinaro (2)</name>
<cmt></cmt>
<desc></desc>
<sym>Crossing</sym>
</wpt>

<wpt lat="44.1351677197963" lon="9.68431924469769">
<ele>26</ele>
<name>19_Vernazza/ Stazione F.S. (3)</name>
<cmt></cmt>
<desc></desc>
<sym>Crossing</sym>
</wpt>

<trk>
<name>CinTe_19_Monterosso-Vernazza</name><trkseg>
<trkpt lat="44.145676111802459" lon="9.649009136483073">
<ele>8</ele>
</trkpt>
<trkpt lat="44.145727157592773" lon="9.649558067321777">
<ele>8</ele>
</trkpt>
<trkpt lat="44.145770072937012" lon="9.649794101715088">
<ele>7</ele>
</trkpt>
<trkpt lat="44.145770072937012" lon="9.649858474731445">
<ele>7</ele>
</trkpt>
<trkpt lat="44.145791530609131" lon="9.650352001190186">
<ele>7</ele>
</trkpt>
<trkpt lat="44.145727157592773" lon="9.65125322341919">
<ele>6</ele>
</trkpt>
<trkpt lat="44.145705699920654" lon="9.651360511779785">
<ele>6</ele>
</trkpt>
<trkpt lat="44.145598411560059" lon="9.651768207550049">
<ele>6</ele>
</trkpt>
<trkpt lat="44.145512580871582" lon="9.652197360992432">
<ele>6</ele>
</trkpt>
<trkpt lat="44.145512580871582" lon="9.652326107025147">
<ele>5</ele>
</trkpt>
<trkpt lat="44.145469665527344" lon="9.652519226074219">
<ele>5</ele>
</trkpt>
<trkpt lat="44.145426750183105" lon="9.652690887451172">
<ele>4</ele>
</trkpt>
<trkpt lat="44.145426750183105" lon="9.653034210205078">
<ele>4</ele>
</trkpt>
<trkpt lat="44.145362377166748" lon="9.653162956237793">
<ele>3</ele>
</trkpt>
<trkpt lat="44.145276546478271" lon="9.653270244598389">
<ele>3</ele>
</trkpt>
<trkpt lat="44.145212173461914" lon="9.653313159942627">
<ele>2</ele>
</trkpt>
<trkpt lat="44.145147800445557" lon="9.653420448303223">
<ele>1</ele>
</trkpt>
<trkpt lat="44.145147800445557" lon="9.653806686401367">
<ele>1</ele>
</trkpt>
<trkpt lat="44.145169258117676" lon="9.653849601745606">
<ele>0</ele>
</trkpt>
<trkpt lat="44.145083427429199" lon="9.654171466827393">
<ele>0</ele>
</trkpt>
<trkpt lat="44.145104885101318" lon="9.654214382171631">
<ele>-1</ele>
</trkpt>
<trkpt lat="44.145104885101318" lon="9.654214382171631">
<ele>-1</ele>
</trkpt>
<trkpt lat="44.145512580871582" lon="9.654343128204346">
<ele>-1</ele>
</trkpt>
<trkpt lat="44.145576953887939" lon="9.654428958892822">
<ele>-1</ele>
</trkpt>
<trkpt lat="44.145770072937012" lon="9.654428958892822">
<ele>-1</ele>
</trkpt>
<trkpt lat="44.14581298828125" lon="9.654428958892822">
<ele>0</ele>
</trkpt>
<trkpt lat="44.145920276641846" lon="9.654579162597656">
<ele>0</ele>
</trkpt>
<trkpt lat="44.146113395690918" lon="9.654750823974609">
<ele>0</ele>
</trkpt>
<trkpt lat="44.146091938018799" lon="9.654793739318848">
<ele>0</ele>
</trkpt>
<trkpt lat="44.146156311035156" lon="9.654922485351563">
<ele>0</ele>
</trkpt>
<trkpt lat="44.146177768707275" lon="9.654965400695801">
<ele>0</ele>
</trkpt>
<trkpt lat="44.146285057067871" lon="9.65498685836792">
<ele>3</ele>
</trkpt>
<trkpt lat="44.146327972412109" lon="9.65498685836792">
<ele>6</ele>
</trkpt>
<trkpt lat="44.14630651473999" lon="9.655222892761231">
<ele>8</ele>
</trkpt>
<trkpt lat="44.146156311035156" lon="9.65623140335083">
<ele>11</ele>
</trkpt>
<trkpt lat="44.146349430084229" lon="9.656317234039307">
<ele>14</ele>
</trkpt>
<trkpt lat="44.146435260772705" lon="9.656317234039307">
<ele>17</ele>
</trkpt>
<trkpt lat="44.146499633789063" lon="9.656381607055664">
<ele>20</ele>
</trkpt>
<trkpt lat="44.146542549133301" lon="9.656531810760498">
<ele>22</ele>
</trkpt>
<trkpt lat="44.146478176116943" lon="9.656660556793213">
<ele>25</ele>
</trkpt>
<trkpt lat="44.146435260772705" lon="9.656703472137451">
<ele>28</ele>
</trkpt>
<trkpt lat="44.146285057067871" lon="9.65674638748169">
<ele>29</ele>
</trkpt>
<trkpt lat="44.146220684051514" lon="9.656832218170166">
<ele>29</ele>
</trkpt>
<trkpt lat="44.146156311035156" lon="9.657068252563477">
<ele>30</ele>
</trkpt>
<trkpt lat="44.146091938018799" lon="9.657454490661621">
<ele>30</ele>
</trkpt>
<trkpt lat="44.145992277190089" lon="9.657487599179149">
<ele>31</ele>
</trkpt>
<trkpt lat="44.145898818969727" lon="9.657518863677979">
<ele>32</ele>
</trkpt>
<trkpt lat="44.145834445953369" lon="9.657561779022217">
<ele>32</ele>
</trkpt>
<trkpt lat="44.145619869232178" lon="9.657948017120361">
<ele>33</ele>
</trkpt>
<trkpt lat="44.145233631134033" lon="9.658248424530029">
<ele>33</ele>
</trkpt>
<trkpt lat="44.144933223724365" lon="9.658677577972412">
<ele>34</ele>
</trkpt>
<trkpt lat="44.14482593536377" lon="9.658763408660889">
<ele>35</ele>
</trkpt>
<trkpt lat="44.144675731658936" lon="9.658849239349365">
<ele>36</ele>
</trkpt>
<trkpt lat="44.144632816314697" lon="9.658892154693604">
<ele>38</ele>
</trkpt>
<trkpt lat="44.144525527954102" lon="9.658999443054199">
<ele>39</ele>
</trkpt>
<trkpt lat="44.144504070281982" lon="9.659063816070557">
<ele>40</ele>
</trkpt>
<trkpt lat="44.144504070281982" lon="9.65923547744751">
<ele>41</ele>
</trkpt>
<trkpt lat="44.144654273986816" lon="9.659428596496582">
<ele>42</ele>
</trkpt>
<trkpt lat="44.144783020019531" lon="9.659664630889893">
<ele>44</ele>
</trkpt>
<trkpt lat="44.144868850708008" lon="9.659900665283203">
<ele>45</ele>
</trkpt>
<trkpt lat="44.144976139068604" lon="9.660093784332275">
<ele>46</ele>
</trkpt>
<trkpt lat="44.144997596740723" lon="9.660158157348633">
<ele>48</ele>
</trkpt>
<trkpt lat="44.144997596740723" lon="9.660415649414063">
<ele>51</ele>
</trkpt>
<trkpt lat="44.145019054412842" lon="9.660501480102539">
<ele>53</ele>
</trkpt>
<trkpt lat="44.144954681396484" lon="9.660522937774658">
<ele>56</ele>
</trkpt>
<trkpt lat="44.14506196975708" lon="9.660608768463135">
<ele>58</ele>
</trkpt>
<trkpt lat="44.145083427429199" lon="9.660651683807373">
<ele>60</ele>
</trkpt>
<trkpt lat="44.144954681396484" lon="9.660780429840088">
<ele>63</ele>
</trkpt>
<trkpt lat="44.144933223724365" lon="9.660823345184326">
<ele>65</ele>
</trkpt>
<trkpt lat="44.145019054412842" lon="9.660952091217041">
<ele>68</ele>
</trkpt>
<trkpt lat="44.14506196975708" lon="9.661016464233398">
<ele>70</ele>
</trkpt>
<trkpt lat="44.145190715789795" lon="9.661166667938232">
<ele>72</ele>
</trkpt>
<trkpt lat="44.145255088806152" lon="9.66123104095459">
<ele>74</ele>
</trkpt>
<trkpt lat="44.145405292510986" lon="9.6614670753479">
<ele>76</ele>
</trkpt>
<trkpt lat="44.145576953887939" lon="9.661638736724854">
<ele>78</ele>
</trkpt>
<trkpt lat="44.145619869232178" lon="9.661660194396973">
<ele>80</ele>
</trkpt>
<trkpt lat="44.145512580871582" lon="9.661810398101807">
<ele>83</ele>
</trkpt>
<trkpt lat="44.145469665527344" lon="9.661831855773926">
<ele>85</ele>
</trkpt>
<trkpt lat="44.14531946182251" lon="9.662046432495117">
<ele>87</ele>
</trkpt>
<trkpt lat="44.145276546478271" lon="9.662067890167236">
<ele>89</ele>
</trkpt>
<trkpt lat="44.145190715789795" lon="9.661917686462402">
<ele>91</ele>
</trkpt>
<trkpt lat="44.145147800445557" lon="9.661896228790283">
<ele>93</ele>
</trkpt>
<trkpt lat="44.144997596740723" lon="9.662046432495117">
<ele>94</ele>
</trkpt>
<trkpt lat="44.144952250644565" lon="9.662148356437683">
<ele>96</ele>
</trkpt>
<trkpt lat="44.14482593536377" lon="9.662432670593262">
<ele>98</ele>
</trkpt>
<trkpt lat="44.144761562347412" lon="9.662647247314453">
<ele>100</ele>
</trkpt>
<trkpt lat="44.144718647003174" lon="9.662754535675049">
<ele>101</ele>
</trkpt>
<trkpt lat="44.144697189331055" lon="9.662840366363525">
<ele>103</ele>
</trkpt>
<trkpt lat="44.144632816314697" lon="9.663205146789551">
<ele>105</ele>
</trkpt>
<trkpt lat="44.144546985626221" lon="9.663248062133789">
<ele>106</ele>
</trkpt>
<trkpt lat="44.144396781921387" lon="9.663205146789551">
<ele>108</ele>
</trkpt>
<trkpt lat="44.144353866577148" lon="9.66322660446167">
<ele>106</ele>
</trkpt>
<trkpt lat="44.144246578216553" lon="9.66322660446167">
<ele>104</ele>
</trkpt>
<trkpt lat="44.144225120544434" lon="9.663333892822266">
<ele>102</ele>
</trkpt>
<trkpt lat="44.144203662872314" lon="9.663548469543457">
<ele>100</ele>
</trkpt>
<trkpt lat="44.144160747528076" lon="9.663634300231934">
<ele>98</ele>
</trkpt>
<trkpt lat="44.144117832183838" lon="9.663698673248291">
<ele>95</ele>
</trkpt>
<trkpt lat="44.144246578216553" lon="9.663827419281006">
<ele>93</ele>
</trkpt>
<trkpt lat="44.14431095123291" lon="9.663913249969482">
<ele>91</ele>
</trkpt>
<trkpt lat="44.144332408905029" lon="9.663999080657959">
<ele>89</ele>
</trkpt>
<trkpt lat="44.144439697265625" lon="9.664320945739746">
<ele>87</ele>
</trkpt>
<trkpt lat="44.144504070281982" lon="9.664428234100342">
<ele>90</ele>
</trkpt>
<trkpt lat="44.144718647003174" lon="9.665029048919678">
<ele>93</ele>
</trkpt>
<trkpt lat="44.144783020019531" lon="9.665157794952393">
<ele>95</ele>
</trkpt>
<trkpt lat="44.144933223724365" lon="9.665565490722656">
<ele>98</ele>
</trkpt>
<trkpt lat="44.144997596740723" lon="9.665780067443848">
<ele>101</ele>
</trkpt>
<trkpt lat="44.145019054412842" lon="9.665951728820801">
<ele>104</ele>
</trkpt>
<trkpt lat="44.145212173461914" lon="9.66623067855835">
<ele>107</ele>
</trkpt>
<trkpt lat="44.145405292510986" lon="9.666337966918945">
<ele>109</ele>
</trkpt>
<trkpt lat="44.145426750183105" lon="9.666380882263184">
<ele>112</ele>
</trkpt>
<trkpt lat="44.145405292510986" lon="9.666895866394043">
<ele>115</ele>
</trkpt>
<trkpt lat="44.145469665527344" lon="9.667067527770996">
<ele>116</ele>
</trkpt>
<trkpt lat="44.145512580871582" lon="9.667131900787354">
<ele>117</ele>
</trkpt>
<trkpt lat="44.145684242248535" lon="9.667367935180664">
<ele>118</ele>
</trkpt>
<trkpt lat="44.145748615264893" lon="9.667389392852783">
<ele>119</ele>
</trkpt>
<trkpt lat="44.145834445953369" lon="9.667625427246094">
<ele>120</ele>
</trkpt>
<trkpt lat="44.145834445953369" lon="9.667882919311523">
<ele>121</ele>
</trkpt>
<trkpt lat="44.145791530609131" lon="9.667925834655762">
<ele>122</ele>
</trkpt>
<trkpt lat="44.145684242248535" lon="9.66796875">
<ele>123</ele>
</trkpt>
<trkpt lat="44.145512580871582" lon="9.667882919311523">
<ele>124</ele>
</trkpt>
<trkpt lat="44.145298004150391" lon="9.667840003967285">
<ele>125</ele>
</trkpt>
<trkpt lat="44.145190715789795" lon="9.667882919311523">
<ele>126</ele>
</trkpt>
<trkpt lat="44.144632816314697" lon="9.667689800262451">
<ele>127</ele>
</trkpt>
<trkpt lat="44.14456844329834" lon="9.667689800262451">
<ele>128</ele>
</trkpt>
<trkpt lat="44.144546985626221" lon="9.667882919311523">
<ele>129</ele>
</trkpt>
<trkpt lat="44.144525527954102" lon="9.66796875">
<ele>130</ele>
</trkpt>
<trkpt lat="44.144504070281982" lon="9.668140411376953">
<ele>132</ele>
</trkpt>
<trkpt lat="44.144461154937744" lon="9.668247699737549">
<ele>133</ele>
</trkpt>
<trkpt lat="44.144461154937744" lon="9.668397903442383">
<ele>134</ele>
</trkpt>
<trkpt lat="44.144418239593506" lon="9.668612480163574">
<ele>135</ele>
</trkpt>
<trkpt lat="44.144439697265625" lon="9.669106006622315">
<ele>136</ele>
</trkpt>
<trkpt lat="44.144418239593506" lon="9.669256210327148">
<ele>139</ele>
</trkpt>
<trkpt lat="44.144418239593506" lon="9.669384956359863">
<ele>142</ele>
</trkpt>
<trkpt lat="44.144375324249268" lon="9.669535160064697">
<ele>144</ele>
</trkpt>
<trkpt lat="44.144353866577148" lon="9.669578075408936">
<ele>147</ele>
</trkpt>
<trkpt lat="44.144332408905029" lon="9.669899940490723">
<ele>150</ele>
</trkpt>
<trkpt lat="44.144268035888672" lon="9.669921398162842">
<ele>150</ele>
</trkpt>
<trkpt lat="44.144160747528076" lon="9.669878482818604">
<ele>150</ele>
</trkpt>
<trkpt lat="44.144010543823242" lon="9.66972827911377">
<ele>150</ele>
</trkpt>
<trkpt lat="44.143838882446289" lon="9.669599533081055">
<ele>150</ele>
</trkpt>
<trkpt lat="44.143495559692383" lon="9.669170379638672">
<ele>150</ele>
</trkpt>
<trkpt lat="44.143366813659668" lon="9.669084548950195">
<ele>150</ele>
</trkpt>
<trkpt lat="44.143259525299072" lon="9.669084548950195">
<ele>150</ele>
</trkpt>
<trkpt lat="44.142980575561523" lon="9.669277667999268">
<ele>150</ele>
</trkpt>
<trkpt lat="44.142680168151855" lon="9.669792652130127">
<ele>150</ele>
</trkpt>
<trkpt lat="44.142529964447021" lon="9.669899940490723">
<ele>150</ele>
</trkpt>
<trkpt lat="44.142293930053711" lon="9.670135974884033">
<ele>148</ele>
</trkpt>
<trkpt lat="44.14207935333252" lon="9.670329093933106">
<ele>146</ele>
</trkpt>
<trkpt lat="44.141714572906494" lon="9.670565128326416">
<ele>144</ele>
</trkpt>
<trkpt lat="44.141628742218018" lon="9.670650959014893">
<ele>142</ele>
</trkpt>
<trkpt lat="44.141542911529541" lon="9.670822620391846">
<ele>140</ele>
</trkpt>
<trkpt lat="44.141478538513184" lon="9.67097282409668">
<ele>139</ele>
</trkpt>
<trkpt lat="44.141478538513184" lon="9.671230316162109">
<ele>137</ele>
</trkpt>
<trkpt lat="44.141135215759277" lon="9.671831130981445">
<ele>135</ele>
</trkpt>
<trkpt lat="44.140963554382324" lon="9.672024250030518">
<ele>133</ele>
</trkpt>
<trkpt lat="44.140856266021729" lon="9.672045707702637">
<ele>131</ele>
</trkpt>
<trkpt lat="44.140727519989014" lon="9.672195911407471">
<ele>132</ele>
</trkpt>
<trkpt lat="44.14057731628418" lon="9.672389030456543">
<ele>132</ele>
</trkpt>
<trkpt lat="44.140448570251465" lon="9.672517776489258">
<ele>133</ele>
</trkpt>
<trkpt lat="44.140362739562988" lon="9.673247337341309">
<ele>134</ele>
</trkpt>
<trkpt lat="44.140384197235107" lon="9.673397541046143">
<ele>134</ele>
</trkpt>
<trkpt lat="44.140384197235107" lon="9.673633575439453">
<ele>135</ele>
</trkpt>
<trkpt lat="44.140427112579346" lon="9.673805236816406">
<ele>136</ele>
</trkpt>
<trkpt lat="44.140384197235107" lon="9.674255847930908">
<ele>137</ele>
</trkpt>
<trkpt lat="44.140362739562988" lon="9.674298763275147">
<ele>137</ele>
</trkpt>
<trkpt lat="44.140362739562988" lon="9.674770832061768">
<ele>138</ele>
</trkpt>
<trkpt lat="44.140427112579346" lon="9.675157070159912">
<ele>137</ele>
</trkpt>
<trkpt lat="44.140427112579346" lon="9.675350189208984">
<ele>136</ele>
</trkpt>
<trkpt lat="44.140448570251465" lon="9.675436019897461">
<ele>135</ele>
</trkpt>
<trkpt lat="44.140512943267822" lon="9.67571496963501">
<ele>134</ele>
</trkpt>
<trkpt lat="44.140620231628418" lon="9.67597246170044">
<ele>132</ele>
</trkpt>
<trkpt lat="44.140684604644775" lon="9.676079750061035">
<ele>131</ele>
</trkpt>
<trkpt lat="44.140641689300537" lon="9.676229953765869">
<ele>130</ele>
</trkpt>
<trkpt lat="44.140598773956299" lon="9.676251411437988">
<ele>129</ele>
</trkpt>
<trkpt lat="44.140470027923584" lon="9.676337242126465">
<ele>128</ele>
</trkpt>
<trkpt lat="44.140233993530273" lon="9.676616191864014">
<ele>127</ele>
</trkpt>
<trkpt lat="44.140105247497559" lon="9.676809310913086">
<ele>126</ele>
</trkpt>
<trkpt lat="44.140019416809082" lon="9.677109718322754">
<ele>124</ele>
</trkpt>
<trkpt lat="44.139890670776367" lon="9.677259922027588">
<ele>123</ele>
</trkpt>
<trkpt lat="44.139461517333984" lon="9.67771053314209">
<ele>122</ele>
</trkpt>
<trkpt lat="44.139225482940674" lon="9.677753448486328">
<ele>120</ele>
</trkpt>
<trkpt lat="44.13856029510498" lon="9.678032398223877">
<ele>119</ele>
</trkpt>
<trkpt lat="44.138367176055908" lon="9.678075313568115">
<ele>118</ele>
</trkpt>
<trkpt lat="44.138259887695313" lon="9.67820405960083">
<ele>117</ele>
</trkpt>
<trkpt lat="44.138174057006836" lon="9.678246974945068">
<ele>115</ele>
</trkpt>
<trkpt lat="44.138174057006836" lon="9.678676128387451">
<ele>114</ele>
</trkpt>
<trkpt lat="44.138088226318359" lon="9.678804874420166">
<ele>113</ele>
</trkpt>
<trkpt lat="44.138152599334717" lon="9.678955078125">
<ele>111</ele>
</trkpt>
<trkpt lat="44.138259887695313" lon="9.679126739501953">
<ele>110</ele>
</trkpt>
<trkpt lat="44.138345718383789" lon="9.679384231567383">
<ele>108</ele>
</trkpt>
<trkpt lat="44.13832426071167" lon="9.679491519927979">
<ele>107</ele>
</trkpt>
<trkpt lat="44.138238430023193" lon="9.679577350616455">
<ele>106</ele>
</trkpt>
<trkpt lat="44.138152599334717" lon="9.679727554321289">
<ele>104</ele>
</trkpt>
<trkpt lat="44.138023853302002" lon="9.679856300354004">
<ele>103</ele>
</trkpt>
<trkpt lat="44.137959480285645" lon="9.679985046386719">
<ele>101</ele>
</trkpt>
<trkpt lat="44.13783073425293" lon="9.680113792419434">
<ele>100</ele>
</trkpt>
<trkpt lat="44.137723445892334" lon="9.680263996124268">
<ele>95</ele>
</trkpt>
<trkpt lat="44.137530326843262" lon="9.680542945861816">
<ele>90</ele>
</trkpt>
<trkpt lat="44.137423038482666" lon="9.680500030517578">
<ele>85</ele>
</trkpt>
<trkpt lat="44.137401580810547" lon="9.680542945861816">
<ele>80</ele>
</trkpt>
<trkpt lat="44.13731575012207" lon="9.680500030517578">
<ele>74</ele>
</trkpt>
<trkpt lat="44.137251377105713" lon="9.680564403533936">
<ele>69</ele>
</trkpt>
<trkpt lat="44.137122631072998" lon="9.680650234222412">
<ele>64</ele>
</trkpt>
<trkpt lat="44.136972427368164" lon="9.680757522583008">
<ele>59</ele>
</trkpt>
<trkpt lat="44.136865139007568" lon="9.680821895599365">
<ele>54</ele>
</trkpt>
<trkpt lat="44.13682222366333" lon="9.680907726287842">
<ele>49</ele>
</trkpt>
<trkpt lat="44.136714935302734" lon="9.68120813369751">
<ele>47</ele>
</trkpt>
<trkpt lat="44.136629104614258" lon="9.681251049041748">
<ele>45</ele>
</trkpt>
<trkpt lat="44.136543273925781" lon="9.68144416809082">
<ele>43</ele>
</trkpt>
<trkpt lat="44.136543273925781" lon="9.681572914123535">
<ele>41</ele>
</trkpt>
<trkpt lat="44.13658618927002" lon="9.68170166015625">
<ele>38</ele>
</trkpt>
<trkpt lat="44.136757850646973" lon="9.682173728942871">
<ele>36</ele>
</trkpt>
<trkpt lat="44.136779308319092" lon="9.682238101959229">
<ele>34</ele>
</trkpt>
<trkpt lat="44.136736392974854" lon="9.682345390319824">
<ele>32</ele>
</trkpt>
<trkpt lat="44.136629104614258" lon="9.682366847991943">
<ele>30</ele>
</trkpt>
<trkpt lat="44.136500358581543" lon="9.682302474975586">
<ele>28</ele>
</trkpt>
<trkpt lat="44.136457443237305" lon="9.682302474975586">
<ele>26</ele>
</trkpt>
<trkpt lat="44.136371612548828" lon="9.682559967041016">
<ele>25</ele>
</trkpt>
<trkpt lat="44.136092662811279" lon="9.682753086090088">
<ele>24</ele>
</trkpt>
<trkpt lat="44.135985374450684" lon="9.682817459106445">
<ele>22</ele>
</trkpt>
<trkpt lat="44.135856628417969" lon="9.682796001434326">
<ele>20</ele>
</trkpt>
<trkpt lat="44.135663509368896" lon="9.682838916778565">
<ele>19</ele>
</trkpt>
<trkpt lat="44.135599136352539" lon="9.682881832122803">
<ele>18</ele>
</trkpt>
<trkpt lat="44.135427474975586" lon="9.682881832122803">
<ele>16</ele>
</trkpt>
<trkpt lat="44.135341644287109" lon="9.68294620513916">
<ele>14</ele>
</trkpt>
<trkpt lat="44.135255813598633" lon="9.682989120483398">
<ele>13</ele>
</trkpt>
<trkpt lat="44.135191440582275" lon="9.683139324188232">
<ele>14</ele>
</trkpt>
<trkpt lat="44.135062694549561" lon="9.683353900909424">
<ele>16</ele>
</trkpt>
<trkpt lat="44.13508415222168" lon="9.683396816253662">
<ele>17</ele>
</trkpt>
<trkpt lat="44.135062694549561" lon="9.683482646942139">
<ele>19</ele>
</trkpt>
<trkpt lat="44.135041236877441" lon="9.683547019958496">
<ele>20</ele>
</trkpt>
<trkpt lat="44.135127067565918" lon="9.683718681335449">
<ele>22</ele>
</trkpt>
<trkpt lat="44.135105609893799" lon="9.683976173400879">
<ele>23</ele>
</trkpt>
<trkpt lat="44.135148525238037" lon="9.684040546417236">
<ele>25</ele>
</trkpt>
<trkpt lat="44.1351677197963" lon="9.68431924469769">
<ele>26</ele>
</trkpt>
</trkseg>
</trk>
</gpx>
