<?xml version="1.0" encoding="UTF-8"?>
<gpx version="1.1"
creator="Smartprofil XE - http://www.rother.de"
xmlns:xsi="http://www.w3.org/2001/XMLSchema-instance"
xmlns="http://www.topografix.com/GPX/1/1"
xsi:schemaLocation="http://www.topografix.com/GPX/1/1 http://www.topografix.com/GPX/1/1/gpx.xsd">
<metadata>
<copyright author="Bergverlag Rother GmbH" />
<link href="https://www.rother.de/"><text>Bergverlag Rother</text></link>
<keywords>Rother, Bergverlag, GPS, GPX, Wandern, Wanderführer</keywords>
<bounds minlat="44.100043773651123" minlon="9.736381759867072" maxlat="44.125020503997803" maxlon="9.787745475769043"/>
</metadata>
<wpt lat="44.125020503997803" lon="9.787745475769043">
<ele>234</ele>
<name>24_La Foce (1)</name>
<cmt></cmt>
<desc></desc>
<sym>Crossing</sym>
</wpt>

<wpt lat="44.11997920833528" lon="9.772921409457922">
<ele>358</ele>
<name>24_Castè (2)</name>
<cmt></cmt>
<desc></desc>
<sym>Crossing</sym>
</wpt>

<wpt lat="44.11710262298584" lon="9.766845703125">
<ele>495</ele>
<name>24_Carpena (3)</name>
<cmt></cmt>
<desc></desc>
<sym>Crossing</sym>
</wpt>

<wpt lat="44.11409854888916" lon="9.753906726837158">
<ele>637</ele>
<name>24_Sella La Croce (4)</name>
<cmt></cmt>
<desc></desc>
<sym>Crossing</sym>
</wpt>

<wpt lat="44.100765706971288" lon="9.736381759867072">
<ele>50</ele>
<name>24_Riomaggiore/ Stazione F.S. (5)</name>
<cmt></cmt>
<desc></desc>
<sym>Crossing</sym>
</wpt>

<trk>
<name>CinTe_24_La Foce-Riomaggiore</name><trkseg>
<trkpt lat="44.125020503997803" lon="9.787745475769043">
<ele>234</ele>
</trkpt>
<trkpt lat="44.125020503997803" lon="9.787745475769043">
<ele>234</ele>
</trkpt>
<trkpt lat="44.12482738494873" lon="9.787423610687256">
<ele>233</ele>
</trkpt>
<trkpt lat="44.124763011932373" lon="9.787251949310303">
<ele>233</ele>
</trkpt>
<trkpt lat="44.124720096588135" lon="9.787123203277588">
<ele>232</ele>
</trkpt>
<trkpt lat="44.124698638916016" lon="9.786930084228516">
<ele>232</ele>
</trkpt>
<trkpt lat="44.124677181243896" lon="9.786865711212158">
<ele>232</ele>
</trkpt>
<trkpt lat="44.124526977539063" lon="9.786694049835205">
<ele>231</ele>
</trkpt>
<trkpt lat="44.124441146850586" lon="9.786629676818848">
<ele>231</ele>
</trkpt>
<trkpt lat="44.124312400817871" lon="9.786543846130371">
<ele>230</ele>
</trkpt>
<trkpt lat="44.123797416687012" lon="9.786543846130371">
<ele>230</ele>
</trkpt>
<trkpt lat="44.123690128326416" lon="9.786543846130371">
<ele>230</ele>
</trkpt>
<trkpt lat="44.123647212982178" lon="9.786393642425537">
<ele>230</ele>
</trkpt>
<trkpt lat="44.123647212982178" lon="9.786307811737061">
<ele>230</ele>
</trkpt>
<trkpt lat="44.123561382293701" lon="9.786179065704346">
<ele>230</ele>
</trkpt>
<trkpt lat="44.123497009277344" lon="9.786136150360107">
<ele>230</ele>
</trkpt>
<trkpt lat="44.123475551605225" lon="9.786028861999512">
<ele>231</ele>
</trkpt>
<trkpt lat="44.123497009277344" lon="9.785556793212891">
<ele>231</ele>
</trkpt>
<trkpt lat="44.123389720916748" lon="9.785256385803223">
<ele>231</ele>
</trkpt>
<trkpt lat="44.123282432556152" lon="9.784591197967529">
<ele>231</ele>
</trkpt>
<trkpt lat="44.123239517211914" lon="9.784204959869385">
<ele>231</ele>
</trkpt>
<trkpt lat="44.123218059539795" lon="9.783797264099121">
<ele>231</ele>
</trkpt>
<trkpt lat="44.123218059539795" lon="9.782896041870117">
<ele>232</ele>
</trkpt>
<trkpt lat="44.123196601867676" lon="9.782638549804688">
<ele>232</ele>
</trkpt>
<trkpt lat="44.123196601867676" lon="9.782445430755615">
<ele>232</ele>
</trkpt>
<trkpt lat="44.123175144195557" lon="9.78233814239502">
<ele>232</ele>
</trkpt>
<trkpt lat="44.122939109802246" lon="9.781930446624756">
<ele>233</ele>
</trkpt>
<trkpt lat="44.122896194458008" lon="9.781758785247803">
<ele>233</ele>
</trkpt>
<trkpt lat="44.122574329376221" lon="9.780964851379395">
<ele>233</ele>
</trkpt>
<trkpt lat="44.122424125671387" lon="9.780406951904297">
<ele>234</ele>
</trkpt>
<trkpt lat="44.12233829498291" lon="9.780170917510986">
<ele>234</ele>
</trkpt>
<trkpt lat="44.12233829498291" lon="9.780106544494629">
<ele>235</ele>
</trkpt>
<trkpt lat="44.122381210327148" lon="9.779934883117676">
<ele>236</ele>
</trkpt>
<trkpt lat="44.122638702392578" lon="9.77959156036377">
<ele>237</ele>
</trkpt>
<trkpt lat="44.122745990753174" lon="9.779441356658936">
<ele>238</ele>
</trkpt>
<trkpt lat="44.122745990753174" lon="9.779376983642578">
<ele>240</ele>
</trkpt>
<trkpt lat="44.12283182144165" lon="9.779291152954102">
<ele>241</ele>
</trkpt>
<trkpt lat="44.122896194458008" lon="9.779248237609863">
<ele>242</ele>
</trkpt>
<trkpt lat="44.123046398162842" lon="9.778990745544434">
<ele>243</ele>
</trkpt>
<trkpt lat="44.123067855834961" lon="9.778926372528076">
<ele>244</ele>
</trkpt>
<trkpt lat="44.123067855834961" lon="9.778668880462647">
<ele>245</ele>
</trkpt>
<trkpt lat="44.123024940490723" lon="9.778347015380859">
<ele>245</ele>
</trkpt>
<trkpt lat="44.122982025146484" lon="9.778218269348145">
<ele>246</ele>
</trkpt>
<trkpt lat="44.122939109802246" lon="9.778110980987549">
<ele>246</ele>
</trkpt>
<trkpt lat="44.12285327911377" lon="9.778003692626953">
<ele>247</ele>
</trkpt>
<trkpt lat="44.121973514556885" lon="9.777274131774902">
<ele>247</ele>
</trkpt>
<trkpt lat="44.121973514556885" lon="9.777209758758545">
<ele>247</ele>
</trkpt>
<trkpt lat="44.122016429901123" lon="9.777059555053711">
<ele>248</ele>
</trkpt>
<trkpt lat="44.121930599212646" lon="9.776973724365234">
<ele>248</ele>
</trkpt>
<trkpt lat="44.121866226196289" lon="9.776866436004639">
<ele>249</ele>
</trkpt>
<trkpt lat="44.121737480163574" lon="9.776759147644043">
<ele>249</ele>
</trkpt>
<trkpt lat="44.121479988098145" lon="9.776480197906494">
<ele>251</ele>
</trkpt>
<trkpt lat="44.121458530426025" lon="9.776437282562256">
<ele>252</ele>
</trkpt>
<trkpt lat="44.121501445770264" lon="9.776287078857422">
<ele>254</ele>
</trkpt>
<trkpt lat="44.121522903442383" lon="9.776222705841065">
<ele>255</ele>
</trkpt>
<trkpt lat="44.121479988098145" lon="9.77609395980835">
<ele>257</ele>
</trkpt>
<trkpt lat="44.121694564819336" lon="9.776115417480469">
<ele>259</ele>
</trkpt>
<trkpt lat="44.12184476852417" lon="9.776072502136231">
<ele>260</ele>
</trkpt>
<trkpt lat="44.121909141540527" lon="9.776051044464111">
<ele>262</ele>
</trkpt>
<trkpt lat="44.122059345245361" lon="9.775900840759277">
<ele>263</ele>
</trkpt>
<trkpt lat="44.1221022605896" lon="9.775772094726563">
<ele>265</ele>
</trkpt>
<trkpt lat="44.122059345245361" lon="9.775772094726563">
<ele>267</ele>
</trkpt>
<trkpt lat="44.121930599212646" lon="9.775922298431397">
<ele>268</ele>
</trkpt>
<trkpt lat="44.121887683868408" lon="9.775943756103516">
<ele>270</ele>
</trkpt>
<trkpt lat="44.121716022491455" lon="9.775621891021729">
<ele>272</ele>
</trkpt>
<trkpt lat="44.121716022491455" lon="9.775471687316895">
<ele>274</ele>
</trkpt>
<trkpt lat="44.121737480163574" lon="9.775407314300537">
<ele>275</ele>
</trkpt>
<trkpt lat="44.121887683868408" lon="9.775128364562988">
<ele>277</ele>
</trkpt>
<trkpt lat="44.121909141540527" lon="9.775063991546631">
<ele>279</ele>
</trkpt>
<trkpt lat="44.12184476852417" lon="9.775063991546631">
<ele>280</ele>
</trkpt>
<trkpt lat="44.121823310852051" lon="9.774956703186035">
<ele>282</ele>
</trkpt>
<trkpt lat="44.121630191802979" lon="9.774978160858154">
<ele>286</ele>
</trkpt>
<trkpt lat="44.121394157409668" lon="9.774956703186035">
<ele>290</ele>
</trkpt>
<trkpt lat="44.121329784393311" lon="9.774956703186035">
<ele>294</ele>
</trkpt>
<trkpt lat="44.121243953704834" lon="9.774806499481201">
<ele>298</ele>
</trkpt>
<trkpt lat="44.121158123016357" lon="9.774763584136963">
<ele>302</ele>
</trkpt>
<trkpt lat="44.121072292327881" lon="9.774720668792725">
<ele>305</ele>
</trkpt>
<trkpt lat="44.121007919311523" lon="9.774699211120606">
<ele>309</ele>
</trkpt>
<trkpt lat="44.120771884918213" lon="9.774634838104248">
<ele>313</ele>
</trkpt>
<trkpt lat="44.120728969573975" lon="9.77459192276001">
<ele>317</ele>
</trkpt>
<trkpt lat="44.120707511901855" lon="9.774527549743652">
<ele>321</ele>
</trkpt>
<trkpt lat="44.120686054229736" lon="9.774441719055176">
<ele>322</ele>
</trkpt>
<trkpt lat="44.120771884918213" lon="9.774377346038818">
<ele>322</ele>
</trkpt>
<trkpt lat="44.120750427246094" lon="9.774312973022461">
<ele>323</ele>
</trkpt>
<trkpt lat="44.120879173278809" lon="9.774270057678223">
<ele>324</ele>
</trkpt>
<trkpt lat="44.120922088623047" lon="9.774205684661865">
<ele>324</ele>
</trkpt>
<trkpt lat="44.120943546295166" lon="9.774119853973389">
<ele>325</ele>
</trkpt>
<trkpt lat="44.120965003967285" lon="9.773991107940674">
<ele>326</ele>
</trkpt>
<trkpt lat="44.120922088623047" lon="9.773883819580078">
<ele>327</ele>
</trkpt>
<trkpt lat="44.120879173278809" lon="9.77384090423584">
<ele>327</ele>
</trkpt>
<trkpt lat="44.120707511901855" lon="9.773604869842529">
<ele>328</ele>
</trkpt>
<trkpt lat="44.120750427246094" lon="9.773519039154053">
<ele>332</ele>
</trkpt>
<trkpt lat="44.120750427246094" lon="9.773454666137695">
<ele>337</ele>
</trkpt>
<trkpt lat="44.120621681213379" lon="9.773261547088623">
<ele>341</ele>
</trkpt>
<trkpt lat="44.120557308197021" lon="9.773197174072266">
<ele>345</ele>
</trkpt>
<trkpt lat="44.120385646820068" lon="9.773132801055908">
<ele>349</ele>
</trkpt>
<trkpt lat="44.120042324066162" lon="9.772961139678955">
<ele>354</ele>
</trkpt>
<trkpt lat="44.11997920833528" lon="9.772921409457922">
<ele>358</ele>
</trkpt>
<trkpt lat="44.119935035705566" lon="9.772810935974121">
<ele>360</ele>
</trkpt>
<trkpt lat="44.119870662689209" lon="9.772617816925049">
<ele>362</ele>
</trkpt>
<trkpt lat="44.119870662689209" lon="9.772360324859619">
<ele>365</ele>
</trkpt>
<trkpt lat="44.119913578033447" lon="9.771974086761475">
<ele>367</ele>
</trkpt>
<trkpt lat="44.119913578033447" lon="9.771866798400879">
<ele>369</ele>
</trkpt>
<trkpt lat="44.119892120361328" lon="9.771823883056641">
<ele>371</ele>
</trkpt>
<trkpt lat="44.119806289672852" lon="9.771974086761475">
<ele>373</ele>
</trkpt>
<trkpt lat="44.119763374328613" lon="9.771780967712402">
<ele>376</ele>
</trkpt>
<trkpt lat="44.119763374328613" lon="9.77158784866333">
<ele>378</ele>
</trkpt>
<trkpt lat="44.119720458984375" lon="9.771437644958496">
<ele>380</ele>
</trkpt>
<trkpt lat="44.119634628295898" lon="9.7713303565979">
<ele>384</ele>
</trkpt>
<trkpt lat="44.119548797607422" lon="9.771265983581543">
<ele>389</ele>
</trkpt>
<trkpt lat="44.119462966918945" lon="9.771223068237305">
<ele>393</ele>
</trkpt>
<trkpt lat="44.119312763214111" lon="9.771029949188232">
<ele>398</ele>
</trkpt>
<trkpt lat="44.119269847869873" lon="9.770815372467041">
<ele>402</ele>
</trkpt>
<trkpt lat="44.119184017181396" lon="9.77060079574585">
<ele>406</ele>
</trkpt>
<trkpt lat="44.119141101837158" lon="9.770557880401611">
<ele>411</ele>
</trkpt>
<trkpt lat="44.11909818649292" lon="9.770622253417969">
<ele>415</ele>
</trkpt>
<trkpt lat="44.119055271148682" lon="9.770729541778565">
<ele>420</ele>
</trkpt>
<trkpt lat="44.118926525115967" lon="9.770557880401611">
<ele>424</ele>
</trkpt>
<trkpt lat="44.118883609771729" lon="9.770429134368897">
<ele>428</ele>
</trkpt>
<trkpt lat="44.11884069442749" lon="9.770429134368897">
<ele>433</ele>
</trkpt>
<trkpt lat="44.118711948394775" lon="9.770450592041016">
<ele>437</ele>
</trkpt>
<trkpt lat="44.118583202362061" lon="9.770429134368897">
<ele>441</ele>
</trkpt>
<trkpt lat="44.118518829345703" lon="9.77034330368042">
<ele>446</ele>
</trkpt>
<trkpt lat="44.118385389447212" lon="9.770244397222996">
<ele>450</ele>
</trkpt>
<trkpt lat="44.117939472198486" lon="9.769914150238037">
<ele>454</ele>
</trkpt>
<trkpt lat="44.117746353149414" lon="9.769699573516846">
<ele>458</ele>
</trkpt>
<trkpt lat="44.117445945739746" lon="9.769270420074463">
<ele>463</ele>
</trkpt>
<trkpt lat="44.117445945739746" lon="9.769163131713867">
<ele>467</ele>
</trkpt>
<trkpt lat="44.117553234100342" lon="9.769184589385986">
<ele>470</ele>
</trkpt>
<trkpt lat="44.117488861083984" lon="9.769034385681152">
<ele>473</ele>
</trkpt>
<trkpt lat="44.117124080657959" lon="9.768455028533936">
<ele>476</ele>
</trkpt>
<trkpt lat="44.117059707641602" lon="9.768304824829102">
<ele>479</ele>
</trkpt>
<trkpt lat="44.117059707641602" lon="9.767746925354004">
<ele>483</ele>
</trkpt>
<trkpt lat="44.117124080657959" lon="9.767467975616455">
<ele>486</ele>
</trkpt>
<trkpt lat="44.11710262298584" lon="9.767146110534668">
<ele>489</ele>
</trkpt>
<trkpt lat="44.117081165313721" lon="9.767017364501953">
<ele>492</ele>
</trkpt>
<trkpt lat="44.11710262298584" lon="9.766845703125">
<ele>495</ele>
</trkpt>
<trkpt lat="44.116973876953125" lon="9.766523838043213">
<ele>497</ele>
</trkpt>
<trkpt lat="44.116888046264648" lon="9.766330718994141">
<ele>499</ele>
</trkpt>
<trkpt lat="44.116866588592529" lon="9.766180515289307">
<ele>502</ele>
</trkpt>
<trkpt lat="44.116866588592529" lon="9.766030311584473">
<ele>504</ele>
</trkpt>
<trkpt lat="44.116823673248291" lon="9.765965938568115">
<ele>506</ele>
</trkpt>
<trkpt lat="44.116952419281006" lon="9.765257835388184">
<ele>508</ele>
</trkpt>
<trkpt lat="44.116952419281006" lon="9.76435661315918">
<ele>510</ele>
</trkpt>
<trkpt lat="44.116995334625244" lon="9.76435661315918">
<ele>513</ele>
</trkpt>
<trkpt lat="44.117038249969482" lon="9.764227867126465">
<ele>515</ele>
</trkpt>
<trkpt lat="44.117059707641602" lon="9.763970375061035">
<ele>517</ele>
</trkpt>
<trkpt lat="44.117059707641602" lon="9.76384162902832">
<ele>518</ele>
</trkpt>
<trkpt lat="44.117038249969482" lon="9.763712882995606">
<ele>519</ele>
</trkpt>
<trkpt lat="44.11684513092041" lon="9.763154983520508">
<ele>520</ele>
</trkpt>
<trkpt lat="44.1166090965271" lon="9.762747287750244">
<ele>521</ele>
</trkpt>
<trkpt lat="44.116544723510742" lon="9.762704372406006">
<ele>522</ele>
</trkpt>
<trkpt lat="44.116501808166504" lon="9.762532711029053">
<ele>524</ele>
</trkpt>
<trkpt lat="44.116415977478027" lon="9.762489795684815">
<ele>525</ele>
</trkpt>
<trkpt lat="44.116244316101074" lon="9.762446880340576">
<ele>526</ele>
</trkpt>
<trkpt lat="44.116179943084717" lon="9.762554168701172">
<ele>527</ele>
</trkpt>
<trkpt lat="44.116072654724121" lon="9.762682914733887">
<ele>528</ele>
</trkpt>
<trkpt lat="44.116029739379883" lon="9.762704372406006">
<ele>530</ele>
</trkpt>
<trkpt lat="44.115879535675049" lon="9.762661457061768">
<ele>531</ele>
</trkpt>
<trkpt lat="44.115836620330811" lon="9.762725830078125">
<ele>533</ele>
</trkpt>
<trkpt lat="44.1156005859375" lon="9.762554168701172">
<ele>535</ele>
</trkpt>
<trkpt lat="44.115450382232666" lon="9.762167930603027">
<ele>536</ele>
</trkpt>
<trkpt lat="44.115386009216309" lon="9.762082099914551">
<ele>538</ele>
</trkpt>
<trkpt lat="44.115386009216309" lon="9.761931896209717">
<ele>540</ele>
</trkpt>
<trkpt lat="44.115192890167236" lon="9.761567115783691">
<ele>542</ele>
</trkpt>
<trkpt lat="44.11510705947876" lon="9.761502742767334">
<ele>543</ele>
</trkpt>
<trkpt lat="44.115021228790283" lon="9.761266708374023">
<ele>545</ele>
</trkpt>
<trkpt lat="44.114634990692139" lon="9.760751724243164">
<ele>550</ele>
</trkpt>
<trkpt lat="44.114527702331543" lon="9.760708808898926">
<ele>554</ele>
</trkpt>
<trkpt lat="44.114420413970947" lon="9.760730266571045">
<ele>559</ele>
</trkpt>
<trkpt lat="44.114398956298828" lon="9.760580062866211">
<ele>564</ele>
</trkpt>
<trkpt lat="44.114484786987305" lon="9.760193824768066">
<ele>568</ele>
</trkpt>
<trkpt lat="44.114527702331543" lon="9.75985050201416">
<ele>573</ele>
</trkpt>
<trkpt lat="44.114484786987305" lon="9.759593009948731">
<ele>578</ele>
</trkpt>
<trkpt lat="44.114334583282471" lon="9.759571552276611">
<ele>583</ele>
</trkpt>
<trkpt lat="44.114077091217041" lon="9.759399890899658">
<ele>587</ele>
</trkpt>
<trkpt lat="44.113991260528564" lon="9.759035110473633">
<ele>592</ele>
</trkpt>
<trkpt lat="44.11409854888916" lon="9.758734703063965">
<ele>594</ele>
</trkpt>
<trkpt lat="44.114034175872803" lon="9.758648872375488">
<ele>595</ele>
</trkpt>
<trkpt lat="44.11409854888916" lon="9.758563041687012">
<ele>597</ele>
</trkpt>
<trkpt lat="44.114077091217041" lon="9.758455753326416">
<ele>599</ele>
</trkpt>
<trkpt lat="44.114141464233398" lon="9.75811243057251">
<ele>600</ele>
</trkpt>
<trkpt lat="44.11409854888916" lon="9.757812023162842">
<ele>602</ele>
</trkpt>
<trkpt lat="44.114227294921875" lon="9.757661819458008">
<ele>604</ele>
</trkpt>
<trkpt lat="44.114227294921875" lon="9.757511615753174">
<ele>606</ele>
</trkpt>
<trkpt lat="44.114270210266113" lon="9.756996631622315">
<ele>607</ele>
</trkpt>
<trkpt lat="44.114313125610352" lon="9.756910800933838">
<ele>609</ele>
</trkpt>
<trkpt lat="44.114248752593994" lon="9.756696224212647">
<ele>614</ele>
</trkpt>
<trkpt lat="44.114398956298828" lon="9.756245613098145">
<ele>618</ele>
</trkpt>
<trkpt lat="44.114527702331543" lon="9.755151271820068">
<ele>623</ele>
</trkpt>
<trkpt lat="44.114527702331543" lon="9.754936695098877">
<ele>628</ele>
</trkpt>
<trkpt lat="44.114247914403677" lon="9.754264717921615">
<ele>632</ele>
</trkpt>
<trkpt lat="44.11409854888916" lon="9.753906726837158">
<ele>637</ele>
</trkpt>
<trkpt lat="44.113991260528564" lon="9.753885269165039">
<ele>636</ele>
</trkpt>
<trkpt lat="44.113926887512207" lon="9.753928184509277">
<ele>634</ele>
</trkpt>
<trkpt lat="44.113883972167969" lon="9.753992557525635">
<ele>633</ele>
</trkpt>
<trkpt lat="44.113798141479492" lon="9.753735065460205">
<ele>631</ele>
</trkpt>
<trkpt lat="44.113755226135254" lon="9.753670692443848">
<ele>630</ele>
</trkpt>
<trkpt lat="44.113733768463135" lon="9.753584861755371">
<ele>629</ele>
</trkpt>
<trkpt lat="44.113712310791016" lon="9.753434658050537">
<ele>627</ele>
</trkpt>
<trkpt lat="44.113690853118896" lon="9.753241539001465">
<ele>626</ele>
</trkpt>
<trkpt lat="44.113690853118896" lon="9.753069877624512">
<ele>624</ele>
</trkpt>
<trkpt lat="44.113669395446777" lon="9.752919673919678">
<ele>623</ele>
</trkpt>
<trkpt lat="44.11360502243042" lon="9.75287675857544">
<ele>619</ele>
</trkpt>
<trkpt lat="44.113476276397705" lon="9.752790927886963">
<ele>615</ele>
</trkpt>
<trkpt lat="44.11334753036499" lon="9.752726554870606">
<ele>611</ele>
</trkpt>
<trkpt lat="44.113283157348633" lon="9.752683639526367">
<ele>607</ele>
</trkpt>
<trkpt lat="44.113261699676514" lon="9.752812385559082">
<ele>602</ele>
</trkpt>
<trkpt lat="44.113326072692871" lon="9.752962589263916">
<ele>598</ele>
</trkpt>
<trkpt lat="44.113197326660156" lon="9.752984046936035">
<ele>594</ele>
</trkpt>
<trkpt lat="44.113047122955322" lon="9.752941131591797">
<ele>590</ele>
</trkpt>
<trkpt lat="44.113004207611084" lon="9.752898216247559">
<ele>586</ele>
</trkpt>
<trkpt lat="44.112875461578369" lon="9.75287675857544">
<ele>582</ele>
</trkpt>
<trkpt lat="44.112811088562012" lon="9.752833843231201">
<ele>579</ele>
</trkpt>
<trkpt lat="44.112532138824463" lon="9.752748012542725">
<ele>576</ele>
</trkpt>
<trkpt lat="44.112489223480225" lon="9.752683639526367">
<ele>573</ele>
</trkpt>
<trkpt lat="44.112381935119629" lon="9.752576351165772">
<ele>570</ele>
</trkpt>
<trkpt lat="44.112317562103271" lon="9.752576351165772">
<ele>566</ele>
</trkpt>
<trkpt lat="44.112145900726318" lon="9.752254486083984">
<ele>563</ele>
</trkpt>
<trkpt lat="44.112017154693604" lon="9.752147197723389">
<ele>560</ele>
</trkpt>
<trkpt lat="44.111974239349365" lon="9.752082824707031">
<ele>557</ele>
</trkpt>
<trkpt lat="44.11184549331665" lon="9.751996994018555">
<ele>554</ele>
</trkpt>
<trkpt lat="44.111716747283936" lon="9.751975536346436">
<ele>551</ele>
</trkpt>
<trkpt lat="44.111588001251221" lon="9.751954078674316">
<ele>547</ele>
</trkpt>
<trkpt lat="44.111158847808838" lon="9.751954078674316">
<ele>543</ele>
</trkpt>
<trkpt lat="44.11109447479248" lon="9.751975536346436">
<ele>538</ele>
</trkpt>
<trkpt lat="44.111030101776123" lon="9.751954078674316">
<ele>534</ele>
</trkpt>
<trkpt lat="44.11085844039917" lon="9.751954078674316">
<ele>530</ele>
</trkpt>
<trkpt lat="44.110815525054932" lon="9.751932621002197">
<ele>526</ele>
</trkpt>
<trkpt lat="44.110622406005859" lon="9.751846790313721">
<ele>522</ele>
</trkpt>
<trkpt lat="44.110579490661621" lon="9.751782417297363">
<ele>517</ele>
</trkpt>
<trkpt lat="44.110536575317383" lon="9.751675128936768">
<ele>513</ele>
</trkpt>
<trkpt lat="44.110493659973145" lon="9.75161075592041">
<ele>509</ele>
</trkpt>
<trkpt lat="44.110429286956787" lon="9.751460552215576">
<ele>507</ele>
</trkpt>
<trkpt lat="44.110407829284668" lon="9.751267433166504">
<ele>506</ele>
</trkpt>
<trkpt lat="44.110321998596191" lon="9.75111722946167">
<ele>504</ele>
</trkpt>
<trkpt lat="44.110257625579834" lon="9.750945568084717">
<ele>502</ele>
</trkpt>
<trkpt lat="44.110150337219238" lon="9.75085973739624">
<ele>500</ele>
</trkpt>
<trkpt lat="44.110064506530762" lon="9.750709533691406">
<ele>499</ele>
</trkpt>
<trkpt lat="44.110000133514404" lon="9.750688076019287">
<ele>497</ele>
</trkpt>
<trkpt lat="44.109914302825928" lon="9.750516414642334">
<ele>495</ele>
</trkpt>
<trkpt lat="44.109828472137451" lon="9.750387668609619">
<ele>494</ele>
</trkpt>
<trkpt lat="44.109721183776855" lon="9.750258922576904">
<ele>492</ele>
</trkpt>
<trkpt lat="44.109549522399902" lon="9.750151634216309">
<ele>488</ele>
</trkpt>
<trkpt lat="44.109292030334473" lon="9.750065803527832">
<ele>485</ele>
</trkpt>
<trkpt lat="44.109163284301758" lon="9.750065803527832">
<ele>481</ele>
</trkpt>
<trkpt lat="44.109077453613281" lon="9.750022888183594">
<ele>477</ele>
</trkpt>
<trkpt lat="44.108819961547852" lon="9.749743938446045">
<ele>474</ele>
</trkpt>
<trkpt lat="44.108755588531494" lon="9.749701023101807">
<ele>470</ele>
</trkpt>
<trkpt lat="44.108626842498779" lon="9.74961519241333">
<ele>466</ele>
</trkpt>
<trkpt lat="44.108498096466064" lon="9.749550819396973">
<ele>462</ele>
</trkpt>
<trkpt lat="44.108326435089111" lon="9.749400615692139">
<ele>459</ele>
</trkpt>
<trkpt lat="44.108240604400635" lon="9.74937915802002">
<ele>455</ele>
</trkpt>
<trkpt lat="44.107983112335205" lon="9.749271869659424">
<ele>451</ele>
</trkpt>
<trkpt lat="44.107918739318848" lon="9.749228954315186">
<ele>447</ele>
</trkpt>
<trkpt lat="44.107725620269775" lon="9.749143123626709">
<ele>442</ele>
</trkpt>
<trkpt lat="44.107682704925537" lon="9.749078750610352">
<ele>438</ele>
</trkpt>
<trkpt lat="44.107575416564941" lon="9.748992919921875">
<ele>434</ele>
</trkpt>
<trkpt lat="44.107425212860107" lon="9.748778343200684">
<ele>430</ele>
</trkpt>
<trkpt lat="44.107296466827393" lon="9.748585224151611">
<ele>426</ele>
</trkpt>
<trkpt lat="44.107253551483154" lon="9.748413562774658">
<ele>421</ele>
</trkpt>
<trkpt lat="44.107038974761963" lon="9.748134613037109">
<ele>417</ele>
</trkpt>
<trkpt lat="44.106824398040771" lon="9.74787712097168">
<ele>413</ele>
</trkpt>
<trkpt lat="44.106738567352295" lon="9.747812747955322">
<ele>412</ele>
</trkpt>
<trkpt lat="44.106695652008057" lon="9.747748374938965">
<ele>410</ele>
</trkpt>
<trkpt lat="44.106566905975342" lon="9.747641086578369">
<ele>409</ele>
</trkpt>
<trkpt lat="44.106523990631104" lon="9.747576713562012">
<ele>407</ele>
</trkpt>
<trkpt lat="44.106438159942627" lon="9.74738359451294">
<ele>406</ele>
</trkpt>
<trkpt lat="44.106330871582031" lon="9.747190475463867">
<ele>405</ele>
</trkpt>
<trkpt lat="44.106202125549316" lon="9.747040271759033">
<ele>403</ele>
</trkpt>
<trkpt lat="44.106073379516602" lon="9.746954441070557">
<ele>402</ele>
</trkpt>
<trkpt lat="44.106009006500244" lon="9.746890068054199">
<ele>400</ele>
</trkpt>
<trkpt lat="44.105880260467529" lon="9.746761322021484">
<ele>399</ele>
</trkpt>
<trkpt lat="44.105815887451172" lon="9.746718406677246">
<ele>395</ele>
</trkpt>
<trkpt lat="44.10585880279541" lon="9.746503829956055">
<ele>390</ele>
</trkpt>
<trkpt lat="44.105730056762695" lon="9.74637508392334">
<ele>386</ele>
</trkpt>
<trkpt lat="44.105687141418457" lon="9.746289253234863">
<ele>382</ele>
</trkpt>
<trkpt lat="44.10536527633667" lon="9.746053218841553">
<ele>378</ele>
</trkpt>
<trkpt lat="44.105257987976074" lon="9.745945930480957">
<ele>373</ele>
</trkpt>
<trkpt lat="44.105086326599121" lon="9.745688438415527">
<ele>369</ele>
</trkpt>
<trkpt lat="44.105021953582764" lon="9.745602607727051">
<ele>365</ele>
</trkpt>
<trkpt lat="44.104957580566406" lon="9.745559692382813">
<ele>360</ele>
</trkpt>
<trkpt lat="44.104764461517334" lon="9.745302200317383">
<ele>356</ele>
</trkpt>
<trkpt lat="44.104743003845215" lon="9.745194911956787">
<ele>354</ele>
</trkpt>
<trkpt lat="44.104893207550049" lon="9.745044708251953">
<ele>353</ele>
</trkpt>
<trkpt lat="44.104807376861572" lon="9.744915962219238">
<ele>351</ele>
</trkpt>
<trkpt lat="44.104764461517334" lon="9.744830131530762">
<ele>349</ele>
</trkpt>
<trkpt lat="44.104657173156738" lon="9.744572639465332">
<ele>348</ele>
</trkpt>
<trkpt lat="44.104571342468262" lon="9.74437952041626">
<ele>346</ele>
</trkpt>
<trkpt lat="44.104528427124023" lon="9.744315147399902">
<ele>344</ele>
</trkpt>
<trkpt lat="44.104506969451904" lon="9.744164943695068">
<ele>342</ele>
</trkpt>
<trkpt lat="44.104464054107666" lon="9.744036197662354">
<ele>341</ele>
</trkpt>
<trkpt lat="44.104378223419189" lon="9.74388599395752">
<ele>339</ele>
</trkpt>
<trkpt lat="44.104335308074951" lon="9.743714332580566">
<ele>335</ele>
</trkpt>
<trkpt lat="44.104292392730713" lon="9.743649959564209">
<ele>331</ele>
</trkpt>
<trkpt lat="44.104292392730713" lon="9.743478298187256">
<ele>328</ele>
</trkpt>
<trkpt lat="44.104206562042236" lon="9.743220806121826">
<ele>324</ele>
</trkpt>
<trkpt lat="44.104163646697998" lon="9.743156433105469">
<ele>320</ele>
</trkpt>
<trkpt lat="44.104013442993164" lon="9.742963314056397">
<ele>316</ele>
</trkpt>
<trkpt lat="44.103991985321045" lon="9.742898941040039">
<ele>312</ele>
</trkpt>
<trkpt lat="44.103949069976807" lon="9.742834568023682">
<ele>309</ele>
</trkpt>
<trkpt lat="44.103906154632568" lon="9.742727279663086">
<ele>305</ele>
</trkpt>
<trkpt lat="44.103841781616211" lon="9.742577075958252">
<ele>301</ele>
</trkpt>
<trkpt lat="44.103820323944092" lon="9.742448329925537">
<ele>294</ele>
</trkpt>
<trkpt lat="44.103820323944092" lon="9.742362499237061">
<ele>287</ele>
</trkpt>
<trkpt lat="44.10362720489502" lon="9.741954803466797">
<ele>280</ele>
</trkpt>
<trkpt lat="44.103562831878662" lon="9.741804599761963">
<ele>273</ele>
</trkpt>
<trkpt lat="44.103541374206543" lon="9.741761684417725">
<ele>266</ele>
</trkpt>
<trkpt lat="44.103219509124756" lon="9.740774631500244">
<ele>259</ele>
</trkpt>
<trkpt lat="44.103155136108398" lon="9.740645885467529">
<ele>252</ele>
</trkpt>
<trkpt lat="44.10311222076416" lon="9.740538597106934">
<ele>245</ele>
</trkpt>
<trkpt lat="44.102940559387207" lon="9.740259647369385">
<ele>238</ele>
</trkpt>
<trkpt lat="44.102919101715088" lon="9.740173816680908">
<ele>231</ele>
</trkpt>
<trkpt lat="44.102747440338135" lon="9.739916324615479">
<ele>227</ele>
</trkpt>
<trkpt lat="44.102768898010254" lon="9.739830493927002">
<ele>223</ele>
</trkpt>
<trkpt lat="44.102725982666016" lon="9.739744663238525">
<ele>219</ele>
</trkpt>
<trkpt lat="44.102683067321777" lon="9.739551544189453">
<ele>215</ele>
</trkpt>
<trkpt lat="44.102704524993896" lon="9.739465713500977">
<ele>211</ele>
</trkpt>
<trkpt lat="44.102704524993896" lon="9.7393798828125">
<ele>207</ele>
</trkpt>
<trkpt lat="44.102768898010254" lon="9.739336967468262">
<ele>203</ele>
</trkpt>
<trkpt lat="44.102768898010254" lon="9.73914384841919">
<ele>199</ele>
</trkpt>
<trkpt lat="44.102790355682373" lon="9.739058017730713">
<ele>195</ele>
</trkpt>
<trkpt lat="44.102790355682373" lon="9.738972187042236">
<ele>191</ele>
</trkpt>
<trkpt lat="44.102747440338135" lon="9.738907814025879">
<ele>183</ele>
</trkpt>
<trkpt lat="44.102640151977539" lon="9.738950729370117">
<ele>176</ele>
</trkpt>
<trkpt lat="44.10261869430542" lon="9.738907814025879">
<ele>168</ele>
</trkpt>
<trkpt lat="44.102575778961182" lon="9.73888635635376">
<ele>161</ele>
</trkpt>
<trkpt lat="44.102318286895752" lon="9.73888635635376">
<ele>153</ele>
</trkpt>
<trkpt lat="44.101974964141846" lon="9.738864898681641">
<ele>145</ele>
</trkpt>
<trkpt lat="44.101717472076416" lon="9.738693237304688">
<ele>138</ele>
</trkpt>
<trkpt lat="44.101567268371582" lon="9.738671779632568">
<ele>130</ele>
</trkpt>
<trkpt lat="44.101223945617676" lon="9.738435745239258">
<ele>123</ele>
</trkpt>
<trkpt lat="44.101095115765929" lon="9.738355278968811">
<ele>115</ele>
</trkpt>
<trkpt lat="44.100708961486816" lon="9.738113880157471">
<ele>110</ele>
</trkpt>
<trkpt lat="44.100644588470459" lon="9.738092422485352">
<ele>106</ele>
</trkpt>
<trkpt lat="44.100537300109863" lon="9.738028049468994">
<ele>101</ele>
</trkpt>
<trkpt lat="44.100472927093506" lon="9.737942218780518">
<ele>97</ele>
</trkpt>
<trkpt lat="44.100236892700195" lon="9.737727642059326">
<ele>92</ele>
</trkpt>
<trkpt lat="44.100236892700195" lon="9.737663269042969">
<ele>87</ele>
</trkpt>
<trkpt lat="44.100258350372314" lon="9.737513065338135">
<ele>83</ele>
</trkpt>
<trkpt lat="44.100172519683838" lon="9.737598896026611">
<ele>78</ele>
</trkpt>
<trkpt lat="44.10010814666748" lon="9.737491607666016">
<ele>74</ele>
</trkpt>
<trkpt lat="44.100065231323242" lon="9.737470149993897">
<ele>69</ele>
</trkpt>
<trkpt lat="44.100043773651123" lon="9.737341403961182">
<ele>68</ele>
</trkpt>
<trkpt lat="44.100279808044434" lon="9.737298488616943">
<ele>66</ele>
</trkpt>
<trkpt lat="44.100558757781982" lon="9.737234115600586">
<ele>65</ele>
</trkpt>
<trkpt lat="44.10062313079834" lon="9.737169742584229">
<ele>63</ele>
</trkpt>
<trkpt lat="44.100558757781982" lon="9.736998081207275">
<ele>62</ele>
</trkpt>
<trkpt lat="44.100523134693503" lon="9.736788868904114">
<ele>60</ele>
</trkpt>
<trkpt lat="44.100349629297853" lon="9.736783504486084">
<ele>59</ele>
</trkpt>
<trkpt lat="44.100290955975652" lon="9.736757352948189">
<ele>57</ele>
</trkpt>
<trkpt lat="44.100475190207362" lon="9.736528191715479">
<ele>56</ele>
</trkpt>
<trkpt lat="44.100532187148929" lon="9.736585188657045">
<ele>54</ele>
</trkpt>
<trkpt lat="44.100590692833066" lon="9.73657269962132">
<ele>53</ele>
</trkpt>
<trkpt lat="44.100690269842744" lon="9.736500950530171">
<ele>51</ele>
</trkpt>
<trkpt lat="44.100765706971288" lon="9.736381759867072">
<ele>50</ele>
</trkpt>
</trkseg>
</trk>
</gpx>
