<?xml version="1.0" encoding="UTF-8"?>
<gpx version="1.1"
creator="Smartprofil XE - http://www.rother.de"
xmlns:xsi="http://www.w3.org/2001/XMLSchema-instance"
xmlns="http://www.topografix.com/GPX/1/1"
xsi:schemaLocation="http://www.topografix.com/GPX/1/1 http://www.topografix.com/GPX/1/1/gpx.xsd">
<metadata>
<copyright author="Bergverlag Rother GmbH" />
<link href="https://www.rother.de/"><text>Bergverlag Rother</text></link>
<keywords>Rother, Bergverlag, GPS, GPX, Wandern, Wanderführer</keywords>
<bounds minlat="44.546964168548584" minlon="9.451605090871453" maxlat="44.565460681915283" maxlon="9.490599632263184"/>
</metadata>
<wpt lat="44.547229874879122" lon="9.451605090871453">
<ele>1050</ele>
<name>40_Santo Stefano d’Àveto (1)</name>
<cmt></cmt>
<desc></desc>
<sym>Crossing</sym>
</wpt>

<wpt lat="44.557650089263916" lon="9.459915161132813">
<ele>1280</ele>
<name>40_Piani di Gatera (2)</name>
<cmt></cmt>
<desc></desc>
<sym>Crossing</sym>
</wpt>

<wpt lat="44.561041155830026" lon="9.467077665030956">
<ele>1593</ele>
<name>40_Monte Groppo Rosso (3)</name>
<cmt>Panorama  Santo Stefano d'Aveto, Genova, ITA</cmt>
<desc></desc>
<sym>Crossing</sym>
</wpt>

<wpt lat="44.565460681915283" lon="9.468669891357422">
<ele>1683</ele>
<name>40_Monte Roncalla (4)</name>
<cmt>Monte Roncalla 1685m</cmt>
<desc></desc>
<sym>Crossing</sym>
</wpt>

<wpt lat="44.558702604845166" lon="9.486007690429688">
<ele>1578</ele>
<name>40_Rif. Prato della Cipolla (5)</name>
<cmt></cmt>
<desc></desc>
<sym>Crossing</sym>
</wpt>

<wpt lat="44.55063795670867" lon="9.490291764959693">
<ele>1799</ele>
<name>40_Monte Maggiorasca (6)</name>
<cmt></cmt>
<desc></desc>
<sym>Crossing</sym>
</wpt>

<wpt lat="44.553229808807373" lon="9.473133087158203">
<ele>1281</ele>
<name>40_Rocca d’Àveto (7)</name>
<cmt></cmt>
<desc></desc>
<sym>Crossing</sym>
</wpt>

<trk>
<name>CinTe_40_Monte Groppo Rosso-Monte Maggiorasca</name><trkseg>
<trkpt lat="44.547229874879122" lon="9.451605090871453">
<ele>1050</ele>
</trkpt>
<trkpt lat="44.547264575958252" lon="9.451761245727539">
<ele>1051</ele>
</trkpt>
<trkpt lat="44.547350406646729" lon="9.451954364776611">
<ele>1052</ele>
</trkpt>
<trkpt lat="44.547436237335205" lon="9.452126026153565">
<ele>1054</ele>
</trkpt>
<trkpt lat="44.547479152679443" lon="9.452319145202637">
<ele>1055</ele>
</trkpt>
<trkpt lat="44.547436237335205" lon="9.452469348907471">
<ele>1056</ele>
</trkpt>
<trkpt lat="44.54730749130249" lon="9.452619552612305">
<ele>1057</ele>
</trkpt>
<trkpt lat="44.547049999237061" lon="9.452641010284424">
<ele>1058</ele>
</trkpt>
<trkpt lat="44.546964168548584" lon="9.452705383300781">
<ele>1060</ele>
</trkpt>
<trkpt lat="44.547157287597656" lon="9.452812671661377">
<ele>1061</ele>
</trkpt>
<trkpt lat="44.547243118286133" lon="9.452834129333496">
<ele>1062</ele>
</trkpt>
<trkpt lat="44.547414779663086" lon="9.452812671661377">
<ele>1062</ele>
</trkpt>
<trkpt lat="44.547522068023682" lon="9.452877044677734">
<ele>1063</ele>
</trkpt>
<trkpt lat="44.54756498336792" lon="9.452962875366211">
<ele>1063</ele>
</trkpt>
<trkpt lat="44.547883244231343" lon="9.452962875366211">
<ele>1063</ele>
</trkpt>
<trkpt lat="44.548037052154541" lon="9.452962875366211">
<ele>1064</ele>
</trkpt>
<trkpt lat="44.548079967498779" lon="9.452919960021973">
<ele>1064</ele>
</trkpt>
<trkpt lat="44.548144340515137" lon="9.453048706054688">
<ele>1064</ele>
</trkpt>
<trkpt lat="44.548337459564209" lon="9.453349113464356">
<ele>1064</ele>
</trkpt>
<trkpt lat="44.54831600189209" lon="9.453434944152832">
<ele>1065</ele>
</trkpt>
<trkpt lat="44.548230171203613" lon="9.453649520874023">
<ele>1065</ele>
</trkpt>
<trkpt lat="44.548208713531494" lon="9.453842639923096">
<ele>1068</ele>
</trkpt>
<trkpt lat="44.548187255859375" lon="9.454379081726074">
<ele>1070</ele>
</trkpt>
<trkpt lat="44.548165798187256" lon="9.454615116119385">
<ele>1072</ele>
</trkpt>
<trkpt lat="44.548037052154541" lon="9.455044269561768">
<ele>1075</ele>
</trkpt>
<trkpt lat="44.54805850982666" lon="9.455173015594482">
<ele>1078</ele>
</trkpt>
<trkpt lat="44.548144340515137" lon="9.455387592315674">
<ele>1080</ele>
</trkpt>
<trkpt lat="44.548230171203613" lon="9.455516338348389">
<ele>1082</ele>
</trkpt>
<trkpt lat="44.548273086547852" lon="9.455623626708984">
<ele>1085</ele>
</trkpt>
<trkpt lat="44.548294544219971" lon="9.455773830413818">
<ele>1088</ele>
</trkpt>
<trkpt lat="44.54831600189209" lon="9.456138610839844">
<ele>1090</ele>
</trkpt>
<trkpt lat="44.548358917236328" lon="9.456288814544678">
<ele>1093</ele>
</trkpt>
<trkpt lat="44.548401832580566" lon="9.456632137298584">
<ele>1096</ele>
</trkpt>
<trkpt lat="44.548337459564209" lon="9.456653594970703">
<ele>1099</ele>
</trkpt>
<trkpt lat="44.54831600189209" lon="9.457168579101563">
<ele>1102</ele>
</trkpt>
<trkpt lat="44.548380374908447" lon="9.457275867462158">
<ele>1105</ele>
</trkpt>
<trkpt lat="44.548444747924805" lon="9.457383155822754">
<ele>1108</ele>
</trkpt>
<trkpt lat="44.548669718205929" lon="9.457543836906552">
<ele>1111</ele>
</trkpt>
<trkpt lat="44.549195766448975" lon="9.457919597625732">
<ele>1114</ele>
</trkpt>
<trkpt lat="44.54930305480957" lon="9.458091259002686">
<ele>1117</ele>
</trkpt>
<trkpt lat="44.549238681793213" lon="9.458284378051758">
<ele>1120</ele>
</trkpt>
<trkpt lat="44.54930305480957" lon="9.458541870117188">
<ele>1123</ele>
</trkpt>
<trkpt lat="44.549367427825928" lon="9.458906650543213">
<ele>1125</ele>
</trkpt>
<trkpt lat="44.549388885498047" lon="9.459314346313477">
<ele>1128</ele>
</trkpt>
<trkpt lat="44.549410343170166" lon="9.459378719329834">
<ele>1131</ele>
</trkpt>
<trkpt lat="44.549517631530762" lon="9.459571838378906">
<ele>1134</ele>
</trkpt>
<trkpt lat="44.549882411956787" lon="9.460086822509766">
<ele>1136</ele>
</trkpt>
<trkpt lat="44.550118446350098" lon="9.460322856903076">
<ele>1139</ele>
</trkpt>
<trkpt lat="44.550161361694336" lon="9.460387229919434">
<ele>1142</ele>
</trkpt>
<trkpt lat="44.550247192382813" lon="9.460687637329102">
<ele>1144</ele>
</trkpt>
<trkpt lat="44.550333023071289" lon="9.460923671722412">
<ele>1147</ele>
</trkpt>
<trkpt lat="44.550483226776123" lon="9.461309909820557">
<ele>1150</ele>
</trkpt>
<trkpt lat="44.550397396087646" lon="9.46148157119751">
<ele>1153</ele>
</trkpt>
<trkpt lat="44.550354480743408" lon="9.461696147918701">
<ele>1155</ele>
</trkpt>
<trkpt lat="44.550375938415527" lon="9.461953639984131">
<ele>1158</ele>
</trkpt>
<trkpt lat="44.550440311431885" lon="9.462296962738037">
<ele>1161</ele>
</trkpt>
<trkpt lat="44.550535446032882" lon="9.462582282721996">
<ele>1164</ele>
</trkpt>
<trkpt lat="44.550611972808838" lon="9.462811946868897">
<ele>1167</ele>
</trkpt>
<trkpt lat="44.550762176513672" lon="9.463090896606445">
<ele>1169</ele>
</trkpt>
<trkpt lat="44.550912380218506" lon="9.463241100311279">
<ele>1172</ele>
</trkpt>
<trkpt lat="44.55106258392334" lon="9.463498592376709">
<ele>1175</ele>
</trkpt>
<trkpt lat="44.551105499267578" lon="9.463777542114258">
<ele>1177</ele>
</trkpt>
<trkpt lat="44.55132007598877" lon="9.463949203491211">
<ele>1180</ele>
</trkpt>
<trkpt lat="44.551641941070557" lon="9.464850425720215">
<ele>1182</ele>
</trkpt>
<trkpt lat="44.551792144775391" lon="9.464893341064453">
<ele>1185</ele>
</trkpt>
<trkpt lat="44.551985263824463" lon="9.465236663818359">
<ele>1187</ele>
</trkpt>
<trkpt lat="44.552006721496582" lon="9.465451240539551">
<ele>1189</ele>
</trkpt>
<trkpt lat="44.55204963684082" lon="9.465494155883789">
<ele>1192</ele>
</trkpt>
<trkpt lat="44.552178382873535" lon="9.465494155883789">
<ele>1194</ele>
</trkpt>
<trkpt lat="44.552264213562012" lon="9.465322494506836">
<ele>1197</ele>
</trkpt>
<trkpt lat="44.552392959594727" lon="9.465301036834717">
<ele>1199</ele>
</trkpt>
<trkpt lat="44.552457332611084" lon="9.465343952178955">
<ele>1200</ele>
</trkpt>
<trkpt lat="44.552500247955322" lon="9.465279579162598">
<ele>1202</ele>
</trkpt>
<trkpt lat="44.552500247955322" lon="9.465172290802002">
<ele>1203</ele>
</trkpt>
<trkpt lat="44.552457332611084" lon="9.465022087097168">
<ele>1205</ele>
</trkpt>
<trkpt lat="44.552457332611084" lon="9.464936256408691">
<ele>1206</ele>
</trkpt>
<trkpt lat="44.552521705627441" lon="9.464764595031738">
<ele>1207</ele>
</trkpt>
<trkpt lat="44.552586078643799" lon="9.464678764343262">
<ele>1209</ele>
</trkpt>
<trkpt lat="44.552693367004395" lon="9.464507102966309">
<ele>1210</ele>
</trkpt>
<trkpt lat="44.552843570709229" lon="9.464442729949951">
<ele>1212</ele>
</trkpt>
<trkpt lat="44.552950859069824" lon="9.46446418762207">
<ele>1213</ele>
</trkpt>
<trkpt lat="44.553036689758301" lon="9.464571475982666">
<ele>1214</ele>
</trkpt>
<trkpt lat="44.553122520446777" lon="9.464571475982666">
<ele>1216</ele>
</trkpt>
<trkpt lat="44.553186893463135" lon="9.464550018310547">
<ele>1218</ele>
</trkpt>
<trkpt lat="44.553251266479492" lon="9.464507102966309">
<ele>1219</ele>
</trkpt>
<trkpt lat="44.553487300872803" lon="9.464592933654785">
<ele>1220</ele>
</trkpt>
<trkpt lat="44.55380916595459" lon="9.464807510375977">
<ele>1222</ele>
</trkpt>
<trkpt lat="44.554109573364258" lon="9.464507102966309">
<ele>1224</ele>
</trkpt>
<trkpt lat="44.554238319396973" lon="9.464421272277832">
<ele>1225</ele>
</trkpt>
<trkpt lat="44.554345607757568" lon="9.464421272277832">
<ele>1226</ele>
</trkpt>
<trkpt lat="44.554452896118164" lon="9.464378356933594">
<ele>1228</ele>
</trkpt>
<trkpt lat="44.554538726806641" lon="9.464442729949951">
<ele>1230</ele>
</trkpt>
<trkpt lat="44.554624557495117" lon="9.464528560638428">
<ele>1232</ele>
</trkpt>
<trkpt lat="44.554924964904785" lon="9.46448564529419">
<ele>1234</ele>
</trkpt>
<trkpt lat="44.555096626281738" lon="9.464678764343262">
<ele>1236</ele>
</trkpt>
<trkpt lat="44.555289745330811" lon="9.464550018310547">
<ele>1238</ele>
</trkpt>
<trkpt lat="44.555375576019287" lon="9.464528560638428">
<ele>1239</ele>
</trkpt>
<trkpt lat="44.555675983428955" lon="9.464528560638428">
<ele>1241</ele>
</trkpt>
<trkpt lat="44.55580472946167" lon="9.46448564529419">
<ele>1243</ele>
</trkpt>
<trkpt lat="44.555933475494385" lon="9.46448564529419">
<ele>1245</ele>
</trkpt>
<trkpt lat="44.55604076385498" lon="9.464614391326904">
<ele>1247</ele>
</trkpt>
<trkpt lat="44.556148052215576" lon="9.464635848999023">
<ele>1248</ele>
</trkpt>
<trkpt lat="44.556212425231934" lon="9.464571475982666">
<ele>1249</ele>
</trkpt>
<trkpt lat="44.55629825592041" lon="9.464378356933594">
<ele>1250</ele>
</trkpt>
<trkpt lat="44.556384086608887" lon="9.464335441589356">
<ele>1251</ele>
</trkpt>
<trkpt lat="44.556512832641602" lon="9.464206695556641">
<ele>1252</ele>
</trkpt>
<trkpt lat="44.556727409362793" lon="9.464142322540283">
<ele>1253</ele>
</trkpt>
<trkpt lat="44.55679178237915" lon="9.464077949523926">
<ele>1254</ele>
</trkpt>
<trkpt lat="44.556877613067627" lon="9.464077949523926">
<ele>1255</ele>
</trkpt>
<trkpt lat="44.557092189788818" lon="9.463841915130615">
<ele>1256</ele>
</trkpt>
<trkpt lat="44.557199478149414" lon="9.463691711425781">
<ele>1257</ele>
</trkpt>
<trkpt lat="44.557199478149414" lon="9.463627338409424">
<ele>1258</ele>
</trkpt>
<trkpt lat="44.557156562805176" lon="9.463541507720947">
<ele>1258</ele>
</trkpt>
<trkpt lat="44.557199478149414" lon="9.463348388671875">
<ele>1259</ele>
</trkpt>
<trkpt lat="44.557135105133057" lon="9.463262557983398">
<ele>1259</ele>
</trkpt>
<trkpt lat="44.557199478149414" lon="9.462790489196777">
<ele>1260</ele>
</trkpt>
<trkpt lat="44.557220935821533" lon="9.46223258972168">
<ele>1261</ele>
</trkpt>
<trkpt lat="44.557242393493652" lon="9.462082386016846">
<ele>1261</ele>
</trkpt>
<trkpt lat="44.557285308837891" lon="9.46197509765625">
<ele>1262</ele>
</trkpt>
<trkpt lat="44.557263851165771" lon="9.461846351623535">
<ele>1262</ele>
</trkpt>
<trkpt lat="44.557263851165771" lon="9.461588859558106">
<ele>1263</ele>
</trkpt>
<trkpt lat="44.557242393493652" lon="9.461417198181152">
<ele>1265</ele>
</trkpt>
<trkpt lat="44.557285308837891" lon="9.46096658706665">
<ele>1267</ele>
</trkpt>
<trkpt lat="44.557349681854248" lon="9.460687637329102">
<ele>1269</ele>
</trkpt>
<trkpt lat="44.557414054870605" lon="9.46047306060791">
<ele>1271</ele>
</trkpt>
<trkpt lat="44.557414054870605" lon="9.460344314575195">
<ele>1272</ele>
</trkpt>
<trkpt lat="44.557456970214844" lon="9.460258483886719">
<ele>1274</ele>
</trkpt>
<trkpt lat="44.557585716247559" lon="9.460151195526123">
<ele>1276</ele>
</trkpt>
<trkpt lat="44.557607173919678" lon="9.460022449493408">
<ele>1278</ele>
</trkpt>
<trkpt lat="44.557650089263916" lon="9.459915161132813">
<ele>1280</ele>
</trkpt>
<trkpt lat="44.557778835296631" lon="9.460086822509766">
<ele>1287</ele>
</trkpt>
<trkpt lat="44.557864665985107" lon="9.460151195526123">
<ele>1295</ele>
</trkpt>
<trkpt lat="44.558036327362061" lon="9.460172653198242">
<ele>1302</ele>
</trkpt>
<trkpt lat="44.558401107788086" lon="9.460301399230957">
<ele>1309</ele>
</trkpt>
<trkpt lat="44.558701515197754" lon="9.46047306060791">
<ele>1316</ele>
</trkpt>
<trkpt lat="44.558916091918945" lon="9.460644721984863">
<ele>1324</ele>
</trkpt>
<trkpt lat="44.559173583984375" lon="9.460773468017578">
<ele>1331</ele>
</trkpt>
<trkpt lat="44.559409618377686" lon="9.460837841033936">
<ele>1338</ele>
</trkpt>
<trkpt lat="44.559838771820068" lon="9.461073875427246">
<ele>1346</ele>
</trkpt>
<trkpt lat="44.559967517852783" lon="9.461095333099365">
<ele>1353</ele>
</trkpt>
<trkpt lat="44.560160636901855" lon="9.461138248443604">
<ele>1356</ele>
</trkpt>
<trkpt lat="44.560632705688477" lon="9.461116790771484">
<ele>1358</ele>
</trkpt>
<trkpt lat="44.560890197753906" lon="9.46098804473877">
<ele>1360</ele>
</trkpt>
<trkpt lat="44.561061859130859" lon="9.460794925689697">
<ele>1363</ele>
</trkpt>
<trkpt lat="44.561126232147217" lon="9.460709095001221">
<ele>1366</ele>
</trkpt>
<trkpt lat="44.561212062835693" lon="9.460623264312744">
<ele>1368</ele>
</trkpt>
<trkpt lat="44.56129789352417" lon="9.460623264312744">
<ele>1370</ele>
</trkpt>
<trkpt lat="44.561405181884766" lon="9.460537433624268">
<ele>1373</ele>
</trkpt>
<trkpt lat="44.561491012573242" lon="9.460537433624268">
<ele>1376</ele>
</trkpt>
<trkpt lat="44.5615553855896" lon="9.460515975952148">
<ele>1378</ele>
</trkpt>
<trkpt lat="44.561662673950195" lon="9.460494518280029">
<ele>1381</ele>
</trkpt>
<trkpt lat="44.561727046966553" lon="9.460451602935791">
<ele>1384</ele>
</trkpt>
<trkpt lat="44.561855792999268" lon="9.460430145263672">
<ele>1386</ele>
</trkpt>
<trkpt lat="44.561898708343506" lon="9.460365772247315">
<ele>1389</ele>
</trkpt>
<trkpt lat="44.561941623687744" lon="9.460258483886719">
<ele>1392</ele>
</trkpt>
<trkpt lat="44.562027454376221" lon="9.460322856903076">
<ele>1395</ele>
</trkpt>
<trkpt lat="44.562156200408936" lon="9.460279941558838">
<ele>1398</ele>
</trkpt>
<trkpt lat="44.56230640411377" lon="9.460151195526123">
<ele>1400</ele>
</trkpt>
<trkpt lat="44.562456607818604" lon="9.460065364837647">
<ele>1403</ele>
</trkpt>
<trkpt lat="44.562585353851318" lon="9.459958076477051">
<ele>1406</ele>
</trkpt>
<trkpt lat="44.562671184539795" lon="9.459829330444336">
<ele>1409</ele>
</trkpt>
<trkpt lat="44.562842845916748" lon="9.45972204208374">
<ele>1412</ele>
</trkpt>
<trkpt lat="44.562907218933105" lon="9.45972204208374">
<ele>1415</ele>
</trkpt>
<trkpt lat="44.562950134277344" lon="9.459829330444336">
<ele>1418</ele>
</trkpt>
<trkpt lat="44.56303596496582" lon="9.459893703460693">
<ele>1420</ele>
</trkpt>
<trkpt lat="44.563121795654297" lon="9.459872245788574">
<ele>1423</ele>
</trkpt>
<trkpt lat="44.563143253326416" lon="9.45997953414917">
<ele>1426</ele>
</trkpt>
<trkpt lat="44.563121795654297" lon="9.460065364837647">
<ele>1429</ele>
</trkpt>
<trkpt lat="44.56329345703125" lon="9.460408687591553">
<ele>1432</ele>
</trkpt>
<trkpt lat="44.563314914703369" lon="9.460601806640625">
<ele>1435</ele>
</trkpt>
<trkpt lat="44.563422203063965" lon="9.461009502410889">
<ele>1440</ele>
</trkpt>
<trkpt lat="44.563422203063965" lon="9.461202621459961">
<ele>1445</ele>
</trkpt>
<trkpt lat="44.563400745391846" lon="9.461309909820557">
<ele>1450</ele>
</trkpt>
<trkpt lat="44.563379287719727" lon="9.461545944213867">
<ele>1455</ele>
</trkpt>
<trkpt lat="44.563400745391846" lon="9.461846351623535">
<ele>1460</ele>
</trkpt>
<trkpt lat="44.563271999359131" lon="9.462275505065918">
<ele>1464</ele>
</trkpt>
<trkpt lat="44.563186168670654" lon="9.462597370147705">
<ele>1469</ele>
</trkpt>
<trkpt lat="44.563164710998535" lon="9.462811946868897">
<ele>1474</ele>
</trkpt>
<trkpt lat="44.563164710998535" lon="9.46298360824585">
<ele>1479</ele>
</trkpt>
<trkpt lat="44.563186168670654" lon="9.463326930999756">
<ele>1484</ele>
</trkpt>
<trkpt lat="44.563250541687012" lon="9.463648796081543">
<ele>1488</ele>
</trkpt>
<trkpt lat="44.563121795654297" lon="9.463906288146973">
<ele>1492</ele>
</trkpt>
<trkpt lat="44.56303596496582" lon="9.464099407196045">
<ele>1496</ele>
</trkpt>
<trkpt lat="44.563057422637939" lon="9.464185237884522">
<ele>1500</ele>
</trkpt>
<trkpt lat="44.563121795654297" lon="9.464249610900879">
<ele>1504</ele>
</trkpt>
<trkpt lat="44.563271999359131" lon="9.464142322540283">
<ele>1508</ele>
</trkpt>
<trkpt lat="44.563443660736084" lon="9.464056491851807">
<ele>1512</ele>
</trkpt>
<trkpt lat="44.563529491424561" lon="9.464077949523926">
<ele>1516</ele>
</trkpt>
<trkpt lat="44.563593864440918" lon="9.464035034179688">
<ele>1520</ele>
</trkpt>
<trkpt lat="44.563679695129395" lon="9.463949203491211">
<ele>1524</ele>
</trkpt>
<trkpt lat="44.563722610473633" lon="9.463863372802734">
<ele>1525</ele>
</trkpt>
<trkpt lat="44.563872814178467" lon="9.463841915130615">
<ele>1526</ele>
</trkpt>
<trkpt lat="44.563980102539063" lon="9.46373462677002">
<ele>1527</ele>
</trkpt>
<trkpt lat="44.563980102539063" lon="9.463670253753662">
<ele>1528</ele>
</trkpt>
<trkpt lat="44.56404447555542" lon="9.463541507720947">
<ele>1530</ele>
</trkpt>
<trkpt lat="44.564108848571777" lon="9.463326930999756">
<ele>1531</ele>
</trkpt>
<trkpt lat="44.564151763916016" lon="9.463305473327637">
<ele>1532</ele>
</trkpt>
<trkpt lat="44.56428050994873" lon="9.463391304016113">
<ele>1533</ele>
</trkpt>
<trkpt lat="44.564366340637207" lon="9.463520050048828">
<ele>1534</ele>
</trkpt>
<trkpt lat="44.564409255981445" lon="9.463777542114258">
<ele>1535</ele>
</trkpt>
<trkpt lat="44.564709663391113" lon="9.46422815322876">
<ele>1542</ele>
</trkpt>
<trkpt lat="44.564731121063232" lon="9.464292526245117">
<ele>1548</ele>
</trkpt>
<trkpt lat="44.564816951751709" lon="9.464399814605713">
<ele>1554</ele>
</trkpt>
<trkpt lat="44.564752578735352" lon="9.46448564529419">
<ele>1561</ele>
</trkpt>
<trkpt lat="44.564731121063232" lon="9.464614391326904">
<ele>1568</ele>
</trkpt>
<trkpt lat="44.564688205718994" lon="9.464743137359619">
<ele>1574</ele>
</trkpt>
<trkpt lat="44.564645290374756" lon="9.464786052703857">
<ele>1580</ele>
</trkpt>
<trkpt lat="44.564602375030518" lon="9.464893341064453">
<ele>1587</ele>
</trkpt>
<trkpt lat="44.564516544342041" lon="9.464936256408691">
<ele>1594</ele>
</trkpt>
<trkpt lat="44.564473628997803" lon="9.464936256408691">
<ele>1600</ele>
</trkpt>
<trkpt lat="44.564387798309326" lon="9.465086460113525">
<ele>1603</ele>
</trkpt>
<trkpt lat="44.56430196762085" lon="9.465172290802002">
<ele>1605</ele>
</trkpt>
<trkpt lat="44.564065933227539" lon="9.465365409851074">
<ele>1608</ele>
</trkpt>
<trkpt lat="44.563980102539063" lon="9.465408325195313">
<ele>1611</ele>
</trkpt>
<trkpt lat="44.563894271850586" lon="9.46547269821167">
<ele>1614</ele>
</trkpt>
<trkpt lat="44.563851356506348" lon="9.465579986572266">
<ele>1616</ele>
</trkpt>
<trkpt lat="44.563808441162109" lon="9.465708732604981">
<ele>1619</ele>
</trkpt>
<trkpt lat="44.56378698348999" lon="9.465880393981934">
<ele>1622</ele>
</trkpt>
<trkpt lat="44.563722610473633" lon="9.465944766998291">
<ele>1624</ele>
</trkpt>
<trkpt lat="44.563593864440918" lon="9.465987682342529">
<ele>1627</ele>
</trkpt>
<trkpt lat="44.563508033752441" lon="9.465987682342529">
<ele>1628</ele>
</trkpt>
<trkpt lat="44.563486576080322" lon="9.466052055358887">
<ele>1630</ele>
</trkpt>
<trkpt lat="44.563422203063965" lon="9.465987682342529">
<ele>1631</ele>
</trkpt>
<trkpt lat="44.563271999359131" lon="9.465987682342529">
<ele>1633</ele>
</trkpt>
<trkpt lat="44.563186168670654" lon="9.466009140014648">
<ele>1634</ele>
</trkpt>
<trkpt lat="44.563143253326416" lon="9.466052055358887">
<ele>1635</ele>
</trkpt>
<trkpt lat="44.563100337982178" lon="9.46622371673584">
<ele>1637</ele>
</trkpt>
<trkpt lat="44.562993049621582" lon="9.466309547424316">
<ele>1638</ele>
</trkpt>
<trkpt lat="44.562950134277344" lon="9.466352462768555">
<ele>1640</ele>
</trkpt>
<trkpt lat="44.562821388244629" lon="9.466266632080078">
<ele>1641</ele>
</trkpt>
<trkpt lat="44.562692642211914" lon="9.466288089752197">
<ele>1643</ele>
</trkpt>
<trkpt lat="44.562606811523438" lon="9.466373920440674">
<ele>1644</ele>
</trkpt>
<trkpt lat="44.562563896179199" lon="9.466395378112793">
<ele>1646</ele>
</trkpt>
<trkpt lat="44.562392234802246" lon="9.466438293457031">
<ele>1647</ele>
</trkpt>
<trkpt lat="44.562220573425293" lon="9.466309547424316">
<ele>1649</ele>
</trkpt>
<trkpt lat="44.562091827392578" lon="9.466331005096436">
<ele>1651</ele>
</trkpt>
<trkpt lat="44.561984539031982" lon="9.466331005096436">
<ele>1652</ele>
</trkpt>
<trkpt lat="44.561920166015625" lon="9.466395378112793">
<ele>1654</ele>
</trkpt>
<trkpt lat="44.561812877655029" lon="9.466524124145508">
<ele>1655</ele>
</trkpt>
<trkpt lat="44.561812877655029" lon="9.466738700866699">
<ele>1657</ele>
</trkpt>
<trkpt lat="44.561834335327148" lon="9.466867446899414">
<ele>1644</ele>
</trkpt>
<trkpt lat="44.561684131622314" lon="9.466996192932129">
<ele>1631</ele>
</trkpt>
<trkpt lat="44.5615553855896" lon="9.467039108276367">
<ele>1619</ele>
</trkpt>
<trkpt lat="44.561362266540527" lon="9.467082023620606">
<ele>1606</ele>
</trkpt>
<trkpt lat="44.561041155830026" lon="9.467077665030956">
<ele>1593</ele>
</trkpt>
<trkpt lat="44.56104040145874" lon="9.467082023620606">
<ele>1600</ele>
</trkpt>
<trkpt lat="44.561362266540527" lon="9.467082023620606">
<ele>1606</ele>
</trkpt>
<trkpt lat="44.5615553855896" lon="9.467039108276367">
<ele>1613</ele>
</trkpt>
<trkpt lat="44.561684131622314" lon="9.466996192932129">
<ele>1620</ele>
</trkpt>
<trkpt lat="44.561834335327148" lon="9.466867446899414">
<ele>1626</ele>
</trkpt>
<trkpt lat="44.561984539031982" lon="9.466996192932129">
<ele>1633</ele>
</trkpt>
<trkpt lat="44.56204891204834" lon="9.467017650604248">
<ele>1640</ele>
</trkpt>
<trkpt lat="44.56228494644165" lon="9.467275142669678">
<ele>1647</ele>
</trkpt>
<trkpt lat="44.56230640411377" lon="9.467360973358154">
<ele>1653</ele>
</trkpt>
<trkpt lat="44.562349319458008" lon="9.467597007751465">
<ele>1660</ele>
</trkpt>
<trkpt lat="44.562349319458008" lon="9.46772575378418">
<ele>1659</ele>
</trkpt>
<trkpt lat="44.562327861785889" lon="9.467811584472656">
<ele>1657</ele>
</trkpt>
<trkpt lat="44.562349319458008" lon="9.467897415161133">
<ele>1656</ele>
</trkpt>
<trkpt lat="44.562327861785889" lon="9.467983245849609">
<ele>1655</ele>
</trkpt>
<trkpt lat="44.562370777130127" lon="9.468069076538086">
<ele>1654</ele>
</trkpt>
<trkpt lat="44.562413692474365" lon="9.468133449554443">
<ele>1652</ele>
</trkpt>
<trkpt lat="44.562499523162842" lon="9.468283653259277">
<ele>1651</ele>
</trkpt>
<trkpt lat="44.562520980834961" lon="9.468412399291992">
<ele>1650</ele>
</trkpt>
<trkpt lat="44.562520980834961" lon="9.468519687652588">
<ele>1648</ele>
</trkpt>
<trkpt lat="44.562606811523438" lon="9.468691349029541">
<ele>1647</ele>
</trkpt>
<trkpt lat="44.562864303588867" lon="9.468841552734375">
<ele>1650</ele>
</trkpt>
<trkpt lat="44.562928676605225" lon="9.468841552734375">
<ele>1654</ele>
</trkpt>
<trkpt lat="44.563078880310059" lon="9.468905925750732">
<ele>1658</ele>
</trkpt>
<trkpt lat="44.563121795654297" lon="9.468841552734375">
<ele>1661</ele>
</trkpt>
<trkpt lat="44.563357830047607" lon="9.468691349029541">
<ele>1664</ele>
</trkpt>
<trkpt lat="44.563486576080322" lon="9.468691349029541">
<ele>1668</ele>
</trkpt>
<trkpt lat="44.56378698348999" lon="9.468519687652588">
<ele>1672</ele>
</trkpt>
<trkpt lat="44.563872814178467" lon="9.468498229980469">
<ele>1675</ele>
</trkpt>
<trkpt lat="44.563958644866943" lon="9.468433856964111">
<ele>1678</ele>
</trkpt>
<trkpt lat="44.56428050994873" lon="9.468326568603516">
<ele>1682</ele>
</trkpt>
<trkpt lat="44.564430713653564" lon="9.468283653259277">
<ele>1682</ele>
</trkpt>
<trkpt lat="44.564645290374756" lon="9.468348026275635">
<ele>1682</ele>
</trkpt>
<trkpt lat="44.564902782440186" lon="9.468433856964111">
<ele>1682</ele>
</trkpt>
<trkpt lat="44.565074443817139" lon="9.46847677230835">
<ele>1683</ele>
</trkpt>
<trkpt lat="44.565439224243164" lon="9.46871280670166">
<ele>1683</ele>
</trkpt>
<trkpt lat="44.565460681915283" lon="9.468669891357422">
<ele>1683</ele>
</trkpt>
<trkpt lat="44.565439224243164" lon="9.46871280670166">
<ele>1679</ele>
</trkpt>
<trkpt lat="44.565074443817139" lon="9.46847677230835">
<ele>1675</ele>
</trkpt>
<trkpt lat="44.564902782440186" lon="9.468433856964111">
<ele>1672</ele>
</trkpt>
<trkpt lat="44.564645290374756" lon="9.468348026275635">
<ele>1668</ele>
</trkpt>
<trkpt lat="44.564430713653564" lon="9.468283653259277">
<ele>1664</ele>
</trkpt>
<trkpt lat="44.56428050994873" lon="9.468326568603516">
<ele>1660</ele>
</trkpt>
<trkpt lat="44.563958644866943" lon="9.468433856964111">
<ele>1656</ele>
</trkpt>
<trkpt lat="44.563872814178467" lon="9.468498229980469">
<ele>1653</ele>
</trkpt>
<trkpt lat="44.56378698348999" lon="9.468519687652588">
<ele>1649</ele>
</trkpt>
<trkpt lat="44.563486576080322" lon="9.468691349029541">
<ele>1645</ele>
</trkpt>
<trkpt lat="44.563357830047607" lon="9.468691349029541">
<ele>1641</ele>
</trkpt>
<trkpt lat="44.563121795654297" lon="9.468841552734375">
<ele>1637</ele>
</trkpt>
<trkpt lat="44.563078880310059" lon="9.468905925750732">
<ele>1633</ele>
</trkpt>
<trkpt lat="44.562928676605225" lon="9.468841552734375">
<ele>1629</ele>
</trkpt>
<trkpt lat="44.562864303588867" lon="9.468841552734375">
<ele>1626</ele>
</trkpt>
<trkpt lat="44.562606811523438" lon="9.468691349029541">
<ele>1622</ele>
</trkpt>
<trkpt lat="44.56254243850708" lon="9.468605518341065">
<ele>1618</ele>
</trkpt>
<trkpt lat="44.562520980834961" lon="9.468519687652588">
<ele>1614</ele>
</trkpt>
<trkpt lat="44.562499523162842" lon="9.468283653259277">
<ele>1610</ele>
</trkpt>
<trkpt lat="44.562456607818604" lon="9.468197822570801">
<ele>1606</ele>
</trkpt>
<trkpt lat="44.562413692474365" lon="9.468326568603516">
<ele>1604</ele>
</trkpt>
<trkpt lat="44.56228494644165" lon="9.468562602996826">
<ele>1601</ele>
</trkpt>
<trkpt lat="44.562435150146484" lon="9.469506740570068">
<ele>1599</ele>
</trkpt>
<trkpt lat="44.562585353851318" lon="9.470279216766357">
<ele>1596</ele>
</trkpt>
<trkpt lat="44.562671184539795" lon="9.470515251159668">
<ele>1594</ele>
</trkpt>
<trkpt lat="44.562692642211914" lon="9.470922946929932">
<ele>1592</ele>
</trkpt>
<trkpt lat="44.562606811523438" lon="9.471116065979004">
<ele>1589</ele>
</trkpt>
<trkpt lat="44.56230640411377" lon="9.471309185028076">
<ele>1587</ele>
</trkpt>
<trkpt lat="44.562156200408936" lon="9.471652507781982">
<ele>1584</ele>
</trkpt>
<trkpt lat="44.561984539031982" lon="9.471824169158936">
<ele>1582</ele>
</trkpt>
<trkpt lat="44.561941623687744" lon="9.471931457519531">
<ele>1584</ele>
</trkpt>
<trkpt lat="44.562199115753174" lon="9.472231864929199">
<ele>1587</ele>
</trkpt>
<trkpt lat="44.562349319458008" lon="9.472296237945557">
<ele>1590</ele>
</trkpt>
<trkpt lat="44.562414614483714" lon="9.472333453595638">
<ele>1592</ele>
</trkpt>
<trkpt lat="44.562499523162842" lon="9.472382068634033">
<ele>1594</ele>
</trkpt>
<trkpt lat="44.562864303588867" lon="9.472510814666748">
<ele>1597</ele>
</trkpt>
<trkpt lat="44.563186168670654" lon="9.472639560699463">
<ele>1600</ele>
</trkpt>
<trkpt lat="44.563379287719727" lon="9.473025798797607">
<ele>1602</ele>
</trkpt>
<trkpt lat="44.563572406768799" lon="9.473197460174561">
<ele>1604</ele>
</trkpt>
<trkpt lat="44.56378698348999" lon="9.473304748535156">
<ele>1607</ele>
</trkpt>
<trkpt lat="44.564130306243896" lon="9.473412036895752">
<ele>1606</ele>
</trkpt>
<trkpt lat="44.564344882965088" lon="9.473733901977539">
<ele>1605</ele>
</trkpt>
<trkpt lat="44.564688205718994" lon="9.47371244430542">
<ele>1604</ele>
</trkpt>
<trkpt lat="44.56479549407959" lon="9.473798274993897">
<ele>1603</ele>
</trkpt>
<trkpt lat="44.564816951751709" lon="9.473948478698731">
<ele>1602</ele>
</trkpt>
<trkpt lat="44.56479549407959" lon="9.474227428436279">
<ele>1600</ele>
</trkpt>
<trkpt lat="44.564838409423828" lon="9.474527835845947">
<ele>1599</ele>
</trkpt>
<trkpt lat="44.565160274505615" lon="9.47521448135376">
<ele>1598</ele>
</trkpt>
<trkpt lat="44.565160274505615" lon="9.47547197341919">
<ele>1597</ele>
</trkpt>
<trkpt lat="44.565074443817139" lon="9.475665092468262">
<ele>1596</ele>
</trkpt>
<trkpt lat="44.565074443817139" lon="9.475944042205811">
<ele>1594</ele>
</trkpt>
<trkpt lat="44.565246105194092" lon="9.476265907287598">
<ele>1592</ele>
</trkpt>
<trkpt lat="44.565246105194092" lon="9.476373195648193">
<ele>1591</ele>
</trkpt>
<trkpt lat="44.5650315284729" lon="9.476931095123291">
<ele>1589</ele>
</trkpt>
<trkpt lat="44.564709663391113" lon="9.477596282958984">
<ele>1587</ele>
</trkpt>
<trkpt lat="44.564327951520681" lon="9.478154182434082">
<ele>1585</ele>
</trkpt>
<trkpt lat="44.564151763916016" lon="9.478411674499512">
<ele>1583</ele>
</trkpt>
<trkpt lat="44.563872814178467" lon="9.478733539581299">
<ele>1582</ele>
</trkpt>
<trkpt lat="44.56378698348999" lon="9.479248523712158">
<ele>1580</ele>
</trkpt>
<trkpt lat="44.563658237457275" lon="9.479506015777588">
<ele>1578</ele>
</trkpt>
<trkpt lat="44.563465118408203" lon="9.479827880859375">
<ele>1578</ele>
</trkpt>
<trkpt lat="44.563164710998535" lon="9.480106830596924">
<ele>1578</ele>
</trkpt>
<trkpt lat="44.562971591949463" lon="9.480235576629639">
<ele>1579</ele>
</trkpt>
<trkpt lat="44.562821388244629" lon="9.480278491973877">
<ele>1579</ele>
</trkpt>
<trkpt lat="44.562113285064697" lon="9.480128288269043">
<ele>1579</ele>
</trkpt>
<trkpt lat="44.561812877655029" lon="9.48021411895752">
<ele>1579</ele>
</trkpt>
<trkpt lat="44.561405181884766" lon="9.480643272399902">
<ele>1579</ele>
</trkpt>
<trkpt lat="44.56129789352417" lon="9.481050968170166">
<ele>1580</ele>
</trkpt>
<trkpt lat="44.561147689819336" lon="9.481265544891357">
<ele>1580</ele>
</trkpt>
<trkpt lat="44.560933113098145" lon="9.481887817382813">
<ele>1580</ele>
</trkpt>
<trkpt lat="44.560761451721191" lon="9.482252597808838">
<ele>1580</ele>
</trkpt>
<trkpt lat="44.560396671295166" lon="9.482488632202148">
<ele>1580</ele>
</trkpt>
<trkpt lat="44.560182094573975" lon="9.48293924331665">
<ele>1580</ele>
</trkpt>
<trkpt lat="44.560144543647766" lon="9.482988612726331">
<ele>1580</ele>
</trkpt>
<trkpt lat="44.559774398803711" lon="9.483475685119629">
<ele>1580</ele>
</trkpt>
<trkpt lat="44.559602737426758" lon="9.483819007873535">
<ele>1579</ele>
</trkpt>
<trkpt lat="44.559431076049805" lon="9.483969211578369">
<ele>1579</ele>
</trkpt>
<trkpt lat="44.559323787689209" lon="9.484720230102539">
<ele>1579</ele>
</trkpt>
<trkpt lat="44.559152126312256" lon="9.484977722167969">
<ele>1579</ele>
</trkpt>
<trkpt lat="44.559001922607422" lon="9.485256671905518">
<ele>1579</ele>
</trkpt>
<trkpt lat="44.558873176574707" lon="9.485642910003662">
<ele>1579</ele>
</trkpt>
<trkpt lat="44.558873176574707" lon="9.485900402069092">
<ele>1579</ele>
</trkpt>
<trkpt lat="44.55880880355835" lon="9.485986232757568">
<ele>1578</ele>
</trkpt>
<trkpt lat="44.558765888214111" lon="9.486007690429688">
<ele>1578</ele>
</trkpt>
<trkpt lat="44.558702604845166" lon="9.486007690429688">
<ele>1578</ele>
</trkpt>
<trkpt lat="44.558637142181396" lon="9.486050605773926">
<ele>1580</ele>
</trkpt>
<trkpt lat="44.55855131149292" lon="9.48620080947876">
<ele>1581</ele>
</trkpt>
<trkpt lat="44.558508396148682" lon="9.486265182495117">
<ele>1582</ele>
</trkpt>
<trkpt lat="44.558250904083252" lon="9.486372470855713">
<ele>1584</ele>
</trkpt>
<trkpt lat="44.558143615722656" lon="9.486479759216309">
<ele>1586</ele>
</trkpt>
<trkpt lat="44.557757377624512" lon="9.486887454986572">
<ele>1587</ele>
</trkpt>
<trkpt lat="44.557650089263916" lon="9.487037658691406">
<ele>1588</ele>
</trkpt>
<trkpt lat="44.557628631591797" lon="9.487102031707764">
<ele>1590</ele>
</trkpt>
<trkpt lat="44.557435512542725" lon="9.487359523773193">
<ele>1592</ele>
</trkpt>
<trkpt lat="44.557220935821533" lon="9.487681388854981">
<ele>1593</ele>
</trkpt>
<trkpt lat="44.557113647460938" lon="9.487810134887695">
<ele>1600</ele>
</trkpt>
<trkpt lat="44.556941986083984" lon="9.488110542297363">
<ele>1608</ele>
</trkpt>
<trkpt lat="44.556899070739746" lon="9.48819637298584">
<ele>1615</ele>
</trkpt>
<trkpt lat="44.556877613067627" lon="9.488303661346436">
<ele>1622</ele>
</trkpt>
<trkpt lat="44.556705951690674" lon="9.488775730133057">
<ele>1630</ele>
</trkpt>
<trkpt lat="44.556534290313721" lon="9.488925933837891">
<ele>1637</ele>
</trkpt>
<trkpt lat="44.556427001953125" lon="9.489076137542725">
<ele>1644</ele>
</trkpt>
<trkpt lat="44.55629825592041" lon="9.489161968231201">
<ele>1651</ele>
</trkpt>
<trkpt lat="44.555847644805908" lon="9.48920488357544">
<ele>1659</ele>
</trkpt>
<trkpt lat="44.555675983428955" lon="9.489247798919678">
<ele>1666</ele>
</trkpt>
<trkpt lat="44.555718898773193" lon="9.48969841003418">
<ele>1672</ele>
</trkpt>
<trkpt lat="44.555697441101074" lon="9.489870071411133">
<ele>1679</ele>
</trkpt>
<trkpt lat="44.555633068084717" lon="9.489977359771729">
<ele>1685</ele>
</trkpt>
<trkpt lat="44.555482864379883" lon="9.490041732788086">
<ele>1692</ele>
</trkpt>
<trkpt lat="44.555332660675049" lon="9.490063190460205">
<ele>1698</ele>
</trkpt>
<trkpt lat="44.555203914642334" lon="9.490041732788086">
<ele>1704</ele>
</trkpt>
<trkpt lat="44.555010795593262" lon="9.489998817443848">
<ele>1711</ele>
</trkpt>
<trkpt lat="44.554646015167236" lon="9.489955902099609">
<ele>1717</ele>
</trkpt>
<trkpt lat="44.55456018447876" lon="9.489977359771729">
<ele>1724</ele>
</trkpt>
<trkpt lat="44.554517269134521" lon="9.490020275115967">
<ele>1730</ele>
</trkpt>
<trkpt lat="44.554431438446045" lon="9.490127563476563">
<ele>1731</ele>
</trkpt>
<trkpt lat="44.554324150085449" lon="9.490256309509277">
<ele>1732</ele>
</trkpt>
<trkpt lat="44.554109573364258" lon="9.490470886230469">
<ele>1733</ele>
</trkpt>
<trkpt lat="44.554023742675781" lon="9.490599632263184">
<ele>1734</ele>
</trkpt>
<trkpt lat="44.553916454315186" lon="9.490492343902588">
<ele>1734</ele>
</trkpt>
<trkpt lat="44.553731549531221" lon="9.490399891510606">
<ele>1735</ele>
</trkpt>
<trkpt lat="44.553530216217041" lon="9.490299224853516">
<ele>1736</ele>
</trkpt>
<trkpt lat="44.553465843200684" lon="9.490299224853516">
<ele>1737</ele>
</trkpt>
<trkpt lat="44.553251266479492" lon="9.490342140197754">
<ele>1738</ele>
</trkpt>
<trkpt lat="44.553122520446777" lon="9.490320682525635">
<ele>1739</ele>
</trkpt>
<trkpt lat="44.552993774414063" lon="9.490213394165039">
<ele>1743</ele>
</trkpt>
<trkpt lat="44.552843570709229" lon="9.490149021148682">
<ele>1748</ele>
</trkpt>
<trkpt lat="44.552543163299561" lon="9.490084648132324">
<ele>1752</ele>
</trkpt>
<trkpt lat="44.552350044250488" lon="9.489998817443848">
<ele>1756</ele>
</trkpt>
<trkpt lat="44.552242755889893" lon="9.489998817443848">
<ele>1760</ele>
</trkpt>
<trkpt lat="44.552071094512939" lon="9.490020275115967">
<ele>1765</ele>
</trkpt>
<trkpt lat="44.55181360244751" lon="9.490020275115967">
<ele>1769</ele>
</trkpt>
<trkpt lat="44.551684856414795" lon="9.490149021148682">
<ele>1773</ele>
</trkpt>
<trkpt lat="44.551384449005127" lon="9.490213394165039">
<ele>1778</ele>
</trkpt>
<trkpt lat="44.551148414611816" lon="9.490342140197754">
<ele>1782</ele>
</trkpt>
<trkpt lat="44.551041126251221" lon="9.490492343902588">
<ele>1786</ele>
</trkpt>
<trkpt lat="44.55080509185791" lon="9.49044942855835">
<ele>1790</ele>
</trkpt>
<trkpt lat="44.550676345825195" lon="9.490342140197754">
<ele>1795</ele>
</trkpt>
<trkpt lat="44.55063795670867" lon="9.490291764959693">
<ele>1799</ele>
</trkpt>
<trkpt lat="44.550676345825195" lon="9.490342140197754">
<ele>1797</ele>
</trkpt>
<trkpt lat="44.55080509185791" lon="9.49044942855835">
<ele>1795</ele>
</trkpt>
<trkpt lat="44.551041126251221" lon="9.490492343902588">
<ele>1793</ele>
</trkpt>
<trkpt lat="44.551148414611816" lon="9.490342140197754">
<ele>1791</ele>
</trkpt>
<trkpt lat="44.551384449005127" lon="9.490213394165039">
<ele>1790</ele>
</trkpt>
<trkpt lat="44.551684856414795" lon="9.490149021148682">
<ele>1788</ele>
</trkpt>
<trkpt lat="44.55181360244751" lon="9.490020275115967">
<ele>1786</ele>
</trkpt>
<trkpt lat="44.552071094512939" lon="9.490020275115967">
<ele>1784</ele>
</trkpt>
<trkpt lat="44.552242755889893" lon="9.489998817443848">
<ele>1782</ele>
</trkpt>
<trkpt lat="44.552350044250488" lon="9.489998817443848">
<ele>1780</ele>
</trkpt>
<trkpt lat="44.552543163299561" lon="9.490084648132324">
<ele>1776</ele>
</trkpt>
<trkpt lat="44.552843570709229" lon="9.490149021148682">
<ele>1771</ele>
</trkpt>
<trkpt lat="44.552993774414063" lon="9.490213394165039">
<ele>1767</ele>
</trkpt>
<trkpt lat="44.553122520446777" lon="9.490320682525635">
<ele>1763</ele>
</trkpt>
<trkpt lat="44.553251266479492" lon="9.490342140197754">
<ele>1758</ele>
</trkpt>
<trkpt lat="44.553465843200684" lon="9.490299224853516">
<ele>1754</ele>
</trkpt>
<trkpt lat="44.553530216217041" lon="9.490299224853516">
<ele>1750</ele>
</trkpt>
<trkpt lat="44.553916454315186" lon="9.490492343902588">
<ele>1746</ele>
</trkpt>
<trkpt lat="44.554023742675781" lon="9.490599632263184">
<ele>1741</ele>
</trkpt>
<trkpt lat="44.554109573364258" lon="9.490470886230469">
<ele>1737</ele>
</trkpt>
<trkpt lat="44.554324150085449" lon="9.490256309509277">
<ele>1732</ele>
</trkpt>
<trkpt lat="44.554431438446045" lon="9.490127563476563">
<ele>1727</ele>
</trkpt>
<trkpt lat="44.554517269134521" lon="9.490020275115967">
<ele>1722</ele>
</trkpt>
<trkpt lat="44.55456018447876" lon="9.489977359771729">
<ele>1717</ele>
</trkpt>
<trkpt lat="44.555010795593262" lon="9.489998817443848">
<ele>1712</ele>
</trkpt>
<trkpt lat="44.555203914642334" lon="9.490041732788086">
<ele>1707</ele>
</trkpt>
<trkpt lat="44.555332660675049" lon="9.490063190460205">
<ele>1702</ele>
</trkpt>
<trkpt lat="44.555482864379883" lon="9.490041732788086">
<ele>1697</ele>
</trkpt>
<trkpt lat="44.555633068084717" lon="9.489977359771729">
<ele>1692</ele>
</trkpt>
<trkpt lat="44.555697441101074" lon="9.489870071411133">
<ele>1687</ele>
</trkpt>
<trkpt lat="44.555718898773193" lon="9.48969841003418">
<ele>1679</ele>
</trkpt>
<trkpt lat="44.555675983428955" lon="9.489247798919678">
<ele>1671</ele>
</trkpt>
<trkpt lat="44.555847644805908" lon="9.48920488357544">
<ele>1663</ele>
</trkpt>
<trkpt lat="44.55629825592041" lon="9.489161968231201">
<ele>1655</ele>
</trkpt>
<trkpt lat="44.556427001953125" lon="9.489076137542725">
<ele>1646</ele>
</trkpt>
<trkpt lat="44.556534290313721" lon="9.488925933837891">
<ele>1638</ele>
</trkpt>
<trkpt lat="44.556705951690674" lon="9.488775730133057">
<ele>1630</ele>
</trkpt>
<trkpt lat="44.556877613067627" lon="9.488303661346436">
<ele>1622</ele>
</trkpt>
<trkpt lat="44.556899070739746" lon="9.48819637298584">
<ele>1614</ele>
</trkpt>
<trkpt lat="44.556941986083984" lon="9.488110542297363">
<ele>1606</ele>
</trkpt>
<trkpt lat="44.557113647460938" lon="9.487810134887695">
<ele>1604</ele>
</trkpt>
<trkpt lat="44.557220935821533" lon="9.487681388854981">
<ele>1601</ele>
</trkpt>
<trkpt lat="44.557435512542725" lon="9.487359523773193">
<ele>1599</ele>
</trkpt>
<trkpt lat="44.557585716247559" lon="9.487166404724121">
<ele>1597</ele>
</trkpt>
<trkpt lat="44.557628631591797" lon="9.487102031707764">
<ele>1594</ele>
</trkpt>
<trkpt lat="44.557757377624512" lon="9.486887454986572">
<ele>1592</ele>
</trkpt>
<trkpt lat="44.558143615722656" lon="9.486479759216309">
<ele>1590</ele>
</trkpt>
<trkpt lat="44.558250904083252" lon="9.486372470855713">
<ele>1587</ele>
</trkpt>
<trkpt lat="44.558465480804443" lon="9.486308097839356">
<ele>1585</ele>
</trkpt>
<trkpt lat="44.558508396148682" lon="9.486265182495117">
<ele>1583</ele>
</trkpt>
<trkpt lat="44.558637142181396" lon="9.486050605773926">
<ele>1580</ele>
</trkpt>
<trkpt lat="44.558702604845166" lon="9.486007690429688">
<ele>1578</ele>
</trkpt>
<trkpt lat="44.558765888214111" lon="9.486007690429688">
<ele>1579</ele>
</trkpt>
<trkpt lat="44.55880880355835" lon="9.485986232757568">
<ele>1579</ele>
</trkpt>
<trkpt lat="44.558873176574707" lon="9.485900402069092">
<ele>1580</ele>
</trkpt>
<trkpt lat="44.558873176574707" lon="9.485642910003662">
<ele>1581</ele>
</trkpt>
<trkpt lat="44.559001922607422" lon="9.485256671905518">
<ele>1582</ele>
</trkpt>
<trkpt lat="44.559152126312256" lon="9.484977722167969">
<ele>1582</ele>
</trkpt>
<trkpt lat="44.559323787689209" lon="9.484720230102539">
<ele>1583</ele>
</trkpt>
<trkpt lat="44.559431076049805" lon="9.483969211578369">
<ele>1584</ele>
</trkpt>
<trkpt lat="44.559602737426758" lon="9.483819007873535">
<ele>1584</ele>
</trkpt>
<trkpt lat="44.559774398803711" lon="9.483475685119629">
<ele>1585</ele>
</trkpt>
<trkpt lat="44.560144543647766" lon="9.482988612726331">
<ele>1584</ele>
</trkpt>
<trkpt lat="44.560182094573975" lon="9.48293924331665">
<ele>1583</ele>
</trkpt>
<trkpt lat="44.560396671295166" lon="9.482488632202148">
<ele>1582</ele>
</trkpt>
<trkpt lat="44.560761451721191" lon="9.482252597808838">
<ele>1581</ele>
</trkpt>
<trkpt lat="44.560933113098145" lon="9.481887817382813">
<ele>1580</ele>
</trkpt>
<trkpt lat="44.560890197753906" lon="9.481887817382813">
<ele>1579</ele>
</trkpt>
<trkpt lat="44.560825824737549" lon="9.481973648071289">
<ele>1578</ele>
</trkpt>
<trkpt lat="44.560761451721191" lon="9.482080936431885">
<ele>1577</ele>
</trkpt>
<trkpt lat="44.560675621032715" lon="9.482016563415527">
<ele>1576</ele>
</trkpt>
<trkpt lat="44.560589790344238" lon="9.481973648071289">
<ele>1575</ele>
</trkpt>
<trkpt lat="44.560482501983643" lon="9.481909275054932">
<ele>1572</ele>
</trkpt>
<trkpt lat="44.560267925262451" lon="9.481844902038574">
<ele>1570</ele>
</trkpt>
<trkpt lat="44.560139179229736" lon="9.481844902038574">
<ele>1567</ele>
</trkpt>
<trkpt lat="44.559838771820068" lon="9.48169469833374">
<ele>1565</ele>
</trkpt>
<trkpt lat="44.559731483459473" lon="9.481630325317383">
<ele>1562</ele>
</trkpt>
<trkpt lat="44.559667110443115" lon="9.481544494628906">
<ele>1559</ele>
</trkpt>
<trkpt lat="44.55955982208252" lon="9.481372833251953">
<ele>1557</ele>
</trkpt>
<trkpt lat="44.5595383644104" lon="9.481179714202881">
<ele>1554</ele>
</trkpt>
<trkpt lat="44.559473991394043" lon="9.481115341186523">
<ele>1552</ele>
</trkpt>
<trkpt lat="44.55930233001709" lon="9.481158256530762">
<ele>1549</ele>
</trkpt>
<trkpt lat="44.559345245361328" lon="9.48094367980957">
<ele>1546</ele>
</trkpt>
<trkpt lat="44.55930233001709" lon="9.480836391448975">
<ele>1544</ele>
</trkpt>
<trkpt lat="44.559345245361328" lon="9.480750560760498">
<ele>1541</ele>
</trkpt>
<trkpt lat="44.559323787689209" lon="9.480600357055664">
<ele>1538</ele>
</trkpt>
<trkpt lat="44.559366703033447" lon="9.480407238006592">
<ele>1536</ele>
</trkpt>
<trkpt lat="44.559388160705566" lon="9.480299949645996">
<ele>1533</ele>
</trkpt>
<trkpt lat="44.559280872344971" lon="9.480128288269043">
<ele>1530</ele>
</trkpt>
<trkpt lat="44.559130668640137" lon="9.480063915252686">
<ele>1527</ele>
</trkpt>
<trkpt lat="44.559109210968018" lon="9.479999542236328">
<ele>1525</ele>
</trkpt>
<trkpt lat="44.559023380279541" lon="9.479935169219971">
<ele>1522</ele>
</trkpt>
<trkpt lat="44.558894634246826" lon="9.479849338531494">
<ele>1520</ele>
</trkpt>
<trkpt lat="44.55880880355835" lon="9.479870796203613">
<ele>1518</ele>
</trkpt>
<trkpt lat="44.558765888214111" lon="9.479806423187256">
<ele>1516</ele>
</trkpt>
<trkpt lat="44.558658599853516" lon="9.47969913482666">
<ele>1514</ele>
</trkpt>
<trkpt lat="44.558529853820801" lon="9.479634761810303">
<ele>1512</ele>
</trkpt>
<trkpt lat="44.558250904083252" lon="9.479506015777588">
<ele>1510</ele>
</trkpt>
<trkpt lat="44.558186531066895" lon="9.479441642761231">
<ele>1508</ele>
</trkpt>
<trkpt lat="44.55805778503418" lon="9.479355812072754">
<ele>1506</ele>
</trkpt>
<trkpt lat="44.558036327362061" lon="9.479291439056397">
<ele>1504</ele>
</trkpt>
<trkpt lat="44.557950496673584" lon="9.479269981384277">
<ele>1502</ele>
</trkpt>
<trkpt lat="44.557929039001465" lon="9.479227066040039">
<ele>1500</ele>
</trkpt>
<trkpt lat="44.557843208312988" lon="9.47920560836792">
<ele>1498</ele>
</trkpt>
<trkpt lat="44.557778835296631" lon="9.479248523712158">
<ele>1495</ele>
</trkpt>
<trkpt lat="44.557757377624512" lon="9.479184150695801">
<ele>1493</ele>
</trkpt>
<trkpt lat="44.557757377624512" lon="9.478991031646729">
<ele>1491</ele>
</trkpt>
<trkpt lat="44.557778835296631" lon="9.478840827941895">
<ele>1489</ele>
</trkpt>
<trkpt lat="44.557693004608154" lon="9.478819370269775">
<ele>1487</ele>
</trkpt>
<trkpt lat="44.557564258575439" lon="9.478776454925537">
<ele>1484</ele>
</trkpt>
<trkpt lat="44.55754280090332" lon="9.47871208190918">
<ele>1482</ele>
</trkpt>
<trkpt lat="44.557414054870605" lon="9.478583335876465">
<ele>1480</ele>
</trkpt>
<trkpt lat="44.557328224182129" lon="9.478518962860107">
<ele>1478</ele>
</trkpt>
<trkpt lat="44.55730676651001" lon="9.47845458984375">
<ele>1476</ele>
</trkpt>
<trkpt lat="44.557178020477295" lon="9.478390216827393">
<ele>1474</ele>
</trkpt>
<trkpt lat="44.55704927444458" lon="9.478347301483154">
<ele>1472</ele>
</trkpt>
<trkpt lat="44.557006359100342" lon="9.478304386138916">
<ele>1470</ele>
</trkpt>
<trkpt lat="44.556770324707031" lon="9.47821855545044">
<ele>1469</ele>
</trkpt>
<trkpt lat="44.556684494018555" lon="9.478154182434082">
<ele>1467</ele>
</trkpt>
<trkpt lat="44.556620121002197" lon="9.478175640106201">
<ele>1465</ele>
</trkpt>
<trkpt lat="44.556534290313721" lon="9.47819709777832">
<ele>1463</ele>
</trkpt>
<trkpt lat="44.556469917297363" lon="9.478111267089844">
<ele>1461</ele>
</trkpt>
<trkpt lat="44.556384086608887" lon="9.477918148040772">
<ele>1458</ele>
</trkpt>
<trkpt lat="44.556319713592529" lon="9.477875232696533">
<ele>1456</ele>
</trkpt>
<trkpt lat="44.556233882904053" lon="9.477875232696533">
<ele>1453</ele>
</trkpt>
<trkpt lat="44.556212425231934" lon="9.477789402008057">
<ele>1451</ele>
</trkpt>
<trkpt lat="44.556169509887695" lon="9.477767944335938">
<ele>1448</ele>
</trkpt>
<trkpt lat="44.556083679199219" lon="9.47770357131958">
<ele>1445</ele>
</trkpt>
<trkpt lat="44.556083679199219" lon="9.477617740631104">
<ele>1443</ele>
</trkpt>
<trkpt lat="44.55604076385498" lon="9.477381706237793">
<ele>1440</ele>
</trkpt>
<trkpt lat="44.555997848510742" lon="9.477231502532959">
<ele>1438</ele>
</trkpt>
<trkpt lat="44.555826187133789" lon="9.477038383483887">
<ele>1435</ele>
</trkpt>
<trkpt lat="44.555718898773193" lon="9.476995468139648">
<ele>1431</ele>
</trkpt>
<trkpt lat="44.555654525756836" lon="9.476931095123291">
<ele>1428</ele>
</trkpt>
<trkpt lat="44.55554723739624" lon="9.476909637451172">
<ele>1424</ele>
</trkpt>
<trkpt lat="44.555504322052002" lon="9.476823806762695">
<ele>1420</ele>
</trkpt>
<trkpt lat="44.555397033691406" lon="9.476737976074219">
<ele>1416</ele>
</trkpt>
<trkpt lat="44.55531120300293" lon="9.476737976074219">
<ele>1413</ele>
</trkpt>
<trkpt lat="44.555246829986572" lon="9.476630687713623">
<ele>1409</ele>
</trkpt>
<trkpt lat="44.555203914642334" lon="9.476523399353027">
<ele>1405</ele>
</trkpt>
<trkpt lat="44.555118083953857" lon="9.476523399353027">
<ele>1402</ele>
</trkpt>
<trkpt lat="44.555032253265381" lon="9.476437568664551">
<ele>1398</ele>
</trkpt>
<trkpt lat="44.554989337921143" lon="9.476351737976074">
<ele>1395</ele>
</trkpt>
<trkpt lat="44.554967880249023" lon="9.476115703582764">
<ele>1392</ele>
</trkpt>
<trkpt lat="44.555032253265381" lon="9.476008415222168">
<ele>1390</ele>
</trkpt>
<trkpt lat="44.555096626281738" lon="9.47596549987793">
<ele>1387</ele>
</trkpt>
<trkpt lat="44.555075168609619" lon="9.475793838500977">
<ele>1384</ele>
</trkpt>
<trkpt lat="44.555010795593262" lon="9.475750923156738">
<ele>1381</ele>
</trkpt>
<trkpt lat="44.554817676544189" lon="9.475429058074951">
<ele>1378</ele>
</trkpt>
<trkpt lat="44.554688930511475" lon="9.475257396697998">
<ele>1376</ele>
</trkpt>
<trkpt lat="44.554538726806641" lon="9.475107192993164">
<ele>1373</ele>
</trkpt>
<trkpt lat="44.554495811462402" lon="9.475042819976807">
<ele>1370</ele>
</trkpt>
<trkpt lat="44.554409980773926" lon="9.475150108337402">
<ele>1369</ele>
</trkpt>
<trkpt lat="44.554388523101807" lon="9.475278854370117">
<ele>1368</ele>
</trkpt>
<trkpt lat="44.554345607757568" lon="9.475429058074951">
<ele>1366</ele>
</trkpt>
<trkpt lat="44.554345607757568" lon="9.475536346435547">
<ele>1365</ele>
</trkpt>
<trkpt lat="44.55430269241333" lon="9.475729465484619">
<ele>1364</ele>
</trkpt>
<trkpt lat="44.554195404052734" lon="9.47596549987793">
<ele>1363</ele>
</trkpt>
<trkpt lat="44.55406665802002" lon="9.476180076599121">
<ele>1362</ele>
</trkpt>
<trkpt lat="44.554023742675781" lon="9.476222991943359">
<ele>1360</ele>
</trkpt>
<trkpt lat="44.553916454315186" lon="9.476008415222168">
<ele>1359</ele>
</trkpt>
<trkpt lat="44.553916454315186" lon="9.475879669189453">
<ele>1358</ele>
</trkpt>
<trkpt lat="44.553658962249756" lon="9.475300312042236">
<ele>1348</ele>
</trkpt>
<trkpt lat="44.553594589233398" lon="9.475235939025879">
<ele>1339</ele>
</trkpt>
<trkpt lat="44.553465843200684" lon="9.475171566009522">
<ele>1329</ele>
</trkpt>
<trkpt lat="44.553444385528564" lon="9.47495698928833">
<ele>1320</ele>
</trkpt>
<trkpt lat="44.553616046905518" lon="9.474635124206543">
<ele>1310</ele>
</trkpt>
<trkpt lat="44.553594589233398" lon="9.474227428436279">
<ele>1300</ele>
</trkpt>
<trkpt lat="44.553380012512207" lon="9.47345495223999">
<ele>1291</ele>
</trkpt>
<trkpt lat="44.553229808807373" lon="9.473133087158203">
<ele>1281</ele>
</trkpt>
<trkpt lat="44.553229808807373" lon="9.473004341125488">
<ele>1281</ele>
</trkpt>
<trkpt lat="44.553208351135254" lon="9.472918510437012">
<ele>1281</ele>
</trkpt>
<trkpt lat="44.553251266479492" lon="9.47270393371582">
<ele>1281</ele>
</trkpt>
<trkpt lat="44.553422927856445" lon="9.472489356994629">
<ele>1281</ele>
</trkpt>
<trkpt lat="44.553487300872803" lon="9.472317695617676">
<ele>1282</ele>
</trkpt>
<trkpt lat="44.553508758544922" lon="9.472167491912842">
<ele>1282</ele>
</trkpt>
<trkpt lat="44.553508758544922" lon="9.472038745880127">
<ele>1282</ele>
</trkpt>
<trkpt lat="44.553594589233398" lon="9.471931457519531">
<ele>1282</ele>
</trkpt>
<trkpt lat="44.553594589233398" lon="9.471781253814697">
<ele>1282</ele>
</trkpt>
<trkpt lat="44.553637504577637" lon="9.471588134765625">
<ele>1282</ele>
</trkpt>
<trkpt lat="44.553594589233398" lon="9.471373558044434">
<ele>1278</ele>
</trkpt>
<trkpt lat="44.553594589233398" lon="9.471201896667481">
<ele>1273</ele>
</trkpt>
<trkpt lat="44.553658962249756" lon="9.47096586227417">
<ele>1268</ele>
</trkpt>
<trkpt lat="44.553616046905518" lon="9.470751285552979">
<ele>1264</ele>
</trkpt>
<trkpt lat="44.553487300872803" lon="9.470429420471191">
<ele>1260</ele>
</trkpt>
<trkpt lat="44.55329418182373" lon="9.470171928405762">
<ele>1255</ele>
</trkpt>
<trkpt lat="44.553272724151611" lon="9.470086097717285">
<ele>1250</ele>
</trkpt>
<trkpt lat="44.553165435791016" lon="9.470021724700928">
<ele>1246</ele>
</trkpt>
<trkpt lat="44.55305814743042" lon="9.469442367553711">
<ele>1242</ele>
</trkpt>
<trkpt lat="44.553015232086182" lon="9.469313621520996">
<ele>1237</ele>
</trkpt>
<trkpt lat="44.553015232086182" lon="9.469249248504639">
<ele>1235</ele>
</trkpt>
<trkpt lat="44.552929401397705" lon="9.46897029876709">
<ele>1233</ele>
</trkpt>
<trkpt lat="44.552736282348633" lon="9.46847677230835">
<ele>1230</ele>
</trkpt>
<trkpt lat="44.552650451660156" lon="9.468369483947754">
<ele>1228</ele>
</trkpt>
<trkpt lat="44.552500247955322" lon="9.468197822570801">
<ele>1226</ele>
</trkpt>
<trkpt lat="44.552371501922607" lon="9.467918872833252">
<ele>1224</ele>
</trkpt>
<trkpt lat="44.552178382873535" lon="9.467403888702393">
<ele>1222</ele>
</trkpt>
<trkpt lat="44.552156925201416" lon="9.467296600341797">
<ele>1219</ele>
</trkpt>
<trkpt lat="44.552178382873535" lon="9.467039108276367">
<ele>1217</ele>
</trkpt>
<trkpt lat="44.552028179168701" lon="9.466845989227295">
<ele>1215</ele>
</trkpt>
<trkpt lat="44.55204963684082" lon="9.466738700866699">
<ele>1213</ele>
</trkpt>
<trkpt lat="44.552006721496582" lon="9.466631412506104">
<ele>1211</ele>
</trkpt>
<trkpt lat="44.551963806152344" lon="9.46645975112915">
<ele>1208</ele>
</trkpt>
<trkpt lat="44.551920890808105" lon="9.466373920440674">
<ele>1206</ele>
</trkpt>
<trkpt lat="44.551899433135986" lon="9.466202259063721">
<ele>1204</ele>
</trkpt>
<trkpt lat="44.551942348480225" lon="9.465944766998291">
<ele>1202</ele>
</trkpt>
<trkpt lat="44.551920890808105" lon="9.465837478637695">
<ele>1200</ele>
</trkpt>
<trkpt lat="44.551920890808105" lon="9.465665817260742">
<ele>1197</ele>
</trkpt>
<trkpt lat="44.552006721496582" lon="9.465537071228027">
<ele>1195</ele>
</trkpt>
<trkpt lat="44.552006721496582" lon="9.465451240539551">
<ele>1193</ele>
</trkpt>
<trkpt lat="44.551985263824463" lon="9.465236663818359">
<ele>1190</ele>
</trkpt>
<trkpt lat="44.551792144775391" lon="9.464893341064453">
<ele>1188</ele>
</trkpt>
<trkpt lat="44.551641941070557" lon="9.464850425720215">
<ele>1185</ele>
</trkpt>
<trkpt lat="44.55132007598877" lon="9.463949203491211">
<ele>1183</ele>
</trkpt>
<trkpt lat="44.551105499267578" lon="9.463777542114258">
<ele>1180</ele>
</trkpt>
<trkpt lat="44.55106258392334" lon="9.463498592376709">
<ele>1177</ele>
</trkpt>
<trkpt lat="44.550912380218506" lon="9.463241100311279">
<ele>1175</ele>
</trkpt>
<trkpt lat="44.550762176513672" lon="9.463090896606445">
<ele>1172</ele>
</trkpt>
<trkpt lat="44.550611972808838" lon="9.462811946868897">
<ele>1170</ele>
</trkpt>
<trkpt lat="44.550535446032882" lon="9.462582282721996">
<ele>1167</ele>
</trkpt>
<trkpt lat="44.550440311431885" lon="9.462296962738037">
<ele>1164</ele>
</trkpt>
<trkpt lat="44.550375938415527" lon="9.461953639984131">
<ele>1161</ele>
</trkpt>
<trkpt lat="44.550354480743408" lon="9.461696147918701">
<ele>1159</ele>
</trkpt>
<trkpt lat="44.550397396087646" lon="9.46148157119751">
<ele>1156</ele>
</trkpt>
<trkpt lat="44.550483226776123" lon="9.461309909820557">
<ele>1153</ele>
</trkpt>
<trkpt lat="44.550333023071289" lon="9.460923671722412">
<ele>1150</ele>
</trkpt>
<trkpt lat="44.550247192382813" lon="9.460687637329102">
<ele>1147</ele>
</trkpt>
<trkpt lat="44.550161361694336" lon="9.460387229919434">
<ele>1145</ele>
</trkpt>
<trkpt lat="44.550118446350098" lon="9.460322856903076">
<ele>1142</ele>
</trkpt>
<trkpt lat="44.549882411956787" lon="9.460086822509766">
<ele>1139</ele>
</trkpt>
<trkpt lat="44.549517631530762" lon="9.459571838378906">
<ele>1135</ele>
</trkpt>
<trkpt lat="44.549410343170166" lon="9.459378719329834">
<ele>1131</ele>
</trkpt>
<trkpt lat="44.549388885498047" lon="9.459314346313477">
<ele>1127</ele>
</trkpt>
<trkpt lat="44.549367427825928" lon="9.458906650543213">
<ele>1123</ele>
</trkpt>
<trkpt lat="44.54930305480957" lon="9.458541870117188">
<ele>1120</ele>
</trkpt>
<trkpt lat="44.549238681793213" lon="9.458284378051758">
<ele>1116</ele>
</trkpt>
<trkpt lat="44.54930305480957" lon="9.458091259002686">
<ele>1112</ele>
</trkpt>
<trkpt lat="44.549195766448975" lon="9.457919597625732">
<ele>1108</ele>
</trkpt>
<trkpt lat="44.548669718205929" lon="9.457543836906552">
<ele>1104</ele>
</trkpt>
<trkpt lat="44.548444747924805" lon="9.457383155822754">
<ele>1100</ele>
</trkpt>
<trkpt lat="44.548380374908447" lon="9.457275867462158">
<ele>1098</ele>
</trkpt>
<trkpt lat="44.54831600189209" lon="9.457168579101563">
<ele>1095</ele>
</trkpt>
<trkpt lat="44.548273086547852" lon="9.456696510314941">
<ele>1092</ele>
</trkpt>
<trkpt lat="44.548337459564209" lon="9.456653594970703">
<ele>1090</ele>
</trkpt>
<trkpt lat="44.548358917236328" lon="9.456288814544678">
<ele>1088</ele>
</trkpt>
<trkpt lat="44.54831600189209" lon="9.456138610839844">
<ele>1085</ele>
</trkpt>
<trkpt lat="44.548294544219971" lon="9.455773830413818">
<ele>1082</ele>
</trkpt>
<trkpt lat="44.548273086547852" lon="9.455623626708984">
<ele>1080</ele>
</trkpt>
<trkpt lat="44.548230171203613" lon="9.455516338348389">
<ele>1078</ele>
</trkpt>
<trkpt lat="44.548144340515137" lon="9.455387592315674">
<ele>1075</ele>
</trkpt>
<trkpt lat="44.54805850982666" lon="9.455173015594482">
<ele>1073</ele>
</trkpt>
<trkpt lat="44.548037052154541" lon="9.455044269561768">
<ele>1072</ele>
</trkpt>
<trkpt lat="44.548165798187256" lon="9.454615116119385">
<ele>1070</ele>
</trkpt>
<trkpt lat="44.548187255859375" lon="9.454379081726074">
<ele>1068</ele>
</trkpt>
<trkpt lat="44.548208713531494" lon="9.453842639923096">
<ele>1066</ele>
</trkpt>
<trkpt lat="44.548230171203613" lon="9.453649520874023">
<ele>1065</ele>
</trkpt>
<trkpt lat="44.54831600189209" lon="9.453434944152832">
<ele>1063</ele>
</trkpt>
<trkpt lat="44.548337459564209" lon="9.453349113464356">
<ele>1061</ele>
</trkpt>
<trkpt lat="44.548144340515137" lon="9.453048706054688">
<ele>1060</ele>
</trkpt>
<trkpt lat="44.548079967498779" lon="9.452919960021973">
<ele>1058</ele>
</trkpt>
<trkpt lat="44.548037052154541" lon="9.452962875366211">
<ele>1058</ele>
</trkpt>
<trkpt lat="44.547883244231343" lon="9.452962875366211">
<ele>1058</ele>
</trkpt>
<trkpt lat="44.54756498336792" lon="9.452962875366211">
<ele>1058</ele>
</trkpt>
<trkpt lat="44.547522068023682" lon="9.452877044677734">
<ele>1058</ele>
</trkpt>
<trkpt lat="44.547414779663086" lon="9.452812671661377">
<ele>1058</ele>
</trkpt>
<trkpt lat="44.547243118286133" lon="9.452834129333496">
<ele>1058</ele>
</trkpt>
<trkpt lat="44.547157287597656" lon="9.452812671661377">
<ele>1058</ele>
</trkpt>
<trkpt lat="44.546964168548584" lon="9.452705383300781">
<ele>1058</ele>
</trkpt>
<trkpt lat="44.547049999237061" lon="9.452641010284424">
<ele>1058</ele>
</trkpt>
<trkpt lat="44.54730749130249" lon="9.452619552612305">
<ele>1058</ele>
</trkpt>
<trkpt lat="44.547436237335205" lon="9.452469348907471">
<ele>1057</ele>
</trkpt>
<trkpt lat="44.547479152679443" lon="9.452319145202637">
<ele>1055</ele>
</trkpt>
<trkpt lat="44.547436237335205" lon="9.452126026153565">
<ele>1054</ele>
</trkpt>
<trkpt lat="44.547350406646729" lon="9.451954364776611">
<ele>1053</ele>
</trkpt>
<trkpt lat="44.547264575958252" lon="9.451761245727539">
<ele>1051</ele>
</trkpt>
<trkpt lat="44.547229874879122" lon="9.451605090871453">
<ele>1050</ele>
</trkpt>
</trkseg>
</trk>
</gpx>
