<?xml version="1.0" encoding="UTF-8"?>
<gpx version="1.1"
creator="Smartprofil-Office - http://www.rother.de"
xmlns:xsi="http://www.w3.org/2001/XMLSchema-instance"
xmlns="http://www.topografix.com/GPX/1/1"
xsi:schemaLocation="http://www.topografix.com/GPX/1/1 http://www.topografix.com/GPX/1/1/gpx.xsd">
<metadata>

<bounds minlat="56.273464970290661" minlon="10.453916005790234" maxlat="56.298642279580235" maxlon="10.499207032844424"/>
</metadata>
<wpt lat="56.298590982332826" lon="10.497195962816477">
<ele>75</ele>
<name>52_Kalø Hovedgård (1)</name>
<cmt>Parkplatz Hovedgard</cmt>
<desc></desc>
<sym>Crossing</sym>
</wpt>

<wpt lat="56.283444967120886" lon="10.480538019910455">
<ele>2</ele>
<name>52_Kalø Slotskro (2)</name>
<cmt>Slotskro</cmt>
<desc></desc>
<sym>Crossing</sym>
</wpt>

<wpt lat="56.274454034864902" lon="10.466939974576235">
<ele>21</ele>
<name>52_Kalø Slotsruin (3)</name>
<cmt>Kalo Slotsruin</cmt>
<desc></desc>
<sym>Crossing</sym>
</wpt>

<wpt lat="56.283444967120886" lon="10.480538019910455">
<ele>2</ele>
<name>52_Kalø Slotskro (2)</name>
<cmt>Slotskro</cmt>
<desc></desc>
<sym>Crossing</sym>
</wpt>

<wpt lat="56.290849959477782" lon="10.485223000869155">
<ele>30</ele>
<name>52_Bregnet Kirke (4)</name>
<cmt>Bregent Kirke</cmt>
<desc></desc>
<sym>Crossing</sym>
</wpt>

<trk>
<name>DAN_52_Kalo Slot</name>
<trkseg>
<trkpt lat="56.298590982332826" lon="10.497195962816477">
<ele>75</ele>
</trkpt>
<trkpt lat="56.298638759180903" lon="10.496716098859906">
<ele>75</ele>
</trkpt>
<trkpt lat="56.298307590186596" lon="10.496440669521689">
<ele>75</ele>
</trkpt>
<trkpt lat="56.298286970704794" lon="10.496921958401799">
<ele>75</ele>
</trkpt>
<trkpt lat="56.298224022611976" lon="10.497485976666212">
<ele>75</ele>
</trkpt>
<trkpt lat="56.298161996528506" lon="10.497881015762687">
<ele>76</ele>
</trkpt>
<trkpt lat="56.297928979620337" lon="10.498121995478868">
<ele>76</ele>
</trkpt>
<trkpt lat="56.297861002385616" lon="10.498395999893546">
<ele>76</ele>
</trkpt>
<trkpt lat="56.297822026535869" lon="10.499207032844424">
<ele>76</ele>
</trkpt>
<trkpt lat="56.297672996297479" lon="10.49911298789084">
<ele>76</ele>
</trkpt>
<trkpt lat="56.297370996326208" lon="10.49894099123776">
<ele>76</ele>
</trkpt>
<trkpt lat="56.296659959480166" lon="10.498602027073503">
<ele>74</ele>
</trkpt>
<trkpt lat="56.296411016955972" lon="10.498581994324923">
<ele>72</ele>
</trkpt>
<trkpt lat="56.296012960374355" lon="10.498489961028099">
<ele>70</ele>
</trkpt>
<trkpt lat="56.295793019235134" lon="10.49853103235364">
<ele>68</ele>
</trkpt>
<trkpt lat="56.295460006222129" lon="10.498709985986352">
<ele>66</ele>
</trkpt>
<trkpt lat="56.295367972925305" lon="10.498733036220074">
<ele>64</ele>
</trkpt>
<trkpt lat="56.295133028179407" lon="10.498731024563313">
<ele>62</ele>
</trkpt>
<trkpt lat="56.294755004346371" lon="10.49859800375998">
<ele>60</ele>
</trkpt>
<trkpt lat="56.294553000479937" lon="10.498487027361989">
<ele>58</ele>
</trkpt>
<trkpt lat="56.294501032680273" lon="10.498436987400055">
<ele>56</ele>
</trkpt>
<trkpt lat="56.293892003595829" lon="10.498278988525271">
<ele>55</ele>
</trkpt>
<trkpt lat="56.293702991679311" lon="10.498345037922263">
<ele>53</ele>
</trkpt>
<trkpt lat="56.293650018051267" lon="10.498331040143967">
<ele>52</ele>
</trkpt>
<trkpt lat="56.293412977829576" lon="10.49823003821075">
<ele>50</ele>
</trkpt>
<trkpt lat="56.293321028351784" lon="10.498152002692223">
<ele>49</ele>
</trkpt>
<trkpt lat="56.293245004490018" lon="10.498044965788722">
<ele>48</ele>
</trkpt>
<trkpt lat="56.292940992861986" lon="10.497378017753363">
<ele>46</ele>
</trkpt>
<trkpt lat="56.292618038132787" lon="10.49679103307426">
<ele>45</ele>
</trkpt>
<trkpt lat="56.292533967643976" lon="10.496605960652232">
<ele>43</ele>
</trkpt>
<trkpt lat="56.292190980166197" lon="10.49580498598516">
<ele>42</ele>
</trkpt>
<trkpt lat="56.292060976848006" lon="10.495403995737433">
<ele>41</ele>
</trkpt>
<trkpt lat="56.291854027658701" lon="10.49488197080791">
<ele>40</ele>
</trkpt>
<trkpt lat="56.291505005210638" lon="10.494552981108427">
<ele>39</ele>
</trkpt>
<trkpt lat="56.291082976385951" lon="10.494227008894086">
<ele>38</ele>
</trkpt>
<trkpt lat="56.291020028293133" lon="10.494132963940501">
<ele>36</ele>
</trkpt>
<trkpt lat="56.290915003046393" lon="10.494000026956201">
<ele>35</ele>
</trkpt>
<trkpt lat="56.29073797725141" lon="10.494082001969218">
<ele>34</ele>
</trkpt>
<trkpt lat="56.290631024166942" lon="10.4941710177809">
<ele>33</ele>
</trkpt>
<trkpt lat="56.290591964498162" lon="10.49423698335886">
<ele>32</ele>
</trkpt>
<trkpt lat="56.290192985907197" lon="10.49468700774014">
<ele>31</ele>
</trkpt>
<trkpt lat="56.29004898481071" lon="10.494825979694724">
<ele>31</ele>
</trkpt>
<trkpt lat="56.289502987638116" lon="10.49531003460288">
<ele>31</ele>
</trkpt>
<trkpt lat="56.289296038448811" lon="10.495441965758801">
<ele>31</ele>
</trkpt>
<trkpt lat="56.28916896879673" lon="10.495559982955456">
<ele>31</ele>
</trkpt>
<trkpt lat="56.289011975750327" lon="10.495811020955443">
<ele>31</ele>
</trkpt>
<trkpt lat="56.288879038766026" lon="10.496101034805179">
<ele>31</ele>
</trkpt>
<trkpt lat="56.288737971335649" lon="10.496644014492631">
<ele>31</ele>
</trkpt>
<trkpt lat="56.288606962189078" lon="10.497060008347034">
<ele>31</ele>
</trkpt>
<trkpt lat="56.288551976904273" lon="10.497312974184752">
<ele>31</ele>
</trkpt>
<trkpt lat="56.288418034091592" lon="10.497635006904602">
<ele>31</ele>
</trkpt>
<trkpt lat="56.288376962766051" lon="10.497771967202425">
<ele>31</ele>
</trkpt>
<trkpt lat="56.288248971104622" lon="10.498056029900908">
<ele>30</ele>
</trkpt>
<trkpt lat="56.288117961958051" lon="10.498220985755324">
<ele>30</ele>
</trkpt>
<trkpt lat="56.288010003045201" lon="10.498242024332285">
<ele>29</ele>
</trkpt>
<trkpt lat="56.287864996120334" lon="10.498217968270183">
<ele>29</ele>
</trkpt>
<trkpt lat="56.287383958697319" lon="10.497944969683886">
<ele>29</ele>
</trkpt>
<trkpt lat="56.287202993407845" lon="10.497607011348009">
<ele>28</ele>
</trkpt>
<trkpt lat="56.286999983713031" lon="10.497497040778399">
<ele>28</ele>
</trkpt>
<trkpt lat="56.286670994013548" lon="10.497324038296938">
<ele>27</ele>
</trkpt>
<trkpt lat="56.286529004573822" lon="10.497316997498274">
<ele>27</ele>
</trkpt>
<trkpt lat="56.28641601651907" lon="10.497358990833163">
<ele>26</ele>
</trkpt>
<trkpt lat="56.28629095852375" lon="10.497390003874898">
<ele>25</ele>
</trkpt>
<trkpt lat="56.285962974652648" lon="10.497483965009451">
<ele>24</ele>
</trkpt>
<trkpt lat="56.285603977739811" lon="10.497765010222793">
<ele>23</ele>
</trkpt>
<trkpt lat="56.285317987203598" lon="10.498026022687554">
<ele>22</ele>
</trkpt>
<trkpt lat="56.284992014989257" lon="10.498173963278532">
<ele>22</ele>
</trkpt>
<trkpt lat="56.28469998948276" lon="10.498004984110594">
<ele>21</ele>
</trkpt>
<trkpt lat="56.284271003678441" lon="10.497917979955673">
<ele>20</ele>
</trkpt>
<trkpt lat="56.283799018710852" lon="10.497856037691236">
<ele>19</ele>
</trkpt>
<trkpt lat="56.283507999032736" lon="10.497884033247828">
<ele>18</ele>
</trkpt>
<trkpt lat="56.283391993492842" lon="10.497859977185726">
<ele>17</ele>
</trkpt>
<trkpt lat="56.283144978806376" lon="10.497645987197757">
<ele>16</ele>
</trkpt>
<trkpt lat="56.283025033771992" lon="10.497677000239491">
<ele>15</ele>
</trkpt>
<trkpt lat="56.282733008265495" lon="10.497404001653194">
<ele>14</ele>
</trkpt>
<trkpt lat="56.282618008553982" lon="10.497247008606791">
<ele>14</ele>
</trkpt>
<trkpt lat="56.282663019374013" lon="10.49720099195838">
<ele>13</ele>
</trkpt>
<trkpt lat="56.282711969688535" lon="10.497129997238517">
<ele>12</ele>
</trkpt>
<trkpt lat="56.282852031290531" lon="10.497048022225499">
<ele>11</ele>
</trkpt>
<trkpt lat="56.282957978546619" lon="10.49685699865222">
<ele>10</ele>
</trkpt>
<trkpt lat="56.283097034320235" lon="10.496510993689299">
<ele>9</ele>
</trkpt>
<trkpt lat="56.283332984894514" lon="10.496031967923045">
<ele>10</ele>
</trkpt>
<trkpt lat="56.283510010689497" lon="10.495631983503699">
<ele>11</ele>
</trkpt>
<trkpt lat="56.283561978489161" lon="10.495569035410881">
<ele>11</ele>
</trkpt>
<trkpt lat="56.283829025924206" lon="10.494753979146481">
<ele>12</ele>
</trkpt>
<trkpt lat="56.283907983452082" lon="10.494587011635303">
<ele>13</ele>
</trkpt>
<trkpt lat="56.283973027020693" lon="10.494344020262361">
<ele>14</ele>
</trkpt>
<trkpt lat="56.283977972343564" lon="10.494363969191909">
<ele>15</ele>
</trkpt>
<trkpt lat="56.284065982326865" lon="10.494163976982236">
<ele>15</ele>
</trkpt>
<trkpt lat="56.284108981490135" lon="10.493926014751196">
<ele>16</ele>
</trkpt>
<trkpt lat="56.284157009795308" lon="10.493821995332837">
<ele>17</ele>
</trkpt>
<trkpt lat="56.284210989251733" lon="10.493641030043364">
<ele>17</ele>
</trkpt>
<trkpt lat="56.284234039485455" lon="10.49344296567142">
<ele>18</ele>
</trkpt>
<trkpt lat="56.284286007285118" lon="10.493337018415332">
<ele>18</ele>
</trkpt>
<trkpt lat="56.284482982009649" lon="10.493125962093472">
<ele>18</ele>
</trkpt>
<trkpt lat="56.284581972286105" lon="10.492973998188972">
<ele>18</ele>
</trkpt>
<trkpt lat="56.284916996955872" lon="10.492564039304852">
<ele>19</ele>
</trkpt>
<trkpt lat="56.285211034119129" lon="10.492254998534918">
<ele>19</ele>
</trkpt>
<trkpt lat="56.285447990521789" lon="10.49195702187717">
<ele>19</ele>
</trkpt>
<trkpt lat="56.285614036023617" lon="10.49170296639204">
<ele>20</ele>
</trkpt>
<trkpt lat="56.285693999379873" lon="10.491615040227771">
<ele>20</ele>
</trkpt>
<trkpt lat="56.285711014643312" lon="10.491568017750978">
<ele>20</ele>
</trkpt>
<trkpt lat="56.28594595938921" lon="10.491300970315933">
<ele>20</ele>
</trkpt>
<trkpt lat="56.286032041534781" lon="10.491109024733305">
<ele>21</ele>
</trkpt>
<trkpt lat="56.286118039861321" lon="10.490791015326977">
<ele>21</ele>
</trkpt>
<trkpt lat="56.285928022116423" lon="10.490674003958702">
<ele>21</ele>
</trkpt>
<trkpt lat="56.285792989656329" lon="10.490609966218472">
<ele>21</ele>
</trkpt>
<trkpt lat="56.285669021308422" lon="10.490586999803782">
<ele>21</ele>
</trkpt>
<trkpt lat="56.285495012998581" lon="10.490479962900281">
<ele>22</ele>
</trkpt>
<trkpt lat="56.285358974710107" lon="10.490340990945697">
<ele>22</ele>
</trkpt>
<trkpt lat="56.285130986943841" lon="10.490254992619157">
<ele>22</ele>
</trkpt>
<trkpt lat="56.284972988069057" lon="10.490075033158064">
<ele>20</ele>
</trkpt>
<trkpt lat="56.284756986424327" lon="10.48957496881485">
<ele>18</ele>
</trkpt>
<trkpt lat="56.284645004197955" lon="10.48927397467196">
<ele>16</ele>
</trkpt>
<trkpt lat="56.284402012825012" lon="10.488730994984508">
<ele>14</ele>
</trkpt>
<trkpt lat="56.284190034493804" lon="10.48847702331841">
<ele>12</ele>
</trkpt>
<trkpt lat="56.284039998427033" lon="10.488237971439958">
<ele>10</ele>
</trkpt>
<trkpt lat="56.283631967380643" lon="10.487366002053022">
<ele>8</ele>
</trkpt>
<trkpt lat="56.283528031781316" lon="10.487218983471394">
<ele>6</ele>
</trkpt>
<trkpt lat="56.283340025693178" lon="10.486878007650375">
<ele>4</ele>
</trkpt>
<trkpt lat="56.283256961032748" lon="10.486712967976928">
<ele>2</ele>
</trkpt>
<trkpt lat="56.283242041245103" lon="10.486631998792291">
<ele>2</ele>
</trkpt>
<trkpt lat="56.282968036830425" lon="10.486219022423029">
<ele>2</ele>
</trkpt>
<trkpt lat="56.282871980220079" lon="10.485967984423041">
<ele>2</ele>
</trkpt>
<trkpt lat="56.282809032127261" lon="10.485848039388657">
<ele>2</ele>
</trkpt>
<trkpt lat="56.282601999118924" lon="10.485657015815377">
<ele>2</ele>
</trkpt>
<trkpt lat="56.282665031030774" lon="10.485597001388669">
<ele>1</ele>
</trkpt>
<trkpt lat="56.282797968015075" lon="10.485132979229093">
<ele>1</ele>
</trkpt>
<trkpt lat="56.282914979383349" lon="10.484973974525928">
<ele>1</ele>
</trkpt>
<trkpt lat="56.282923026010394" lon="10.484843971207738">
<ele>1</ele>
</trkpt>
<trkpt lat="56.282972982153296" lon="10.484680021181703">
<ele>1</ele>
</trkpt>
<trkpt lat="56.283025033771992" lon="10.48448296263814">
<ele>1</ele>
</trkpt>
<trkpt lat="56.283122012391686" lon="10.484146010130644">
<ele>1</ele>
</trkpt>
<trkpt lat="56.283175991848111" lon="10.483808973804116">
<ele>1</ele>
</trkpt>
<trkpt lat="56.283265007659793" lon="10.483604958280921">
<ele>1</ele>
</trkpt>
<trkpt lat="56.283351005986333" lon="10.482903979718685">
<ele>2</ele>
</trkpt>
<trkpt lat="56.2833889760077" lon="10.482444986701012">
<ele>2</ele>
</trkpt>
<trkpt lat="56.283437004312873" lon="10.482152961194515">
<ele>2</ele>
</trkpt>
<trkpt lat="56.283527025952935" lon="10.481744008138776">
<ele>2</ele>
</trkpt>
<trkpt lat="56.28355803899467" lon="10.481679970398545">
<ele>2</ele>
</trkpt>
<trkpt lat="56.283561978489161" lon="10.481472015380859">
<ele>2</ele>
</trkpt>
<trkpt lat="56.283472962677479" lon="10.481289960443974">
<ele>2</ele>
</trkpt>
<trkpt lat="56.283396016806364" lon="10.481305969879031">
<ele>2</ele>
</trkpt>
<trkpt lat="56.283384030684829" lon="10.481153000146151">
<ele>2</ele>
</trkpt>
<trkpt lat="56.283389981836081" lon="10.480901962146163">
<ele>2</ele>
</trkpt>
<trkpt lat="56.283382019028068" lon="10.480753015726805">
<ele>2</ele>
</trkpt>
<trkpt lat="56.283444967120886" lon="10.480538019910455">
<ele>2</ele>
</trkpt>
<trkpt lat="56.283415798097849" lon="10.480357306078076">
<ele>2</ele>
</trkpt>
<trkpt lat="56.283071972429752" lon="10.480109034106135">
<ele>2</ele>
</trkpt>
<trkpt lat="56.283026039600372" lon="10.480057988315821">
<ele>1</ele>
</trkpt>
<trkpt lat="56.282869968563318" lon="10.48005597665906">
<ele>1</ele>
</trkpt>
<trkpt lat="56.282316008582711" lon="10.479562031105161">
<ele>1</ele>
</trkpt>
<trkpt lat="56.281515033915639" lon="10.478666005656123">
<ele>1</ele>
</trkpt>
<trkpt lat="56.281201969832182" lon="10.478376997634768">
<ele>1</ele>
</trkpt>
<trkpt lat="56.280900975689292" lon="10.477265976369381">
<ele>0</ele>
</trkpt>
<trkpt lat="56.279664980247617" lon="10.476011037826538">
<ele>0</ele>
</trkpt>
<trkpt lat="56.278087003156543" lon="10.474358964711428">
<ele>0</ele>
</trkpt>
<trkpt lat="56.276970030739903" lon="10.473259007558227">
<ele>2</ele>
</trkpt>
<trkpt lat="56.276213983073831" lon="10.472636986523867">
<ele>3</ele>
</trkpt>
<trkpt lat="56.27588901668787" lon="10.47150501050055">
<ele>5</ele>
</trkpt>
<trkpt lat="56.275549968704581" lon="10.470818029716611">
<ele>6</ele>
</trkpt>
<trkpt lat="56.275145038962364" lon="10.469669960439205">
<ele>8</ele>
</trkpt>
<trkpt lat="56.274846978485584" lon="10.469229994341731">
<ele>10</ele>
</trkpt>
<trkpt lat="56.274725021794438" lon="10.468587018549442">
<ele>11</ele>
</trkpt>
<trkpt lat="56.274613961577415" lon="10.468415021896362">
<ele>13</ele>
</trkpt>
<trkpt lat="56.274567022919655" lon="10.467990981414914">
<ele>15</ele>
</trkpt>
<trkpt lat="56.274409024044871" lon="10.46772301197052">
<ele>16</ele>
</trkpt>
<trkpt lat="56.274199979379773" lon="10.467454958707094">
<ele>18</ele>
</trkpt>
<trkpt lat="56.274012979120016" lon="10.467482032254338">
<ele>19</ele>
</trkpt>
<trkpt lat="56.274454034864902" lon="10.466939974576235">
<ele>21</ele>
</trkpt>
<trkpt lat="56.274000992998481" lon="10.467400979250669">
<ele>19</ele>
</trkpt>
<trkpt lat="56.273748027160764" lon="10.468189967796206">
<ele>17</ele>
</trkpt>
<trkpt lat="56.273639984428883" lon="10.468478975817561">
<ele>15</ele>
</trkpt>
<trkpt lat="56.273464970290661" lon="10.469991993159056">
<ele>13</ele>
</trkpt>
<trkpt lat="56.273575024679303" lon="10.470443023368716">
<ele>11</ele>
</trkpt>
<trkpt lat="56.274567022919655" lon="10.47144097276032">
<ele>9</ele>
</trkpt>
<trkpt lat="56.275611994788051" lon="10.472143040969968">
<ele>7</ele>
</trkpt>
<trkpt lat="56.276141982525587" lon="10.472588958218694">
<ele>5</ele>
</trkpt>
<trkpt lat="56.276884032413363" lon="10.473264958709478">
<ele>3</ele>
</trkpt>
<trkpt lat="56.27801600843668" lon="10.474252011626959">
<ele>1</ele>
</trkpt>
<trkpt lat="56.27962701022625" lon="10.476049007847905">
<ele>1</ele>
</trkpt>
<trkpt lat="56.280952021479607" lon="10.477315010502934">
<ele>1</ele>
</trkpt>
<trkpt lat="56.281171962618828" lon="10.478344978764653">
<ele>1</ele>
</trkpt>
<trkpt lat="56.282297987490892" lon="10.479636965319514">
<ele>2</ele>
</trkpt>
<trkpt lat="56.282753963023424" lon="10.47999101690948">
<ele>2</ele>
</trkpt>
<trkpt lat="56.282901149243116" lon="10.480061005800962">
<ele>2</ele>
</trkpt>
<trkpt lat="56.283444967120886" lon="10.480538019910455">
<ele>2</ele>
</trkpt>
<trkpt lat="56.283077001571655" lon="10.479489024728537">
<ele>2</ele>
</trkpt>
<trkpt lat="56.28306501545012" lon="10.479141008108854">
<ele>2</ele>
</trkpt>
<trkpt lat="56.283088987693191" lon="10.479012010619044">
<ele>2</ele>
</trkpt>
<trkpt lat="56.283110026270151" lon="10.478662988170981">
<ele>2</ele>
</trkpt>
<trkpt lat="56.283059986308217" lon="10.478328969329596">
<ele>2</ele>
</trkpt>
<trkpt lat="56.283012041822076" lon="10.477837035432458">
<ele>3</ele>
</trkpt>
<trkpt lat="56.282926965504885" lon="10.477323979139328">
<ele>3</ele>
</trkpt>
<trkpt lat="56.282922020182014" lon="10.477127004414797">
<ele>3</ele>
</trkpt>
<trkpt lat="56.282859994098544" lon="10.476607996970415">
<ele>3</ele>
</trkpt>
<trkpt lat="56.282594036310911" lon="10.475148037075996">
<ele>3</ele>
</trkpt>
<trkpt lat="56.282492028549314" lon="10.474730031564832">
<ele>3</ele>
</trkpt>
<trkpt lat="56.28237996250391" lon="10.474088983610272">
<ele>3</ele>
</trkpt>
<trkpt lat="56.282231016084552" lon="10.473510967567563">
<ele>3</ele>
</trkpt>
<trkpt lat="56.282190028578043" lon="10.473398985341191">
<ele>3</ele>
</trkpt>
<trkpt lat="56.282153986394405" lon="10.473170997574925">
<ele>3</ele>
</trkpt>
<trkpt lat="56.282143006101251" lon="10.472897998988628">
<ele>3</ele>
</trkpt>
<trkpt lat="56.282123979181051" lon="10.472860028967261">
<ele>3</ele>
</trkpt>
<trkpt lat="56.282174019142985" lon="10.472555011510849">
<ele>3</ele>
</trkpt>
<trkpt lat="56.282157003879547" lon="10.472445962950587">
<ele>3</ele>
</trkpt>
<trkpt lat="56.282152980566025" lon="10.47204396687448">
<ele>3</ele>
</trkpt>
<trkpt lat="56.282175024971366" lon="10.471982024610043">
<ele>3</ele>
</trkpt>
<trkpt lat="56.282123979181051" lon="10.471370983868837">
<ele>3</ele>
</trkpt>
<trkpt lat="56.282146023586392" lon="10.471189012750983">
<ele>3</ele>
</trkpt>
<trkpt lat="56.282134959474206" lon="10.471108965575695">
<ele>3</ele>
</trkpt>
<trkpt lat="56.282249037176371" lon="10.470805037766695">
<ele>3</ele>
</trkpt>
<trkpt lat="56.28222799859941" lon="10.470413016155362">
<ele>3</ele>
</trkpt>
<trkpt lat="56.282254988327622" lon="10.470192991197109">
<ele>3</ele>
</trkpt>
<trkpt lat="56.282193968072534" lon="10.469618998467922">
<ele>3</ele>
</trkpt>
<trkpt lat="56.282019037753344" lon="10.469542974606156">
<ele>3</ele>
</trkpt>
<trkpt lat="56.2818209733814" lon="10.469312975183129">
<ele>3</ele>
</trkpt>
<trkpt lat="56.281637996435165" lon="10.469253966584802">
<ele>3</ele>
</trkpt>
<trkpt lat="56.281592985615134" lon="10.469497963786125">
<ele>3</ele>
</trkpt>
<trkpt lat="56.281532971188426" lon="10.469255978241563">
<ele>2</ele>
</trkpt>
<trkpt lat="56.281465999782085" lon="10.469197975471616">
<ele>2</ele>
</trkpt>
<trkpt lat="56.281225020065904" lon="10.469148019328713">
<ele>2</ele>
</trkpt>
<trkpt lat="56.281166011467576" lon="10.468852976337075">
<ele>2</ele>
</trkpt>
<trkpt lat="56.281136004254222" lon="10.468563968315721">
<ele>2</ele>
</trkpt>
<trkpt lat="56.28106601536274" lon="10.468380991369486">
<ele>1</ele>
</trkpt>
<trkpt lat="56.280974987894297" lon="10.467996010556817">
<ele>1</ele>
</trkpt>
<trkpt lat="56.280974987894297" lon="10.46787497587502">
<ele>1</ele>
</trkpt>
<trkpt lat="56.280922014266253" lon="10.466614002361894">
<ele>1</ele>
</trkpt>
<trkpt lat="56.280936012044549" lon="10.466244025155902">
<ele>1</ele>
</trkpt>
<trkpt lat="56.280892007052898" lon="10.465858038514853">
<ele>1</ele>
</trkpt>
<trkpt lat="56.280941041186452" lon="10.465243980288506">
<ele>1</ele>
</trkpt>
<trkpt lat="56.280928971245885" lon="10.464990008622408">
<ele>2</ele>
</trkpt>
<trkpt lat="56.280942969024181" lon="10.464922031387687">
<ele>2</ele>
</trkpt>
<trkpt lat="56.280926959589124" lon="10.464722961187363">
<ele>2</ele>
</trkpt>
<trkpt lat="56.280875997617841" lon="10.464539984241128">
<ele>2</ele>
</trkpt>
<trkpt lat="56.280834004282951" lon="10.464494973421097">
<ele>2</ele>
</trkpt>
<trkpt lat="56.280896030366421" lon="10.464332029223442">
<ele>2</ele>
</trkpt>
<trkpt lat="56.280903993174434" lon="10.464219963178039">
<ele>3</ele>
</trkpt>
<trkpt lat="56.28085101954639" lon="10.464031035080552">
<ele>4</ele>
</trkpt>
<trkpt lat="56.280754040926695" lon="10.463524013757706">
<ele>5</ele>
</trkpt>
<trkpt lat="56.280741970986128" lon="10.463324021548033">
<ele>6</ele>
</trkpt>
<trkpt lat="56.280795028433204" lon="10.463089998811483">
<ele>6</ele>
</trkpt>
<trkpt lat="56.280904999002814" lon="10.462723039090633">
<ele>7</ele>
</trkpt>
<trkpt lat="56.280966019257903" lon="10.462277038022876">
<ele>8</ele>
</trkpt>
<trkpt lat="56.281022010371089" lon="10.461993981152773">
<ele>9</ele>
</trkpt>
<trkpt lat="56.281010024249554" lon="10.461731962859631">
<ele>10</ele>
</trkpt>
<trkpt lat="56.280955038964748" lon="10.461554015055299">
<ele>11</ele>
</trkpt>
<trkpt lat="56.280780024826527" lon="10.461122011765838">
<ele>11</ele>
</trkpt>
<trkpt lat="56.2806829623878" lon="10.460705012083054">
<ele>11</ele>
</trkpt>
<trkpt lat="56.280664019286633" lon="10.460477024316788">
<ele>11</ele>
</trkpt>
<trkpt lat="56.280693020671606" lon="10.460351966321468">
<ele>11</ele>
</trkpt>
<trkpt lat="56.280786981806159" lon="10.460183992981911">
<ele>11</ele>
</trkpt>
<trkpt lat="56.280782036483288" lon="10.460112998262048">
<ele>11</ele>
</trkpt>
<trkpt lat="56.28068002872169" lon="10.459834970533848">
<ele>11</ele>
</trkpt>
<trkpt lat="56.280653038993478" lon="10.459694992750883">
<ele>11</ele>
</trkpt>
<trkpt lat="56.280662007629871" lon="10.459368014708161">
<ele>11</ele>
</trkpt>
<trkpt lat="56.280701989308" lon="10.459162993356586">
<ele>11</ele>
</trkpt>
<trkpt lat="56.280857976526022" lon="10.458760997280478">
<ele>12</ele>
</trkpt>
<trkpt lat="56.280925031751394" lon="10.458543989807367">
<ele>12</ele>
</trkpt>
<trkpt lat="56.281015975400805" lon="10.45833301730454">
<ele>13</ele>
</trkpt>
<trkpt lat="56.281103985384107" lon="10.457943007349968">
<ele>13</ele>
</trkpt>
<trkpt lat="56.28128201700747" lon="10.45777696184814">
<ele>14</ele>
</trkpt>
<trkpt lat="56.281332978978753" lon="10.457437997683883">
<ele>15</ele>
</trkpt>
<trkpt lat="56.281541017815471" lon="10.45732400380075">
<ele>15</ele>
</trkpt>
<trkpt lat="56.281875958666205" lon="10.456555970013142">
<ele>16</ele>
</trkpt>
<trkpt lat="56.282040998339653" lon="10.456383973360062">
<ele>16</ele>
</trkpt>
<trkpt lat="56.282739965245128" lon="10.455155018717051">
<ele>17</ele>
</trkpt>
<trkpt lat="56.282892012968659" lon="10.454957038164139">
<ele>16</ele>
</trkpt>
<trkpt lat="56.282974993810058" lon="10.454943962395191">
<ele>16</ele>
</trkpt>
<trkpt lat="56.283181020990014" lon="10.454721003770828">
<ele>16</ele>
</trkpt>
<trkpt lat="56.283348994329572" lon="10.454606004059315">
<ele>15</ele>
</trkpt>
<trkpt lat="56.283487966284156" lon="10.454535009339452">
<ele>14</ele>
</trkpt>
<trkpt lat="56.283669015392661" lon="10.454400982707739">
<ele>14</ele>
</trkpt>
<trkpt lat="56.283841012045741" lon="10.454387990757823">
<ele>14</ele>
</trkpt>
<trkpt lat="56.28416002728045" lon="10.454166959971189">
<ele>13</ele>
</trkpt>
<trkpt lat="56.284359013661742" lon="10.454170983284712">
<ele>12</ele>
</trkpt>
<trkpt lat="56.284747011959553" lon="10.454115997999907">
<ele>12</ele>
</trkpt>
<trkpt lat="56.2848050147295" lon="10.454218005761504">
<ele>12</ele>
</trkpt>
<trkpt lat="56.284933006390929" lon="10.454271985217929">
<ele>11</ele>
</trkpt>
<trkpt lat="56.285110032185912" lon="10.45425103046">
<ele>11</ele>
</trkpt>
<trkpt lat="56.285238023847342" lon="10.454305009916425">
<ele>10</ele>
</trkpt>
<trkpt lat="56.285417983308434" lon="10.454331999644637">
<ele>10</ele>
</trkpt>
<trkpt lat="56.285633984953165" lon="10.454248012974858">
<ele>10</ele>
</trkpt>
<trkpt lat="56.285693999379873" lon="10.454186992719769">
<ele>9</ele>
</trkpt>
<trkpt lat="56.286488017067313" lon="10.453916005790234">
<ele>9</ele>
</trkpt>
<trkpt lat="56.287226965650916" lon="10.454093031585217">
<ele>8</ele>
</trkpt>
<trkpt lat="56.28721003420651" lon="10.454388996586204">
<ele>8</ele>
</trkpt>
<trkpt lat="56.287307012826204" lon="10.454579014331102">
<ele>9</ele>
</trkpt>
<trkpt lat="56.287593003362417" lon="10.455012023448944">
<ele>9</ele>
</trkpt>
<trkpt lat="56.287771034985781" lon="10.455207992345095">
<ele>10</ele>
</trkpt>
<trkpt lat="56.287910006940365" lon="10.455399015918374">
<ele>11</ele>
</trkpt>
<trkpt lat="56.288002040237188" lon="10.455625997856259">
<ele>12</ele>
</trkpt>
<trkpt lat="56.288098013028502" lon="10.45620703138411">
<ele>12</ele>
</trkpt>
<trkpt lat="56.288184011355042" lon="10.456482041627169">
<ele>13</ele>
</trkpt>
<trkpt lat="56.288341004401445" lon="10.456784963607788">
<ele>14</ele>
</trkpt>
<trkpt lat="56.288487017154694" lon="10.456984033808112">
<ele>14</ele>
</trkpt>
<trkpt lat="56.288567986339331" lon="10.457049999386072">
<ele>15</ele>
</trkpt>
<trkpt lat="56.288731014356017" lon="10.457307994365692">
<ele>15</ele>
</trkpt>
<trkpt lat="56.288878032937646" lon="10.457599014043808">
<ele>16</ele>
</trkpt>
<trkpt lat="56.288986997678876" lon="10.45775399543345">
<ele>16</ele>
</trkpt>
<trkpt lat="56.289068972691894" lon="10.457964967936277">
<ele>17</ele>
</trkpt>
<trkpt lat="56.289124963805079" lon="10.458180969581008">
<ele>17</ele>
</trkpt>
<trkpt lat="56.289225965738297" lon="10.458360007032752">
<ele>17</ele>
</trkpt>
<trkpt lat="56.289287991821766" lon="10.458544995635748">
<ele>18</ele>
</trkpt>
<trkpt lat="56.289348006248474" lon="10.458551030606031">
<ele>18</ele>
</trkpt>
<trkpt lat="56.289432998746634" lon="10.45878597535193">
<ele>19</ele>
</trkpt>
<trkpt lat="56.289599966257811" lon="10.458858981728554">
<ele>19</ele>
</trkpt>
<trkpt lat="56.289730975404382" lon="10.459126029163599">
<ele>19</ele>
</trkpt>
<trkpt lat="56.289774980396032" lon="10.459262989461422">
<ele>19</ele>
</trkpt>
<trkpt lat="56.290023000910878" lon="10.459490977227688">
<ele>19</ele>
</trkpt>
<trkpt lat="56.29037001170218" lon="10.460004033520818">
<ele>19</ele>
</trkpt>
<trkpt lat="56.290704030543566" lon="10.460413992404938">
<ele>18</ele>
</trkpt>
<trkpt lat="56.290895976126194" lon="10.460682967677712">
<ele>18</ele>
</trkpt>
<trkpt lat="56.291028996929526" lon="10.460899975150824">
<ele>18</ele>
</trkpt>
<trkpt lat="56.291127987205982" lon="10.461495006456971">
<ele>18</ele>
</trkpt>
<trkpt lat="56.291280034929514" lon="10.461820978671312">
<ele>18</ele>
</trkpt>
<trkpt lat="56.291429987177253" lon="10.46235297806561">
<ele>18</ele>
</trkpt>
<trkpt lat="56.291496036574244" lon="10.462464960291982">
<ele>18</ele>
</trkpt>
<trkpt lat="56.291661998257041" lon="10.462838960811496">
<ele>18</ele>
</trkpt>
<trkpt lat="56.29172301851213" lon="10.463044987991452">
<ele>17</ele>
</trkpt>
<trkpt lat="56.291732992976904" lon="10.463347993791103">
<ele>17</ele>
</trkpt>
<trkpt lat="56.291795019060373" lon="10.463527031242847">
<ele>17</ele>
</trkpt>
<trkpt lat="56.291787978261709" lon="10.463574975728989">
<ele>17</ele>
</trkpt>
<trkpt lat="56.291801976040006" lon="10.463643036782742">
<ele>17</ele>
</trkpt>
<trkpt lat="56.291942037642002" lon="10.46400798484683">
<ele>16</ele>
</trkpt>
<trkpt lat="56.291942037642002" lon="10.464102029800415">
<ele>16</ele>
</trkpt>
<trkpt lat="56.29204697906971" lon="10.464391959831119">
<ele>16</ele>
</trkpt>
<trkpt lat="56.292037004604936" lon="10.464492961764336">
<ele>17</ele>
</trkpt>
<trkpt lat="56.292141024023294" lon="10.464707035571337">
<ele>18</ele>
</trkpt>
<trkpt lat="56.292350990697742" lon="10.465147001668811">
<ele>20</ele>
</trkpt>
<trkpt lat="56.292463978752494" lon="10.465706996619701">
<ele>21</ele>
</trkpt>
<trkpt lat="56.292321989312768" lon="10.46619700267911">
<ele>22</ele>
</trkpt>
<trkpt lat="56.292221993207932" lon="10.4666499607265">
<ele>23</ele>
</trkpt>
<trkpt lat="56.292235990986228" lon="10.467010969296098">
<ele>24</ele>
</trkpt>
<trkpt lat="56.292216964066029" lon="10.467123035341501">
<ele>26</ele>
</trkpt>
<trkpt lat="56.292201038450003" lon="10.467647993937135">
<ele>27</ele>
</trkpt>
<trkpt lat="56.292164996266365" lon="10.468033980578184">
<ele>28</ele>
</trkpt>
<trkpt lat="56.292081009596586" lon="10.468291975557804">
<ele>28</ele>
</trkpt>
<trkpt lat="56.292072040960193" lon="10.468623982742429">
<ele>27</ele>
</trkpt>
<trkpt lat="56.291983025148511" lon="10.468902010470629">
<ele>27</ele>
</trkpt>
<trkpt lat="56.291974978521466" lon="10.469153970479965">
<ele>26</ele>
</trkpt>
<trkpt lat="56.291858972981572" lon="10.469641964882612">
<ele>26</ele>
</trkpt>
<trkpt lat="56.291729975491762" lon="10.470029041171074">
<ele>26</ele>
</trkpt>
<trkpt lat="56.291642971336842" lon="10.47034596092999">
<ele>25</ele>
</trkpt>
<trkpt lat="56.291570970788598" lon="10.470534972846508">
<ele>25</ele>
</trkpt>
<trkpt lat="56.291517997160554" lon="10.470793973654509">
<ele>24</ele>
</trkpt>
<trkpt lat="56.291418001055717" lon="10.471009975299239">
<ele>24</ele>
</trkpt>
<trkpt lat="56.29118699580431" lon="10.471927039325237">
<ele>24</ele>
</trkpt>
<trkpt lat="56.29103796556592" lon="10.472200959920883">
<ele>24</ele>
</trkpt>
<trkpt lat="56.290814001113176" lon="10.472677974030375">
<ele>24</ele>
</trkpt>
<trkpt lat="56.290667988359928" lon="10.473046023398638">
<ele>24</ele>
</trkpt>
<trkpt lat="56.290599005296826" lon="10.47331097535789">
<ele>24</ele>
</trkpt>
<trkpt lat="56.290393983945251" lon="10.473664021119475">
<ele>23</ele>
</trkpt>
<trkpt lat="56.290245037525892" lon="10.474056964740157">
<ele>23</ele>
</trkpt>
<trkpt lat="56.290221987292171" lon="10.474292999133468">
<ele>23</ele>
</trkpt>
<trkpt lat="56.290236990898848" lon="10.474565997719765">
<ele>23</ele>
</trkpt>
<trkpt lat="56.290492974221706" lon="10.474965982139111">
<ele>23</ele>
</trkpt>
<trkpt lat="56.290594981983304" lon="10.47524300403893">
<ele>24</ele>
</trkpt>
<trkpt lat="56.290798997506499" lon="10.475477026775479">
<ele>25</ele>
</trkpt>
<trkpt lat="56.29084400832653" lon="10.475657992064953">
<ele>25</ele>
</trkpt>
<trkpt lat="56.290873009711504" lon="10.475686993449926">
<ele>26</ele>
</trkpt>
<trkpt lat="56.290953978896141" lon="10.475937025621533">
<ele>27</ele>
</trkpt>
<trkpt lat="56.290936963632703" lon="10.476190997287631">
<ele>28</ele>
</trkpt>
<trkpt lat="56.290894970297813" lon="10.476327035576105">
<ele>29</ele>
</trkpt>
<trkpt lat="56.290819030255079" lon="10.476688966155052">
<ele>29</ele>
</trkpt>
<trkpt lat="56.290806038305163" lon="10.47687697224319">
<ele>30</ele>
</trkpt>
<trkpt lat="56.290781982243061" lon="10.476966993883252">
<ele>31</ele>
</trkpt>
<trkpt lat="56.290805032476783" lon="10.477267988026142">
<ele>31</ele>
</trkpt>
<trkpt lat="56.291025979444385" lon="10.478238025680184">
<ele>32</ele>
</trkpt>
<trkpt lat="56.291023967787623" lon="10.478653013706207">
<ele>32</ele>
</trkpt>
<trkpt lat="56.291003013029695" lon="10.478728031739593">
<ele>33</ele>
</trkpt>
<trkpt lat="56.290993960574269" lon="10.479104965925217">
<ele>33</ele>
</trkpt>
<trkpt lat="56.291094040498137" lon="10.479734027758241">
<ele>33</ele>
</trkpt>
<trkpt lat="56.291219014674425" lon="10.48022797331214">
<ele>34</ele>
</trkpt>
<trkpt lat="56.291349017992616" lon="10.481125004589558">
<ele>34</ele>
</trkpt>
<trkpt lat="56.291497964411974" lon="10.48125802539289">
<ele>35</ele>
</trkpt>
<trkpt lat="56.291544986888766" lon="10.481805028393865">
<ele>35</ele>
</trkpt>
<trkpt lat="56.291710026562214" lon="10.481823971495032">
<ele>34</ele>
</trkpt>
<trkpt lat="56.29164095968008" lon="10.482259998098016">
<ele>34</ele>
</trkpt>
<trkpt lat="56.291520008817315" lon="10.482809012755752">
<ele>33</ele>
</trkpt>
<trkpt lat="56.291473992168903" lon="10.4831069894135">
<ele>32</ele>
</trkpt>
<trkpt lat="56.291154976934195" lon="10.484195966273546">
<ele>31</ele>
</trkpt>
<trkpt lat="56.291064033284783" lon="10.484447004273534">
<ele>31</ele>
</trkpt>
<trkpt lat="56.290849959477782" lon="10.485223000869155">
<ele>30</ele>
</trkpt>
<trkpt lat="56.29084300249815" lon="10.485580991953611">
<ele>30</ele>
</trkpt>
<trkpt lat="56.290754992514849" lon="10.485910987481475">
<ele>30</ele>
</trkpt>
<trkpt lat="56.29073797725141" lon="10.486045014113188">
<ele>30</ele>
</trkpt>
<trkpt lat="56.290588025003672" lon="10.486573996022344">
<ele>30</ele>
</trkpt>
<trkpt lat="56.290580984205008" lon="10.486858980730176">
<ele>30</ele>
</trkpt>
<trkpt lat="56.290535973384976" lon="10.487373964861035">
<ele>31</ele>
</trkpt>
<trkpt lat="56.290539996698499" lon="10.487822983413935">
<ele>31</ele>
</trkpt>
<trkpt lat="56.290624989196658" lon="10.488169994205236">
<ele>31</ele>
</trkpt>
<trkpt lat="56.290706964209676" lon="10.488392030820251">
<ele>31</ele>
</trkpt>
<trkpt lat="56.290937969461083" lon="10.489204991608858">
<ele>31</ele>
</trkpt>
<trkpt lat="56.290948027744889" lon="10.489978976547718">
<ele>32</ele>
</trkpt>
<trkpt lat="56.290968982502818" lon="10.490238983184099">
<ele>32</ele>
</trkpt>
<trkpt lat="56.290959008038044" lon="10.49062798731029">
<ele>32</ele>
</trkpt>
<trkpt lat="56.290941992774606" lon="10.490763019770384">
<ele>33</ele>
</trkpt>
<trkpt lat="56.290965965017676" lon="10.490974998101592">
<ele>34</ele>
</trkpt>
<trkpt lat="56.290999995544553" lon="10.491111036390066">
<ele>34</ele>
</trkpt>
<trkpt lat="56.291049029678106" lon="10.491459975019097">
<ele>34</ele>
</trkpt>
<trkpt lat="56.291046012192965" lon="10.491784019395709">
<ele>35</ele>
</trkpt>
<trkpt lat="56.29107903689146" lon="10.49202399328351">
<ele>36</ele>
</trkpt>
<trkpt lat="56.291084988042712" lon="10.492176963016391">
<ele>36</ele>
</trkpt>
<trkpt lat="56.291140979155898" lon="10.49262497574091">
<ele>37</ele>
</trkpt>
<trkpt lat="56.291177021339536" lon="10.492922030389309">
<ele>38</ele>
</trkpt>
<trkpt lat="56.291177021339536" lon="10.493131997063756">
<ele>39</ele>
</trkpt>
<trkpt lat="56.291499976068735" lon="10.493306005373597">
<ele>40</ele>
</trkpt>
<trkpt lat="56.291569964960217" lon="10.493304999545217">
<ele>40</ele>
</trkpt>
<trkpt lat="56.291749002411962" lon="10.493387980386615">
<ele>41</ele>
</trkpt>
<trkpt lat="56.29185201600194" lon="10.493491999804974">
<ele>42</ele>
</trkpt>
<trkpt lat="56.291970033198595" lon="10.493539022281766">
<ele>43</ele>
</trkpt>
<trkpt lat="56.292082015424967" lon="10.493540028110147">
<ele>44</ele>
</trkpt>
<trkpt lat="56.29230597987771" lon="10.493725016713142">
<ele>45</ele>
</trkpt>
<trkpt lat="56.292741000652313" lon="10.493904976174235">
<ele>47</ele>
</trkpt>
<trkpt lat="56.293323962017894" lon="10.494204964488745">
<ele>48</ele>
</trkpt>
<trkpt lat="56.293426975607872" lon="10.494248969480395">
<ele>50</ele>
</trkpt>
<trkpt lat="56.293482966721058" lon="10.494242012500763">
<ele>52</ele>
</trkpt>
<trkpt lat="56.293525965884328" lon="10.494310995563865">
<ele>54</ele>
</trkpt>
<trkpt lat="56.29372101277113" lon="10.494392970576882">
<ele>55</ele>
</trkpt>
<trkpt lat="56.293871970847249" lon="10.494491960853338">
<ele>57</ele>
</trkpt>
<trkpt lat="56.294904034584761" lon="10.494908038526773">
<ele>59</ele>
</trkpt>
<trkpt lat="56.295644994825125" lon="10.495276004076004">
<ele>60</ele>
</trkpt>
<trkpt lat="56.2961729709059" lon="10.495553025975823">
<ele>62</ele>
</trkpt>
<trkpt lat="56.29625896923244" lon="10.495608011260629">
<ele>63</ele>
</trkpt>
<trkpt lat="56.296437000855803" lon="10.495670037344098">
<ele>65</ele>
</trkpt>
<trkpt lat="56.296498021110892" lon="10.495658973231912">
<ele>66</ele>
</trkpt>
<trkpt lat="56.297172009944916" lon="10.495972037315369">
<ele>68</ele>
</trkpt>
<trkpt lat="56.297277035191655" lon="10.495971031486988">
<ele>69</ele>
</trkpt>
<trkpt lat="56.29763200879097" lon="10.496160965412855">
<ele>71</ele>
</trkpt>
<trkpt lat="56.298288982361555" lon="10.496418038383126">
<ele>72</ele>
</trkpt>
<trkpt lat="56.298642279580235" lon="10.496712829917669">
<ele>74</ele>
</trkpt>
<trkpt lat="56.298590982332826" lon="10.497195962816477">
<ele>75</ele>
</trkpt>
</trkseg>
</trk>
</gpx>
