<?xml version="1.0" encoding="UTF-8"?>
<gpx version="1.1"
creator="Smartprofil-Office - http://www.rother.de"
xmlns:xsi="http://www.w3.org/2001/XMLSchema-instance"
xmlns="http://www.topografix.com/GPX/1/1"
xsi:schemaLocation="http://www.topografix.com/GPX/1/1 http://www.topografix.com/GPX/1/1/gpx.xsd">
<metadata>

<bounds minlat="55.901384996250272" minlon="8.399122031405568" maxlat="55.919158989563584" maxlon="8.438795004040003"/>
</metadata>
<wpt lat="55.907102040946484" lon="8.438216987997294">
<ele>5</ele>
<name>29_Lønborg Bro (1)</name>
<cmt></cmt>
<desc></desc>
<sym>Crossing</sym>
</wpt>

<wpt lat="55.904788970947266" lon="8.422905011102557">
<ele>4</ele>
<name>29_Fugletårnet (2)</name>
<cmt></cmt>
<desc></desc>
<sym>Crossing</sym>
</wpt>

<wpt lat="55.912934001535177" lon="8.405508035793901">
<ele>4</ele>
<name>29_Trækfærge (3)</name>
<cmt></cmt>
<desc></desc>
<sym>Crossing</sym>
</wpt>

<wpt lat="55.919102998450398" lon="8.408030988648534">
<ele>5</ele>
<name>29_Pumpestation Nord (4)</name>
<cmt></cmt>
<desc></desc>
<sym>Crossing</sym>
</wpt>

<wpt lat="55.914735021069646" lon="8.437416013330221">
<ele>6</ele>
<name>29_Skjern Å (5)</name>
<cmt></cmt>
<desc></desc>
<sym>Crossing</sym>
</wpt>

<trk>
<name>DAN_29_SkjernEnge</name>
<trkseg>
<trkpt lat="55.907102040946484" lon="8.438216987997294">
<ele>5</ele>
</trkpt>
<trkpt lat="55.907113188877702" lon="8.437954047694802">
<ele>5</ele>
</trkpt>
<trkpt lat="55.906956866383553" lon="8.43797349371016">
<ele>5</ele>
</trkpt>
<trkpt lat="55.906957034021616" lon="8.437304031103849">
<ele>5</ele>
</trkpt>
<trkpt lat="55.906974971294403" lon="8.436835985630751">
<ele>5</ele>
</trkpt>
<trkpt lat="55.907022999599576" lon="8.436543960124254">
<ele>4</ele>
</trkpt>
<trkpt lat="55.907027022913098" lon="8.436364000663161">
<ele>4</ele>
</trkpt>
<trkpt lat="55.907056024298072" lon="8.436259981244803">
<ele>4</ele>
</trkpt>
<trkpt lat="55.90705300681293" lon="8.436056971549988">
<ele>4</ele>
</trkpt>
<trkpt lat="55.90707496739924" lon="8.434949973598123">
<ele>4</ele>
</trkpt>
<trkpt lat="55.907001039013267" lon="8.434779988601804">
<ele>4</ele>
</trkpt>
<trkpt lat="55.906353034079075" lon="8.434074986726046">
<ele>4</ele>
</trkpt>
<trkpt lat="55.905817011371255" lon="8.433656981214881">
<ele>4</ele>
</trkpt>
<trkpt lat="55.905601009726524" lon="8.43369897454977">
<ele>5</ele>
</trkpt>
<trkpt lat="55.905407974496484" lon="8.433796036988497">
<ele>5</ele>
</trkpt>
<trkpt lat="55.905288029462099" lon="8.433705009520054">
<ele>5</ele>
</trkpt>
<trkpt lat="55.905221980065107" lon="8.432916020974517">
<ele>5</ele>
</trkpt>
<trkpt lat="55.90515224263072" lon="8.432330377399921">
<ele>5</ele>
</trkpt>
<trkpt lat="55.904611442238092" lon="8.430621223524213">
<ele>6</ele>
</trkpt>
<trkpt lat="55.903869392350316" lon="8.428459446877241">
<ele>6</ele>
</trkpt>
<trkpt lat="55.902917040511966" lon="8.425155971199274">
<ele>6</ele>
</trkpt>
<trkpt lat="55.902797011658549" lon="8.425221014767885">
<ele>6</ele>
</trkpt>
<trkpt lat="55.90215303003788" lon="8.422854971140623">
<ele>5</ele>
</trkpt>
<trkpt lat="55.902660973370075" lon="8.422787999734283">
<ele>5</ele>
</trkpt>
<trkpt lat="55.903674513101578" lon="8.422811469063163">
<ele>4</ele>
</trkpt>
<trkpt lat="55.904788970947266" lon="8.422905011102557">
<ele>4</ele>
</trkpt>
<trkpt lat="55.903674513101578" lon="8.422822784632444">
<ele>4</ele>
</trkpt>
<trkpt lat="55.902253026142716" lon="8.422706024721265">
<ele>5</ele>
</trkpt>
<trkpt lat="55.902121011167765" lon="8.42267400585115">
<ele>5</ele>
</trkpt>
<trkpt lat="55.901796966791153" lon="8.421319993212819">
<ele>5</ele>
</trkpt>
<trkpt lat="55.901719015091658" lon="8.420822024345398">
<ele>6</ele>
</trkpt>
<trkpt lat="55.901709962636232" lon="8.419786021113396">
<ele>6</ele>
</trkpt>
<trkpt lat="55.901681967079639" lon="8.419121000915766">
<ele>6</ele>
</trkpt>
<trkpt lat="55.901664029806852" lon="8.418359002098441">
<ele>6</ele>
</trkpt>
<trkpt lat="55.901659000664949" lon="8.417189978063107">
<ele>7</ele>
</trkpt>
<trkpt lat="55.90163997374475" lon="8.416407024487853">
<ele>7</ele>
</trkpt>
<trkpt lat="55.901627987623215" lon="8.415747033432126">
<ele>7</ele>
</trkpt>
<trkpt lat="55.901631005108356" lon="8.415322992950678">
<ele>7</ele>
</trkpt>
<trkpt lat="55.901694959029555" lon="8.41517798602581">
<ele>6</ele>
</trkpt>
<trkpt lat="55.901665035635233" lon="8.414851007983089">
<ele>6</ele>
</trkpt>
<trkpt lat="55.901612984016538" lon="8.414411041885614">
<ele>6</ele>
</trkpt>
<trkpt lat="55.901544000953436" lon="8.413482997566462">
<ele>6</ele>
</trkpt>
<trkpt lat="55.901478035375476" lon="8.412672970443964">
<ele>6</ele>
</trkpt>
<trkpt lat="55.901384996250272" lon="8.411540994420648">
<ele>5</ele>
</trkpt>
<trkpt lat="55.902473386377096" lon="8.411045037209988">
<ele>5</ele>
</trkpt>
<trkpt lat="55.903576025739312" lon="8.410532986745238">
<ele>5</ele>
</trkpt>
<trkpt lat="55.903513748198748" lon="8.407028596848249">
<ele>5</ele>
</trkpt>
<trkpt lat="55.903467983007431" lon="8.403869960457087">
<ele>5</ele>
</trkpt>
<trkpt lat="55.903504025191069" lon="8.403671979904175">
<ele>5</ele>
</trkpt>
<trkpt lat="55.903653977438807" lon="8.40357500128448">
<ele>5</ele>
</trkpt>
<trkpt lat="55.904708001762629" lon="8.40436901897192">
<ele>4</ele>
</trkpt>
<trkpt lat="55.904791988432407" lon="8.404373964294791">
<ele>4</ele>
</trkpt>
<trkpt lat="55.905678709968925" lon="8.401763755828142">
<ele>4</ele>
</trkpt>
<trkpt lat="55.906555037945509" lon="8.399165030568838">
<ele>4</ele>
</trkpt>
<trkpt lat="55.906575992703438" lon="8.399122031405568">
<ele>4</ele>
</trkpt>
<trkpt lat="55.907691037282348" lon="8.399932980537415">
<ele>4</ele>
</trkpt>
<trkpt lat="55.908416993916035" lon="8.399963993579149">
<ele>4</ele>
</trkpt>
<trkpt lat="55.908826030790806" lon="8.400168009102345">
<ele>4</ele>
</trkpt>
<trkpt lat="55.909327017143369" lon="8.400536980479956">
<ele>4</ele>
</trkpt>
<trkpt lat="55.909742005169392" lon="8.401051964610815">
<ele>4</ele>
</trkpt>
<trkpt lat="55.909920036792755" lon="8.401218010112643">
<ele>4</ele>
</trkpt>
<trkpt lat="55.91085797175765" lon="8.402202967554331">
<ele>4</ele>
</trkpt>
<trkpt lat="55.91175701469183" lon="8.403522027656436">
<ele>4</ele>
</trkpt>
<trkpt lat="55.912526976317167" lon="8.40462701395154">
<ele>4</ele>
</trkpt>
<trkpt lat="55.912795029580593" lon="8.405052982270718">
<ele>4</ele>
</trkpt>
<trkpt lat="55.912907011806965" lon="8.405235037207604">
<ele>4</ele>
</trkpt>
<trkpt lat="55.912934001535177" lon="8.405508035793901">
<ele>4</ele>
</trkpt>
<trkpt lat="55.912994015961885" lon="8.405219027772546">
<ele>4</ele>
</trkpt>
<trkpt lat="55.913146985694766" lon="8.405042001977563">
<ele>4</ele>
</trkpt>
<trkpt lat="55.913415038958192" lon="8.405207963660359">
<ele>4</ele>
</trkpt>
<trkpt lat="55.91358301229775" lon="8.40531500056386">
<ele>4</ele>
</trkpt>
<trkpt lat="55.913636991754174" lon="8.405438968911767">
<ele>4</ele>
</trkpt>
<trkpt lat="55.913598015904427" lon="8.405750021338463">
<ele>3</ele>
</trkpt>
<trkpt lat="55.913534983992577" lon="8.406136007979512">
<ele>3</ele>
</trkpt>
<trkpt lat="55.913912756368518" lon="8.406719556078315">
<ele>3</ele>
</trkpt>
<trkpt lat="55.914320033043623" lon="8.40729103423655">
<ele>3</ele>
</trkpt>
<trkpt lat="55.914402427151799" lon="8.407267648726702">
<ele>3</ele>
</trkpt>
<trkpt lat="55.915282778441906" lon="8.406423591077328">
<ele>3</ele>
</trkpt>
<trkpt lat="55.916065983474255" lon="8.405686989426613">
<ele>3</ele>
</trkpt>
<trkpt lat="55.916191963478923" lon="8.405794026330113">
<ele>3</ele>
</trkpt>
<trkpt lat="55.91635700315237" lon="8.406127039343119">
<ele>3</ele>
</trkpt>
<trkpt lat="55.916657075285912" lon="8.407018622383475">
<ele>4</ele>
</trkpt>
<trkpt lat="55.916832005605102" lon="8.407679032534361">
<ele>4</ele>
</trkpt>
<trkpt lat="55.916919009760022" lon="8.407990001142025">
<ele>4</ele>
</trkpt>
<trkpt lat="55.916985981166363" lon="8.408192005008459">
<ele>4</ele>
</trkpt>
<trkpt lat="55.917079020291567" lon="8.408725010231137">
<ele>4</ele>
</trkpt>
<trkpt lat="55.917114978656173" lon="8.40903396718204">
<ele>4</ele>
</trkpt>
<trkpt lat="55.917154960334301" lon="8.409229014068842">
<ele>4</ele>
</trkpt>
<trkpt lat="55.917164012789726" lon="8.409307971596718">
<ele>4</ele>
</trkpt>
<trkpt lat="55.917362999171019" lon="8.409253992140293">
<ele>4</ele>
</trkpt>
<trkpt lat="55.9174520149827" lon="8.409198001027107">
<ele>4</ele>
</trkpt>
<trkpt lat="55.917605990543962" lon="8.409133041277528">
<ele>4</ele>
</trkpt>
<trkpt lat="55.917663993313909" lon="8.409132035449147">
<ele>5</ele>
</trkpt>
<trkpt lat="55.917807994410396" lon="8.409151984378696">
<ele>5</ele>
</trkpt>
<trkpt lat="55.91783900745213" lon="8.409146033227444">
<ele>5</ele>
</trkpt>
<trkpt lat="55.917942021042109" lon="8.409058023244143">
<ele>5</ele>
</trkpt>
<trkpt lat="55.917971022427082" lon="8.409049976617098">
<ele>5</ele>
</trkpt>
<trkpt lat="55.918236980214715" lon="8.40885803103447">
<ele>5</ele>
</trkpt>
<trkpt lat="55.918301017954946" lon="8.408821988850832">
<ele>5</ele>
</trkpt>
<trkpt lat="55.91878498904407" lon="8.408410018309951">
<ele>5</ele>
</trkpt>
<trkpt lat="55.918919015675783" lon="8.408284038305283">
<ele>5</ele>
</trkpt>
<trkpt lat="55.919038960710168" lon="8.408156968653202">
<ele>5</ele>
</trkpt>
<trkpt lat="55.919102998450398" lon="8.408030988648534">
<ele>5</ele>
</trkpt>
<trkpt lat="55.919125964865088" lon="8.4079360216856">
<ele>5</ele>
</trkpt>
<trkpt lat="55.919110039249063" lon="8.407856980338693">
<ele>5</ele>
</trkpt>
<trkpt lat="55.919091012328863" lon="8.407688001170754">
<ele>5</ele>
</trkpt>
<trkpt lat="55.919129988178611" lon="8.407627986744046">
<ele>5</ele>
</trkpt>
<trkpt lat="55.919153038412333" lon="8.407822027802467">
<ele>4</ele>
</trkpt>
<trkpt lat="55.919158989563584" lon="8.408041968941689">
<ele>4</ele>
</trkpt>
<trkpt lat="55.919154966250062" lon="8.40819401666522">
<ele>4</ele>
</trkpt>
<trkpt lat="55.919078020378947" lon="8.408214971423149">
<ele>4</ele>
</trkpt>
<trkpt lat="55.919009037315845" lon="8.408270962536335">
<ele>4</ele>
</trkpt>
<trkpt lat="55.918861012905836" lon="8.408384034410119">
<ele>4</ele>
</trkpt>
<trkpt lat="55.918693961575627" lon="8.408552007749677">
<ele>4</ele>
</trkpt>
<trkpt lat="55.918565969914198" lon="8.408652003854513">
<ele>4</ele>
</trkpt>
<trkpt lat="55.918099014088511" lon="8.409040002152324">
<ele>4</ele>
</trkpt>
<trkpt lat="55.917858369648457" lon="8.409175705164671">
<ele>4</ele>
</trkpt>
<trkpt lat="55.917844036594033" lon="8.409581976011396">
<ele>4</ele>
</trkpt>
<trkpt lat="55.917916037142277" lon="8.410076005384326">
<ele>4</ele>
</trkpt>
<trkpt lat="55.917954007163644" lon="8.41057900339365">
<ele>4</ele>
</trkpt>
<trkpt lat="55.91794503852725" lon="8.411116031929851">
<ele>4</ele>
</trkpt>
<trkpt lat="55.917870020493865" lon="8.411920024082065">
<ele>4</ele>
</trkpt>
<trkpt lat="55.917734988033772" lon="8.412596024572849">
<ele>4</ele>
</trkpt>
<trkpt lat="55.917552011087537" lon="8.413226008415222">
<ele>4</ele>
</trkpt>
<trkpt lat="55.917035015299916" lon="8.413789020851255">
<ele>4</ele>
</trkpt>
<trkpt lat="55.916732009500265" lon="8.41403896920383">
<ele>4</ele>
</trkpt>
<trkpt lat="55.916253989562392" lon="8.415020992979407">
<ele>4</ele>
</trkpt>
<trkpt lat="55.91609800234437" lon="8.415578976273537">
<ele>4</ele>
</trkpt>
<trkpt lat="55.915774963796139" lon="8.417378989979625">
<ele>5</ele>
</trkpt>
<trkpt lat="55.915342038497329" lon="8.419856010004878">
<ele>5</ele>
</trkpt>
<trkpt lat="55.91489695943892" lon="8.421593997627497">
<ele>5</ele>
</trkpt>
<trkpt lat="55.914769973605871" lon="8.422298999503255">
<ele>5</ele>
</trkpt>
<trkpt lat="55.914685986936092" lon="8.423077007755637">
<ele>5</ele>
</trkpt>
<trkpt lat="55.914680035784841" lon="8.424011003226042">
<ele>5</ele>
</trkpt>
<trkpt lat="55.915218992158771" lon="8.424447029829025">
<ele>5</ele>
</trkpt>
<trkpt lat="55.915501965209842" lon="8.424791023135185">
<ele>5</ele>
</trkpt>
<trkpt lat="55.915663987398148" lon="8.425289997830987">
<ele>5</ele>
</trkpt>
<trkpt lat="55.915772030130029" lon="8.425998017191887">
<ele>5</ele>
</trkpt>
<trkpt lat="55.915745040401816" lon="8.427468035370112">
<ele>5</ele>
</trkpt>
<trkpt lat="55.915613025426865" lon="8.428078992292285">
<ele>5</ele>
</trkpt>
<trkpt lat="55.915484027937055" lon="8.428389960899949">
<ele>5</ele>
</trkpt>
<trkpt lat="55.915210023522377" lon="8.428652985021472">
<ele>5</ele>
</trkpt>
<trkpt lat="55.915074991062284" lon="8.428718028590083">
<ele>5</ele>
</trkpt>
<trkpt lat="55.914782965555787" lon="8.42877896502614">
<ele>5</ele>
</trkpt>
<trkpt lat="55.914370995014906" lon="8.428714005276561">
<ele>5</ele>
</trkpt>
<trkpt lat="55.912880022078753" lon="8.427480021491647">
<ele>5</ele>
</trkpt>
<trkpt lat="55.912653962150216" lon="8.427421012893319">
<ele>5</ele>
</trkpt>
<trkpt lat="55.912443995475769" lon="8.427485972642899">
<ele>4</ele>
</trkpt>
<trkpt lat="55.912395967170596" lon="8.427593009546399">
<ele>4</ele>
</trkpt>
<trkpt lat="55.912347016856074" lon="8.427919987589121">
<ele>4</ele>
</trkpt>
<trkpt lat="55.912308963015676" lon="8.428414016962051">
<ele>4</ele>
</trkpt>
<trkpt lat="55.911791967228055" lon="8.430392984300852">
<ele>4</ele>
</trkpt>
<trkpt lat="55.91158602386713" lon="8.430955996736884">
<ele>4</ele>
</trkpt>
<trkpt lat="55.911312019452453" lon="8.431711960583925">
<ele>4</ele>
</trkpt>
<trkpt lat="55.911044972017407" lon="8.432200960814953">
<ele>4</ele>
</trkpt>
<trkpt lat="55.910765016451478" lon="8.432657020166516">
<ele>4</ele>
</trkpt>
<trkpt lat="55.910098990425467" lon="8.433529995381832">
<ele>4</ele>
</trkpt>
<trkpt lat="55.910020032897592" lon="8.433797964826226">
<ele>4</ele>
</trkpt>
<trkpt lat="55.910159004852176" lon="8.43429702334106">
<ele>4</ele>
</trkpt>
<trkpt lat="55.910464022308588" lon="8.434586031362414">
<ele>4</ele>
</trkpt>
<trkpt lat="55.910653034225106" lon="8.434757022187114">
<ele>4</ele>
</trkpt>
<trkpt lat="55.911431964486837" lon="8.434726009145379">
<ele>4</ele>
</trkpt>
<trkpt lat="55.912004029378295" lon="8.43434002250433">
<ele>4</ele>
</trkpt>
<trkpt lat="55.912382304668427" lon="8.433542652055621">
<ele>4</ele>
</trkpt>
<trkpt lat="55.912725040689111" lon="8.432240020483732">
<ele>4</ele>
</trkpt>
<trkpt lat="55.913102980703115" lon="8.431394034996629">
<ele>4</ele>
</trkpt>
<trkpt lat="55.913373967632651" lon="8.431242993101478">
<ele>4</ele>
</trkpt>
<trkpt lat="55.913701029494405" lon="8.431253973394632">
<ele>4</ele>
</trkpt>
<trkpt lat="55.913873026147485" lon="8.431437034159899">
<ele>5</ele>
</trkpt>
<trkpt lat="55.914108976721764" lon="8.431964004412293">
<ele>5</ele>
</trkpt>
<trkpt lat="55.914426986128092" lon="8.43283798545599">
<ele>5</ele>
</trkpt>
<trkpt lat="55.91459596529603" lon="8.433610964566469">
<ele>5</ele>
</trkpt>
<trkpt lat="55.914655979722738" lon="8.433986976742744">
<ele>5</ele>
</trkpt>
<trkpt lat="55.914667965844274" lon="8.434539008885622">
<ele>5</ele>
</trkpt>
<trkpt lat="55.914685986936092" lon="8.435177961364389">
<ele>5</ele>
</trkpt>
<trkpt lat="55.914691016077995" lon="8.435805011540651">
<ele>5</ele>
</trkpt>
<trkpt lat="55.914696967229247" lon="8.436283031478524">
<ele>5</ele>
</trkpt>
<trkpt lat="55.914707025513053" lon="8.436539014801383">
<ele>6</ele>
</trkpt>
<trkpt lat="55.914701744914055" lon="8.436692487448454">
<ele>6</ele>
</trkpt>
<trkpt lat="55.91470199637115" lon="8.4368110075593">
<ele>6</ele>
</trkpt>
<trkpt lat="55.914709959179163" lon="8.4369629714638">
<ele>6</ele>
</trkpt>
<trkpt lat="55.914752036333084" lon="8.43730503693223">
<ele>6</ele>
</trkpt>
<trkpt lat="55.914735021069646" lon="8.437416013330221">
<ele>6</ele>
</trkpt>
<trkpt lat="55.914700990542769" lon="8.437444008886814">
<ele>6</ele>
</trkpt>
<trkpt lat="55.914682969450951" lon="8.437427999451757">
<ele>6</ele>
</trkpt>
<trkpt lat="55.914427991956472" lon="8.437401009723544">
<ele>5</ele>
</trkpt>
<trkpt lat="55.914307041093707" lon="8.437381982803345">
<ele>5</ele>
</trkpt>
<trkpt lat="55.914277788251638" lon="8.437371589243412">
<ele>5</ele>
</trkpt>
<trkpt lat="55.914273010566831" lon="8.437095992267132">
<ele>5</ele>
</trkpt>
<trkpt lat="55.914291031658649" lon="8.437014017254114">
<ele>5</ele>
</trkpt>
<trkpt lat="55.914327995851636" lon="8.436614032834768">
<ele>4</ele>
</trkpt>
<trkpt lat="55.914317015558481" lon="8.436366012319922">
<ele>4</ele>
</trkpt>
<trkpt lat="55.914333024993539" lon="8.436152022331953">
<ele>4</ele>
</trkpt>
<trkpt lat="55.914339981973171" lon="8.435793025419116">
<ele>4</ele>
</trkpt>
<trkpt lat="55.91433797031641" lon="8.435617005452514">
<ele>4</ele>
</trkpt>
<trkpt lat="55.914344005286694" lon="8.43552497215569">
<ele>4</ele>
</trkpt>
<trkpt lat="55.914342999458313" lon="8.435077965259552">
<ele>4</ele>
</trkpt>
<trkpt lat="55.914327995851636" lon="8.434759033843875">
<ele>4</ele>
</trkpt>
<trkpt lat="55.914333024993539" lon="8.434645961970091">
<ele>5</ele>
</trkpt>
<trkpt lat="55.914329001680017" lon="8.434460973367095">
<ele>5</ele>
</trkpt>
<trkpt lat="55.914278961718082" lon="8.433926962316036">
<ele>5</ele>
</trkpt>
<trkpt lat="55.914248032495379" lon="8.433656981214881">
<ele>5</ele>
</trkpt>
<trkpt lat="55.914235962554812" lon="8.433596966788173">
<ele>5</ele>
</trkpt>
<trkpt lat="55.914118029177189" lon="8.433218020945787">
<ele>5</ele>
</trkpt>
<trkpt lat="55.914068995043635" lon="8.433021968230605">
<ele>5</ele>
</trkpt>
<trkpt lat="55.9137789811939" lon="8.432312021031976">
<ele>4</ele>
</trkpt>
<trkpt lat="55.913645960390568" lon="8.432073974981904">
<ele>4</ele>
</trkpt>
<trkpt lat="55.913533978164196" lon="8.431959981098771">
<ele>4</ele>
</trkpt>
<trkpt lat="55.913496008142829" lon="8.431941037997603">
<ele>4</ele>
</trkpt>
<trkpt lat="55.913269026204944" lon="8.432042039930821">
<ele>4</ele>
</trkpt>
<trkpt lat="55.913160983473063" lon="8.432237002998591">
<ele>3</ele>
</trkpt>
<trkpt lat="55.913138017058372" lon="8.432255024090409">
<ele>3</ele>
</trkpt>
<trkpt lat="55.913008013740182" lon="8.432778976857662">
<ele>3</ele>
</trkpt>
<trkpt lat="55.912901982665062" lon="8.433187007904053">
<ele>3</ele>
</trkpt>
<trkpt lat="55.912518007680774" lon="8.43434396199882">
<ele>3</ele>
</trkpt>
<trkpt lat="55.912066977471113" lon="8.435041503980756">
<ele>4</ele>
</trkpt>
<trkpt lat="55.911531960591674" lon="8.435399997979403">
<ele>4</ele>
</trkpt>
<trkpt lat="55.91115896590054" lon="8.435421036556363">
<ele>4</ele>
</trkpt>
<trkpt lat="55.910489000380039" lon="8.43535196967423">
<ele>4</ele>
</trkpt>
<trkpt lat="55.910351034253836" lon="8.435249961912632">
<ele>4</ele>
</trkpt>
<trkpt lat="55.909893969073892" lon="8.434697007760406">
<ele>5</ele>
</trkpt>
<trkpt lat="55.909843007102609" lon="8.434604974463582">
<ele>5</ele>
</trkpt>
<trkpt lat="55.909795984625816" lon="8.434441024437547">
<ele>5</ele>
</trkpt>
<trkpt lat="55.90976002626121" lon="8.434176994487643">
<ele>5</ele>
</trkpt>
<trkpt lat="55.909730019047856" lon="8.434132989495993">
<ele>5</ele>
</trkpt>
<trkpt lat="55.90954503044486" lon="8.434146987274289">
<ele>5</ele>
</trkpt>
<trkpt lat="55.909440005198121" lon="8.434232985600829">
<ele>5</ele>
</trkpt>
<trkpt lat="55.909349983558059" lon="8.434293000027537">
<ele>4</ele>
</trkpt>
<trkpt lat="55.909129958599806" lon="8.434420991688967">
<ele>4</ele>
</trkpt>
<trkpt lat="55.90898796916008" lon="8.434548983350396">
<ele>4</ele>
</trkpt>
<trkpt lat="55.908954022452235" lon="8.434559041634202">
<ele>4</ele>
</trkpt>
<trkpt lat="55.908796023577452" lon="8.434658031910658">
<ele>4</ele>
</trkpt>
<trkpt lat="55.908638024702668" lon="8.434840003028512">
<ele>4</ele>
</trkpt>
<trkpt lat="55.908464016392827" lon="8.435128005221486">
<ele>4</ele>
</trkpt>
<trkpt lat="55.908455969765782" lon="8.435148959979415">
<ele>4</ele>
</trkpt>
<trkpt lat="55.908339964225888" lon="8.435306958854199">
<ele>4</ele>
</trkpt>
<trkpt lat="55.908239968121052" lon="8.435504017397761">
<ele>4</ele>
</trkpt>
<trkpt lat="55.908223958685994" lon="8.435526983812451">
<ele>4</ele>
</trkpt>
<trkpt lat="55.90797602199018" lon="8.436091002076864">
<ele>4</ele>
</trkpt>
<trkpt lat="55.907903015613556" lon="8.436386967077851">
<ele>4</ele>
</trkpt>
<trkpt lat="55.907824980095029" lon="8.436775971204042">
<ele>4</ele>
</trkpt>
<trkpt lat="55.907802013680339" lon="8.436948973685503">
<ele>4</ele>
</trkpt>
<trkpt lat="55.907786004245281" lon="8.437170004472137">
<ele>4</ele>
</trkpt>
<trkpt lat="55.907753985375166" lon="8.437488013878465">
<ele>4</ele>
</trkpt>
<trkpt lat="55.907744010910392" lon="8.437811974436045">
<ele>5</ele>
</trkpt>
<trkpt lat="55.907714003697038" lon="8.438010038807988">
<ele>5</ele>
</trkpt>
<trkpt lat="55.907706040889025" lon="8.438235009089112">
<ele>5</ele>
</trkpt>
<trkpt lat="55.907724983990192" lon="8.438376998528838">
<ele>6</ele>
</trkpt>
<trkpt lat="55.907744010910392" lon="8.43840298242867">
<ele>6</ele>
</trkpt>
<trkpt lat="55.907380990684032" lon="8.438663994893432">
<ele>6</ele>
</trkpt>
<trkpt lat="55.907234977930784" lon="8.438707999885082">
<ele>6</ele>
</trkpt>
<trkpt lat="55.90698603540659" lon="8.438795004040003">
<ele>7</ele>
</trkpt>
<trkpt lat="55.906962985172868" lon="8.438774971291423">
<ele>7</ele>
</trkpt>
<trkpt lat="55.906942030414939" lon="8.438740018755198">
<ele>7</ele>
</trkpt>
<trkpt lat="55.906958039849997" lon="8.438491998240352">
<ele>6</ele>
</trkpt>
<trkpt lat="55.907015036791563" lon="8.438399964943528">
<ele>6</ele>
</trkpt>
<trkpt lat="55.907063987106085" lon="8.438444975763559">
<ele>5</ele>
</trkpt>
<trkpt lat="55.907102040946484" lon="8.438216987997294">
<ele>5</ele>
</trkpt>
</trkseg>
</trk>
</gpx>
