<?xml version="1.0" encoding="UTF-8"?>
<gpx version="1.1"
creator="Smartprofil-Office - http://www.rother.de"
xmlns:xsi="http://www.w3.org/2001/XMLSchema-instance"
xmlns="http://www.topografix.com/GPX/1/1"
xsi:schemaLocation="http://www.topografix.com/GPX/1/1 http://www.topografix.com/GPX/1/1/gpx.xsd">
<metadata>

<bounds minlat="55.266550965607166" minlon="8.912649974226952" maxlat="55.295334002003074" maxlon="8.976194020360708"/>
</metadata>
<wpt lat="55.295194024220109" lon="8.927028961479664">
<ele>15</ele>
<name>39_Gelsbro (1)</name>
<cmt></cmt>
<desc></desc>
<sym>Crossing</sym>
</wpt>

<wpt lat="55.283863032236695" lon="8.917879024520516">
<ele>12</ele>
<name>39_Sagnsten (2)</name>
<cmt></cmt>
<desc></desc>
<sym>Crossing</sym>
</wpt>

<wpt lat="55.276197027415037" lon="8.931170040741563">
<ele>15</ele>
<name>39_Sø (3)</name>
<cmt>See</cmt>
<desc></desc>
<sym>Crossing</sym>
</wpt>

<wpt lat="55.267855022102594" lon="8.948387978598476">
<ele>29</ele>
<name>39_Ballum Bjerg Hede (4)</name>
<cmt></cmt>
<desc></desc>
<sym>Crossing</sym>
</wpt>

<wpt lat="55.270820958539844" lon="8.963882010430098">
<ele>18</ele>
<name>39_Stensbæk Hede (5)</name>
<cmt>Abkuerzung</cmt>
<desc></desc>
<sym>Crossing</sym>
</wpt>

<wpt lat="55.279636960476637" lon="8.945473004132509">
<ele>18</ele>
<name>39_Åskovhus (6)</name>
<cmt></cmt>
<desc></desc>
<sym>Crossing</sym>
</wpt>

<trk>
<name>DAN_39_Stensbaek</name>
<trkseg>
<trkpt lat="55.295194024220109" lon="8.927028961479664">
<ele>15</ele>
</trkpt>
<trkpt lat="55.295236017554998" lon="8.92682402394712">
<ele>15</ele>
</trkpt>
<trkpt lat="55.295225959271193" lon="8.926580026745796">
<ele>15</ele>
</trkpt>
<trkpt lat="55.295334002003074" lon="8.926063030958176">
<ele>15</ele>
</trkpt>
<trkpt lat="55.29485740698874" lon="8.925337325781584">
<ele>15</ele>
</trkpt>
<trkpt lat="55.294375028461218" lon="8.924424033612013">
<ele>16</ele>
</trkpt>
<trkpt lat="55.294116027653217" lon="8.923891028389335">
<ele>16</ele>
</trkpt>
<trkpt lat="55.293860966339707" lon="8.923623980954289">
<ele>16</ele>
</trkpt>
<trkpt lat="55.293325027450919" lon="8.922819988802075">
<ele>16</ele>
</trkpt>
<trkpt lat="55.293225031346083" lon="8.92274497076869">
<ele>16</ele>
</trkpt>
<trkpt lat="55.292890006676316" lon="8.922235015779734">
<ele>16</ele>
</trkpt>
<trkpt lat="55.292656989768147" lon="8.921961011365056">
<ele>16</ele>
</trkpt>
<trkpt lat="55.29210596345365" lon="8.921115025877953">
<ele>16</ele>
</trkpt>
<trkpt lat="55.291600031778216" lon="8.920221012085676">
<ele>15</ele>
</trkpt>
<trkpt lat="55.291560972109437" lon="8.920104000717402">
<ele>15</ele>
</trkpt>
<trkpt lat="55.291358968243003" lon="8.919582981616259">
<ele>15</ele>
</trkpt>
<trkpt lat="55.291045987978578" lon="8.918824000284076">
<ele>15</ele>
</trkpt>
<trkpt lat="55.290825041010976" lon="8.91851001419127">
<ele>15</ele>
</trkpt>
<trkpt lat="55.290664024651051" lon="8.917786991223693">
<ele>14</ele>
</trkpt>
<trkpt lat="55.290192039683461" lon="8.917375020682812">
<ele>14</ele>
</trkpt>
<trkpt lat="55.290037980303168" lon="8.917062040418387">
<ele>14</ele>
</trkpt>
<trkpt lat="55.289170034229755" lon="8.915496971458197">
<ele>14</ele>
</trkpt>
<trkpt lat="55.28883601538837" lon="8.915061028674245">
<ele>14</ele>
</trkpt>
<trkpt lat="55.288480035960674" lon="8.914700020104647">
<ele>14</ele>
</trkpt>
<trkpt lat="55.288217011839151" lon="8.91417296603322">
<ele>14</ele>
</trkpt>
<trkpt lat="55.288083991035819" lon="8.913895022124052">
<ele>14</ele>
</trkpt>
<trkpt lat="55.28782700188458" lon="8.913687989115715">
<ele>15</ele>
</trkpt>
<trkpt lat="55.287133986130357" lon="8.913323041051626">
<ele>15</ele>
</trkpt>
<trkpt lat="55.28641196899116" lon="8.912835968658328">
<ele>15</ele>
</trkpt>
<trkpt lat="55.286233015358448" lon="8.912649974226952">
<ele>15</ele>
</trkpt>
<trkpt lat="55.286111980676651" lon="8.912677969783545">
<ele>15</ele>
</trkpt>
<trkpt lat="55.286031011492014" lon="8.912896988913417">
<ele>15</ele>
</trkpt>
<trkpt lat="55.286035034805536" lon="8.913068985566497">
<ele>15</ele>
</trkpt>
<trkpt lat="55.285767987370491" lon="8.913916982710362">
<ele>14</ele>
</trkpt>
<trkpt lat="55.285704033449292" lon="8.914316967129707">
<ele>14</ele>
</trkpt>
<trkpt lat="55.285628009587526" lon="8.91455601900816">
<ele>14</ele>
</trkpt>
<trkpt lat="55.285561038181186" lon="8.915130011737347">
<ele>14</ele>
</trkpt>
<trkpt lat="55.285431034862995" lon="8.915294967591763">
<ele>14</ele>
</trkpt>
<trkpt lat="55.28525099158287" lon="8.91524501144886">
<ele>13</ele>
</trkpt>
<trkpt lat="55.285125011578202" lon="8.91573803499341">
<ele>13</ele>
</trkpt>
<trkpt lat="55.284972041845322" lon="8.915658993646503">
<ele>13</ele>
</trkpt>
<trkpt lat="55.284853018820286" lon="8.915678020566702">
<ele>13</ele>
</trkpt>
<trkpt lat="55.284740030765533" lon="8.916136007755995">
<ele>13</ele>
</trkpt>
<trkpt lat="55.284555964171886" lon="8.916437001898885">
<ele>13</ele>
</trkpt>
<trkpt lat="55.284457979723811" lon="8.916734978556633">
<ele>13</ele>
</trkpt>
<trkpt lat="55.284450016915798" lon="8.916871016845107">
<ele>13</ele>
</trkpt>
<trkpt lat="55.284337028861046" lon="8.917130017653108">
<ele>12</ele>
</trkpt>
<trkpt lat="55.284298975020647" lon="8.917623041197658">
<ele>12</ele>
</trkpt>
<trkpt lat="55.284268967807293" lon="8.917681965976954">
<ele>12</ele>
</trkpt>
<trkpt lat="55.284182969480753" lon="8.917843988165259">
<ele>12</ele>
</trkpt>
<trkpt lat="55.284094959497452" lon="8.917864020913839">
<ele>12</ele>
</trkpt>
<trkpt lat="55.283962022513151" lon="8.917685989290476">
<ele>12</ele>
</trkpt>
<trkpt lat="55.283863032236695" lon="8.917879024520516">
<ele>12</ele>
</trkpt>
<trkpt lat="55.283759012818336" lon="8.918447988107801">
<ele>12</ele>
</trkpt>
<trkpt lat="55.283599002286792" lon="8.918635994195938">
<ele>13</ele>
</trkpt>
<trkpt lat="55.283180996775627" lon="8.918888038024306">
<ele>13</ele>
</trkpt>
<trkpt lat="55.283047975972295" lon="8.919346025213599">
<ele>14</ele>
</trkpt>
<trkpt lat="55.28284496627748" lon="8.919660011306405">
<ele>14</ele>
</trkpt>
<trkpt lat="55.282782018184662" lon="8.919676020741463">
<ele>14</ele>
</trkpt>
<trkpt lat="55.282696019858122" lon="8.919795965775847">
<ele>15</ele>
</trkpt>
<trkpt lat="55.282590994611382" lon="8.920556036755443">
<ele>15</ele>
</trkpt>
<trkpt lat="55.282642040401697" lon="8.92214197665453">
<ele>16</ele>
</trkpt>
<trkpt lat="55.282537015154958" lon="8.922445988282561">
<ele>16</ele>
</trkpt>
<trkpt lat="55.28251999989152" lon="8.922639023512602">
<ele>16</ele>
</trkpt>
<trkpt lat="55.282551012933254" lon="8.922712029889226">
<ele>15</ele>
</trkpt>
<trkpt lat="55.282589988783002" lon="8.923188038170338">
<ele>14</ele>
</trkpt>
<trkpt lat="55.282710017636418" lon="8.923508981242776">
<ele>14</ele>
</trkpt>
<trkpt lat="55.2826919965446" lon="8.923680977895856">
<ele>14</ele>
</trkpt>
<trkpt lat="55.282757040113211" lon="8.923849035054445">
<ele>13</ele>
</trkpt>
<trkpt lat="55.282773971557617" lon="8.924093032255769">
<ele>12</ele>
</trkpt>
<trkpt lat="55.282825017347932" lon="8.924298975616694">
<ele>12</ele>
</trkpt>
<trkpt lat="55.282823005691171" lon="8.924560993909836">
<ele>12</ele>
</trkpt>
<trkpt lat="55.28286399319768" lon="8.925296002998948">
<ele>11</ele>
</trkpt>
<trkpt lat="55.283033978193998" lon="8.925506975501776">
<ele>11</ele>
</trkpt>
<trkpt lat="55.283083012327552" lon="8.925863960757852">
<ele>12</ele>
</trkpt>
<trkpt lat="55.283429017290473" lon="8.926796028390527">
<ele>12</ele>
</trkpt>
<trkpt lat="55.284005021676421" lon="8.927479991689324">
<ele>13</ele>
</trkpt>
<trkpt lat="55.284142987802625" lon="8.927514022216201">
<ele>13</ele>
</trkpt>
<trkpt lat="55.2843670360744" lon="8.92779003828764">
<ele>13</ele>
</trkpt>
<trkpt lat="55.28447600081563" lon="8.927854998037219">
<ele>14</ele>
</trkpt>
<trkpt lat="55.284684961661696" lon="8.92815800383687">
<ele>14</ele>
</trkpt>
<trkpt lat="55.284746987745166" lon="8.928317008540034">
<ele>15</ele>
</trkpt>
<trkpt lat="55.284811025485396" lon="8.928724033758044">
<ele>15</ele>
</trkpt>
<trkpt lat="55.284688984975219" lon="8.929115971550345">
<ele>15</ele>
</trkpt>
<trkpt lat="55.284614972770214" lon="8.929174980148673">
<ele>16</ele>
</trkpt>
<trkpt lat="55.284506008028984" lon="8.92948703840375">
<ele>16</ele>
</trkpt>
<trkpt lat="55.284343985840678" lon="8.930551037192345">
<ele>16</ele>
</trkpt>
<trkpt lat="55.284183975309134" lon="8.931268025189638">
<ele>16</ele>
</trkpt>
<trkpt lat="55.283797988668084" lon="8.930982034653425">
<ele>17</ele>
</trkpt>
<trkpt lat="55.283461036160588" lon="8.930892013013363">
<ele>17</ele>
</trkpt>
<trkpt lat="55.283117964863777" lon="8.930642986670137">
<ele>17</ele>
</trkpt>
<trkpt lat="55.282891988754272" lon="8.93062898889184">
<ele>18</ele>
</trkpt>
<trkpt lat="55.282507007941604" lon="8.930313996970654">
<ele>18</ele>
</trkpt>
<trkpt lat="55.282382033765316" lon="8.930308967828751">
<ele>18</ele>
</trkpt>
<trkpt lat="55.281845005229115" lon="8.930079974234104">
<ele>17</ele>
</trkpt>
<trkpt lat="55.281055010855198" lon="8.929594997316599">
<ele>17</ele>
</trkpt>
<trkpt lat="55.28039401397109" lon="8.929327027872205">
<ele>17</ele>
</trkpt>
<trkpt lat="55.28002998791635" lon="8.92906098626554">
<ele>16</ele>
</trkpt>
<trkpt lat="55.279957987368107" lon="8.929015975445509">
<ele>16</ele>
</trkpt>
<trkpt lat="55.279826978221536" lon="8.929054029285908">
<ele>16</ele>
</trkpt>
<trkpt lat="55.279459012672305" lon="8.928827969357371">
<ele>16</ele>
</trkpt>
<trkpt lat="55.279180984944105" lon="8.928728979080916">
<ele>15</ele>
</trkpt>
<trkpt lat="55.278973029926419" lon="8.928513983264566">
<ele>15</ele>
</trkpt>
<trkpt lat="55.278340028598905" lon="8.928262023255229">
<ele>15</ele>
</trkpt>
<trkpt lat="55.278132995590568" lon="8.928472995758057">
<ele>15</ele>
</trkpt>
<trkpt lat="55.277873994782567" lon="8.928445000201464">
<ele>15</ele>
</trkpt>
<trkpt lat="55.277603007853031" lon="8.928661001846194">
<ele>15</ele>
</trkpt>
<trkpt lat="55.277330009266734" lon="8.92861096188426">
<ele>15</ele>
</trkpt>
<trkpt lat="55.277183996513486" lon="8.928691009059548">
<ele>15</ele>
</trkpt>
<trkpt lat="55.27708156965673" lon="8.929038606584072">
<ele>15</ele>
</trkpt>
<trkpt lat="55.276857018470764" lon="8.929515620693564">
<ele>15</ele>
</trkpt>
<trkpt lat="55.276592066511512" lon="8.930178545415402">
<ele>15</ele>
</trkpt>
<trkpt lat="55.276423003524542" lon="8.930604010820389">
<ele>15</ele>
</trkpt>
<trkpt lat="55.276196021586657" lon="8.931066021323204">
<ele>15</ele>
</trkpt>
<trkpt lat="55.276197027415037" lon="8.931170040741563">
<ele>15</ele>
</trkpt>
<trkpt lat="55.276189986616373" lon="8.931258972734213">
<ele>15</ele>
</trkpt>
<trkpt lat="55.276153022423387" lon="8.931348994374275">
<ele>15</ele>
</trkpt>
<trkpt lat="55.276164002716541" lon="8.93148603849113">
<ele>15</ele>
</trkpt>
<trkpt lat="55.276194848120213" lon="8.931895578280091">
<ele>15</ele>
</trkpt>
<trkpt lat="55.276159979403019" lon="8.932679034769535">
<ele>16</ele>
</trkpt>
<trkpt lat="55.276193004101515" lon="8.932983968406916">
<ele>16</ele>
</trkpt>
<trkpt lat="55.276194848120213" lon="8.93310827203095">
<ele>16</ele>
</trkpt>
<trkpt lat="55.276024024933577" lon="8.933842023834586">
<ele>16</ele>
</trkpt>
<trkpt lat="55.275861583650112" lon="8.934518275782466">
<ele>16</ele>
</trkpt>
<trkpt lat="55.275742979720235" lon="8.934970982372761">
<ele>16</ele>
</trkpt>
<trkpt lat="55.275756977498531" lon="8.935158988460898">
<ele>16</ele>
</trkpt>
<trkpt lat="55.275937020778656" lon="8.935512704774737">
<ele>16</ele>
</trkpt>
<trkpt lat="55.276035005226731" lon="8.93552795983851">
<ele>16</ele>
</trkpt>
<trkpt lat="55.276170037686825" lon="8.935521002858877">
<ele>16</ele>
</trkpt>
<trkpt lat="55.276408670470119" lon="8.935401141643524">
<ele>16</ele>
</trkpt>
<trkpt lat="55.276484107598662" lon="8.935124622657895">
<ele>17</ele>
</trkpt>
<trkpt lat="55.276535991579294" lon="8.934952039271593">
<ele>17</ele>
</trkpt>
<trkpt lat="55.276682004332542" lon="8.934905016794801">
<ele>17</ele>
</trkpt>
<trkpt lat="55.276859030127525" lon="8.934742994606495">
<ele>17</ele>
</trkpt>
<trkpt lat="55.277302013710141" lon="8.934465972706676">
<ele>17</ele>
</trkpt>
<trkpt lat="55.277466969564557" lon="8.934257011860609">
<ele>17</ele>
</trkpt>
<trkpt lat="55.277638966217637" lon="8.934278972446919">
<ele>17</ele>
</trkpt>
<trkpt lat="55.277807023376226" lon="8.934405036270618">
<ele>17</ele>
</trkpt>
<trkpt lat="55.278294011950493" lon="8.934592958539724">
<ele>17</ele>
</trkpt>
<trkpt lat="55.278655020520091" lon="8.934854976832867">
<ele>18</ele>
</trkpt>
<trkpt lat="55.278729032725096" lon="8.934849025681615">
<ele>18</ele>
</trkpt>
<trkpt lat="55.278884014114738" lon="8.934914991259575">
<ele>18</ele>
</trkpt>
<trkpt lat="55.27886901050806" lon="8.935042982921004">
<ele>18</ele>
</trkpt>
<trkpt lat="55.278668012470007" lon="8.936232961714268">
<ele>18</ele>
</trkpt>
<trkpt lat="55.278489980846643" lon="8.936993032693863">
<ele>18</ele>
</trkpt>
<trkpt lat="55.278384033590555" lon="8.937846980988979">
<ele>18</ele>
</trkpt>
<trkpt lat="55.278121009469032" lon="8.937996011227369">
<ele>18</ele>
</trkpt>
<trkpt lat="55.278063006699085" lon="8.938570003956556">
<ele>17</ele>
</trkpt>
<trkpt lat="55.277997041121125" lon="8.938717022538185">
<ele>17</ele>
</trkpt>
<trkpt lat="55.277880029752851" lon="8.938832022249699">
<ele>17</ele>
</trkpt>
<trkpt lat="55.277622034773231" lon="8.93885700032115">
<ele>17</ele>
</trkpt>
<trkpt lat="55.277556991204619" lon="8.938918020576239">
<ele>17</ele>
</trkpt>
<trkpt lat="55.277440985664725" lon="8.939279029145837">
<ele>16</ele>
</trkpt>
<trkpt lat="55.277278963476419" lon="8.940121997147799">
<ele>16</ele>
</trkpt>
<trkpt lat="55.277172010391951" lon="8.940094001591206">
<ele>16</ele>
</trkpt>
<trkpt lat="55.277094980701804" lon="8.940162984654307">
<ele>16</ele>
</trkpt>
<trkpt lat="55.277095986530185" lon="8.940360965207219">
<ele>16</ele>
</trkpt>
<trkpt lat="55.277004037052393" lon="8.940736977383494">
<ele>16</ele>
</trkpt>
<trkpt lat="55.277172010391951" lon="8.940777964890003">
<ele>16</ele>
</trkpt>
<trkpt lat="55.277791013941169" lon="8.941194964572787">
<ele>16</ele>
</trkpt>
<trkpt lat="55.277769975364208" lon="8.941447008401156">
<ele>15</ele>
</trkpt>
<trkpt lat="55.277636032551527" lon="8.941926034167409">
<ele>15</ele>
</trkpt>
<trkpt lat="55.277462024241686" lon="8.942096019163728">
<ele>15</ele>
</trkpt>
<trkpt lat="55.277145020663738" lon="8.942118985578418">
<ele>15</ele>
</trkpt>
<trkpt lat="55.276395007967949" lon="8.942471025511622">
<ele>15</ele>
</trkpt>
<trkpt lat="55.275885974988341" lon="8.942841002717614">
<ele>15</ele>
</trkpt>
<trkpt lat="55.275636026635766" lon="8.94304602406919">
<ele>15</ele>
</trkpt>
<trkpt lat="55.275522032752633" lon="8.943219026550651">
<ele>15</ele>
</trkpt>
<trkpt lat="55.27512900531292" lon="8.943472998216748">
<ele>15</ele>
</trkpt>
<trkpt lat="55.275024985894561" lon="8.943840963765979">
<ele>15</ele>
</trkpt>
<trkpt lat="55.274878973141313" lon="8.944020001217723">
<ele>15</ele>
</trkpt>
<trkpt lat="55.274767996743321" lon="8.943983037024736">
<ele>15</ele>
</trkpt>
<trkpt lat="55.274710999801755" lon="8.943718001246452">
<ele>15</ele>
</trkpt>
<trkpt lat="55.274642016738653" lon="8.943630997091532">
<ele>15</ele>
</trkpt>
<trkpt lat="55.273975990712643" lon="8.943558996543288">
<ele>15</ele>
</trkpt>
<trkpt lat="55.273666027933359" lon="8.943355986848474">
<ele>15</ele>
</trkpt>
<trkpt lat="55.27336997911334" lon="8.943269988521934">
<ele>15</ele>
</trkpt>
<trkpt lat="55.273116007447243" lon="8.943022973835468">
<ele>15</ele>
</trkpt>
<trkpt lat="55.273006036877632" lon="8.942807978019118">
<ele>15</ele>
</trkpt>
<trkpt lat="55.273027997463942" lon="8.942390978336334">
<ele>16</ele>
</trkpt>
<trkpt lat="55.273107960820198" lon="8.941897032782435">
<ele>16</ele>
</trkpt>
<trkpt lat="55.273097986355424" lon="8.941633002832532">
<ele>16</ele>
</trkpt>
<trkpt lat="55.272903023287654" lon="8.941502999514341">
<ele>16</ele>
</trkpt>
<trkpt lat="55.272187041118741" lon="8.941578017547727">
<ele>16</ele>
</trkpt>
<trkpt lat="55.271381959319115" lon="8.941788990050554">
<ele>16</ele>
</trkpt>
<trkpt lat="55.270944004878402" lon="8.942525004968047">
<ele>17</ele>
</trkpt>
<trkpt lat="55.270186029374599" lon="8.94263899885118">
<ele>18</ele>
</trkpt>
<trkpt lat="55.269755031913519" lon="8.942628018558025">
<ele>19</ele>
</trkpt>
<trkpt lat="55.269594015553594" lon="8.942757016047835">
<ele>20</ele>
</trkpt>
<trkpt lat="55.269330991432071" lon="8.942664982751012">
<ele>21</ele>
</trkpt>
<trkpt lat="55.269019016996026" lon="8.942790040746331">
<ele>22</ele>
</trkpt>
<trkpt lat="55.268948022276163" lon="8.942890958860517">
<ele>22</ele>
</trkpt>
<trkpt lat="55.268811983987689" lon="8.944362988695502">
<ele>23</ele>
</trkpt>
<trkpt lat="55.26853596791625" lon="8.94687001593411">
<ele>24</ele>
</trkpt>
<trkpt lat="55.26831803843379" lon="8.947572000324726">
<ele>25</ele>
</trkpt>
<trkpt lat="55.268184011802077" lon="8.947825971990824">
<ele>26</ele>
</trkpt>
<trkpt lat="55.268162973225117" lon="8.947954969480634">
<ele>27</ele>
</trkpt>
<trkpt lat="55.268063982948661" lon="8.948164014145732">
<ele>28</ele>
</trkpt>
<trkpt lat="55.267855022102594" lon="8.948387978598476">
<ele>29</ele>
</trkpt>
<trkpt lat="55.267626028507948" lon="8.948367023840547">
<ele>28</ele>
</trkpt>
<trkpt lat="55.267182039096951" lon="8.948228973895311">
<ele>27</ele>
</trkpt>
<trkpt lat="55.267123030498624" lon="8.948403988033533">
<ele>25</ele>
</trkpt>
<trkpt lat="55.267051951959729" lon="8.949377797544003">
<ele>24</ele>
</trkpt>
<trkpt lat="55.266960002481937" lon="8.950568027794361">
<ele>23</ele>
</trkpt>
<trkpt lat="55.266894036903977" lon="8.951108995825052">
<ele>22</ele>
</trkpt>
<trkpt lat="55.266974000260234" lon="8.951592966914177">
<ele>21</ele>
</trkpt>
<trkpt lat="55.266891019418836" lon="8.951952969655395">
<ele>19</ele>
</trkpt>
<trkpt lat="55.26670703664422" lon="8.952313978224993">
<ele>18</ele>
</trkpt>
<trkpt lat="55.266652973368764" lon="8.952525034546852">
<ele>17</ele>
</trkpt>
<trkpt lat="55.266576027497649" lon="8.953000036999583">
<ele>17</ele>
</trkpt>
<trkpt lat="55.266563035547733" lon="8.953372025862336">
<ele>17</ele>
</trkpt>
<trkpt lat="55.266550965607166" lon="8.953622980043292">
<ele>17</ele>
</trkpt>
<trkpt lat="55.266775013878942" lon="8.953802017495036">
<ele>17</ele>
</trkpt>
<trkpt lat="55.267337020486593" lon="8.954050960019231">
<ele>18</ele>
</trkpt>
<trkpt lat="55.267668021842837" lon="8.95409001968801">
<ele>18</ele>
</trkpt>
<trkpt lat="55.267757959663868" lon="8.954222034662962">
<ele>18</ele>
</trkpt>
<trkpt lat="55.267498036846519" lon="8.955233981832862">
<ele>18</ele>
</trkpt>
<trkpt lat="55.267482027411461" lon="8.95574402064085">
<ele>18</ele>
</trkpt>
<trkpt lat="55.267421007156372" lon="8.956074016168714">
<ele>18</ele>
</trkpt>
<trkpt lat="55.267383959144354" lon="8.956606015563011">
<ele>18</ele>
</trkpt>
<trkpt lat="55.26741798967123" lon="8.957044975832105">
<ele>18</ele>
</trkpt>
<trkpt lat="55.26739401742816" lon="8.957493994385004">
<ele>18</ele>
</trkpt>
<trkpt lat="55.267568025738001" lon="8.957588961347938">
<ele>18</ele>
</trkpt>
<trkpt lat="55.267888968810439" lon="8.957445966079831">
<ele>18</ele>
</trkpt>
<trkpt lat="55.26793004013598" lon="8.957492988556624">
<ele>18</ele>
</trkpt>
<trkpt lat="55.267862984910607" lon="8.957633972167969">
<ele>18</ele>
</trkpt>
<trkpt lat="55.267861979082227" lon="8.957783002406359">
<ele>18</ele>
</trkpt>
<trkpt lat="55.26793297380209" lon="8.957900013774633">
<ele>18</ele>
</trkpt>
<trkpt lat="55.26801897212863" lon="8.957991041243076">
<ele>18</ele>
</trkpt>
<trkpt lat="55.268332958221436" lon="8.957901019603014">
<ele>18</ele>
</trkpt>
<trkpt lat="55.268421974033117" lon="8.957702033221722">
<ele>18</ele>
</trkpt>
<trkpt lat="55.268568992614746" lon="8.957249997183681">
<ele>19</ele>
</trkpt>
<trkpt lat="55.26879102922976" lon="8.956645997241139">
<ele>19</ele>
</trkpt>
<trkpt lat="55.268945004791021" lon="8.956479029729962">
<ele>19</ele>
</trkpt>
<trkpt lat="55.269011976197362" lon="8.95621701143682">
<ele>19</ele>
</trkpt>
<trkpt lat="55.269155977293849" lon="8.955875029787421">
<ele>19</ele>
</trkpt>
<trkpt lat="55.269655035808682" lon="8.956091031432152">
<ele>20</ele>
</trkpt>
<trkpt lat="55.270139006897807" lon="8.95488697104156">
<ele>20</ele>
</trkpt>
<trkpt lat="55.270779971033335" lon="8.954954026266933">
<ele>20</ele>
</trkpt>
<trkpt lat="55.270926989614964" lon="8.954246006906033">
<ele>20</ele>
</trkpt>
<trkpt lat="55.271200994029641" lon="8.954249024391174">
<ele>20</ele>
</trkpt>
<trkpt lat="55.271297972649336" lon="8.954268973320723">
<ele>20</ele>
</trkpt>
<trkpt lat="55.27139101177454" lon="8.95430501550436">
<ele>19</ele>
</trkpt>
<trkpt lat="55.271577006205916" lon="8.954308032989502">
<ele>19</ele>
</trkpt>
<trkpt lat="55.271693011745811" lon="8.954377016052604">
<ele>19</ele>
</trkpt>
<trkpt lat="55.271738022565842" lon="8.954362012445927">
<ele>19</ele>
</trkpt>
<trkpt lat="55.271785967051983" lon="8.95449897274375">
<ele>19</ele>
</trkpt>
<trkpt lat="55.27148874476552" lon="8.957085628062487">
<ele>19</ele>
</trkpt>
<trkpt lat="55.271097980439663" lon="8.960683308541775">
<ele>18</ele>
</trkpt>
<trkpt lat="55.270818024873734" lon="8.963438021019101">
<ele>18</ele>
</trkpt>
<trkpt lat="55.270803021267056" lon="8.963729040697217">
<ele>18</ele>
</trkpt>
<trkpt lat="55.270820958539844" lon="8.963882010430098">
<ele>18</ele>
</trkpt>
<trkpt lat="55.270714005455375" lon="8.964155009016395">
<ele>18</ele>
</trkpt>
<trkpt lat="55.270383004099131" lon="8.965118592604995">
<ele>18</ele>
</trkpt>
<trkpt lat="55.270044039934874" lon="8.966045966371894">
<ele>18</ele>
</trkpt>
<trkpt lat="55.2700150385499" lon="8.966212011873722">
<ele>18</ele>
</trkpt>
<trkpt lat="55.270007997751236" lon="8.966648960486054">
<ele>18</ele>
</trkpt>
<trkpt lat="55.270048985257745" lon="8.966890024021268">
<ele>18</ele>
</trkpt>
<trkpt lat="55.270261969417334" lon="8.967351028695703">
<ele>18</ele>
</trkpt>
<trkpt lat="55.270345034077764" lon="8.967701978981495">
<ele>18</ele>
</trkpt>
<trkpt lat="55.270225005224347" lon="8.968512006103993">
<ele>18</ele>
</trkpt>
<trkpt lat="55.270181000232697" lon="8.969188006594777">
<ele>18</ele>
</trkpt>
<trkpt lat="55.2700599655509" lon="8.969907006248832">
<ele>18</ele>
</trkpt>
<trkpt lat="55.269975978881121" lon="8.970812000334263">
<ele>18</ele>
</trkpt>
<trkpt lat="55.269916970282793" lon="8.97106203250587">
<ele>18</ele>
</trkpt>
<trkpt lat="55.269796019420028" lon="8.972926000133157">
<ele>18</ele>
</trkpt>
<trkpt lat="55.269622011110187" lon="8.97389997728169">
<ele>18</ele>
</trkpt>
<trkpt lat="55.269585968926549" lon="8.974477993324399">
<ele>17</ele>
</trkpt>
<trkpt lat="55.26950198225677" lon="8.974789967760444">
<ele>17</ele>
</trkpt>
<trkpt lat="55.269509023055434" lon="8.975182995200157">
<ele>17</ele>
</trkpt>
<trkpt lat="55.269514974206686" lon="8.975520031526685">
<ele>17</ele>
</trkpt>
<trkpt lat="55.269764000549912" lon="8.975808033719659">
<ele>17</ele>
</trkpt>
<trkpt lat="55.269905989989638" lon="8.976133000105619">
<ele>17</ele>
</trkpt>
<trkpt lat="55.270031969994307" lon="8.976194020360708">
<ele>17</ele>
</trkpt>
<trkpt lat="55.270334975793958" lon="8.976093018427491">
<ele>17</ele>
</trkpt>
<trkpt lat="55.270551983267069" lon="8.9758559782058">
<ele>17</ele>
</trkpt>
<trkpt lat="55.271084569394588" lon="8.975232448428869">
<ele>16</ele>
</trkpt>
<trkpt lat="55.271682031452656" lon="8.974721990525723">
<ele>16</ele>
</trkpt>
<trkpt lat="55.272061983123422" lon="8.974361987784505">
<ele>16</ele>
</trkpt>
<trkpt lat="55.272227022796869" lon="8.974250005558133">
<ele>16</ele>
</trkpt>
<trkpt lat="55.272426009178162" lon="8.974260985851288">
<ele>16</ele>
</trkpt>
<trkpt lat="55.2728730160743" lon="8.973805010318756">
<ele>16</ele>
</trkpt>
<trkpt lat="55.273743979632854" lon="8.973118029534817">
<ele>16</ele>
</trkpt>
<trkpt lat="55.275210980325937" lon="8.971448019146919">
<ele>16</ele>
</trkpt>
<trkpt lat="55.275972979143262" lon="8.970282012596726">
<ele>17</ele>
</trkpt>
<trkpt lat="55.276455022394657" lon="8.96910703741014">
<ele>17</ele>
</trkpt>
<trkpt lat="55.276587037369609" lon="8.968624994158745">
<ele>17</ele>
</trkpt>
<trkpt lat="55.276837991550565" lon="8.968254011124373">
<ele>17</ele>
</trkpt>
<trkpt lat="55.276980986818671" lon="8.968057036399841">
<ele>17</ele>
</trkpt>
<trkpt lat="55.277187013998628" lon="8.967845980077982">
<ele>18</ele>
</trkpt>
<trkpt lat="55.277308970689774" lon="8.967737015336752">
<ele>18</ele>
</trkpt>
<trkpt lat="55.277487002313137" lon="8.967448007315397">
<ele>18</ele>
</trkpt>
<trkpt lat="55.277904001995921" lon="8.966967975720763">
<ele>18</ele>
</trkpt>
<trkpt lat="55.278194015845656" lon="8.966907961294055">
<ele>18</ele>
</trkpt>
<trkpt lat="55.278412029147148" lon="8.966602021828294">
<ele>17</ele>
</trkpt>
<trkpt lat="55.278684021905065" lon="8.965847985818982">
<ele>17</ele>
</trkpt>
<trkpt lat="55.278858030214906" lon="8.965224958956242">
<ele>17</ele>
</trkpt>
<trkpt lat="55.278926007449627" lon="8.964851964265108">
<ele>17</ele>
</trkpt>
<trkpt lat="55.279100015759468" lon="8.963196035474539">
<ele>17</ele>
</trkpt>
<trkpt lat="55.279218032956123" lon="8.962586000561714">
<ele>16</ele>
</trkpt>
<trkpt lat="55.279249968007207" lon="8.961733980104327">
<ele>16</ele>
</trkpt>
<trkpt lat="55.279303025454283" lon="8.96139401011169">
<ele>16</ele>
</trkpt>
<trkpt lat="55.279300007969141" lon="8.961092010140419">
<ele>16</ele>
</trkpt>
<trkpt lat="55.279147960245609" lon="8.960248036310077">
<ele>16</ele>
</trkpt>
<trkpt lat="55.279163969680667" lon="8.95928998477757">
<ele>16</ele>
</trkpt>
<trkpt lat="55.279215015470982" lon="8.958922019228339">
<ele>16</ele>
</trkpt>
<trkpt lat="55.279262037947774" lon="8.957799011841416">
<ele>16</ele>
</trkpt>
<trkpt lat="55.279077971354127" lon="8.957028966397047">
<ele>17</ele>
</trkpt>
<trkpt lat="55.278943022713065" lon="8.956150962039828">
<ele>17</ele>
</trkpt>
<trkpt lat="55.278681004419923" lon="8.955394998192787">
<ele>17</ele>
</trkpt>
<trkpt lat="55.27867597527802" lon="8.955170027911663">
<ele>17</ele>
</trkpt>
<trkpt lat="55.278778988867998" lon="8.954782029613853">
<ele>17</ele>
</trkpt>
<trkpt lat="55.279046036303043" lon="8.954109968617559">
<ele>17</ele>
</trkpt>
<trkpt lat="55.27906003408134" lon="8.953320980072022">
<ele>17</ele>
</trkpt>
<trkpt lat="55.279113007709384" lon="8.952970029786229">
<ele>17</ele>
</trkpt>
<trkpt lat="55.27912700548768" lon="8.952380027621985">
<ele>17</ele>
</trkpt>
<trkpt lat="55.279091969132423" lon="8.952267961576581">
<ele>16</ele>
</trkpt>
<trkpt lat="55.278768008574843" lon="8.952118009328842">
<ele>16</ele>
</trkpt>
<trkpt lat="55.278741018846631" lon="8.951687011867762">
<ele>16</ele>
</trkpt>
<trkpt lat="55.278810001909733" lon="8.951192982494831">
<ele>16</ele>
</trkpt>
<trkpt lat="55.278817964717746" lon="8.950512958690524">
<ele>16</ele>
</trkpt>
<trkpt lat="55.278900023549795" lon="8.949521966278553">
<ele>16</ele>
</trkpt>
<trkpt lat="55.279003959149122" lon="8.948989966884255">
<ele>16</ele>
</trkpt>
<trkpt lat="55.278986021876335" lon="8.948831968009472">
<ele>16</ele>
</trkpt>
<trkpt lat="55.27902097441256" lon="8.948594005778432">
<ele>16</ele>
</trkpt>
<trkpt lat="55.278972024098039" lon="8.948207013309002">
<ele>17</ele>
</trkpt>
<trkpt lat="55.279056010767817" lon="8.94772999919951">
<ele>17</ele>
</trkpt>
<trkpt lat="55.279008988291025" lon="8.947570994496346">
<ele>17</ele>
</trkpt>
<trkpt lat="55.279029021039605" lon="8.947355998679996">
<ele>17</ele>
</trkpt>
<trkpt lat="55.27910303324461" lon="8.94725801423192">
<ele>17</ele>
</trkpt>
<trkpt lat="55.279260026291013" lon="8.947310987859964">
<ele>17</ele>
</trkpt>
<trkpt lat="55.279375026002526" lon="8.947282992303371">
<ele>17</ele>
</trkpt>
<trkpt lat="55.279451971873641" lon="8.94708601757884">
<ele>18</ele>
</trkpt>
<trkpt lat="55.279489019885659" lon="8.94620600156486">
<ele>18</ele>
</trkpt>
<trkpt lat="55.279550040140748" lon="8.945770980790258">
<ele>18</ele>
</trkpt>
<trkpt lat="55.279636960476637" lon="8.945473004132509">
<ele>18</ele>
</trkpt>
<trkpt lat="55.279697980731726" lon="8.945364039391279">
<ele>18</ele>
</trkpt>
<trkpt lat="55.27957996353507" lon="8.945361021906138">
<ele>18</ele>
</trkpt>
<trkpt lat="55.279430011287332" lon="8.945354986935854">
<ele>18</ele>
</trkpt>
<trkpt lat="55.279349964112043" lon="8.945287009701133">
<ele>18</ele>
</trkpt>
<trkpt lat="55.279568983241916" lon="8.943834006786346">
<ele>18</ele>
</trkpt>
<trkpt lat="55.27957602404058" lon="8.943546004593372">
<ele>18</ele>
</trkpt>
<trkpt lat="55.279720025137067" lon="8.94293999299407">
<ele>18</ele>
</trkpt>
<trkpt lat="55.279981959611177" lon="8.94235803745687">
<ele>18</ele>
</trkpt>
<trkpt lat="55.280232997611165" lon="8.94250899553299">
<ele>18</ele>
</trkpt>
<trkpt lat="55.280313966795802" lon="8.94261796027422">
<ele>18</ele>
</trkpt>
<trkpt lat="55.280740018934011" lon="8.942762967199087">
<ele>18</ele>
</trkpt>
<trkpt lat="55.280770026147366" lon="8.94266196526587">
<ele>18</ele>
</trkpt>
<trkpt lat="55.28086599893868" lon="8.942318977788091">
<ele>18</ele>
</trkpt>
<trkpt lat="55.281093986704946" lon="8.94180097617209">
<ele>18</ele>
</trkpt>
<trkpt lat="55.281278975307941" lon="8.940687021240592">
<ele>18</ele>
</trkpt>
<trkpt lat="55.281587010249496" lon="8.939621010795236">
<ele>17</ele>
</trkpt>
<trkpt lat="55.281674014404416" lon="8.939423030242324">
<ele>17</ele>
</trkpt>
<trkpt lat="55.28200501576066" lon="8.939153971150518">
<ele>17</ele>
</trkpt>
<trkpt lat="55.28230500407517" lon="8.938759015873075">
<ele>17</ele>
</trkpt>
<trkpt lat="55.282554030418396" lon="8.938547037541866">
<ele>17</ele>
</trkpt>
<trkpt lat="55.282699037343264" lon="8.938711993396282">
<ele>17</ele>
</trkpt>
<trkpt lat="55.282875979319215" lon="8.938737977296114">
<ele>17</ele>
</trkpt>
<trkpt lat="55.283285016193986" lon="8.938312008976936">
<ele>17</ele>
</trkpt>
<trkpt lat="55.283403033390641" lon="8.938323995098472">
<ele>17</ele>
</trkpt>
<trkpt lat="55.283720958977938" lon="8.937851004302502">
<ele>17</ele>
</trkpt>
<trkpt lat="55.283787008374929" lon="8.937669033184648">
<ele>17</ele>
</trkpt>
<trkpt lat="55.284076016396284" lon="8.937135022133589">
<ele>17</ele>
</trkpt>
<trkpt lat="55.284544983878732" lon="8.936562035232782">
<ele>17</ele>
</trkpt>
<trkpt lat="55.284882020205259" lon="8.936392972245812">
<ele>17</ele>
</trkpt>
<trkpt lat="55.285409996286035" lon="8.936347039416432">
<ele>17</ele>
</trkpt>
<trkpt lat="55.285548968240619" lon="8.936264980584383">
<ele>17</ele>
</trkpt>
<trkpt lat="55.285898996517062" lon="8.93587295897305">
<ele>17</ele>
</trkpt>
<trkpt lat="55.286459997296333" lon="8.935533994808793">
<ele>16</ele>
</trkpt>
<trkpt lat="55.286790998652577" lon="8.935135016217828">
<ele>16</ele>
</trkpt>
<trkpt lat="55.287046981975436" lon="8.934702007099986">
<ele>16</ele>
</trkpt>
<trkpt lat="55.287174973636866" lon="8.934561023488641">
<ele>16</ele>
</trkpt>
<trkpt lat="55.287296008318663" lon="8.934519030153751">
<ele>16</ele>
</trkpt>
<trkpt lat="55.28810896910727" lon="8.933898014947772">
<ele>15</ele>
</trkpt>
<trkpt lat="55.288692014291883" lon="8.933294015005231">
<ele>15</ele>
</trkpt>
<trkpt lat="55.288860993459821" lon="8.933210028335452">
<ele>15</ele>
</trkpt>
<trkpt lat="55.290021970868111" lon="8.93230302259326">
<ele>15</ele>
</trkpt>
<trkpt lat="55.290331011638045" lon="8.931949976831675">
<ele>15</ele>
</trkpt>
<trkpt lat="55.290426984429359" lon="8.93187303096056">
<ele>15</ele>
</trkpt>
<trkpt lat="55.291086975485086" lon="8.931687036529183">
<ele>15</ele>
</trkpt>
<trkpt lat="55.291688041761518" lon="8.931345976889134">
<ele>16</ele>
</trkpt>
<trkpt lat="55.292013008147478" lon="8.930898969992995">
<ele>16</ele>
</trkpt>
<trkpt lat="55.292713986709714" lon="8.930375017225742">
<ele>16</ele>
</trkpt>
<trkpt lat="55.292857987806201" lon="8.930130014196038">
<ele>16</ele>
</trkpt>
<trkpt lat="55.293128974735737" lon="8.929809993132949">
<ele>16</ele>
</trkpt>
<trkpt lat="55.293445978313684" lon="8.929530959576368">
<ele>16</ele>
</trkpt>
<trkpt lat="55.293931039050221" lon="8.928770972415805">
<ele>16</ele>
</trkpt>
<trkpt lat="55.294157518073916" lon="8.927998831495643">
<ele>16</ele>
</trkpt>
<trkpt lat="55.294680381193757" lon="8.927313275635243">
<ele>15</ele>
</trkpt>
<trkpt lat="55.29495706781745" lon="8.927073972299695">
<ele>15</ele>
</trkpt>
<trkpt lat="55.295194024220109" lon="8.927028961479664">
<ele>15</ele>
</trkpt>
</trkseg>
</trk>
</gpx>
