<?xml version="1.0" encoding="UTF-8"?>
<gpx version="1.1"
creator="Smartprofil-Office - http://www.rother.de"
xmlns:xsi="http://www.w3.org/2001/XMLSchema-instance"
xmlns="http://www.topografix.com/GPX/1/1"
xsi:schemaLocation="http://www.topografix.com/GPX/1/1 http://www.topografix.com/GPX/1/1/gpx.xsd">
<metadata>

<bounds minlat="57.224081000313163" minlon="9.560653986409307" maxlat="57.254665978252888" maxlon="9.615764999762177"/>
</metadata>
<wpt lat="57.249668017029762" lon="9.601137991994619">
<ele>10</ele>
<name>08_Blokhus (1)</name>
<cmt>Parkplatz</cmt>
<desc></desc>
<sym>Crossing</sym>
</wpt>

<wpt lat="57.242188006639481" lon="9.587006019428372">
<ele>13</ele>
<name>08_Jakobsvej Ende (2)</name>
<cmt>Abzweig Schotterweg</cmt>
<desc></desc>
<sym>Crossing</sym>
</wpt>

<wpt lat="57.23297000862658" lon="9.560677958652377">
<ele>5</ele>
<name>08_Strandvej (3)</name>
<cmt>Abstecher zum Meer</cmt>
<desc></desc>
<sym>Crossing</sym>
</wpt>

<wpt lat="57.233489016070962" lon="9.595892010256648">
<ele>12</ele>
<name>08_Radweg (4)</name>
<cmt>Schotterweg</cmt>
<desc></desc>
<sym>Crossing</sym>
</wpt>

<wpt lat="57.244089022278786" lon="9.60833502933383">
<ele>16</ele>
<name>08_Klitter (5)</name>
<cmt>Duenenlandschaft</cmt>
<desc></desc>
<sym>Crossing</sym>
</wpt>

<wpt lat="57.249116990715265" lon="9.610180975869298">
<ele>13</ele>
<name>08_(6)</name>
<cmt>Zweiter Parkplatz, Infotafel </cmt>
<desc></desc>
<sym>Crossing</sym>
</wpt>

<wpt lat="57.251329980790615" lon="9.608179964125156">
<ele>12</ele>
<name>08_Heidepfad (7)</name>
<cmt>Abzweig Pfad</cmt>
<desc></desc>
<sym>Crossing</sym>
</wpt>

<trk>
<name>DAN_08_Blokhus Klitplantage</name>
<trkseg>
<trkpt lat="57.249668017029762" lon="9.601137991994619">
<ele>10</ele>
</trkpt>
<trkpt lat="57.249643038958311" lon="9.601276963949203">
<ele>10</ele>
</trkpt>
<trkpt lat="57.249468024820089" lon="9.601712990552187">
<ele>11</ele>
</trkpt>
<trkpt lat="57.249335004016757" lon="9.601867971941829">
<ele>11</ele>
</trkpt>
<trkpt lat="57.249281024560332" lon="9.601958999410272">
<ele>11</ele>
</trkpt>
<trkpt lat="57.248939964920282" lon="9.602010967209935">
<ele>12</ele>
</trkpt>
<trkpt lat="57.248769979923964" lon="9.602000992745161">
<ele>12</ele>
</trkpt>
<trkpt lat="57.248698985204101" lon="9.602015996351838">
<ele>12</ele>
</trkpt>
<trkpt lat="57.248450964689255" lon="9.601978026330471">
<ele>12</ele>
</trkpt>
<trkpt lat="57.248283997178078" lon="9.602001998573542">
<ele>13</ele>
</trkpt>
<trkpt lat="57.248238986358047" lon="9.602034017443657">
<ele>13</ele>
</trkpt>
<trkpt lat="57.248075036332011" lon="9.601853974163532">
<ele>13</ele>
</trkpt>
<trkpt lat="57.248000018298626" lon="9.601799994707108">
<ele>13</ele>
</trkpt>
<trkpt lat="57.247889963909984" lon="9.601736962795258">
<ele>13</ele>
</trkpt>
<trkpt lat="57.247769013047218" lon="9.601653981953859">
<ele>13</ele>
</trkpt>
<trkpt lat="57.247730037197471" lon="9.601560020819306">
<ele>13</ele>
</trkpt>
<trkpt lat="57.247615959495306" lon="9.601469999179244">
<ele>13</ele>
</trkpt>
<trkpt lat="57.247495008632541" lon="9.601399004459381">
<ele>13</ele>
</trkpt>
<trkpt lat="57.247495008632541" lon="9.601399004459381">
<ele>13</ele>
</trkpt>
<trkpt lat="57.24747103638947" lon="9.600555030629039">
<ele>13</ele>
</trkpt>
<trkpt lat="57.247256962582469" lon="9.600241966545582">
<ele>13</ele>
</trkpt>
<trkpt lat="57.24700097925961" lon="9.600104000419378">
<ele>13</ele>
</trkpt>
<trkpt lat="57.246695039793849" lon="9.600055972114205">
<ele>13</ele>
</trkpt>
<trkpt lat="57.246353980153799" lon="9.600073993206024">
<ele>13</ele>
</trkpt>
<trkpt lat="57.2460310254246" lon="9.599783979356289">
<ele>13</ele>
</trkpt>
<trkpt lat="57.245697006583214" lon="9.599669985473156">
<ele>13</ele>
</trkpt>
<trkpt lat="57.245344966650009" lon="9.599580969661474">
<ele>13</ele>
</trkpt>
<trkpt lat="57.244985969737172" lon="9.599438980221748">
<ele>13</ele>
</trkpt>
<trkpt lat="57.244639964774251" lon="9.599095992743969">
<ele>13</ele>
</trkpt>
<trkpt lat="57.244288008660078" lon="9.598758034408092">
<ele>13</ele>
</trkpt>
<trkpt lat="57.243961030617356" lon="9.598433990031481">
<ele>13</ele>
</trkpt>
<trkpt lat="57.243679985404015" lon="9.598138025030494">
<ele>13</ele>
</trkpt>
<trkpt lat="57.243363987654448" lon="9.597809035331011">
<ele>13</ele>
</trkpt>
<trkpt lat="57.243168018758297" lon="9.597563026472926">
<ele>13</ele>
</trkpt>
<trkpt lat="57.242985963821411" lon="9.597218027338386">
<ele>13</ele>
</trkpt>
<trkpt lat="57.242801981046796" lon="9.596696002408862">
<ele>14</ele>
</trkpt>
<trkpt lat="57.242605006322265" lon="9.596101976931095">
<ele>14</ele>
</trkpt>
<trkpt lat="57.242536023259163" lon="9.595828978344798">
<ele>14</ele>
</trkpt>
<trkpt lat="57.242483971640468" lon="9.595270995050669">
<ele>14</ele>
</trkpt>
<trkpt lat="57.242459999397397" lon="9.595047030597925">
<ele>14</ele>
</trkpt>
<trkpt lat="57.242364026606083" lon="9.594335993751884">
<ele>14</ele>
</trkpt>
<trkpt lat="57.242248021066189" lon="9.593528984114528">
<ele>14</ele>
</trkpt>
<trkpt lat="57.242189012467861" lon="9.592604041099548">
<ele>14</ele>
</trkpt>
<trkpt lat="57.242200998589396" lon="9.5923509914428">
<ele>14</ele>
</trkpt>
<trkpt lat="57.242224970832467" lon="9.59192200563848">
<ele>14</ele>
</trkpt>
<trkpt lat="57.242225976660848" lon="9.591569965705276">
<ele>14</ele>
</trkpt>
<trkpt lat="57.242219019681215" lon="9.591480027884245">
<ele>13</ele>
</trkpt>
<trkpt lat="57.242133021354675" lon="9.59063496440649">
<ele>13</ele>
</trkpt>
<trkpt lat="57.242127992212772" lon="9.589841030538082">
<ele>13</ele>
</trkpt>
<trkpt lat="57.242150036618114" lon="9.588970988988876">
<ele>13</ele>
</trkpt>
<trkpt lat="57.242150958627462" lon="9.587890980765224">
<ele>13</ele>
</trkpt>
<trkpt lat="57.242188006639481" lon="9.587006019428372">
<ele>13</ele>
</trkpt>
<trkpt lat="57.242010980844498" lon="9.586875010281801">
<ele>13</ele>
</trkpt>
<trkpt lat="57.241734964773059" lon="9.586535040289164">
<ele>13</ele>
</trkpt>
<trkpt lat="57.241695988923311" lon="9.586480977013707">
<ele>13</ele>
</trkpt>
<trkpt lat="57.241463977843523" lon="9.586091972887516">
<ele>13</ele>
</trkpt>
<trkpt lat="57.241157032549381" lon="9.585639014840126">
<ele>13</ele>
</trkpt>
<trkpt lat="57.240862995386124" lon="9.585204999893904">
<ele>13</ele>
</trkpt>
<trkpt lat="57.240778002887964" lon="9.585087988525629">
<ele>13</ele>
</trkpt>
<trkpt lat="57.240602988749743" lon="9.584885984659195">
<ele>13</ele>
</trkpt>
<trkpt lat="57.240349017083645" lon="9.584694961085916">
<ele>13</ele>
</trkpt>
<trkpt lat="57.240007035434246" lon="9.584425985813141">
<ele>13</ele>
</trkpt>
<trkpt lat="57.239778963848948" lon="9.584245020523667">
<ele>13</ele>
</trkpt>
<trkpt lat="57.239375961944461" lon="9.583923993632197">
<ele>13</ele>
</trkpt>
<trkpt lat="57.239332040771842" lon="9.583888035267591">
<ele>13</ele>
</trkpt>
<trkpt lat="57.23898402415216" lon="9.583595003932714">
<ele>13</ele>
</trkpt>
<trkpt lat="57.23855503834784" lon="9.583231983706355">
<ele>13</ele>
</trkpt>
<trkpt lat="57.238202998414636" lon="9.582906011492014">
<ele>13</ele>
</trkpt>
<trkpt lat="57.237806031480432" lon="9.582484988495708">
<ele>13</ele>
</trkpt>
<trkpt lat="57.237606961280107" lon="9.58227401599288">
<ele>13</ele>
</trkpt>
<trkpt lat="57.23703296855092" lon="9.581612013280392">
<ele>13</ele>
</trkpt>
<trkpt lat="57.236842028796673" lon="9.581356029957533">
<ele>13</ele>
</trkpt>
<trkpt lat="57.236926015466452" lon="9.581027962267399">
<ele>13</ele>
</trkpt>
<trkpt lat="57.236948981881142" lon="9.58092100918293">
<ele>12</ele>
</trkpt>
<trkpt lat="57.237117039039731" lon="9.580207038670778">
<ele>12</ele>
</trkpt>
<trkpt lat="57.237236984074116" lon="9.579661963507533">
<ele>12</ele>
</trkpt>
<trkpt lat="57.237406969070435" lon="9.578913040459156">
<ele>12</ele>
</trkpt>
<trkpt lat="57.237532027065754" lon="9.578233016654849">
<ele>11</ele>
</trkpt>
<trkpt lat="57.237551975995302" lon="9.578064037486911">
<ele>11</ele>
</trkpt>
<trkpt lat="57.237551975995302" lon="9.578064037486911">
<ele>11</ele>
</trkpt>
<trkpt lat="57.237324994057417" lon="9.577952977269888">
<ele>10</ele>
</trkpt>
<trkpt lat="57.237001033499837" lon="9.577779974788427">
<ele>10</ele>
</trkpt>
<trkpt lat="57.23681696690619" lon="9.577642008662224">
<ele>10</ele>
</trkpt>
<trkpt lat="57.236507004126906" lon="9.577522985637188">
<ele>10</ele>
</trkpt>
<trkpt lat="57.236388986930251" lon="9.577485015615821">
<ele>11</ele>
</trkpt>
<trkpt lat="57.236097967252135" lon="9.57716298289597">
<ele>11</ele>
</trkpt>
<trkpt lat="57.235491033643484" lon="9.576642969623208">
<ele>11</ele>
</trkpt>
<trkpt lat="57.2352259978652" lon="9.576359996572137">
<ele>11</ele>
</trkpt>
<trkpt lat="57.235187022015452" lon="9.576310962438583">
<ele>11</ele>
</trkpt>
<trkpt lat="57.235037991777062" lon="9.576209038496017">
<ele>12</ele>
</trkpt>
<trkpt lat="57.234393004328012" lon="9.5758490357548">
<ele>12</ele>
</trkpt>
<trkpt lat="57.233988996595144" lon="9.575562039390206">
<ele>12</ele>
</trkpt>
<trkpt lat="57.233590018004179" lon="9.575317036360502">
<ele>12</ele>
</trkpt>
<trkpt lat="57.233478035777807" lon="9.575264984741807">
<ele>12</ele>
</trkpt>
<trkpt lat="57.233319031074643" lon="9.575231038033962">
<ele>12</ele>
</trkpt>
<trkpt lat="57.232956010848284" lon="9.575044037774205">
<ele>12</ele>
</trkpt>
<trkpt lat="57.232772028073668" lon="9.574963990598917">
<ele>12</ele>
</trkpt>
<trkpt lat="57.232766998931766" lon="9.574394021183252">
<ele>11</ele>
</trkpt>
<trkpt lat="57.232788037508726" lon="9.57365901209414">
<ele>11</ele>
</trkpt>
<trkpt lat="57.232836987823248" lon="9.573115026578307">
<ele>11</ele>
</trkpt>
<trkpt lat="57.23303597420454" lon="9.572719987481833">
<ele>11</ele>
</trkpt>
<trkpt lat="57.233211994171143" lon="9.572363002225757">
<ele>11</ele>
</trkpt>
<trkpt lat="57.233493039384484" lon="9.571785992011428">
<ele>11</ele>
</trkpt>
<trkpt lat="57.233664030209184" lon="9.571439987048507">
<ele>10</ele>
</trkpt>
<trkpt lat="57.233832003548741" lon="9.57110496237874">
<ele>10</ele>
</trkpt>
<trkpt lat="57.234030989930034" lon="9.570776978507638">
<ele>10</ele>
</trkpt>
<trkpt lat="57.234352016821504" lon="9.570193011313677">
<ele>10</ele>
</trkpt>
<trkpt lat="57.234397027641535" lon="9.570057978853583">
<ele>9</ele>
</trkpt>
<trkpt lat="57.234457964077592" lon="9.569734018296003">
<ele>9</ele>
</trkpt>
<trkpt lat="57.234504986554384" lon="9.569481974467635">
<ele>9</ele>
</trkpt>
<trkpt lat="57.234568018466234" lon="9.569280976429582">
<ele>8</ele>
</trkpt>
<trkpt lat="57.234721994027495" lon="9.568650992587209">
<ele>8</ele>
</trkpt>
<trkpt lat="57.234865995123982" lon="9.568012962117791">
<ele>8</ele>
</trkpt>
<trkpt lat="57.235002033412457" lon="9.567472999915481">
<ele>8</ele>
</trkpt>
<trkpt lat="57.23516003228724" lon="9.566909987479448">
<ele>7</ele>
</trkpt>
<trkpt lat="57.235288023948669" lon="9.566398020833731">
<ele>7</ele>
</trkpt>
<trkpt lat="57.235378967598081" lon="9.566027037799358">
<ele>7</ele>
</trkpt>
<trkpt lat="57.235400006175041" lon="9.565925030037761">
<ele>7</ele>
</trkpt>
<trkpt lat="57.235463038086891" lon="9.565684972330928">
<ele>7</ele>
</trkpt>
<trkpt lat="57.235551970079541" lon="9.56540702842176">
<ele>6</ele>
</trkpt>
<trkpt lat="57.235735030844808" lon="9.564753994345665">
<ele>6</ele>
</trkpt>
<trkpt lat="57.235773000866175" lon="9.564607981592417">
<ele>6</ele>
</trkpt>
<trkpt lat="57.235565967857838" lon="9.564281003549695">
<ele>6</ele>
</trkpt>
<trkpt lat="57.235282994806767" lon="9.563929969444871">
<ele>6</ele>
</trkpt>
<trkpt lat="57.234957022592425" lon="9.563494026660919">
<ele>6</ele>
</trkpt>
<trkpt lat="57.234668014571071" lon="9.563070992007852">
<ele>6</ele>
</trkpt>
<trkpt lat="57.234337013214827" lon="9.562634965404868">
<ele>6</ele>
</trkpt>
<trkpt lat="57.233926970511675" lon="9.562091985717416">
<ele>5</ele>
</trkpt>
<trkpt lat="57.233668975532055" lon="9.561695018783212">
<ele>5</ele>
</trkpt>
<trkpt lat="57.233421038836241" lon="9.561316994950175">
<ele>5</ele>
</trkpt>
<trkpt lat="57.233200008049607" lon="9.560991022735834">
<ele>5</ele>
</trkpt>
<trkpt lat="57.23297000862658" lon="9.560677958652377">
<ele>5</ele>
</trkpt>
<trkpt lat="57.232922986149788" lon="9.560653986409307">
<ele>5</ele>
</trkpt>
<trkpt lat="57.232809998095036" lon="9.560761023312807">
<ele>6</ele>
</trkpt>
<trkpt lat="57.232494000345469" lon="9.561222027987242">
<ele>6</ele>
</trkpt>
<trkpt lat="57.232102984562516" lon="9.561885036528111">
<ele>6</ele>
</trkpt>
<trkpt lat="57.231784975156188" lon="9.562399014830589">
<ele>6</ele>
</trkpt>
<trkpt lat="57.231494961306453" lon="9.562901007011533">
<ele>7</ele>
</trkpt>
<trkpt lat="57.231155997142196" lon="9.563506012782454">
<ele>7</ele>
</trkpt>
<trkpt lat="57.230930021032691" lon="9.563930975273252">
<ele>7</ele>
</trkpt>
<trkpt lat="57.23088601604104" lon="9.564018985256553">
<ele>8</ele>
</trkpt>
<trkpt lat="57.230554008856416" lon="9.564544027671218">
<ele>8</ele>
</trkpt>
<trkpt lat="57.230328032746911" lon="9.564916016533971">
<ele>8</ele>
</trkpt>
<trkpt lat="57.230059979483485" lon="9.565498977899551">
<ele>8</ele>
</trkpt>
<trkpt lat="57.229717997834086" lon="9.566097026690841">
<ele>9</ele>
</trkpt>
<trkpt lat="57.22966100089252" lon="9.566151006147265">
<ele>9</ele>
</trkpt>
<trkpt lat="57.229345003142953" lon="9.566579991951585">
<ele>9</ele>
</trkpt>
<trkpt lat="57.229236038401723" lon="9.566776966676116">
<ele>9</ele>
</trkpt>
<trkpt lat="57.228903025388718" lon="9.56734299659729">
<ele>9</ele>
</trkpt>
<trkpt lat="57.228719964623451" lon="9.567709034308791">
<ele>10</ele>
</trkpt>
<trkpt lat="57.228104984387755" lon="9.568873029202223">
<ele>10</ele>
</trkpt>
<trkpt lat="57.227656971663237" lon="9.569773999974132">
<ele>10</ele>
</trkpt>
<trkpt lat="57.226549973711371" lon="9.572334000840783">
<ele>10</ele>
</trkpt>
<trkpt lat="57.225156985223293" lon="9.57701101899147">
<ele>11</ele>
</trkpt>
<trkpt lat="57.224081000313163" lon="9.578860988840461">
<ele>11</ele>
</trkpt>
<trkpt lat="57.226197011768818" lon="9.580342993140221">
<ele>11</ele>
</trkpt>
<trkpt lat="57.226719036698341" lon="9.580635018646717">
<ele>12</ele>
</trkpt>
<trkpt lat="57.22708297893405" lon="9.580865018069744">
<ele>12</ele>
</trkpt>
<trkpt lat="57.227421021088958" lon="9.581075990572572">
<ele>12</ele>
</trkpt>
<trkpt lat="57.227823017165065" lon="9.581321999430656">
<ele>12</ele>
</trkpt>
<trkpt lat="57.228108001872897" lon="9.581516962498426">
<ele>13</ele>
</trkpt>
<trkpt lat="57.228217972442508" lon="9.581575971096754">
<ele>13</ele>
</trkpt>
<trkpt lat="57.228333977982402" lon="9.581653000786901">
<ele>13</ele>
</trkpt>
<trkpt lat="57.228398015722632" lon="9.581687031313777">
<ele>13</ele>
</trkpt>
<trkpt lat="57.228406984359026" lon="9.582346016541123">
<ele>13</ele>
</trkpt>
<trkpt lat="57.228351999074221" lon="9.583043977618217">
<ele>13</ele>
</trkpt>
<trkpt lat="57.228310005739331" lon="9.583707991987467">
<ele>12</ele>
</trkpt>
<trkpt lat="57.228298019617796" lon="9.584321966394782">
<ele>12</ele>
</trkpt>
<trkpt lat="57.228283016011119" lon="9.584538973867893">
<ele>12</ele>
</trkpt>
<trkpt lat="57.228254014626145" lon="9.585049012675881">
<ele>12</ele>
</trkpt>
<trkpt lat="57.228234987705946" lon="9.585568020120263">
<ele>12</ele>
</trkpt>
<trkpt lat="57.228215038776398" lon="9.586104964837432">
<ele>12</ele>
</trkpt>
<trkpt lat="57.228226019069552" lon="9.586527999490499">
<ele>12</ele>
</trkpt>
<trkpt lat="57.228210009634495" lon="9.586932007223368">
<ele>12</ele>
</trkpt>
<trkpt lat="57.228212021291256" lon="9.587158989161253">
<ele>12</ele>
</trkpt>
<trkpt lat="57.228181008249521" lon="9.587713032960892">
<ele>12</ele>
</trkpt>
<trkpt lat="57.228172961622477" lon="9.587917970493436">
<ele>12</ele>
</trkpt>
<trkpt lat="57.228172039613128" lon="9.588246960192919">
<ele>13</ele>
</trkpt>
<trkpt lat="57.228162987157702" lon="9.588793963193893">
<ele>13</ele>
</trkpt>
<trkpt lat="57.228172039613128" lon="9.589262008666992">
<ele>13</ele>
</trkpt>
<trkpt lat="57.228369014337659" lon="9.589315988123417">
<ele>13</ele>
</trkpt>
<trkpt lat="57.22858602181077" lon="9.589315988123417">
<ele>13</ele>
</trkpt>
<trkpt lat="57.228805962949991" lon="9.589328980073333">
<ele>13</ele>
</trkpt>
<trkpt lat="57.229058006778359" lon="9.589339038357139">
<ele>13</ele>
</trkpt>
<trkpt lat="57.229343997314572" lon="9.589354963973165">
<ele>13</ele>
</trkpt>
<trkpt lat="57.229651026427746" lon="9.589368039742112">
<ele>13</ele>
</trkpt>
<trkpt lat="57.229872979223728" lon="9.589388994500041">
<ele>12</ele>
</trkpt>
<trkpt lat="57.230021003633738" lon="9.589396035298705">
<ele>12</ele>
</trkpt>
<trkpt lat="57.230316968634725" lon="9.589425036683679">
<ele>12</ele>
</trkpt>
<trkpt lat="57.230450995266438" lon="9.58940802142024">
<ele>12</ele>
</trkpt>
<trkpt lat="57.230718964710832" lon="9.589410033077002">
<ele>12</ele>
</trkpt>
<trkpt lat="57.230936978012323" lon="9.589449008926749">
<ele>12</ele>
</trkpt>
<trkpt lat="57.23108097910881" lon="9.589445991441607">
<ele>12</ele>
</trkpt>
<trkpt lat="57.231163959950209" lon="9.58953701891005">
<ele>12</ele>
</trkpt>
<trkpt lat="57.231163959950209" lon="9.58953701891005">
<ele>12</ele>
</trkpt>
<trkpt lat="57.231111992150545" lon="9.590012021362782">
<ele>12</ele>
</trkpt>
<trkpt lat="57.231064969673753" lon="9.590556006878614">
<ele>12</ele>
</trkpt>
<trkpt lat="57.231016019359231" lon="9.591117007657886">
<ele>11</ele>
</trkpt>
<trkpt lat="57.230987017974257" lon="9.591522021219134">
<ele>11</ele>
</trkpt>
<trkpt lat="57.230957010760903" lon="9.591946983709931">
<ele>11</ele>
</trkpt>
<trkpt lat="57.230919962748885" lon="9.592192992568016">
<ele>11</ele>
</trkpt>
<trkpt lat="57.230913005769253" lon="9.59228603169322">
<ele>11</ele>
</trkpt>
<trkpt lat="57.230878975242376" lon="9.592676963657141">
<ele>11</ele>
</trkpt>
<trkpt lat="57.230857014656067" lon="9.592793975025415">
<ele>11</ele>
</trkpt>
<trkpt lat="57.230917029082775" lon="9.592990027740598">
<ele>11</ele>
</trkpt>
<trkpt lat="57.231131019070745" lon="9.593255985528231">
<ele>11</ele>
</trkpt>
<trkpt lat="57.231254987418652" lon="9.593375008553267">
<ele>11</ele>
</trkpt>
<trkpt lat="57.231500996276736" lon="9.593536024913192">
<ele>11</ele>
</trkpt>
<trkpt lat="57.231689002364874" lon="9.593674996867776">
<ele>11</ele>
</trkpt>
<trkpt lat="57.231928976252675" lon="9.59389703348279">
<ele>11</ele>
</trkpt>
<trkpt lat="57.232149001210928" lon="9.594187969341874">
<ele>11</ele>
</trkpt>
<trkpt lat="57.232371959835291" lon="9.594455016776919">
<ele>11</ele>
</trkpt>
<trkpt lat="57.232556026428938" lon="9.594694990664721">
<ele>11</ele>
</trkpt>
<trkpt lat="57.232745960354805" lon="9.594943011179566">
<ele>11</ele>
</trkpt>
<trkpt lat="57.232856014743447" lon="9.595049964264035">
<ele>11</ele>
</trkpt>
<trkpt lat="57.232912005856633" lon="9.595159012824297">
<ele>12</ele>
</trkpt>
<trkpt lat="57.233020970597863" lon="9.595352970063686">
<ele>12</ele>
</trkpt>
<trkpt lat="57.233101017773151" lon="9.595475010573864">
<ele>12</ele>
</trkpt>
<trkpt lat="57.233353983610868" lon="9.595838030800223">
<ele>12</ele>
</trkpt>
<trkpt lat="57.233489016070962" lon="9.595892010256648">
<ele>12</ele>
</trkpt>
<trkpt lat="57.23352899774909" lon="9.595886981114745">
<ele>12</ele>
</trkpt>
<trkpt lat="57.233675010502338" lon="9.595911959186196">
<ele>13</ele>
</trkpt>
<trkpt lat="57.233790010213852" lon="9.595970967784524">
<ele>13</ele>
</trkpt>
<trkpt lat="57.234057979658246" lon="9.59617699496448">
<ele>13</ele>
</trkpt>
<trkpt lat="57.234278004616499" lon="9.596590977162123">
<ele>14</ele>
</trkpt>
<trkpt lat="57.23438504152" lon="9.597068997099996">
<ele>14</ele>
</trkpt>
<trkpt lat="57.234798017889261" lon="9.59720796905458">
<ele>14</ele>
</trkpt>
<trkpt lat="57.235104963183403" lon="9.597349036484957">
<ele>14</ele>
</trkpt>
<trkpt lat="57.235374022275209" lon="9.597276030108333">
<ele>15</ele>
</trkpt>
<trkpt lat="57.235458008944988" lon="9.597268989309669">
<ele>15</ele>
</trkpt>
<trkpt lat="57.235620031133294" lon="9.597541987895966">
<ele>15</ele>
</trkpt>
<trkpt lat="57.23576202057302" lon="9.597911965101957">
<ele>15</ele>
</trkpt>
<trkpt lat="57.235880037769675" lon="9.598535997793078">
<ele>15</ele>
</trkpt>
<trkpt lat="57.235964024439454" lon="9.598698019981384">
<ele>15</ele>
</trkpt>
<trkpt lat="57.236121017485857" lon="9.59933303296566">
<ele>14</ele>
</trkpt>
<trkpt lat="57.236270969733596" lon="9.599584992974997">
<ele>14</ele>
</trkpt>
<trkpt lat="57.236514966934919" lon="9.599678032100201">
<ele>14</ele>
</trkpt>
<trkpt lat="57.236655028536916" lon="9.599872995167971">
<ele>14</ele>
</trkpt>
<trkpt lat="57.236780002713203" lon="9.599908031523228">
<ele>14</ele>
</trkpt>
<trkpt lat="57.237160038203001" lon="9.600232997909188">
<ele>14</ele>
</trkpt>
<trkpt lat="57.2375020198524" lon="9.600497027859092">
<ele>14</ele>
</trkpt>
<trkpt lat="57.23786897957325" lon="9.600659972056746">
<ele>14</ele>
</trkpt>
<trkpt lat="57.238181959837675" lon="9.600858958438039">
<ele>15</ele>
</trkpt>
<trkpt lat="57.238502986729145" lon="9.600998014211655">
<ele>15</ele>
</trkpt>
<trkpt lat="57.23881202749908" lon="9.601152995601296">
<ele>15</ele>
</trkpt>
<trkpt lat="57.239087959751487" lon="9.601294985041022">
<ele>15</ele>
</trkpt>
<trkpt lat="57.239219974726439" lon="9.601334966719151">
<ele>15</ele>
</trkpt>
<trkpt lat="57.239474030211568" lon="9.601489026099443">
<ele>16</ele>
</trkpt>
<trkpt lat="57.239619037136436" lon="9.601523978635669">
<ele>16</ele>
</trkpt>
<trkpt lat="57.239843001589179" lon="9.601602014154196">
<ele>16</ele>
</trkpt>
<trkpt lat="57.240219013765454" lon="9.601905019953847">
<ele>16</ele>
</trkpt>
<trkpt lat="57.240546997636557" lon="9.6021060179919">
<ele>16</ele>
</trkpt>
<trkpt lat="57.240803986787796" lon="9.602281032130122">
<ele>16</ele>
</trkpt>
<trkpt lat="57.241002973169088" lon="9.602474989369512">
<ele>16</ele>
</trkpt>
<trkpt lat="57.240882022306323" lon="9.602712029591203">
<ele>16</ele>
</trkpt>
<trkpt lat="57.240670965984464" lon="9.603318963199854">
<ele>16</ele>
</trkpt>
<trkpt lat="57.240591002628207" lon="9.603553991764784">
<ele>16</ele>
</trkpt>
<trkpt lat="57.240422023460269" lon="9.604007033631206">
<ele>16</ele>
</trkpt>
<trkpt lat="57.240246003493667" lon="9.604550013318658">
<ele>16</ele>
</trkpt>
<trkpt lat="57.240133015438914" lon="9.604865005239844">
<ele>16</ele>
</trkpt>
<trkpt lat="57.240133015438914" lon="9.604865005239844">
<ele>16</ele>
</trkpt>
<trkpt lat="57.240372989326715" lon="9.60519801825285">
<ele>16</ele>
</trkpt>
<trkpt lat="57.240722011774778" lon="9.605534970760345">
<ele>16</ele>
</trkpt>
<trkpt lat="57.241071034222841" lon="9.60575801320374">
<ele>16</ele>
</trkpt>
<trkpt lat="57.241169018670917" lon="9.60586303845048">
<ele>16</ele>
</trkpt>
<trkpt lat="57.241211012005806" lon="9.605919029563665">
<ele>16</ele>
</trkpt>
<trkpt lat="57.241477975621819" lon="9.605956999585032">
<ele>16</ele>
</trkpt>
<trkpt lat="57.241805037483573" lon="9.605806041508913">
<ele>16</ele>
</trkpt>
<trkpt lat="57.242283979430795" lon="9.606092032045126">
<ele>16</ele>
</trkpt>
<trkpt lat="57.242668038234115" lon="9.606340974569321">
<ele>16</ele>
</trkpt>
<trkpt lat="57.242751019075513" lon="9.606346003711224">
<ele>16</ele>
</trkpt>
<trkpt lat="57.242930978536606" lon="9.606410041451454">
<ele>16</ele>
</trkpt>
<trkpt lat="57.242930978536606" lon="9.606410041451454">
<ele>16</ele>
</trkpt>
<trkpt lat="57.242971966043115" lon="9.606696031987667">
<ele>16</ele>
</trkpt>
<trkpt lat="57.242875993251801" lon="9.607469011098146">
<ele>16</ele>
</trkpt>
<trkpt lat="57.242793012410402" lon="9.608133025467396">
<ele>16</ele>
</trkpt>
<trkpt lat="57.242821007966995" lon="9.608302004635334">
<ele>16</ele>
</trkpt>
<trkpt lat="57.243045978248119" lon="9.608433013781905">
<ele>16</ele>
</trkpt>
<trkpt lat="57.243318976834416" lon="9.608520017936826">
<ele>16</ele>
</trkpt>
<trkpt lat="57.243408998474479" lon="9.60857399739325">
<ele>16</ele>
</trkpt>
<trkpt lat="57.243765983730555" lon="9.608687991276383">
<ele>16</ele>
</trkpt>
<trkpt lat="57.243836978450418" lon="9.608698971569538">
<ele>16</ele>
</trkpt>
<trkpt lat="57.243895987048745" lon="9.608672987669706">
<ele>16</ele>
</trkpt>
<trkpt lat="57.244089022278786" lon="9.60833502933383">
<ele>16</ele>
</trkpt>
<trkpt lat="57.24435799755156" lon="9.608386997133493">
<ele>16</ele>
</trkpt>
<trkpt lat="57.244622027501464" lon="9.608478024601936">
<ele>16</ele>
</trkpt>
<trkpt lat="57.244628984481096" lon="9.608480958268046">
<ele>15</ele>
</trkpt>
<trkpt lat="57.244957974180579" lon="9.608596041798592">
<ele>15</ele>
</trkpt>
<trkpt lat="57.245322000235319" lon="9.608746999874711">
<ele>15</ele>
</trkpt>
<trkpt lat="57.245387965813279" lon="9.608759991824627">
<ele>15</ele>
</trkpt>
<trkpt lat="57.245699018239975" lon="9.60887499153614">
<ele>15</ele>
</trkpt>
<trkpt lat="57.245736988261342" lon="9.608892006799579">
<ele>14</ele>
</trkpt>
<trkpt lat="57.246157005429268" lon="9.609035002067685">
<ele>14</ele>
</trkpt>
<trkpt lat="57.246554978191853" lon="9.609213033691049">
<ele>14</ele>
</trkpt>
<trkpt lat="57.246824037283659" lon="9.60921797901392">
<ele>14</ele>
</trkpt>
<trkpt lat="57.246857983991504" lon="9.609134998172522">
<ele>14</ele>
</trkpt>
<trkpt lat="57.246894026175141" lon="9.60876502096653">
<ele>14</ele>
</trkpt>
<trkpt lat="57.246904000639915" lon="9.608672987669706">
<ele>14</ele>
</trkpt>
<trkpt lat="57.24697801284492" lon="9.608509037643671">
<ele>14</ele>
</trkpt>
<trkpt lat="57.247174987569451" lon="9.608478024601936">
<ele>14</ele>
</trkpt>
<trkpt lat="57.24743097089231" lon="9.608495961874723">
<ele>14</ele>
</trkpt>
<trkpt lat="57.247508000582457" lon="9.608506020158529">
<ele>14</ele>
</trkpt>
<trkpt lat="57.247590981423855" lon="9.608592018485069">
<ele>14</ele>
</trkpt>
<trkpt lat="57.247677985578775" lon="9.608709029853344">
<ele>14</ele>
</trkpt>
<trkpt lat="57.247677985578775" lon="9.608709029853344">
<ele>14</ele>
</trkpt>
<trkpt lat="57.247714027762413" lon="9.608374005183578">
<ele>14</ele>
</trkpt>
<trkpt lat="57.247802959755063" lon="9.607792971655726">
<ele>15</ele>
</trkpt>
<trkpt lat="57.247748980298638" lon="9.607603959739208">
<ele>15</ele>
</trkpt>
<trkpt lat="57.247695000842214" lon="9.607482003048062">
<ele>15</ele>
</trkpt>
<trkpt lat="57.247640015557408" lon="9.607279999181628">
<ele>15</ele>
</trkpt>
<trkpt lat="57.247741017490625" lon="9.606747999787331">
<ele>15</ele>
</trkpt>
<trkpt lat="57.247748980298638" lon="9.606236033141613">
<ele>16</ele>
</trkpt>
<trkpt lat="57.247746968641877" lon="9.605996981263161">
<ele>16</ele>
</trkpt>
<trkpt lat="57.247844031080604" lon="9.605912994593382">
<ele>16</ele>
</trkpt>
<trkpt lat="57.248128009960055" lon="9.60590897127986">
<ele>16</ele>
</trkpt>
<trkpt lat="57.248182995244861" lon="9.605927998200059">
<ele>15</ele>
</trkpt>
<trkpt lat="57.248228006064892" lon="9.606030005961657">
<ele>15</ele>
</trkpt>
<trkpt lat="57.248377958312631" lon="9.606715980917215">
<ele>15</ele>
</trkpt>
<trkpt lat="57.248444007709622" lon="9.607044970616698">
<ele>14</ele>
</trkpt>
<trkpt lat="57.248698985204101" lon="9.608196979388595">
<ele>14</ele>
</trkpt>
<trkpt lat="57.248865030705929" lon="9.609056962653995">
<ele>14</ele>
</trkpt>
<trkpt lat="57.249012971296906" lon="9.609790965914726">
<ele>14</ele>
</trkpt>
<trkpt lat="57.24908203817904" lon="9.609973020851612">
<ele>13</ele>
</trkpt>
<trkpt lat="57.249116990715265" lon="9.610180975869298">
<ele>13</ele>
</trkpt>
<trkpt lat="57.249175999313593" lon="9.610383985564113">
<ele>13</ele>
</trkpt>
<trkpt lat="57.249343972653151" lon="9.610920008271933">
<ele>13</ele>
</trkpt>
<trkpt lat="57.249467018991709" lon="9.6112169791013">
<ele>13</ele>
</trkpt>
<trkpt lat="57.249476993456483" lon="9.611305994912982">
<ele>13</ele>
</trkpt>
<trkpt lat="57.249515969306231" lon="9.611540017649531">
<ele>13</ele>
</trkpt>
<trkpt lat="57.249629041180015" lon="9.61190203204751">
<ele>13</ele>
</trkpt>
<trkpt lat="57.24985702894628" lon="9.612609967589378">
<ele>13</ele>
</trkpt>
<trkpt lat="57.250009998679161" lon="9.61316904053092">
<ele>13</ele>
</trkpt>
<trkpt lat="57.250045035034418" lon="9.613237017765641">
<ele>13</ele>
</trkpt>
<trkpt lat="57.250316021963954" lon="9.613290997222066">
<ele>13</ele>
</trkpt>
<trkpt lat="57.250814996659756" lon="9.613400967791677">
<ele>14</ele>
</trkpt>
<trkpt lat="57.251086989417672" lon="9.61340700276196">
<ele>14</ele>
</trkpt>
<trkpt lat="57.251172987744212" lon="9.613442039117217">
<ele>14</ele>
</trkpt>
<trkpt lat="57.251323023810983" lon="9.61355603300035">
<ele>15</ele>
</trkpt>
<trkpt lat="57.251595016568899" lon="9.613876976072788">
<ele>16</ele>
</trkpt>
<trkpt lat="57.251731976866722" lon="9.614095995202661">
<ele>16</ele>
</trkpt>
<trkpt lat="57.251803977414966" lon="9.614199008792639">
<ele>16</ele>
</trkpt>
<trkpt lat="57.252003969624639" lon="9.614250976592302">
<ele>17</ele>
</trkpt>
<trkpt lat="57.252201028168201" lon="9.614332029595971">
<ele>18</ele>
</trkpt>
<trkpt lat="57.252331031486392" lon="9.6147829759866">
<ele>18</ele>
</trkpt>
<trkpt lat="57.252497998997569" lon="9.615438021719456">
<ele>18</ele>
</trkpt>
<trkpt lat="57.252626996487379" lon="9.61561999283731">
<ele>18</ele>
</trkpt>
<trkpt lat="57.252717018127441" lon="9.615680007264018">
<ele>18</ele>
</trkpt>
<trkpt lat="57.252815002575517" lon="9.615718983113766">
<ele>18</ele>
</trkpt>
<trkpt lat="57.253185985609889" lon="9.615764999762177">
<ele>18</ele>
</trkpt>
<trkpt lat="57.253323029726744" lon="9.615459982305765">
<ele>18</ele>
</trkpt>
<trkpt lat="57.253368040546775" lon="9.615345988422632">
<ele>18</ele>
</trkpt>
<trkpt lat="57.253639027476311" lon="9.615134010091424">
<ele>18</ele>
</trkpt>
<trkpt lat="57.253699963912368" lon="9.615080030634999">
<ele>18</ele>
</trkpt>
<trkpt lat="57.253812029957771" lon="9.615010041743517">
<ele>18</ele>
</trkpt>
<trkpt lat="57.254167003557086" lon="9.614511989057064">
<ele>18</ele>
</trkpt>
<trkpt lat="57.254375964403152" lon="9.613905977457762">
<ele>17</ele>
</trkpt>
<trkpt lat="57.254573022946715" lon="9.613265013322234">
<ele>17</ele>
</trkpt>
<trkpt lat="57.254665978252888" lon="9.613100979477167">
<ele>17</ele>
</trkpt>
<trkpt lat="57.254593977704644" lon="9.613023027777672">
<ele>16</ele>
</trkpt>
<trkpt lat="57.254581991583109" lon="9.612910039722919">
<ele>16</ele>
</trkpt>
<trkpt lat="57.254381999373436" lon="9.612798979505897">
<ele>16</ele>
</trkpt>
<trkpt lat="57.25421897135675" lon="9.612808031961322">
<ele>16</ele>
</trkpt>
<trkpt lat="57.254095003008842" lon="9.612540984526277">
<ele>15</ele>
</trkpt>
<trkpt lat="57.253900039941072" lon="9.612431013956666">
<ele>15</ele>
</trkpt>
<trkpt lat="57.253719996660948" lon="9.612264968454838">
<ele>15</ele>
</trkpt>
<trkpt lat="57.253480022773147" lon="9.611931033432484">
<ele>15</ele>
</trkpt>
<trkpt lat="57.253440963104367" lon="9.611524008214474">
<ele>15</ele>
</trkpt>
<trkpt lat="57.253351025283337" lon="9.611274981871247">
<ele>15</ele>
</trkpt>
<trkpt lat="57.253311965614557" lon="9.611221002414823">
<ele>15</ele>
</trkpt>
<trkpt lat="57.253224961459637" lon="9.611178003251553">
<ele>15</ele>
</trkpt>
<trkpt lat="57.25310099311173" lon="9.611145984381437">
<ele>15</ele>
</trkpt>
<trkpt lat="57.252849033102393" lon="9.611018998548388">
<ele>15</ele>
</trkpt>
<trkpt lat="57.252675024792552" lon="9.610948003828526">
<ele>15</ele>
</trkpt>
<trkpt lat="57.252243021503091" lon="9.610757986083627">
<ele>15</ele>
</trkpt>
<trkpt lat="57.251915959641337" lon="9.610621025785804">
<ele>14</ele>
</trkpt>
<trkpt lat="57.251584958285093" lon="9.610316008329391">
<ele>14</ele>
</trkpt>
<trkpt lat="57.251469036564231" lon="9.609602959826589">
<ele>14</ele>
</trkpt>
<trkpt lat="57.25144799798727" lon="9.609513022005558">
<ele>13</ele>
</trkpt>
<trkpt lat="57.251363005489111" lon="9.608973981812596">
<ele>12</ele>
</trkpt>
<trkpt lat="57.251329980790615" lon="9.608179964125156">
<ele>12</ele>
</trkpt>
<trkpt lat="57.251345990225673" lon="9.608022971078753">
<ele>12</ele>
</trkpt>
<trkpt lat="57.25140399299562" lon="9.607632039114833">
<ele>12</ele>
</trkpt>
<trkpt lat="57.251432994380593" lon="9.607062991708517">
<ele>13</ele>
</trkpt>
<trkpt lat="57.25133802741766" lon="9.606625037267804">
<ele>13</ele>
</trkpt>
<trkpt lat="57.251394018530846" lon="9.605729011818767">
<ele>13</ele>
</trkpt>
<trkpt lat="57.251408016309142" lon="9.605184020474553">
<ele>13</ele>
</trkpt>
<trkpt lat="57.251444980502129" lon="9.604669036343694">
<ele>13</ele>
</trkpt>
<trkpt lat="57.251571966335177" lon="9.604336023330688">
<ele>14</ele>
</trkpt>
<trkpt lat="57.251670034602284" lon="9.603611994534731">
<ele>14</ele>
</trkpt>
<trkpt lat="57.251802971586585" lon="9.602787969633937">
<ele>14</ele>
</trkpt>
<trkpt lat="57.251945966854692" lon="9.601448038592935">
<ele>14</ele>
</trkpt>
<trkpt lat="57.251965999603271" lon="9.600836997851729">
<ele>14</ele>
</trkpt>
<trkpt lat="57.251830967143178" lon="9.600183963775635">
<ele>14</ele>
</trkpt>
<trkpt lat="57.251698030158877" lon="9.600111963227391">
<ele>14</ele>
</trkpt>
<trkpt lat="57.251379014924169" lon="9.599975002929568">
<ele>14</ele>
</trkpt>
<trkpt lat="57.251132000237703" lon="9.599770987406373">
<ele>13</ele>
</trkpt>
<trkpt lat="57.250989004969597" lon="9.599508969113231">
<ele>13</ele>
</trkpt>
<trkpt lat="57.25093200802803" lon="9.599291039630771">
<ele>13</ele>
</trkpt>
<trkpt lat="57.250621961429715" lon="9.598900023847818">
<ele>13</ele>
</trkpt>
<trkpt lat="57.25026598200202" lon="9.598736995831132">
<ele>13</ele>
</trkpt>
<trkpt lat="57.250261958688498" lon="9.598502973094583">
<ele>13</ele>
</trkpt>
<trkpt lat="57.250177972018719" lon="9.598447987809777">
<ele>12</ele>
</trkpt>
<trkpt lat="57.250099014490843" lon="9.598462991416454">
<ele>12</ele>
</trkpt>
<trkpt lat="57.249799026176333" lon="9.598914021626115">
<ele>12</ele>
</trkpt>
<trkpt lat="57.2497299592942" lon="9.599198000505567">
<ele>11</ele>
</trkpt>
<trkpt lat="57.249613031744957" lon="9.600270967930555">
<ele>11</ele>
</trkpt>
<trkpt lat="57.249572966247797" lon="9.600584032014012">
<ele>11</ele>
</trkpt>
<trkpt lat="57.24955502897501" lon="9.600783018395305">
<ele>10</ele>
</trkpt>
<trkpt lat="57.249668017029762" lon="9.601137991994619">
<ele>10</ele>
</trkpt>
</trkseg>
</trk>
</gpx>
