<?xml version="1.0" encoding="UTF-8"?>
<gpx version="1.1"
creator="Smartprofil-Office - http://www.rother.de"
xmlns:xsi="http://www.w3.org/2001/XMLSchema-instance"
xmlns="http://www.topografix.com/GPX/1/1"
xsi:schemaLocation="http://www.topografix.com/GPX/1/1 http://www.topografix.com/GPX/1/1/gpx.xsd">
<metadata>

<bounds minlat="56.538735022768378" minlon="8.122056964784861" maxlat="56.569054964929819" maxlon="8.155308980494738"/>
</metadata>
<wpt lat="56.566162034869194" lon="8.130080960690975">
<ele>5</ele>
<name>23_Vejlby Strand (1)</name>
<cmt></cmt>
<desc></desc>
<sym>Crossing</sym>
</wpt>

<wpt lat="56.561368005350232" lon="8.127364972606301">
<ele>13</ele>
<name>23_Dünenkamm (2)</name>
<cmt></cmt>
<desc></desc>
<sym>Crossing</sym>
</wpt>

<wpt lat="56.55465804040432" lon="8.124596010893583">
<ele>11</ele>
<name>23_Pfad Seeufer (3)</name>
<cmt></cmt>
<desc></desc>
<sym>Crossing</sym>
</wpt>

<wpt lat="56.538898972794414" lon="8.124123020097613">
<ele>12</ele>
<name>23_Alusteg (4)</name>
<cmt></cmt>
<desc></desc>
<sym>Crossing</sym>
</wpt>

<wpt lat="56.543443975970149" lon="8.134871972724795">
<ele>14</ele>
<name>23_Fiskerhytte (5)</name>
<cmt></cmt>
<desc></desc>
<sym>Crossing</sym>
</wpt>

<wpt lat="56.565875038504601" lon="8.155272016301751">
<ele>7</ele>
<name>23_Kanal (6)</name>
<cmt></cmt>
<desc></desc>
<sym>Crossing</sym>
</wpt>

<wpt lat="56.567447986453772" lon="8.150298027321696">
<ele>7</ele>
<name>23_Parkering C 580 (7)</name>
<cmt></cmt>
<desc></desc>
<sym>Crossing</sym>
</wpt>

<trk>
<name>DAN_23_Ferring</name>
<trkseg>
<trkpt lat="56.566162034869194" lon="8.130080960690975">
<ele>5</ele>
</trkpt>
<trkpt lat="56.565894652158022" lon="8.130341218784452">
<ele>5</ele>
</trkpt>
<trkpt lat="56.565517382696271" lon="8.131055943667889">
<ele>5</ele>
</trkpt>
<trkpt lat="56.565220998600125" lon="8.131735967472196">
<ele>5</ele>
</trkpt>
<trkpt lat="56.565010026097298" lon="8.132407022640109">
<ele>5</ele>
</trkpt>
<trkpt lat="56.564978007227182" lon="8.132488997653127">
<ele>5</ele>
</trkpt>
<trkpt lat="56.564906006678939" lon="8.132379027083516">
<ele>5</ele>
</trkpt>
<trkpt lat="56.564883962273598" lon="8.132338961586356">
<ele>5</ele>
</trkpt>
<trkpt lat="56.564792012795806" lon="8.132232008501887">
<ele>5</ele>
</trkpt>
<trkpt lat="56.564780026674271" lon="8.132202001288533">
<ele>5</ele>
</trkpt>
<trkpt lat="56.564653962850571" lon="8.132039979100227">
<ele>5</ele>
</trkpt>
<trkpt lat="56.5646299906075" lon="8.13202396966517">
<ele>5</ele>
</trkpt>
<trkpt lat="56.564393034204841" lon="8.131696991622448">
<ele>5</ele>
</trkpt>
<trkpt lat="56.564279040321708" lon="8.131560031324625">
<ele>5</ele>
</trkpt>
<trkpt lat="56.563989026471972" lon="8.131150994449854">
<ele>5</ele>
</trkpt>
<trkpt lat="56.563870003446937" lon="8.131003975868225">
<ele>6</ele>
</trkpt>
<trkpt lat="56.563829015940428" lon="8.130931975319982">
<ele>6</ele>
</trkpt>
<trkpt lat="56.563695995137095" lon="8.130736006423831">
<ele>6</ele>
</trkpt>
<trkpt lat="56.563651990145445" lon="8.130694013088942">
<ele>6</ele>
</trkpt>
<trkpt lat="56.563504971563816" lon="8.130486980080605">
<ele>6</ele>
</trkpt>
<trkpt lat="56.563441017642617" lon="8.130416991189122">
<ele>6</ele>
</trkpt>
<trkpt lat="56.563360970467329" lon="8.130299979820848">
<ele>6</ele>
</trkpt>
<trkpt lat="56.563181011006236" lon="8.130168970674276">
<ele>6</ele>
</trkpt>
<trkpt lat="56.563000967726111" lon="8.130082972347736">
<ele>6</ele>
</trkpt>
<trkpt lat="56.562841963022947" lon="8.130037039518356">
<ele>6</ele>
</trkpt>
<trkpt lat="56.562782032415271" lon="8.130014995113015">
<ele>6</ele>
</trkpt>
<trkpt lat="56.562688993290067" lon="8.130017006769776">
<ele>5</ele>
</trkpt>
<trkpt lat="56.562730064615607" lon="8.129906449466944">
<ele>5</ele>
</trkpt>
<trkpt lat="56.562761999666691" lon="8.129815002903342">
<ele>5</ele>
</trkpt>
<trkpt lat="56.562799969688058" lon="8.129599001258612">
<ele>5</ele>
</trkpt>
<trkpt lat="56.562812961637974" lon="8.129456005990505">
<ele>5</ele>
</trkpt>
<trkpt lat="56.562858978286386" lon="8.129115030169487">
<ele>5</ele>
</trkpt>
<trkpt lat="56.562857972458005" lon="8.129088040441275">
<ele>5</ele>
</trkpt>
<trkpt lat="56.5628029871732" lon="8.128934986889362">
<ele>6</ele>
</trkpt>
<trkpt lat="56.56269402243197" lon="8.128840019926429">
<ele>6</ele>
</trkpt>
<trkpt lat="56.562649011611938" lon="8.128812024369836">
<ele>6</ele>
</trkpt>
<trkpt lat="56.562468968331814" lon="8.128675986081362">
<ele>6</ele>
</trkpt>
<trkpt lat="56.562377018854022" lon="8.128633992746472">
<ele>6</ele>
</trkpt>
<trkpt lat="56.562275011092424" lon="8.128527961671352">
<ele>7</ele>
</trkpt>
<trkpt lat="56.562212985008955" lon="8.128404999151826">
<ele>7</ele>
</trkpt>
<trkpt lat="56.562175014987588" lon="8.128364011645317">
<ele>7</ele>
</trkpt>
<trkpt lat="56.561964964494109" lon="8.128066034987569">
<ele>8</ele>
</trkpt>
<trkpt lat="56.561805959790945" lon="8.127982970327139">
<ele>9</ele>
</trkpt>
<trkpt lat="56.56172901391983" lon="8.127963021397591">
<ele>10</ele>
</trkpt>
<trkpt lat="56.561541007831693" lon="8.127886997535825">
<ele>10</ele>
</trkpt>
<trkpt lat="56.561432965099812" lon="8.127842992544174">
<ele>11</ele>
</trkpt>
<trkpt lat="56.561392983421683" lon="8.127767974510789">
<ele>12</ele>
</trkpt>
<trkpt lat="56.561368005350232" lon="8.127364972606301">
<ele>13</ele>
</trkpt>
<trkpt lat="56.561374962329865" lon="8.127322979271412">
<ele>13</ele>
</trkpt>
<trkpt lat="56.561378985643387" lon="8.12725399620831">
<ele>14</ele>
</trkpt>
<trkpt lat="56.561374040320516" lon="8.127134973183274">
<ele>14</ele>
</trkpt>
<trkpt lat="56.56134101562202" lon="8.12710102647543">
<ele>14</ele>
</trkpt>
<trkpt lat="56.561242025345564" lon="8.127142013981938">
<ele>14</ele>
</trkpt>
<trkpt lat="56.561211012303829" lon="8.127135979011655">
<ele>15</ele>
</trkpt>
<trkpt lat="56.561184022575617" lon="8.127073030918837">
<ele>15</ele>
</trkpt>
<trkpt lat="56.561029544100165" lon="8.126997509971261">
<ele>15</ele>
</trkpt>
<trkpt lat="56.560904989019036" lon="8.126921989023686">
<ele>16</ele>
</trkpt>
<trkpt lat="56.560852015390992" lon="8.126902040094137">
<ele>16</ele>
</trkpt>
<trkpt lat="56.560661997646093" lon="8.126838002353907">
<ele>16</ele>
</trkpt>
<trkpt lat="56.560528976842761" lon="8.126790979877114">
<ele>16</ele>
</trkpt>
<trkpt lat="56.560357986018062" lon="8.126692995429039">
<ele>16</ele>
</trkpt>
<trkpt lat="56.560314986854792" lon="8.126691989600658">
<ele>16</ele>
</trkpt>
<trkpt lat="56.560190012678504" lon="8.126615965738893">
<ele>16</ele>
</trkpt>
<trkpt lat="56.560166040435433" lon="8.126640021800995">
<ele>15</ele>
</trkpt>
<trkpt lat="56.560105020180345" lon="8.126600962132216">
<ele>15</ele>
</trkpt>
<trkpt lat="56.559899998828769" lon="8.12650297768414">
<ele>15</ele>
</trkpt>
<trkpt lat="56.559726996347308" lon="8.126376997679472">
<ele>15</ele>
</trkpt>
<trkpt lat="56.559182005003095" lon="8.126171976327896">
<ele>15</ele>
</trkpt>
<trkpt lat="56.559102041646838" lon="8.126191003248096">
<ele>15</ele>
</trkpt>
<trkpt lat="56.559030963107944" lon="8.126140041276813">
<ele>15</ele>
</trkpt>
<trkpt lat="56.558987963944674" lon="8.126139035448432">
<ele>15</ele>
</trkpt>
<trkpt lat="56.558797024190426" lon="8.126033004373312">
<ele>15</ele>
</trkpt>
<trkpt lat="56.558770034462214" lon="8.12600702047348">
<ele>16</ele>
</trkpt>
<trkpt lat="56.558604910969734" lon="8.125912472605705">
<ele>16</ele>
</trkpt>
<trkpt lat="56.558487983420491" lon="8.125875005498529">
<ele>16</ele>
</trkpt>
<trkpt lat="56.558448588475585" lon="8.125851033255458">
<ele>16</ele>
</trkpt>
<trkpt lat="56.558343982324004" lon="8.125789007171989">
<ele>16</ele>
</trkpt>
<trkpt lat="56.558224959298968" lon="8.125717006623745">
<ele>16</ele>
</trkpt>
<trkpt lat="56.558153964579105" lon="8.12568599358201">
<ele>16</ele>
</trkpt>
<trkpt lat="56.557978028431535" lon="8.125623967498541">
<ele>16</ele>
</trkpt>
<trkpt lat="56.557836038991809" lon="8.125538975000382">
<ele>16</ele>
</trkpt>
<trkpt lat="56.557804020121694" lon="8.125460017472506">
<ele>16</ele>
</trkpt>
<trkpt lat="56.557681979611516" lon="8.125350968912244">
<ele>16</ele>
</trkpt>
<trkpt lat="56.557557424530387" lon="8.125330349430442">
<ele>15</ele>
</trkpt>
<trkpt lat="56.557448962703347" lon="8.125339988619089">
<ele>15</ele>
</trkpt>
<trkpt lat="56.557329017668962" lon="8.125285003334284">
<ele>15</ele>
</trkpt>
<trkpt lat="56.557184010744095" lon="8.125274023041129">
<ele>15</ele>
</trkpt>
<trkpt lat="56.557171018794179" lon="8.125248039141297">
<ele>15</ele>
</trkpt>
<trkpt lat="56.556902965530753" lon="8.125203028321266">
<ele>15</ele>
</trkpt>
<trkpt lat="56.556832976639271" lon="8.125167991966009">
<ele>15</ele>
</trkpt>
<trkpt lat="56.556670032441616" lon="8.125045029446483">
<ele>15</ele>
</trkpt>
<trkpt lat="56.556571964174509" lon="8.125047963112593">
<ele>15</ele>
</trkpt>
<trkpt lat="56.556473979726434" lon="8.12508400529623">
<ele>14</ele>
</trkpt>
<trkpt lat="56.556369038298726" lon="8.125074030831456">
<ele>14</ele>
</trkpt>
<trkpt lat="56.556280022487044" lon="8.125032959505916">
<ele>14</ele>
</trkpt>
<trkpt lat="56.556011969223619" lon="8.12495400197804">
<ele>14</ele>
</trkpt>
<trkpt lat="56.55586201697588" lon="8.124944027513266">
<ele>14</ele>
</trkpt>
<trkpt lat="56.555797979235649" lon="8.124914020299912">
<ele>14</ele>
</trkpt>
<trkpt lat="56.555538978427649" lon="8.124854005873203">
<ele>14</ele>
</trkpt>
<trkpt lat="56.555501008406281" lon="8.124856017529964">
<ele>13</ele>
</trkpt>
<trkpt lat="56.555216023698449" lon="8.124758033081889">
<ele>12</ele>
</trkpt>
<trkpt lat="56.555043021216989" lon="8.124711010605097">
<ele>12</ele>
</trkpt>
<trkpt lat="56.554888039827347" lon="8.124688966199756">
<ele>12</ele>
</trkpt>
<trkpt lat="56.55465804040432" lon="8.124596010893583">
<ele>11</ele>
</trkpt>
<trkpt lat="56.554671032354236" lon="8.124944027513266">
<ele>11</ele>
</trkpt>
<trkpt lat="56.554558966308832" lon="8.12508299946785">
<ele>10</ele>
</trkpt>
<trkpt lat="56.554582016542554" lon="8.125330014154315">
<ele>10</ele>
</trkpt>
<trkpt lat="56.554428962990642" lon="8.1254050321877">
<ele>10</ele>
</trkpt>
<trkpt lat="56.554298959672451" lon="8.12527603469789">
<ele>10</ele>
</trkpt>
<trkpt lat="56.553749525919557" lon="8.125174948945642">
<ele>9</ele>
</trkpt>
<trkpt lat="56.552719976752996" lon="8.124878983944655">
<ele>9</ele>
</trkpt>
<trkpt lat="56.552122011780739" lon="8.124557035043836">
<ele>9</ele>
</trkpt>
<trkpt lat="56.551721021533012" lon="8.124406998977065">
<ele>8</ele>
</trkpt>
<trkpt lat="56.551289018243551" lon="8.12433198094368">
<ele>8</ele>
</trkpt>
<trkpt lat="56.550597008317709" lon="8.123935014009476">
<ele>8</ele>
</trkpt>
<trkpt lat="56.549886977300048" lon="8.123839041218162">
<ele>8</ele>
</trkpt>
<trkpt lat="56.549626970663667" lon="8.123849015682936">
<ele>8</ele>
</trkpt>
<trkpt lat="56.549474000930786" lon="8.12370995990932">
<ele>8</ele>
</trkpt>
<trkpt lat="56.549131013453007" lon="8.12362396158278">
<ele>8</ele>
</trkpt>
<trkpt lat="56.548662967979908" lon="8.1239889934659">
<ele>8</ele>
</trkpt>
<trkpt lat="56.548260971903801" lon="8.12416099011898">
<ele>8</ele>
</trkpt>
<trkpt lat="56.548092998564243" lon="8.124109022319317">
<ele>8</ele>
</trkpt>
<trkpt lat="56.547553958371282" lon="8.124152021482587">
<ele>8</ele>
</trkpt>
<trkpt lat="56.547235026955605" lon="8.124109022319317">
<ele>8</ele>
</trkpt>
<trkpt lat="56.546862032264471" lon="8.124152021482587">
<ele>8</ele>
</trkpt>
<trkpt lat="56.546673020347953" lon="8.123926967382431">
<ele>8</ele>
</trkpt>
<trkpt lat="56.546460036188364" lon="8.123872987926006">
<ele>8</ele>
</trkpt>
<trkpt lat="56.546383006498218" lon="8.123700991272926">
<ele>8</ele>
</trkpt>
<trkpt lat="56.546193994581699" lon="8.123594038188458">
<ele>8</ele>
</trkpt>
<trkpt lat="56.545945974066854" lon="8.123648017644882">
<ele>8</ele>
</trkpt>
<trkpt lat="56.545844972133636" lon="8.123335959389806">
<ele>8</ele>
</trkpt>
<trkpt lat="56.545189004391432" lon="8.123325984925032">
<ele>8</ele>
</trkpt>
<trkpt lat="56.544811986386776" lon="8.123095985502005">
<ele>8</ele>
</trkpt>
<trkpt lat="56.544592967256904" lon="8.122762972488999">
<ele>8</ele>
</trkpt>
<trkpt lat="56.544214021414518" lon="8.122430965304375">
<ele>8</ele>
</trkpt>
<trkpt lat="56.543434001505375" lon="8.122215969488025">
<ele>8</ele>
</trkpt>
<trkpt lat="56.543108029291034" lon="8.122323006391525">
<ele>8</ele>
</trkpt>
<trkpt lat="56.54280100017786" lon="8.12224798835814">
<ele>8</ele>
</trkpt>
<trkpt lat="56.542560020461679" lon="8.122346978634596">
<ele>8</ele>
</trkpt>
<trkpt lat="56.542117036879063" lon="8.122497014701366">
<ele>9</ele>
</trkpt>
<trkpt lat="56.541809001937509" lon="8.122292999178171">
<ele>9</ele>
</trkpt>
<trkpt lat="56.541484035551548" lon="8.122056964784861">
<ele>9</ele>
</trkpt>
<trkpt lat="56.541140964254737" lon="8.122185962274671">
<ele>9</ele>
</trkpt>
<trkpt lat="56.540490025654435" lon="8.122122008353472">
<ele>9</ele>
</trkpt>
<trkpt lat="56.540193976834416" lon="8.122217981144786">
<ele>9</ele>
</trkpt>
<trkpt lat="56.54009398072958" lon="8.122421996667981">
<ele>9</ele>
</trkpt>
<trkpt lat="56.540026003494859" lon="8.122429037466645">
<ele>10</ele>
</trkpt>
<trkpt lat="56.539855012670159" lon="8.122518975287676">
<ele>10</ele>
</trkpt>
<trkpt lat="56.539831962436438" lon="8.122545965015888">
<ele>10</ele>
</trkpt>
<trkpt lat="56.539768008515239" lon="8.122683009132743">
<ele>10</ele>
</trkpt>
<trkpt lat="56.539681004360318" lon="8.122919965535402">
<ele>10</ele>
</trkpt>
<trkpt lat="56.539546977728605" lon="8.123066984117031">
<ele>11</ele>
</trkpt>
<trkpt lat="56.539430972188711" lon="8.123221965506673">
<ele>11</ele>
</trkpt>
<trkpt lat="56.539256041869521" lon="8.123533017933369">
<ele>11</ele>
</trkpt>
<trkpt lat="56.539130983874202" lon="8.123704008758068">
<ele>11</ele>
</trkpt>
<trkpt lat="56.538970973342657" lon="8.123969966545701">
<ele>12</ele>
</trkpt>
<trkpt lat="56.538965106010437" lon="8.124004248529673">
<ele>12</ele>
</trkpt>
<trkpt lat="56.538898972794414" lon="8.124123020097613">
<ele>12</ele>
</trkpt>
<trkpt lat="56.538837030529976" lon="8.124195020645857">
<ele>12</ele>
</trkpt>
<trkpt lat="56.538820015266538" lon="8.124242965131998">
<ele>12</ele>
</trkpt>
<trkpt lat="56.538776010274887" lon="8.124325023964047">
<ele>12</ele>
</trkpt>
<trkpt lat="56.538819009438157" lon="8.124501965939999">
<ele>12</ele>
</trkpt>
<trkpt lat="56.53884700499475" lon="8.124728025868535">
<ele>12</ele>
</trkpt>
<trkpt lat="56.538800988346338" lon="8.125032959505916">
<ele>13</ele>
</trkpt>
<trkpt lat="56.538754971697927" lon="8.125135973095894">
<ele>13</ele>
</trkpt>
<trkpt lat="56.538735022768378" lon="8.125329008325934">
<ele>13</ele>
</trkpt>
<trkpt lat="56.538758995011449" lon="8.125439984723926">
<ele>13</ele>
</trkpt>
<trkpt lat="56.538766035810113" lon="8.12559898942709">
<ele>13</ele>
</trkpt>
<trkpt lat="56.5387839730829" lon="8.125769980251789">
<ele>13</ele>
</trkpt>
<trkpt lat="56.538775004446507" lon="8.125810967758298">
<ele>13</ele>
</trkpt>
<trkpt lat="56.53878103941679" lon="8.12596402131021">
<ele>13</ele>
</trkpt>
<trkpt lat="56.538790008053184" lon="8.126004002988339">
<ele>13</ele>
</trkpt>
<trkpt lat="56.538908025249839" lon="8.12630700878799">
<ele>13</ele>
</trkpt>
<trkpt lat="56.539007015526295" lon="8.126732977107167">
<ele>13</ele>
</trkpt>
<trkpt lat="56.539097959175706" lon="8.126871027052403">
<ele>13</ele>
</trkpt>
<trkpt lat="56.539161996915936" lon="8.126987032592297">
<ele>13</ele>
</trkpt>
<trkpt lat="56.539228968322277" lon="8.127309987321496">
<ele>13</ele>
</trkpt>
<trkpt lat="56.539337011054158" lon="8.127544010058045">
<ele>13</ele>
</trkpt>
<trkpt lat="56.539420997723937" lon="8.127809967845678">
<ele>13</ele>
</trkpt>
<trkpt lat="56.539441030472517" lon="8.127836035564542">
<ele>13</ele>
</trkpt>
<trkpt lat="56.539508001878858" lon="8.12796100974083">
<ele>13</ele>
</trkpt>
<trkpt lat="56.539590982720256" lon="8.128174999728799">
<ele>13</ele>
</trkpt>
<trkpt lat="56.539673041552305" lon="8.128345990553498">
<ele>13</ele>
</trkpt>
<trkpt lat="56.539712017402053" lon="8.128504995256662">
<ele>13</ele>
</trkpt>
<trkpt lat="56.539782006293535" lon="8.128636004403234">
<ele>13</ele>
</trkpt>
<trkpt lat="56.539849983528256" lon="8.128813030198216">
<ele>13</ele>
</trkpt>
<trkpt lat="56.539890971034765" lon="8.128877989947796">
<ele>13</ele>
</trkpt>
<trkpt lat="56.539926007390022" lon="8.129055015742779">
<ele>13</ele>
</trkpt>
<trkpt lat="56.540066991001368" lon="8.12938098795712">
<ele>13</ele>
</trkpt>
<trkpt lat="56.540108984336257" lon="8.129511997103691">
<ele>13</ele>
</trkpt>
<trkpt lat="56.540250973775983" lon="8.129834029823542">
<ele>13</ele>
</trkpt>
<trkpt lat="56.540297996252775" lon="8.129913993179798">
<ele>13</ele>
</trkpt>
<trkpt lat="56.540422970429063" lon="8.130096970126033">
<ele>12</ele>
</trkpt>
<trkpt lat="56.540526989847422" lon="8.130359994247556">
<ele>12</ele>
</trkpt>
<trkpt lat="56.54052397236228" lon="8.130340967327356">
<ele>12</ele>
</trkpt>
<trkpt lat="56.540533024817705" lon="8.130376003682613">
<ele>12</ele>
</trkpt>
<trkpt lat="56.54058801010251" lon="8.130473988130689">
<ele>12</ele>
</trkpt>
<trkpt lat="56.540685994550586" lon="8.13067096285522">
<ele>12</ele>
</trkpt>
<trkpt lat="56.540784984827042" lon="8.130830973386765">
<ele>12</ele>
</trkpt>
<trkpt lat="56.540838964283466" lon="8.130931975319982">
<ele>12</ele>
</trkpt>
<trkpt lat="56.54090903699398" lon="8.131042029708624">
<ele>12</ele>
</trkpt>
<trkpt lat="56.541085978969932" lon="8.131390968337655">
<ele>12</ele>
</trkpt>
<trkpt lat="56.54118999838829" lon="8.131537986919284">
<ele>12</ele>
</trkpt>
<trkpt lat="56.541322013363242" lon="8.131673019379377">
<ele>12</ele>
</trkpt>
<trkpt lat="56.541441958397627" lon="8.13183001242578">
<ele>12</ele>
</trkpt>
<trkpt lat="56.541516976431012" lon="8.131955992430449">
<ele>12</ele>
</trkpt>
<trkpt lat="56.541594006121159" lon="8.132267966866493">
<ele>12</ele>
</trkpt>
<trkpt lat="56.541638011112809" lon="8.132277019321919">
<ele>12</ele>
</trkpt>
<trkpt lat="56.541729960590601" lon="8.132400987669826">
<ele>12</ele>
</trkpt>
<trkpt lat="56.541786035522819" lon="8.132531996816397">
<ele>12</ele>
</trkpt>
<trkpt lat="56.541857030242682" lon="8.132741963490844">
<ele>12</ele>
</trkpt>
<trkpt lat="56.541890976950526" lon="8.132799966260791">
<ele>12</ele>
</trkpt>
<trkpt lat="56.542084012180567" lon="8.132998030632734">
<ele>12</ele>
</trkpt>
<trkpt lat="56.542170010507107" lon="8.133181007578969">
<ele>13</ele>
</trkpt>
<trkpt lat="56.542291967198253" lon="8.13331201672554">
<ele>13</ele>
</trkpt>
<trkpt lat="56.542395986616611" lon="8.133460963144898">
<ele>13</ele>
</trkpt>
<trkpt lat="56.542467987164855" lon="8.133576968684793">
<ele>13</ele>
</trkpt>
<trkpt lat="56.542581981047988" lon="8.133863965049386">
<ele>13</ele>
</trkpt>
<trkpt lat="56.542664039880037" lon="8.133939988911152">
<ele>13</ele>
</trkpt>
<trkpt lat="56.542711984366179" lon="8.134016012772918">
<ele>13</ele>
</trkpt>
<trkpt lat="56.542839976027608" lon="8.134176023304462">
<ele>13</ele>
</trkpt>
<trkpt lat="56.542989006265998" lon="8.134318012744188">
<ele>13</ele>
</trkpt>
<trkpt lat="56.543024713173509" lon="8.1343864928931">
<ele>13</ele>
</trkpt>
<trkpt lat="56.54316402040422" lon="8.134528985247016">
<ele>14</ele>
</trkpt>
<trkpt lat="56.543257981538773" lon="8.134599979966879">
<ele>14</ele>
</trkpt>
<trkpt lat="56.543325958773494" lon="8.134752027690411">
<ele>14</ele>
</trkpt>
<trkpt lat="56.543349009007215" lon="8.134777005761862">
<ele>14</ele>
</trkpt>
<trkpt lat="56.543366024270654" lon="8.134771976619959">
<ele>14</ele>
</trkpt>
<trkpt lat="56.543443975970149" lon="8.134871972724795">
<ele>14</ele>
</trkpt>
<trkpt lat="56.543484041467309" lon="8.134890999644995">
<ele>14</ele>
</trkpt>
<trkpt lat="56.543529974296689" lon="8.134826039895415">
<ele>13</ele>
</trkpt>
<trkpt lat="56.543571967631578" lon="8.134840037673712">
<ele>13</ele>
</trkpt>
<trkpt lat="56.543673975393176" lon="8.134965011849999">
<ele>13</ele>
</trkpt>
<trkpt lat="56.543740024790168" lon="8.135073976591229">
<ele>12</ele>
</trkpt>
<trkpt lat="56.543858963996172" lon="8.135428028181195">
<ele>12</ele>
</trkpt>
<trkpt lat="56.544045964255929" lon="8.135493993759155">
<ele>12</ele>
</trkpt>
<trkpt lat="56.54415400698781" lon="8.135583009570837">
<ele>12</ele>
</trkpt>
<trkpt lat="56.544292978942394" lon="8.1358059681952">
<ele>11</ele>
</trkpt>
<trkpt lat="56.544537981972098" lon="8.136115008965135">
<ele>11</ele>
</trkpt>
<trkpt lat="56.544614005833864" lon="8.136202013120055">
<ele>11</ele>
</trkpt>
<trkpt lat="56.544640995562077" lon="8.136219028383493">
<ele>11</ele>
</trkpt>
<trkpt lat="56.544737974181771" lon="8.136353977024555">
<ele>11</ele>
</trkpt>
<trkpt lat="56.544801006093621" lon="8.136418014764786">
<ele>11</ele>
</trkpt>
<trkpt lat="56.544935032725334" lon="8.136565033346415">
<ele>11</ele>
</trkpt>
<trkpt lat="56.544992029666901" lon="8.136608032509685">
<ele>11</ele>
</trkpt>
<trkpt lat="56.545106023550034" lon="8.136720014736056">
<ele>11</ele>
</trkpt>
<trkpt lat="56.545150028541684" lon="8.136776005849242">
<ele>11</ele>
</trkpt>
<trkpt lat="56.545294029638171" lon="8.136929981410503">
<ele>11</ele>
</trkpt>
<trkpt lat="56.545334011316299" lon="8.136936016380787">
<ele>11</ele>
</trkpt>
<trkpt lat="56.545553030446172" lon="8.137164004147053">
<ele>11</ele>
</trkpt>
<trkpt lat="56.545588988810778" lon="8.137184036895633">
<ele>11</ele>
</trkpt>
<trkpt lat="56.54567901045084" lon="8.137310016900301">
<ele>12</ele>
</trkpt>
<trkpt lat="56.545698037371039" lon="8.137355027720332">
<ele>12</ele>
</trkpt>
<trkpt lat="56.545789986848831" lon="8.137487964704633">
<ele>12</ele>
</trkpt>
<trkpt lat="56.545811025425792" lon="8.137484025210142">
<ele>12</ele>
</trkpt>
<trkpt lat="56.545871961861849" lon="8.13754596747458">
<ele>12</ele>
</trkpt>
<trkpt lat="56.545952009037137" lon="8.13758703880012">
<ele>13</ele>
</trkpt>
<trkpt lat="56.546046976000071" lon="8.137662978842855">
<ele>13</ele>
</trkpt>
<trkpt lat="56.546082012355328" lon="8.137697009369731">
<ele>13</ele>
</trkpt>
<trkpt lat="56.546349981799722" lon="8.137942012399435">
<ele>13</ele>
</trkpt>
<trkpt lat="56.546447966247797" lon="8.138033039867878">
<ele>13</ele>
</trkpt>
<trkpt lat="56.546504963189363" lon="8.13810302875936">
<ele>13</ele>
</trkpt>
<trkpt lat="56.5466049592942" lon="8.138116020709276">
<ele>13</ele>
</trkpt>
<trkpt lat="56.546700010076165" lon="8.138205958530307">
<ele>13</ele>
</trkpt>
<trkpt lat="56.54677402228117" lon="8.138307966291904">
<ele>13</ele>
</trkpt>
<trkpt lat="56.546874018386006" lon="8.138396982103586">
<ele>13</ele>
</trkpt>
<trkpt lat="56.546963034197688" lon="8.138433024287224">
<ele>13</ele>
</trkpt>
<trkpt lat="56.547020031139255" lon="8.138482980430126">
<ele>13</ele>
</trkpt>
<trkpt lat="56.547151962295175" lon="8.138599991798401">
<ele>13</ele>
</trkpt>
<trkpt lat="56.547233015298843" lon="8.138671992346644">
<ele>13</ele>
</trkpt>
<trkpt lat="56.547327982261777" lon="8.138789003714919">
<ele>13</ele>
</trkpt>
<trkpt lat="56.547395037487149" lon="8.13883401453495">
<ele>12</ele>
</trkpt>
<trkpt lat="56.547545995563269" lon="8.138966029509902">
<ele>12</ele>
</trkpt>
<trkpt lat="56.547652026638389" lon="8.13902797177434">
<ele>12</ele>
</trkpt>
<trkpt lat="56.547810025513172" lon="8.139139031991363">
<ele>12</ele>
</trkpt>
<trkpt lat="56.547841960564256" lon="8.139172978699207">
<ele>12</ele>
</trkpt>
<trkpt lat="56.547987973317504" lon="8.139250008389354">
<ele>11</ele>
</trkpt>
<trkpt lat="56.548528019338846" lon="8.139502974227071">
<ele>11</ele>
</trkpt>
<trkpt lat="56.548852985724807" lon="8.139676982536912">
<ele>11</ele>
</trkpt>
<trkpt lat="56.54956896789372" lon="8.140246029943228">
<ele>11</ele>
</trkpt>
<trkpt lat="56.549685979261994" lon="8.14046697691083">
<ele>10</ele>
</trkpt>
<trkpt lat="56.549780024215579" lon="8.140565967187285">
<ele>10</ele>
</trkpt>
<trkpt lat="56.54986803419888" lon="8.140607038512826">
<ele>10</ele>
</trkpt>
<trkpt lat="56.549961995333433" lon="8.14068197272718">
<ele>10</ele>
</trkpt>
<trkpt lat="56.550088981166482" lon="8.140822034329176">
<ele>9</ele>
</trkpt>
<trkpt lat="56.550143966451287" lon="8.140909960493445">
<ele>9</ele>
</trkpt>
<trkpt lat="56.550268018618226" lon="8.141050022095442">
<ele>9</ele>
</trkpt>
<trkpt lat="56.55040598474443" lon="8.141212966293097">
<ele>8</ele>
</trkpt>
<trkpt lat="56.550608994439244" lon="8.141436008736491">
<ele>8</ele>
</trkpt>
<trkpt lat="56.550738997757435" lon="8.141554025933147">
<ele>8</ele>
</trkpt>
<trkpt lat="56.550963968038559" lon="8.141682017594576">
<ele>8</ele>
</trkpt>
<trkpt lat="56.55145900323987" lon="8.142210999503732">
<ele>8</ele>
</trkpt>
<trkpt lat="56.552031990140676" lon="8.142779041081667">
<ele>8</ele>
</trkpt>
<trkpt lat="56.552852997556329" lon="8.14351798966527">
<ele>8</ele>
</trkpt>
<trkpt lat="56.553042009472847" lon="8.143594013527036">
<ele>8</ele>
</trkpt>
<trkpt lat="56.553481975570321" lon="8.144176974892616">
<ele>8</ele>
</trkpt>
<trkpt lat="56.553763020783663" lon="8.144615013152361">
<ele>8</ele>
</trkpt>
<trkpt lat="56.553984973579645" lon="8.144818022847176">
<ele>8</ele>
</trkpt>
<trkpt lat="56.554194018244743" lon="8.144904021173716">
<ele>8</ele>
</trkpt>
<trkpt lat="56.554450001567602" lon="8.144992031157017">
<ele>8</ele>
</trkpt>
<trkpt lat="56.554554020985961" lon="8.145270980894566">
<ele>8</ele>
</trkpt>
<trkpt lat="56.554610012099147" lon="8.145290007814765">
<ele>8</ele>
</trkpt>
<trkpt lat="56.554835988208652" lon="8.145363014191389">
<ele>8</ele>
</trkpt>
<trkpt lat="56.554861972108483" lon="8.145553031936288">
<ele>8</ele>
</trkpt>
<trkpt lat="56.554954005405307" lon="8.145713964477181">
<ele>8</ele>
</trkpt>
<trkpt lat="56.555590024217963" lon="8.14637403935194">
<ele>8</ele>
</trkpt>
<trkpt lat="56.555938040837646" lon="8.146877959370613">
<ele>8</ele>
</trkpt>
<trkpt lat="56.556364009156823" lon="8.14723301678896">
<ele>8</ele>
</trkpt>
<trkpt lat="56.557174036279321" lon="8.147929972037673">
<ele>8</ele>
</trkpt>
<trkpt lat="56.55771098099649" lon="8.148321993649006">
<ele>8</ele>
</trkpt>
<trkpt lat="56.558296959847212" lon="8.148622987791896">
<ele>8</ele>
</trkpt>
<trkpt lat="56.559415021911263" lon="8.14964197576046">
<ele>8</ele>
</trkpt>
<trkpt lat="56.561103975400329" lon="8.151044016703963">
<ele>8</ele>
</trkpt>
<trkpt lat="56.561552993953228" lon="8.151623960584402">
<ele>8</ele>
</trkpt>
<trkpt lat="56.56226797029376" lon="8.152889963239431">
<ele>8</ele>
</trkpt>
<trkpt lat="56.563250999897718" lon="8.153674006462097">
<ele>7</ele>
</trkpt>
<trkpt lat="56.564196981489658" lon="8.154145991429687">
<ele>7</ele>
</trkpt>
<trkpt lat="56.564912041649222" lon="8.154307007789612">
<ele>7</ele>
</trkpt>
<trkpt lat="56.565515035763383" lon="8.154800031334162">
<ele>7</ele>
</trkpt>
<trkpt lat="56.565824998542666" lon="8.155191969126463">
<ele>7</ele>
</trkpt>
<trkpt lat="56.565875038504601" lon="8.155272016301751">
<ele>7</ele>
</trkpt>
<trkpt lat="56.565918037667871" lon="8.155308980494738">
<ele>7</ele>
</trkpt>
<trkpt lat="56.565984003245831" lon="8.155073029920459">
<ele>7</ele>
</trkpt>
<trkpt lat="56.566018033772707" lon="8.154912013560534">
<ele>7</ele>
</trkpt>
<trkpt lat="56.566043011844158" lon="8.154869014397264">
<ele>7</ele>
</trkpt>
<trkpt lat="56.56608902849257" lon="8.154684025794268">
<ele>7</ele>
</trkpt>
<trkpt lat="56.566207967698574" lon="8.154282029718161">
<ele>7</ele>
</trkpt>
<trkpt lat="56.566278962418437" lon="8.154125958681107">
<ele>7</ele>
</trkpt>
<trkpt lat="56.566363032907248" lon="8.153863018378615">
<ele>7</ele>
</trkpt>
<trkpt lat="56.566419024020433" lon="8.153719017282128">
<ele>7</ele>
</trkpt>
<trkpt lat="56.566503010690212" lon="8.153362032026053">
<ele>7</ele>
</trkpt>
<trkpt lat="56.566593032330275" lon="8.153080986812711">
<ele>7</ele>
</trkpt>
<trkpt lat="56.566730998456478" lon="8.152851993218064">
<ele>7</ele>
</trkpt>
<trkpt lat="56.566848009824753" lon="8.152523003518581">
<ele>7</ele>
</trkpt>
<trkpt lat="56.566909030079842" lon="8.152230978012085">
<ele>7</ele>
</trkpt>
<trkpt lat="56.566981030628085" lon="8.151954961940646">
<ele>7</ele>
</trkpt>
<trkpt lat="56.567026963457465" lon="8.151870975270867">
<ele>7</ele>
</trkpt>
<trkpt lat="56.566985975950956" lon="8.151778019964695">
<ele>7</ele>
</trkpt>
<trkpt lat="56.567168030887842" lon="8.15178900025785">
<ele>7</ele>
</trkpt>
<trkpt lat="56.567228967323899" lon="8.151839962229133">
<ele>7</ele>
</trkpt>
<trkpt lat="56.567360982298851" lon="8.151884973049164">
<ele>7</ele>
</trkpt>
<trkpt lat="56.567502971738577" lon="8.151980023831129">
<ele>7</ele>
</trkpt>
<trkpt lat="56.567576983943582" lon="8.152051018550992">
<ele>7</ele>
</trkpt>
<trkpt lat="56.567591987550259" lon="8.151775002479553">
<ele>7</ele>
</trkpt>
<trkpt lat="56.56759399920702" lon="8.151479959487915">
<ele>7</ele>
</trkpt>
<trkpt lat="56.567582013085485" lon="8.151436038315296">
<ele>7</ele>
</trkpt>
<trkpt lat="56.567566003650427" lon="8.151233028620482">
<ele>7</ele>
</trkpt>
<trkpt lat="56.567475982010365" lon="8.150647971779108">
<ele>7</ele>
</trkpt>
<trkpt lat="56.567447986453772" lon="8.150298027321696">
<ele>7</ele>
</trkpt>
<trkpt lat="56.567419990897179" lon="8.150249999016523">
<ele>7</ele>
</trkpt>
<trkpt lat="56.567431977018714" lon="8.150164000689983">
<ele>7</ele>
</trkpt>
<trkpt lat="56.567425020039082" lon="8.150030979886651">
<ele>7</ele>
</trkpt>
<trkpt lat="56.567448070272803" lon="8.149971887469292">
<ele>7</ele>
</trkpt>
<trkpt lat="56.567559968680143" lon="8.15000700764358">
<ele>6</ele>
</trkpt>
<trkpt lat="56.567650996148586" lon="8.150012958794832">
<ele>6</ele>
</trkpt>
<trkpt lat="56.567685026675463" lon="8.150041960179806">
<ele>6</ele>
</trkpt>
<trkpt lat="56.567828021943569" lon="8.150066016241908">
<ele>6</ele>
</trkpt>
<trkpt lat="56.568049974739552" lon="8.150108009576798">
<ele>6</ele>
</trkpt>
<trkpt lat="56.568164974451065" lon="8.150164000689983">
<ele>6</ele>
</trkpt>
<trkpt lat="56.568336971104145" lon="8.15019803121686">
<ele>6</ele>
</trkpt>
<trkpt lat="56.568433027714491" lon="8.150189984589815">
<ele>6</ele>
</trkpt>
<trkpt lat="56.568556996062398" lon="8.150131981819868">
<ele>7</ele>
</trkpt>
<trkpt lat="56.568683981895447" lon="8.150150002911687">
<ele>7</ele>
</trkpt>
<trkpt lat="56.568846004083753" lon="8.150212028995156">
<ele>7</ele>
</trkpt>
<trkpt lat="56.569004002958536" lon="8.15024103038013">
<ele>7</ele>
</trkpt>
<trkpt lat="56.569049013778567" lon="8.150075990706682">
<ele>7</ele>
</trkpt>
<trkpt lat="56.569031998515129" lon="8.149910029023886">
<ele>8</ele>
</trkpt>
<trkpt lat="56.569038033485413" lon="8.149913968518376">
<ele>8</ele>
</trkpt>
<trkpt lat="56.569054964929819" lon="8.149300999939442">
<ele>8</ele>
</trkpt>
<trkpt lat="56.5688849799335" lon="8.148399023339152">
<ele>8</ele>
</trkpt>
<trkpt lat="56.56838801689446" lon="8.145888978615403">
<ele>8</ele>
</trkpt>
<trkpt lat="56.56806699000299" lon="8.144700676202774">
<ele>8</ele>
</trkpt>
<trkpt lat="56.568013010546565" lon="8.142675021663308">
<ele>8</ele>
</trkpt>
<trkpt lat="56.567655019462109" lon="8.140824967995286">
<ele>8</ele>
</trkpt>
<trkpt lat="56.567537002265453" lon="8.139151018112898">
<ele>8</ele>
</trkpt>
<trkpt lat="56.567182028666139" lon="8.137991968542337">
<ele>8</ele>
</trkpt>
<trkpt lat="56.566874999552965" lon="8.136404016986489">
<ele>8</ele>
</trkpt>
<trkpt lat="56.566814985126257" lon="8.135809991508722">
<ele>8</ele>
</trkpt>
<trkpt lat="56.566460011526942" lon="8.134737024083734">
<ele>8</ele>
</trkpt>
<trkpt lat="56.565852491185069" lon="8.133329283446074">
<ele>8</ele>
</trkpt>
<trkpt lat="56.565549988299608" lon="8.132999036461115">
<ele>7</ele>
</trkpt>
<trkpt lat="56.565105160698295" lon="8.132627634331584">
<ele>7</ele>
</trkpt>
<trkpt lat="56.564999129623175" lon="8.132524117827416">
<ele>7</ele>
</trkpt>
<trkpt lat="56.565063754096627" lon="8.132287999615073">
<ele>7</ele>
</trkpt>
<trkpt lat="56.565228123217821" lon="8.131722137331963">
<ele>6</ele>
</trkpt>
<trkpt lat="56.565513024106622" lon="8.131072958931327">
<ele>6</ele>
</trkpt>
<trkpt lat="56.565891969949007" lon="8.130343984812498">
<ele>6</ele>
</trkpt>
<trkpt lat="56.566007807850838" lon="8.130247425287962">
<ele>6</ele>
</trkpt>
<trkpt lat="56.566058099269867" lon="8.130160085856915">
<ele>5</ele>
</trkpt>
<trkpt lat="56.566162034869194" lon="8.130080960690975">
<ele>5</ele>
</trkpt>
</trkseg>
</trk>
</gpx>
