<?xml version="1.0" encoding="UTF-8"?>
<gpx version="1.1"
creator="Smartprofil-Office - http://www.rother.de"
xmlns:xsi="http://www.w3.org/2001/XMLSchema-instance"
xmlns="http://www.topografix.com/GPX/1/1"
xsi:schemaLocation="http://www.topografix.com/GPX/1/1 http://www.topografix.com/GPX/1/1/gpx.xsd">
<metadata>

<bounds minlat="55.528525002300739" minlon="8.211737964302301" maxlat="55.54934699088335" maxlon="8.242427967488766"/>
</metadata>
<wpt lat="55.54934699088335" lon="8.221874032169581">
<ele>7</ele>
<name>34_Ho Klitplantage (1)</name>
<cmt></cmt>
<desc></desc>
<sym>Crossing</sym>
</wpt>

<wpt lat="55.544482972472906" lon="8.217041026800871">
<ele>24</ele>
<name>34_Jens Jessens Sande (2)</name>
<cmt></cmt>
<desc></desc>
<sym>Crossing</sym>
</wpt>

<wpt lat="55.539049990475178" lon="8.225690983235836">
<ele>8</ele>
<name>34_Skallingevej (3)</name>
<cmt></cmt>
<desc></desc>
<sym>Crossing</sym>
</wpt>

<wpt lat="55.537407975643873" lon="8.242426039651036">
<ele>6</ele>
<name>34_Ho Bugt (4)</name>
<cmt></cmt>
<desc></desc>
<sym>Crossing</sym>
</wpt>

<wpt lat="55.528707811608911" lon="8.237281395122409">
<ele>10</ele>
<name>34_Skallingenblick (5)</name>
<cmt></cmt>
<desc></desc>
<sym>Crossing</sym>
</wpt>

<wpt lat="55.533530004322529" lon="8.228636970743537">
<ele>5</ele>
<name>34_Abzweig (6)</name>
<cmt></cmt>
<desc></desc>
<sym>Crossing</sym>
</wpt>

<wpt lat="55.538351023569703" lon="8.217950966209173">
<ele>4</ele>
<name>34_Kreuzung (7)</name>
<cmt></cmt>
<desc></desc>
<sym>Crossing</sym>
</wpt>

<trk>
<name>DAN_34_Ho</name>
<trkseg>
<trkpt lat="55.54934699088335" lon="8.221874032169581">
<ele>7</ele>
</trkpt>
<trkpt lat="55.549201648682356" lon="8.22190722450614">
<ele>7</ele>
</trkpt>
<trkpt lat="55.549013977870345" lon="8.221960030496121">
<ele>7</ele>
</trkpt>
<trkpt lat="55.54893895983696" lon="8.222052985802293">
<ele>7</ele>
</trkpt>
<trkpt lat="55.548900989815593" lon="8.222122974693775">
<ele>7</ele>
</trkpt>
<trkpt lat="55.548820020630956" lon="8.222322966903448">
<ele>8</ele>
</trkpt>
<trkpt lat="55.548587758094072" lon="8.222924871370196">
<ele>8</ele>
</trkpt>
<trkpt lat="55.548485331237316" lon="8.223358215764165">
<ele>8</ele>
</trkpt>
<trkpt lat="55.548579040914774" lon="8.22357002645731">
<ele>8</ele>
</trkpt>
<trkpt lat="55.548576023429632" lon="8.223697012290359">
<ele>8</ele>
</trkpt>
<trkpt lat="55.548540987074375" lon="8.223839001730084">
<ele>8</ele>
</trkpt>
<trkpt lat="55.548347029834986" lon="8.224124992266297">
<ele>8</ele>
</trkpt>
<trkpt lat="55.548199005424976" lon="8.224269999191165">
<ele>8</ele>
</trkpt>
<trkpt lat="55.548120969906449" lon="8.224480971693993">
<ele>8</ele>
</trkpt>
<trkpt lat="55.547972023487091" lon="8.224619021639228">
<ele>8</ele>
</trkpt>
<trkpt lat="55.547742024064064" lon="8.224769979715347">
<ele>8</ele>
</trkpt>
<trkpt lat="55.547710005193949" lon="8.224720023572445">
<ele>7</ele>
</trkpt>
<trkpt lat="55.547613278031349" lon="8.224518606439233">
<ele>7</ele>
</trkpt>
<trkpt lat="55.547462990507483" lon="8.223821986466646">
<ele>7</ele>
</trkpt>
<trkpt lat="55.547403814271092" lon="8.223251514136791">
<ele>7</ele>
</trkpt>
<trkpt lat="55.547247994691133" lon="8.222727980464697">
<ele>7</ele>
</trkpt>
<trkpt lat="55.547247994691133" lon="8.222211990505457">
<ele>7</ele>
</trkpt>
<trkpt lat="55.547185968607664" lon="8.22166096419096">
<ele>7</ele>
</trkpt>
<trkpt lat="55.54719896055758" lon="8.221342032775283">
<ele>8</ele>
</trkpt>
<trkpt lat="55.547146992757916" lon="8.221064005047083">
<ele>8</ele>
</trkpt>
<trkpt lat="55.547026544809341" lon="8.220834173262119">
<ele>8</ele>
</trkpt>
<trkpt lat="55.546941971406341" lon="8.220669971778989">
<ele>8</ele>
</trkpt>
<trkpt lat="55.546923028305173" lon="8.220642982050777">
<ele>8</ele>
</trkpt>
<trkpt lat="55.546888997778296" lon="8.220389010384679">
<ele>9</ele>
</trkpt>
<trkpt lat="55.546816997230053" lon="8.220221037045121">
<ele>9</ele>
</trkpt>
<trkpt lat="55.54680903442204" lon="8.220104025676847">
<ele>9</ele>
</trkpt>
<trkpt lat="55.546714989468455" lon="8.21975676342845">
<ele>10</ele>
</trkpt>
<trkpt lat="55.546554895117879" lon="8.219293244183064">
<ele>12</ele>
</trkpt>
<trkpt lat="55.546317687258124" lon="8.218581788241863">
<ele>13</ele>
</trkpt>
<trkpt lat="55.545943016186357" lon="8.218553960323334">
<ele>14</ele>
</trkpt>
<trkpt lat="55.545495003461838" lon="8.218547003343701">
<ele>15</ele>
</trkpt>
<trkpt lat="55.54515402764082" lon="8.218635013327003">
<ele>16</ele>
</trkpt>
<trkpt lat="55.544983958825469" lon="8.218639036640525">
<ele>18</ele>
</trkpt>
<trkpt lat="55.544670978561044" lon="8.218059008941054">
<ele>19</ele>
</trkpt>
<trkpt lat="55.544586991891265" lon="8.217844013124704">
<ele>20</ele>
</trkpt>
<trkpt lat="55.54448900744319" lon="8.21740597486496">
<ele>22</ele>
</trkpt>
<trkpt lat="55.544509962201118" lon="8.2171690184623">
<ele>23</ele>
</trkpt>
<trkpt lat="55.544482972472906" lon="8.217041026800871">
<ele>24</ele>
</trkpt>
<trkpt lat="55.544433016330004" lon="8.217044966295362">
<ele>23</ele>
</trkpt>
<trkpt lat="55.544395968317986" lon="8.217100035399199">
<ele>22</ele>
</trkpt>
<trkpt lat="55.544117018580437" lon="8.217217968776822">
<ele>22</ele>
</trkpt>
<trkpt lat="55.544079970568419" lon="8.217270020395517">
<ele>21</ele>
</trkpt>
<trkpt lat="55.543986009433866" lon="8.217292986810207">
<ele>20</ele>
</trkpt>
<trkpt lat="55.543915014714003" lon="8.217374039813876">
<ele>19</ele>
</trkpt>
<trkpt lat="55.543871009722352" lon="8.217515023425221">
<ele>18</ele>
</trkpt>
<trkpt lat="55.543833961710334" lon="8.217566991224885">
<ele>18</ele>
</trkpt>
<trkpt lat="55.543726002797484" lon="8.217674028128386">
<ele>17</ele>
</trkpt>
<trkpt lat="55.543540008366108" lon="8.21791903115809">
<ele>16</ele>
</trkpt>
<trkpt lat="55.543506983667612" lon="8.218346005305648">
<ele>15</ele>
</trkpt>
<trkpt lat="55.54354595951736" lon="8.218473996967077">
<ele>15</ele>
</trkpt>
<trkpt lat="55.543502038344741" lon="8.218571981415153">
<ele>14</ele>
</trkpt>
<trkpt lat="55.542971715331078" lon="8.219046983867884">
<ele>13</ele>
</trkpt>
<trkpt lat="55.542758982628584" lon="8.219293998554349">
<ele>12</ele>
</trkpt>
<trkpt lat="55.54268597625196" lon="8.219391983002424">
<ele>12</ele>
</trkpt>
<trkpt lat="55.542469974607229" lon="8.219500025734305">
<ele>11</ele>
</trkpt>
<trkpt lat="55.542265037074685" lon="8.219685014337301">
<ele>10</ele>
</trkpt>
<trkpt lat="55.541748041287065" lon="8.219739999622107">
<ele>10</ele>
</trkpt>
<trkpt lat="55.5414819996804" lon="8.21985399350524">
<ele>9</ele>
</trkpt>
<trkpt lat="55.541305979713798" lon="8.219802025705576">
<ele>9</ele>
</trkpt>
<trkpt lat="55.540842963382602" lon="8.219862040132284">
<ele>9</ele>
</trkpt>
<trkpt lat="55.540507016703486" lon="8.219953989610076">
<ele>9</ele>
</trkpt>
<trkpt lat="55.540310963988304" lon="8.220183989033103">
<ele>9</ele>
</trkpt>
<trkpt lat="55.540266036987305" lon="8.220389010384679">
<ele>8</ele>
</trkpt>
<trkpt lat="55.540195964276791" lon="8.220578022301197">
<ele>8</ele>
</trkpt>
<trkpt lat="55.540026985108852" lon="8.220877004787326">
<ele>8</ele>
</trkpt>
<trkpt lat="55.53993402980268" lon="8.221115972846746">
<ele>8</ele>
</trkpt>
<trkpt lat="55.5397620331496" lon="8.221856011077762">
<ele>8</ele>
</trkpt>
<trkpt lat="55.5396359693259" lon="8.222202016040683">
<ele>8</ele>
</trkpt>
<trkpt lat="55.539533961564302" lon="8.222564030438662">
<ele>8</ele>
</trkpt>
<trkpt lat="55.539354002103209" lon="8.22350699454546">
<ele>8</ele>
</trkpt>
<trkpt lat="55.539317959919572" lon="8.223825003951788">
<ele>8</ele>
</trkpt>
<trkpt lat="55.539105981588364" lon="8.224826976656914">
<ele>8</ele>
</trkpt>
<trkpt lat="55.539063988253474" lon="8.225285969674587">
<ele>8</ele>
</trkpt>
<trkpt lat="55.539067005738616" lon="8.225472969934344">
<ele>8</ele>
</trkpt>
<trkpt lat="55.539049990475178" lon="8.225690983235836">
<ele>8</ele>
</trkpt>
<trkpt lat="55.538984946906567" lon="8.225812269374728">
<ele>8</ele>
</trkpt>
<trkpt lat="55.538855027407408" lon="8.226089961826801">
<ele>8</ele>
</trkpt>
<trkpt lat="55.538610024377704" lon="8.22651400230825">
<ele>8</ele>
</trkpt>
<trkpt lat="55.538398968055844" lon="8.226980958133936">
<ele>8</ele>
</trkpt>
<trkpt lat="55.537997977808118" lon="8.227611025795341">
<ele>8</ele>
</trkpt>
<trkpt lat="55.53785297088325" lon="8.227930041030049">
<ele>9</ele>
</trkpt>
<trkpt lat="55.537783987820148" lon="8.228172026574612">
<ele>9</ele>
</trkpt>
<trkpt lat="55.537687009200454" lon="8.22840697132051">
<ele>9</ele>
</trkpt>
<trkpt lat="55.537445023655891" lon="8.228849032893777">
<ele>9</ele>
</trkpt>
<trkpt lat="55.537322983145714" lon="8.229325041174889">
<ele>9</ele>
</trkpt>
<trkpt lat="55.537102958187461" lon="8.229968016967177">
<ele>9</ele>
</trkpt>
<trkpt lat="55.536916963756084" lon="8.230427009984851">
<ele>9</ele>
</trkpt>
<trkpt lat="55.536874970421195" lon="8.230595989152789">
<ele>9</ele>
</trkpt>
<trkpt lat="55.536958035081625" lon="8.230753988027573">
<ele>9</ele>
</trkpt>
<trkpt lat="55.537178982049227" lon="8.230976024642587">
<ele>10</ele>
</trkpt>
<trkpt lat="55.537482993677258" lon="8.231209963560104">
<ele>10</ele>
</trkpt>
<trkpt lat="55.537539990618825" lon="8.231966011226177">
<ele>10</ele>
</trkpt>
<trkpt lat="55.537601010873914" lon="8.232306987047195">
<ele>10</ele>
</trkpt>
<trkpt lat="55.537692960351706" lon="8.23266196064651">
<ele>10</ele>
</trkpt>
<trkpt lat="55.537741994485259" lon="8.232780983671546">
<ele>10</ele>
</trkpt>
<trkpt lat="55.53791499696672" lon="8.233058005571365">
<ele>10</ele>
</trkpt>
<trkpt lat="55.538009963929653" lon="8.23328297585249">
<ele>10</ele>
</trkpt>
<trkpt lat="55.53825899027288" lon="8.23347601108253">
<ele>10</ele>
</trkpt>
<trkpt lat="55.538382958620787" lon="8.233684971928597">
<ele>10</ele>
</trkpt>
<trkpt lat="55.538396034389734" lon="8.233743980526924">
<ele>10</ele>
</trkpt>
<trkpt lat="55.538381030783057" lon="8.234054027125239">
<ele>9</ele>
</trkpt>
<trkpt lat="55.538341971114278" lon="8.23422996327281">
<ele>9</ele>
</trkpt>
<trkpt lat="55.538256978616118" lon="8.234483012929559">
<ele>9</ele>
</trkpt>
<trkpt lat="55.53823602385819" lon="8.234496004879475">
<ele>9</ele>
</trkpt>
<trkpt lat="55.538075007498264" lon="8.234398020431399">
<ele>9</ele>
</trkpt>
<trkpt lat="55.537922037765384" lon="8.234240021556616">
<ele>9</ele>
</trkpt>
<trkpt lat="55.537104969844222" lon="8.233645996078849">
<ele>9</ele>
</trkpt>
<trkpt lat="55.537050990387797" lon="8.233618000522256">
<ele>9</ele>
</trkpt>
<trkpt lat="55.536997010931373" lon="8.233807012438774">
<ele>9</ele>
</trkpt>
<trkpt lat="55.536990975961089" lon="8.234189981594682">
<ele>8</ele>
</trkpt>
<trkpt lat="55.536963986232877" lon="8.234470020979643">
<ele>8</ele>
</trkpt>
<trkpt lat="55.536981001496315" lon="8.234731033444405">
<ele>8</ele>
</trkpt>
<trkpt lat="55.536933979019523" lon="8.235160019248724">
<ele>8</ele>
</trkpt>
<trkpt lat="55.536950994282961" lon="8.235339978709817">
<ele>8</ele>
</trkpt>
<trkpt lat="55.537079991772771" lon="8.23573300614953">
<ele>8</ele>
</trkpt>
<trkpt lat="55.537104969844222" lon="8.23586200363934">
<ele>8</ele>
</trkpt>
<trkpt lat="55.537093989551067" lon="8.236403977498412">
<ele>8</ele>
</trkpt>
<trkpt lat="55.537111004814506" lon="8.23672198690474">
<ele>8</ele>
</trkpt>
<trkpt lat="55.537280989810824" lon="8.237019963562489">
<ele>8</ele>
</trkpt>
<trkpt lat="55.537403030321002" lon="8.237093975767493">
<ele>8</ele>
</trkpt>
<trkpt lat="55.537372017279267" lon="8.237531008198857">
<ele>8</ele>
</trkpt>
<trkpt lat="55.537382997572422" lon="8.237733012065291">
<ele>8</ele>
</trkpt>
<trkpt lat="55.537476036697626" lon="8.238489981740713">
<ele>8</ele>
</trkpt>
<trkpt lat="55.537490034475923" lon="8.239008989185095">
<ele>8</ele>
</trkpt>
<trkpt lat="55.537587013095617" lon="8.239967040717602">
<ele>8</ele>
</trkpt>
<trkpt lat="55.53759497590363" lon="8.240548996254802">
<ele>8</ele>
</trkpt>
<trkpt lat="55.537659013643861" lon="8.240844961255789">
<ele>7</ele>
</trkpt>
<trkpt lat="55.537715004757047" lon="8.241237988695502">
<ele>7</ele>
</trkpt>
<trkpt lat="55.537659013643861" lon="8.241651970893145">
<ele>7</ele>
</trkpt>
<trkpt lat="55.53759103640914" lon="8.241959000006318">
<ele>7</ele>
</trkpt>
<trkpt lat="55.537520041689277" lon="8.242226969450712">
<ele>6</ele>
</trkpt>
<trkpt lat="55.537407975643873" lon="8.242426039651036">
<ele>6</ele>
</trkpt>
<trkpt lat="55.537085020914674" lon="8.242427967488766">
<ele>6</ele>
</trkpt>
<trkpt lat="55.536861978471279" lon="8.24232998304069">
<ele>6</ele>
</trkpt>
<trkpt lat="55.536438021808863" lon="8.242340041324496">
<ele>6</ele>
</trkpt>
<trkpt lat="55.536087993532419" lon="8.242195034399629">
<ele>6</ele>
</trkpt>
<trkpt lat="55.535948015749454" lon="8.242173995822668">
<ele>6</ele>
</trkpt>
<trkpt lat="55.535537973046303" lon="8.242024965584278">
<ele>5</ele>
</trkpt>
<trkpt lat="55.535130025818944" lon="8.241991018876433">
<ele>5</ele>
</trkpt>
<trkpt lat="55.534903965890408" lon="8.241926981136203">
<ele>5</ele>
</trkpt>
<trkpt lat="55.5342429690063" lon="8.241994036361575">
<ele>5</ele>
</trkpt>
<trkpt lat="55.534012969583273" lon="8.241932010278106">
<ele>5</ele>
</trkpt>
<trkpt lat="55.532698016613722" lon="8.241740986704826">
<ele>5</ele>
</trkpt>
<trkpt lat="55.531606022268534" lon="8.241530014201999">
<ele>6</ele>
</trkpt>
<trkpt lat="55.531385997310281" lon="8.241551974788308">
<ele>6</ele>
</trkpt>
<trkpt lat="55.530570019036531" lon="8.241388024762273">
<ele>7</ele>
</trkpt>
<trkpt lat="55.530241029337049" lon="8.241353994235396">
<ele>7</ele>
</trkpt>
<trkpt lat="55.530032990500331" lon="8.241282999515533">
<ele>7</ele>
</trkpt>
<trkpt lat="55.529917990788817" lon="8.241178980097175">
<ele>8</ele>
</trkpt>
<trkpt lat="55.529808020219207" lon="8.241004971787334">
<ele>8</ele>
</trkpt>
<trkpt lat="55.529723027721047" lon="8.240741025656462">
<ele>9</ele>
</trkpt>
<trkpt lat="55.529592018574476" lon="8.240514965727925">
<ele>9</ele>
</trkpt>
<trkpt lat="55.529443994164467" lon="8.240413041785359">
<ele>9</ele>
</trkpt>
<trkpt lat="55.52927803248167" lon="8.240142976865172">
<ele>9</ele>
</trkpt>
<trkpt lat="55.529255988076329" lon="8.240019008517265">
<ele>9</ele>
</trkpt>
<trkpt lat="55.52919203415513" lon="8.239101022481918">
<ele>9</ele>
</trkpt>
<trkpt lat="55.52919396199286" lon="8.238942017778754">
<ele>9</ele>
</trkpt>
<trkpt lat="55.52923696115613" lon="8.238760968670249">
<ele>9</ele>
</trkpt>
<trkpt lat="55.529207959771156" lon="8.238210026174784">
<ele>10</ele>
</trkpt>
<trkpt lat="55.529158003628254" lon="8.238038029521704">
<ele>10</ele>
</trkpt>
<trkpt lat="55.529048033058643" lon="8.237866032868624">
<ele>10</ele>
</trkpt>
<trkpt lat="55.529018025845289" lon="8.237777017056942">
<ele>10</ele>
</trkpt>
<trkpt lat="55.528952982276678" lon="8.237576019018889">
<ele>10</ele>
</trkpt>
<trkpt lat="55.528830019757152" lon="8.237468982115388">
<ele>10</ele>
</trkpt>
<trkpt lat="55.528707811608911" lon="8.237281395122409">
<ele>10</ele>
</trkpt>
<trkpt lat="55.52872097119689" lon="8.237166982144117">
<ele>10</ele>
</trkpt>
<trkpt lat="55.528664980083704" lon="8.236948968842626">
<ele>10</ele>
</trkpt>
<trkpt lat="55.52867503836751" lon="8.236840004101396">
<ele>10</ele>
</trkpt>
<trkpt lat="55.528685012832284" lon="8.236544039100409">
<ele>10</ele>
</trkpt>
<trkpt lat="55.528727006167173" lon="8.236686028540134">
<ele>10</ele>
</trkpt>
<trkpt lat="55.528733041137457" lon="8.236920973286033">
<ele>10</ele>
</trkpt>
<trkpt lat="55.528773022815585" lon="8.237127000465989">
<ele>10</ele>
</trkpt>
<trkpt lat="55.528805963695049" lon="8.237192966043949">
<ele>10</ele>
</trkpt>
<trkpt lat="55.528863966464996" lon="8.237377032637596">
<ele>10</ele>
</trkpt>
<trkpt lat="55.529055995866656" lon="8.237306037917733">
<ele>10</ele>
</trkpt>
<trkpt lat="55.529024982824922" lon="8.236923990771174">
<ele>10</ele>
</trkpt>
<trkpt lat="55.528906965628266" lon="8.236445970833302">
<ele>9</ele>
</trkpt>
<trkpt lat="55.52897896617651" lon="8.236158974468708">
<ele>9</ele>
</trkpt>
<trkpt lat="55.529010985046625" lon="8.235725965350866">
<ele>9</ele>
</trkpt>
<trkpt lat="55.529004028066993" lon="8.235621023923159">
<ele>8</ele>
</trkpt>
<trkpt lat="55.528906965628266" lon="8.23540803976357">
<ele>8</ele>
</trkpt>
<trkpt lat="55.528771011158824" lon="8.235178040340543">
<ele>8</ele>
</trkpt>
<trkpt lat="55.528563978150487" lon="8.234818959608674">
<ele>8</ele>
</trkpt>
<trkpt lat="55.528525002300739" lon="8.234419981017709">
<ele>7</ele>
</trkpt>
<trkpt lat="55.528542017564178" lon="8.234046986326575">
<ele>7</ele>
</trkpt>
<trkpt lat="55.528808981180191" lon="8.233117014169693">
<ele>7</ele>
</trkpt>
<trkpt lat="55.52893403917551" lon="8.232433972880244">
<ele>7</ele>
</trkpt>
<trkpt lat="55.529082985594869" lon="8.231816980987787">
<ele>7</ele>
</trkpt>
<trkpt lat="55.529198991134763" lon="8.231486985459924">
<ele>7</ele>
</trkpt>
<trkpt lat="55.529453968629241" lon="8.230913998559117">
<ele>6</ele>
</trkpt>
<trkpt lat="55.529509037733078" lon="8.230748036876321">
<ele>6</ele>
</trkpt>
<trkpt lat="55.52957902662456" lon="8.23057796806097">
<ele>6</ele>
</trkpt>
<trkpt lat="55.529767032712698" lon="8.230164991691709">
<ele>6</ele>
</trkpt>
<trkpt lat="55.529917990788817" lon="8.22945998981595">
<ele>6</ele>
</trkpt>
<trkpt lat="55.529926959425211" lon="8.229210963472724">
<ele>6</ele>
</trkpt>
<trkpt lat="55.530038019642234" lon="8.228631019592285">
<ele>6</ele>
</trkpt>
<trkpt lat="55.53015997633338" lon="8.228285014629364">
<ele>6</ele>
</trkpt>
<trkpt lat="55.530252009630203" lon="8.228087034076452">
<ele>6</ele>
</trkpt>
<trkpt lat="55.530473040416837" lon="8.22767598554492">
<ele>6</ele>
</trkpt>
<trkpt lat="55.530550992116332" lon="8.227586969733238">
<ele>6</ele>
</trkpt>
<trkpt lat="55.530671020969748" lon="8.227317994460464">
<ele>5</ele>
</trkpt>
<trkpt lat="55.530714020133018" lon="8.226842992007732">
<ele>5</ele>
</trkpt>
<trkpt lat="55.530707985162735" lon="8.226337982341647">
<ele>5</ele>
</trkpt>
<trkpt lat="55.5308479629457" lon="8.22619398124516">
<ele>5</ele>
</trkpt>
<trkpt lat="55.530914012342691" lon="8.226199010387063">
<ele>5</ele>
</trkpt>
<trkpt lat="55.530972015112638" lon="8.226242009550333">
<ele>5</ele>
</trkpt>
<trkpt lat="55.531790005043149" lon="8.22580698877573">
<ele>5</ele>
</trkpt>
<trkpt lat="55.532085970044136" lon="8.225706992670894">
<ele>5</ele>
</trkpt>
<trkpt lat="55.532192001119256" lon="8.225793996825814">
<ele>5</ele>
</trkpt>
<trkpt lat="55.532247992232442" lon="8.225950989872217">
<ele>6</ele>
</trkpt>
<trkpt lat="55.532255033031106" lon="8.226086022332311">
<ele>6</ele>
</trkpt>
<trkpt lat="55.53250003606081" lon="8.226113012060523">
<ele>6</ele>
</trkpt>
<trkpt lat="55.532644959166646" lon="8.226131033152342">
<ele>6</ele>
</trkpt>
<trkpt lat="55.532765993848443" lon="8.226058026775718">
<ele>6</ele>
</trkpt>
<trkpt lat="55.53280396386981" lon="8.226221976801753">
<ele>6</ele>
</trkpt>
<trkpt lat="55.532819973304868" lon="8.226307975128293">
<ele>6</ele>
</trkpt>
<trkpt lat="55.532897002995014" lon="8.226474020630121">
<ele>6</ele>
</trkpt>
<trkpt lat="55.532978978008032" lon="8.226719023659825">
<ele>6</ele>
</trkpt>
<trkpt lat="55.533039998263121" lon="8.226979030296207">
<ele>6</ele>
</trkpt>
<trkpt lat="55.533120967447758" lon="8.227063016965985">
<ele>6</ele>
</trkpt>
<trkpt lat="55.533153992146254" lon="8.227250017225742">
<ele>5</ele>
</trkpt>
<trkpt lat="55.533153992146254" lon="8.227372979745269">
<ele>5</ele>
</trkpt>
<trkpt lat="55.533248037099838" lon="8.227759972214699">
<ele>5</ele>
</trkpt>
<trkpt lat="55.533269997686148" lon="8.228143025189638">
<ele>5</ele>
</trkpt>
<trkpt lat="55.533370999619365" lon="8.228461034595966">
<ele>5</ele>
</trkpt>
<trkpt lat="55.533530004322529" lon="8.228636970743537">
<ele>5</ele>
</trkpt>
<trkpt lat="55.533573003485799" lon="8.228407977148891">
<ele>5</ele>
</trkpt>
<trkpt lat="55.533657995983958" lon="8.228101031854749">
<ele>5</ele>
</trkpt>
<trkpt lat="55.533721027895808" lon="8.227604990825057">
<ele>5</ele>
</trkpt>
<trkpt lat="55.533795040100813" lon="8.227306008338928">
<ele>5</ele>
</trkpt>
<trkpt lat="55.534079018980265" lon="8.227009037509561">
<ele>5</ele>
</trkpt>
<trkpt lat="55.534254033118486" lon="8.226909041404724">
<ele>5</ele>
</trkpt>
<trkpt lat="55.534693999215961" lon="8.226874005049467">
<ele>5</ele>
</trkpt>
<trkpt lat="55.534892985597253" lon="8.226905018091202">
<ele>5</ele>
</trkpt>
<trkpt lat="55.535089038312435" lon="8.2269879989326">
<ele>5</ele>
</trkpt>
<trkpt lat="55.535307973623276" lon="8.227126970887184">
<ele>5</ele>
</trkpt>
<trkpt lat="55.535693038254976" lon="8.227144991979003">
<ele>5</ele>
</trkpt>
<trkpt lat="55.535738971084356" lon="8.227098975330591">
<ele>5</ele>
</trkpt>
<trkpt lat="55.53598296828568" lon="8.227171981707215">
<ele>5</ele>
</trkpt>
<trkpt lat="55.53621900267899" lon="8.227181034162641">
<ele>5</ele>
</trkpt>
<trkpt lat="55.536355040967464" lon="8.227291004732251">
<ele>4</ele>
</trkpt>
<trkpt lat="55.536639019846916" lon="8.227319000288844">
<ele>4</ele>
</trkpt>
<trkpt lat="55.536710014566779" lon="8.227096041664481">
<ele>4</ele>
</trkpt>
<trkpt lat="55.536725018173456" lon="8.226672001183033">
<ele>4</ele>
</trkpt>
<trkpt lat="55.536744967103004" lon="8.226553983986378">
<ele>4</ele>
</trkpt>
<trkpt lat="55.536743961274624" lon="8.226159028708935">
<ele>4</ele>
</trkpt>
<trkpt lat="55.536758964881301" lon="8.226015027612448">
<ele>4</ele>
</trkpt>
<trkpt lat="55.536783020943403" lon="8.22561202570796">
<ele>4</ele>
</trkpt>
<trkpt lat="55.536794001236558" lon="8.225489985197783">
<ele>4</ele>
</trkpt>
<trkpt lat="55.53686298429966" lon="8.224999979138374">
<ele>4</ele>
</trkpt>
<trkpt lat="55.536850998178124" lon="8.224650034680963">
<ele>4</ele>
</trkpt>
<trkpt lat="55.536869019269943" lon="8.224018039181829">
<ele>5</ele>
</trkpt>
<trkpt lat="55.536916963756084" lon="8.223448991775513">
<ele>5</ele>
</trkpt>
<trkpt lat="55.536913024261594" lon="8.223095024004579">
<ele>5</ele>
</trkpt>
<trkpt lat="55.536932973191142" lon="8.222859995439649">
<ele>5</ele>
</trkpt>
<trkpt lat="55.536947976797819" lon="8.222749019041657">
<ele>5</ele>
</trkpt>
<trkpt lat="55.536976978182793" lon="8.222557995468378">
<ele>5</ele>
</trkpt>
<trkpt lat="55.537027018144727" lon="8.222480965778232">
<ele>5</ele>
</trkpt>
<trkpt lat="55.537057025358081" lon="8.222140995785594">
<ele>5</ele>
</trkpt>
<trkpt lat="55.537045039236546" lon="8.221962964162231">
<ele>5</ele>
</trkpt>
<trkpt lat="55.537086026743054" lon="8.221461977809668">
<ele>4</ele>
</trkpt>
<trkpt lat="55.537084015086293" lon="8.220834005624056">
<ele>4</ele>
</trkpt>
<trkpt lat="55.537135982885957" lon="8.220538040623069">
<ele>4</ele>
</trkpt>
<trkpt lat="55.53724997676909" lon="8.22006999514997">
<ele>4</ele>
</trkpt>
<trkpt lat="55.53727000951767" lon="8.220009980723262">
<ele>4</ele>
</trkpt>
<trkpt lat="55.537360031157732" lon="8.219712004065514">
<ele>4</ele>
</trkpt>
<trkpt lat="55.537629006430507" lon="8.219058969989419">
<ele>4</ele>
</trkpt>
<trkpt lat="55.537835033610463" lon="8.218764010816813">
<ele>4</ele>
</trkpt>
<trkpt lat="55.537860011681914" lon="8.218686981126666">
<ele>4</ele>
</trkpt>
<trkpt lat="55.538013987243176" lon="8.218480031937361">
<ele>4</ele>
</trkpt>
<trkpt lat="55.538052041083574" lon="8.218394033610821">
<ele>4</ele>
</trkpt>
<trkpt lat="55.538201993331313" lon="8.218218013644218">
<ele>4</ele>
</trkpt>
<trkpt lat="55.538351023569703" lon="8.217950966209173">
<ele>4</ele>
</trkpt>
<trkpt lat="55.538383964449167" lon="8.217894975095987">
<ele>4</ele>
</trkpt>
<trkpt lat="55.538477003574371" lon="8.217819035053253">
<ele>4</ele>
</trkpt>
<trkpt lat="55.538887968286872" lon="8.217586018145084">
<ele>4</ele>
</trkpt>
<trkpt lat="55.539132887497544" lon="8.217453081160784">
<ele>4</ele>
</trkpt>
<trkpt lat="55.539375962689519" lon="8.217129958793521">
<ele>4</ele>
</trkpt>
<trkpt lat="55.539456009864807" lon="8.216965002939105">
<ele>5</ele>
</trkpt>
<trkpt lat="55.5394840054214" lon="8.216843968257308">
<ele>5</ele>
</trkpt>
<trkpt lat="55.539503032341599" lon="8.216638192534447">
<ele>5</ele>
</trkpt>
<trkpt lat="55.539529016241431" lon="8.216425962746143">
<ele>5</ele>
</trkpt>
<trkpt lat="55.53961300291121" lon="8.216014998033643">
<ele>5</ele>
</trkpt>
<trkpt lat="55.539700007066131" lon="8.215791033580899">
<ele>5</ele>
</trkpt>
<trkpt lat="55.539806038141251" lon="8.215662036091089">
<ele>5</ele>
</trkpt>
<trkpt lat="55.539931012317538" lon="8.215447962284088">
<ele>5</ele>
</trkpt>
<trkpt lat="55.540095968171954" lon="8.215038003399968">
<ele>5</ele>
</trkpt>
<trkpt lat="55.540123963728547" lon="8.215021993964911">
<ele>4</ele>
</trkpt>
<trkpt lat="55.54036402143538" lon="8.215062981471419">
<ele>4</ele>
</trkpt>
<trkpt lat="55.540692005306482" lon="8.215217040851712">
<ele>4</ele>
</trkpt>
<trkpt lat="55.54075101390481" lon="8.215241013094783">
<ele>4</ele>
</trkpt>
<trkpt lat="55.540846902877092" lon="8.215260542929173">
<ele>4</ele>
</trkpt>
<trkpt lat="55.540886968374252" lon="8.215245958417654">
<ele>4</ele>
</trkpt>
<trkpt lat="55.541085032746196" lon="8.215303039178252">
<ele>4</ele>
</trkpt>
<trkpt lat="55.541390972211957" lon="8.215333968400955">
<ele>4</ele>
</trkpt>
<trkpt lat="55.541475964710116" lon="8.215374033898115">
<ele>4</ele>
</trkpt>
<trkpt lat="55.541650978848338" lon="8.215335980057716">
<ele>4</ele>
</trkpt>
<trkpt lat="55.541896987706423" lon="8.215481992810965">
<ele>4</ele>
</trkpt>
<trkpt lat="55.541967982426286" lon="8.215481992810965">
<ele>5</ele>
</trkpt>
<trkpt lat="55.542253972962499" lon="8.215668993070722">
<ele>5</ele>
</trkpt>
<trkpt lat="55.542527977377176" lon="8.21574904024601">
<ele>5</ele>
</trkpt>
<trkpt lat="55.542633002623916" lon="8.215792961418629">
<ele>5</ele>
</trkpt>
<trkpt lat="55.542828971520066" lon="8.215836966410279">
<ele>5</ele>
</trkpt>
<trkpt lat="55.542926033958793" lon="8.215811988338828">
<ele>5</ele>
</trkpt>
<trkpt lat="55.5431570392102" lon="8.215682990849018">
<ele>5</ele>
</trkpt>
<trkpt lat="55.54330799728632" lon="8.215543013066053">
<ele>5</ele>
</trkpt>
<trkpt lat="55.543813006952405" lon="8.215386020019651">
<ele>5</ele>
</trkpt>
<trkpt lat="55.544236963614821" lon="8.215210000053048">
<ele>5</ele>
</trkpt>
<trkpt lat="55.544713977724314" lon="8.214916968718171">
<ele>5</ele>
</trkpt>
<trkpt lat="55.54500600323081" lon="8.214847985655069">
<ele>5</ele>
</trkpt>
<trkpt lat="55.54524689912796" lon="8.214609017595649">
<ele>5</ele>
</trkpt>
<trkpt lat="55.545333987101912" lon="8.214501980692148">
<ele>5</ele>
</trkpt>
<trkpt lat="55.545381009578705" lon="8.214395027607679">
<ele>5</ele>
</trkpt>
<trkpt lat="55.545698013156652" lon="8.213814999908209">
<ele>5</ele>
</trkpt>
<trkpt lat="55.545831033959985" lon="8.213630011305213">
<ele>5</ele>
</trkpt>
<trkpt lat="55.545955002307892" lon="8.213505959138274">
<ele>5</ele>
</trkpt>
<trkpt lat="55.546143008396029" lon="8.213191973045468">
<ele>5</ele>
</trkpt>
<trkpt lat="55.546317016705871" lon="8.212847979739308">
<ele>6</ele>
</trkpt>
<trkpt lat="55.546448025852442" lon="8.212488982826471">
<ele>6</ele>
</trkpt>
<trkpt lat="55.546513572335243" lon="8.212304916232824">
<ele>6</ele>
</trkpt>
<trkpt lat="55.546541986986995" lon="8.212207015603781">
<ele>6</ele>
</trkpt>
<trkpt lat="55.546636031940579" lon="8.211952960118651">
<ele>6</ele>
</trkpt>
<trkpt lat="55.546661010012031" lon="8.211809964850545">
<ele>6</ele>
</trkpt>
<trkpt lat="55.546760000288486" lon="8.211737964302301">
<ele>6</ele>
</trkpt>
<trkpt lat="55.547073986381292" lon="8.211998976767063">
<ele>6</ele>
</trkpt>
<trkpt lat="55.547259142622352" lon="8.212162591516972">
<ele>6</ele>
</trkpt>
<trkpt lat="55.547374980524182" lon="8.212274992838502">
<ele>6</ele>
</trkpt>
<trkpt lat="55.547443963587284" lon="8.212284967303276">
<ele>6</ele>
</trkpt>
<trkpt lat="55.547557035461068" lon="8.212402984499931">
<ele>7</ele>
</trkpt>
<trkpt lat="55.547666000202298" lon="8.212556038051844">
<ele>7</ele>
</trkpt>
<trkpt lat="55.547719057649374" lon="8.21277379989624">
<ele>7</ele>
</trkpt>
<trkpt lat="55.547613110393286" lon="8.213190967217088">
<ele>7</ele>
</trkpt>
<trkpt lat="55.547578912228346" lon="8.213113350793719">
<ele>7</ele>
</trkpt>
<trkpt lat="55.547441532835364" lon="8.213625904172659">
<ele>7</ele>
</trkpt>
<trkpt lat="55.547313038259745" lon="8.21411800570786">
<ele>7</ele>
</trkpt>
<trkpt lat="55.547188986092806" lon="8.214609017595649">
<ele>7</ele>
</trkpt>
<trkpt lat="55.547058815136552" lon="8.215119894593954">
<ele>7</ele>
</trkpt>
<trkpt lat="55.546982036903501" lon="8.215430025011301">
<ele>7</ele>
</trkpt>
<trkpt lat="55.54693803191185" lon="8.215541001409292">
<ele>7</ele>
</trkpt>
<trkpt lat="55.546871982514858" lon="8.215779969468713">
<ele>7</ele>
</trkpt>
<trkpt lat="55.546805011108518" lon="8.216124968603253">
<ele>7</ele>
</trkpt>
<trkpt lat="55.546592026948929" lon="8.216704996302724">
<ele>7</ele>
</trkpt>
<trkpt lat="55.546427993103862" lon="8.217035997658968">
<ele>7</ele>
</trkpt>
<trkpt lat="55.546333026140928" lon="8.217334980145097">
<ele>7</ele>
</trkpt>
<trkpt lat="55.546234035864472" lon="8.217494990676642">
<ele>7</ele>
</trkpt>
<trkpt lat="55.546137979254127" lon="8.217718033120036">
<ele>7</ele>
</trkpt>
<trkpt lat="55.546105708926916" lon="8.21790587157011">
<ele>7</ele>
</trkpt>
<trkpt lat="55.546314083039761" lon="8.2185850571841">
<ele>6</ele>
</trkpt>
<trkpt lat="55.546415001153946" lon="8.218623027205467">
<ele>6</ele>
</trkpt>
<trkpt lat="55.546615915372968" lon="8.218672312796116">
<ele>6</ele>
</trkpt>
<trkpt lat="55.546842981129885" lon="8.218881022185087">
<ele>6</ele>
</trkpt>
<trkpt lat="55.547036016359925" lon="8.219071961939335">
<ele>6</ele>
</trkpt>
<trkpt lat="55.547051019966602" lon="8.21916600689292">
<ele>6</ele>
</trkpt>
<trkpt lat="55.547212036326528" lon="8.219313025474548">
<ele>6</ele>
</trkpt>
<trkpt lat="55.547309014946222" lon="8.219440011307597">
<ele>6</ele>
</trkpt>
<trkpt lat="55.547386966645718" lon="8.219506982713938">
<ele>6</ele>
</trkpt>
<trkpt lat="55.547484029084444" lon="8.219641009345651">
<ele>6</ele>
</trkpt>
<trkpt lat="55.547658037394285" lon="8.219806971028447">
<ele>6</ele>
</trkpt>
<trkpt lat="55.547797009348869" lon="8.219901015982032">
<ele>7</ele>
</trkpt>
<trkpt lat="55.547886025160551" lon="8.220008974894881">
<ele>7</ele>
</trkpt>
<trkpt lat="55.547979986295104" lon="8.220041999593377">
<ele>7</ele>
</trkpt>
<trkpt lat="55.548108983784914" lon="8.220183989033103">
<ele>7</ele>
</trkpt>
<trkpt lat="55.548191964626312" lon="8.220188012346625">
<ele>7</ele>
</trkpt>
<trkpt lat="55.548536963760853" lon="8.220436032861471">
<ele>7</ele>
</trkpt>
<trkpt lat="55.54857200011611" lon="8.220527982339263">
<ele>7</ele>
</trkpt>
<trkpt lat="55.548599995672703" lon="8.220706013962627">
<ele>7</ele>
</trkpt>
<trkpt lat="55.54876746609807" lon="8.221149500459433">
<ele>7</ele>
</trkpt>
<trkpt lat="55.549036357551813" lon="8.221409255638719">
<ele>7</ele>
</trkpt>
<trkpt lat="55.549273481592536" lon="8.221629112958908">
<ele>7</ele>
</trkpt>
<trkpt lat="55.54934699088335" lon="8.221874032169581">
<ele>7</ele>
</trkpt>
</trkseg>
</trk>
</gpx>
