<?xml version="1.0" encoding="UTF-8"?>
<gpx version="1.1"
creator="Smartprofil-Office - http://www.rother.de"
xmlns:xsi="http://www.w3.org/2001/XMLSchema-instance"
xmlns="http://www.topografix.com/GPX/1/1"
xsi:schemaLocation="http://www.topografix.com/GPX/1/1 http://www.topografix.com/GPX/1/1/gpx.xsd">
<metadata>

<bounds minlat="56.283633979037404" minlon="8.122487040236592" maxlat="56.315717976540327" maxlon="8.174895979464054"/>
</metadata>
<wpt lat="56.285102991387248" lon="8.163104988634586">
<ele>11</ele>
<name>26_Husby Kirke/ Bundgårdvej (1)</name>
<cmt></cmt>
<desc></desc>
<sym>Crossing</sym>
</wpt>

<wpt lat="56.286215018481016" lon="8.141901958733797">
<ele>20</ele>
<name>26_Nøgenbjerg (2)</name>
<cmt></cmt>
<desc></desc>
<sym>Crossing</sym>
</wpt>

<wpt lat="56.29101600497961" lon="8.124683015048504">
<ele>3</ele>
<name>26_Husby Strand (3)</name>
<cmt></cmt>
<desc></desc>
<sym>Crossing</sym>
</wpt>

<wpt lat="56.305288039147854" lon="8.124713022261858">
<ele>20</ele>
<name>26_Husby Klit (4)</name>
<cmt></cmt>
<desc></desc>
<sym>Crossing</sym>
</wpt>

<wpt lat="56.313519990071654" lon="8.12611598521471">
<ele>17</ele>
<name>26_Bunker (5)</name>
<cmt></cmt>
<desc></desc>
<sym>Crossing</sym>
</wpt>

<wpt lat="56.314952038228512" lon="8.127911975607276">
<ele>15</ele>
<name>26_Raketvejen (6)</name>
<cmt></cmt>
<desc></desc>
<sym>Crossing</sym>
</wpt>

<wpt lat="56.303850961849093" lon="8.131918022409082">
<ele>25</ele>
<name>26_Marens Maw (7)</name>
<cmt></cmt>
<desc></desc>
<sym>Crossing</sym>
</wpt>

<wpt lat="56.289708008989692" lon="8.13490197993815">
<ele>19</ele>
<name>26_Skavemose (8)</name>
<cmt></cmt>
<desc></desc>
<sym>Crossing</sym>
</wpt>

<wpt lat="56.291602989658713" lon="8.148862039670348">
<ele>16</ele>
<name>26_Abzweig Bank (9)</name>
<cmt></cmt>
<desc></desc>
<sym>Crossing</sym>
</wpt>

<trk>
<name>DAN_26_Husby</name>
<trkseg>
<trkpt lat="56.285102991387248" lon="8.163104988634586">
<ele>11</ele>
</trkpt>
<trkpt lat="56.284747011959553" lon="8.162885969504714">
<ele>11</ele>
</trkpt>
<trkpt lat="56.284989165142179" lon="8.161463309079409">
<ele>11</ele>
</trkpt>
<trkpt lat="56.285201981663704" lon="8.160084988921881">
<ele>12</ele>
</trkpt>
<trkpt lat="56.285421000793576" lon="8.158984025940299">
<ele>12</ele>
</trkpt>
<trkpt lat="56.285289991647005" lon="8.158206017687917">
<ele>12</ele>
</trkpt>
<trkpt lat="56.285372972488403" lon="8.157359026372433">
<ele>12</ele>
</trkpt>
<trkpt lat="56.285885022953153" lon="8.155794041231275">
<ele>12</ele>
</trkpt>
<trkpt lat="56.285940008237958" lon="8.155045034363866">
<ele>13</ele>
</trkpt>
<trkpt lat="56.286027012392879" lon="8.154640020802617">
<ele>13</ele>
</trkpt>
<trkpt lat="56.286170007660985" lon="8.152859034016728">
<ele>13</ele>
</trkpt>
<trkpt lat="56.286292970180511" lon="8.152452008798719">
<ele>13</ele>
</trkpt>
<trkpt lat="56.286399001255631" lon="8.152405992150307">
<ele>13</ele>
</trkpt>
<trkpt lat="56.286402018740773" lon="8.152146991342306">
<ele>13</ele>
</trkpt>
<trkpt lat="56.286661019548774" lon="8.151198998093605">
<ele>13</ele>
</trkpt>
<trkpt lat="56.286895964294672" lon="8.149679023772478">
<ele>14</ele>
</trkpt>
<trkpt lat="56.286921026185155" lon="8.149176025763154">
<ele>14</ele>
</trkpt>
<trkpt lat="56.286792028695345" lon="8.148930016905069">
<ele>14</ele>
</trkpt>
<trkpt lat="56.286187022924423" lon="8.148427018895745">
<ele>14</ele>
</trkpt>
<trkpt lat="56.285855015739799" lon="8.148379996418953">
<ele>14</ele>
</trkpt>
<trkpt lat="56.285481015220284" lon="8.146963035687804">
<ele>14</ele>
</trkpt>
<trkpt lat="56.285514961928129" lon="8.146372027695179">
<ele>14</ele>
</trkpt>
<trkpt lat="56.285574976354837" lon="8.146115960553289">
<ele>15</ele>
</trkpt>
<trkpt lat="56.285566007718444" lon="8.145856959745288">
<ele>15</ele>
</trkpt>
<trkpt lat="56.285388981923461" lon="8.145368965342641">
<ele>16</ele>
</trkpt>
<trkpt lat="56.285351011902094" lon="8.145143995061517">
<ele>16</ele>
</trkpt>
<trkpt lat="56.285629039630294" lon="8.144380990415812">
<ele>17</ele>
</trkpt>
<trkpt lat="56.285754013806581" lon="8.143863994628191">
<ele>17</ele>
</trkpt>
<trkpt lat="56.286021983250976" lon="8.14323803409934">
<ele>17</ele>
</trkpt>
<trkpt lat="56.286017037928104" lon="8.142770994454622">
<ele>18</ele>
</trkpt>
<trkpt lat="56.285958029329777" lon="8.142388025298715">
<ele>18</ele>
</trkpt>
<trkpt lat="56.286002034321427" lon="8.141984017565846">
<ele>19</ele>
</trkpt>
<trkpt lat="56.286038998514414" lon="8.141873963177204">
<ele>19</ele>
</trkpt>
<trkpt lat="56.286131031811237" lon="8.141933977603912">
<ele>20</ele>
</trkpt>
<trkpt lat="56.286215018481016" lon="8.141901958733797">
<ele>20</ele>
</trkpt>
<trkpt lat="56.286246031522751" lon="8.141800034791231">
<ele>20</ele>
</trkpt>
<trkpt lat="56.286264974623919" lon="8.141700038686395">
<ele>19</ele>
</trkpt>
<trkpt lat="56.286220969632268" lon="8.141670031473041">
<ele>18</ele>
</trkpt>
<trkpt lat="56.286135977134109" lon="8.141560982912779">
<ele>18</ele>
</trkpt>
<trkpt lat="56.2860949896276" lon="8.141378005966544">
<ele>18</ele>
</trkpt>
<trkpt lat="56.28624502569437" lon="8.140834020450711">
<ele>17</ele>
</trkpt>
<trkpt lat="56.286305040121078" lon="8.140184003859758">
<ele>16</ele>
</trkpt>
<trkpt lat="56.286320965737104" lon="8.139169039204717">
<ele>16</ele>
</trkpt>
<trkpt lat="56.286276038736105" lon="8.138717003166676">
<ele>16</ele>
</trkpt>
<trkpt lat="56.286297999322414" lon="8.138521034270525">
<ele>15</ele>
</trkpt>
<trkpt lat="56.286511989310384" lon="8.1379300262779">
<ele>15</ele>
</trkpt>
<trkpt lat="56.286307973787189" lon="8.137482013553381">
<ele>15</ele>
</trkpt>
<trkpt lat="56.286307973787189" lon="8.13696401193738">
<ele>15</ele>
</trkpt>
<trkpt lat="56.286512995138764" lon="8.136058012023568">
<ele>15</ele>
</trkpt>
<trkpt lat="56.286723967641592" lon="8.135455017909408">
<ele>14</ele>
</trkpt>
<trkpt lat="56.28680401481688" lon="8.134863004088402">
<ele>14</ele>
</trkpt>
<trkpt lat="56.286663031205535" lon="8.134375009685755">
<ele>14</ele>
</trkpt>
<trkpt lat="56.286658002063632" lon="8.134166970849037">
<ele>14</ele>
</trkpt>
<trkpt lat="56.28693200647831" lon="8.133063996210694">
<ele>14</ele>
</trkpt>
<trkpt lat="56.287141973152757" lon="8.132568039000034">
<ele>14</ele>
</trkpt>
<trkpt lat="56.287346994504333" lon="8.13172398135066">
<ele>14</ele>
</trkpt>
<trkpt lat="56.287360992282629" lon="8.13152801245451">
<ele>14</ele>
</trkpt>
<trkpt lat="56.287590991705656" lon="8.130897022783756">
<ele>13</ele>
</trkpt>
<trkpt lat="56.287677995860577" lon="8.130469964817166">
<ele>13</ele>
</trkpt>
<trkpt lat="56.287857033312321" lon="8.130010971799493">
<ele>13</ele>
</trkpt>
<trkpt lat="56.287957029417157" lon="8.129502022638917">
<ele>13</ele>
</trkpt>
<trkpt lat="56.288396995514631" lon="8.128703981637955">
<ele>13</ele>
</trkpt>
<trkpt lat="56.288552982732654" lon="8.128549000248313">
<ele>12</ele>
</trkpt>
<trkpt lat="56.289410032331944" lon="8.128512036055327">
<ele>12</ele>
</trkpt>
<trkpt lat="56.289799036458135" lon="8.128127977252007">
<ele>12</ele>
</trkpt>
<trkpt lat="56.290010008960962" lon="8.127548033371568">
<ele>11</ele>
</trkpt>
<trkpt lat="56.290105981752276" lon="8.12740596011281">
<ele>9</ele>
</trkpt>
<trkpt lat="56.290290970355272" lon="8.126352019608021">
<ele>8</ele>
</trkpt>
<trkpt lat="56.290459027513862" lon="8.126298962160945">
<ele>7</ele>
</trkpt>
<trkpt lat="56.290571009740233" lon="8.126162001863122">
<ele>6</ele>
</trkpt>
<trkpt lat="56.290708975866437" lon="8.125505028292537">
<ele>4</ele>
</trkpt>
<trkpt lat="56.29101600497961" lon="8.124683015048504">
<ele>3</ele>
</trkpt>
<trkpt lat="56.291275005787611" lon="8.124792985618115">
<ele>3</ele>
</trkpt>
<trkpt lat="56.29350601695478" lon="8.124558962881565">
<ele>3</ele>
</trkpt>
<trkpt lat="56.294461973011494" lon="8.123933002352715">
<ele>3</ele>
</trkpt>
<trkpt lat="56.29499196074903" lon="8.12381599098444">
<ele>3</ele>
</trkpt>
<trkpt lat="56.295808022841811" lon="8.123789001256228">
<ele>4</ele>
</trkpt>
<trkpt lat="56.297229006886482" lon="8.123566964641213">
<ele>4</ele>
</trkpt>
<trkpt lat="56.29773803986609" lon="8.123574005439878">
<ele>4</ele>
</trkpt>
<trkpt lat="56.298422003164887" lon="8.123478032648563">
<ele>4</ele>
</trkpt>
<trkpt lat="56.29885702393949" lon="8.123551039025188">
<ele>4</ele>
</trkpt>
<trkpt lat="56.300093019381166" lon="8.123410977423191">
<ele>4</ele>
</trkpt>
<trkpt lat="56.300669023767114" lon="8.123460011556745">
<ele>5</ele>
</trkpt>
<trkpt lat="56.303607970476151" lon="8.122875960543752">
<ele>7</ele>
</trkpt>
<trkpt lat="56.305019985884428" lon="8.123031025752425">
<ele>8</ele>
</trkpt>
<trkpt lat="56.30508997477591" lon="8.123204028233886">
<ele>10</ele>
</trkpt>
<trkpt lat="56.305136997252703" lon="8.12362396158278">
<ele>11</ele>
</trkpt>
<trkpt lat="56.305257026106119" lon="8.124112961813808">
<ele>13</ele>
</trkpt>
<trkpt lat="56.305221989750862" lon="8.124231984838843">
<ele>14</ele>
</trkpt>
<trkpt lat="56.305274041369557" lon="8.124398030340672">
<ele>16</ele>
</trkpt>
<trkpt lat="56.305251996964216" lon="8.124453015625477">
<ele>17</ele>
</trkpt>
<trkpt lat="56.305255014449358" lon="8.124530967324972">
<ele>19</ele>
</trkpt>
<trkpt lat="56.305288039147854" lon="8.124713022261858">
<ele>20</ele>
</trkpt>
<trkpt lat="56.30528200417757" lon="8.124875966459513">
<ele>19</ele>
</trkpt>
<trkpt lat="56.305695986375213" lon="8.12532096169889">
<ele>19</ele>
</trkpt>
<trkpt lat="56.305700009688735" lon="8.125511985272169">
<ele>18</ele>
</trkpt>
<trkpt lat="56.305868988856673" lon="8.125868970528245">
<ele>17</ele>
</trkpt>
<trkpt lat="56.306042997166514" lon="8.126438017934561">
<ele>16</ele>
</trkpt>
<trkpt lat="56.306225974112749" lon="8.126629963517189">
<ele>16</ele>
</trkpt>
<trkpt lat="56.306375004351139" lon="8.126655025407672">
<ele>15</ele>
</trkpt>
<trkpt lat="56.306698964908719" lon="8.126534996554256">
<ele>14</ele>
</trkpt>
<trkpt lat="56.307226018980145" lon="8.126143980771303">
<ele>14</ele>
</trkpt>
<trkpt lat="56.307704038918018" lon="8.125907024368644">
<ele>13</ele>
</trkpt>
<trkpt lat="56.308103017508984" lon="8.125522965565324">
<ele>14</ele>
</trkpt>
<trkpt lat="56.308285994455218" lon="8.12559999525547">
<ele>15</ele>
</trkpt>
<trkpt lat="56.30835497751832" lon="8.125246027484536">
<ele>15</ele>
</trkpt>
<trkpt lat="56.308305021375418" lon="8.125036982819438">
<ele>16</ele>
</trkpt>
<trkpt lat="56.308392025530338" lon="8.12502097338438">
<ele>17</ele>
</trkpt>
<trkpt lat="56.308437958359718" lon="8.124850988388062">
<ele>18</ele>
</trkpt>
<trkpt lat="56.308575002476573" lon="8.12465300783515">
<ele>19</ele>
</trkpt>
<trkpt lat="56.308667035773396" lon="8.12504100613296">
<ele>19</ele>
</trkpt>
<trkpt lat="56.308695031329989" lon="8.125363038852811">
<ele>20</ele>
</trkpt>
<trkpt lat="56.308837020769715" lon="8.125743996351957">
<ele>21</ele>
</trkpt>
<trkpt lat="56.308751022443175" lon="8.12587802298367">
<ele>20</ele>
</trkpt>
<trkpt lat="56.308651026338339" lon="8.125916998833418">
<ele>19</ele>
</trkpt>
<trkpt lat="56.308768959715962" lon="8.125951029360294">
<ele>18</ele>
</trkpt>
<trkpt lat="56.308903992176056" lon="8.126009032130241">
<ele>17</ele>
</trkpt>
<trkpt lat="56.309150001034141" lon="8.126294016838074">
<ele>16</ele>
</trkpt>
<trkpt lat="56.309311017394066" lon="8.126594005152583">
<ele>15</ele>
</trkpt>
<trkpt lat="56.309673031792045" lon="8.126594005152583">
<ele>14</ele>
</trkpt>
<trkpt lat="56.310232020914555" lon="8.126709004864097">
<ele>13</ele>
</trkpt>
<trkpt lat="56.311250003054738" lon="8.127194987609983">
<ele>12</ele>
</trkpt>
<trkpt lat="56.312073525041342" lon="8.127299342304468">
<ele>11</ele>
</trkpt>
<trkpt lat="56.312811048701406" lon="8.12759849242866">
<ele>12</ele>
</trkpt>
<trkpt lat="56.313779996708035" lon="8.127872999757528">
<ele>12</ele>
</trkpt>
<trkpt lat="56.313829030841589" lon="8.127847015857697">
<ele>13</ele>
</trkpt>
<trkpt lat="56.313824001699686" lon="8.12776998616755">
<ele>14</ele>
</trkpt>
<trkpt lat="56.31361797451973" lon="8.127263970673084">
<ele>14</ele>
</trkpt>
<trkpt lat="56.313599031418562" lon="8.127085017040372">
<ele>15</ele>
</trkpt>
<trkpt lat="56.313650999218225" lon="8.12669400125742">
<ele>16</ele>
</trkpt>
<trkpt lat="56.313484031707048" lon="8.126331986859441">
<ele>16</ele>
</trkpt>
<trkpt lat="56.313519990071654" lon="8.12611598521471">
<ele>17</ele>
</trkpt>
<trkpt lat="56.313654016703367" lon="8.126034010201693">
<ele>17</ele>
</trkpt>
<trkpt lat="56.313683018088341" lon="8.125827983021736">
<ele>16</ele>
</trkpt>
<trkpt lat="56.313901031389832" lon="8.125751037150621">
<ele>16</ele>
</trkpt>
<trkpt lat="56.314143016934395" lon="8.125037988647819">
<ele>16</ele>
</trkpt>
<trkpt lat="56.314276959747076" lon="8.124837996438146">
<ele>16</ele>
</trkpt>
<trkpt lat="56.314549036324024" lon="8.124146992340684">
<ele>15</ele>
</trkpt>
<trkpt lat="56.314651966094971" lon="8.124017994850874">
<ele>15</ele>
</trkpt>
<trkpt lat="56.314701000228524" lon="8.123874999582768">
<ele>15</ele>
</trkpt>
<trkpt lat="56.314727989956737" lon="8.123537041246891">
<ele>14</ele>
</trkpt>
<trkpt lat="56.314815999940038" lon="8.123333025723696">
<ele>14</ele>
</trkpt>
<trkpt lat="56.314881965517998" lon="8.123274017125368">
<ele>14</ele>
</trkpt>
<trkpt lat="56.315288990736008" lon="8.123394967988133">
<ele>14</ele>
</trkpt>
<trkpt lat="56.315393010154366" lon="8.123196987435222">
<ele>14</ele>
</trkpt>
<trkpt lat="56.315474985167384" lon="8.122740006074309">
<ele>14</ele>
</trkpt>
<trkpt lat="56.315502980723977" lon="8.122644033282995">
<ele>14</ele>
</trkpt>
<trkpt lat="56.315717976540327" lon="8.122487040236592">
<ele>15</ele>
</trkpt>
<trkpt lat="56.315538017079234" lon="8.122567003592849">
<ele>15</ele>
</trkpt>
<trkpt lat="56.315406002104282" lon="8.123235963284969">
<ele>15</ele>
</trkpt>
<trkpt lat="56.315390998497605" lon="8.123650029301643">
<ele>15</ele>
</trkpt>
<trkpt lat="56.315326038748026" lon="8.124049007892609">
<ele>15</ele>
</trkpt>
<trkpt lat="56.315117832273245" lon="8.124969340860844">
<ele>15</ele>
</trkpt>
<trkpt lat="56.314889006316662" lon="8.12609301880002">
<ele>15</ele>
</trkpt>
<trkpt lat="56.314861010760069" lon="8.126356964930892">
<ele>15</ele>
</trkpt>
<trkpt lat="56.314911972731352" lon="8.12744602560997">
<ele>15</ele>
</trkpt>
<trkpt lat="56.314952038228512" lon="8.127911975607276">
<ele>15</ele>
</trkpt>
<trkpt lat="56.314861010760069" lon="8.127937959507108">
<ele>15</ele>
</trkpt>
<trkpt lat="56.314535038545728" lon="8.128089001402259">
<ele>15</ele>
</trkpt>
<trkpt lat="56.31436999887228" lon="8.128096964210272">
<ele>15</ele>
</trkpt>
<trkpt lat="56.313224025070667" lon="8.127684993669391">
<ele>15</ele>
</trkpt>
<trkpt lat="56.312848012894392" lon="8.127695973962545">
<ele>16</ele>
</trkpt>
<trkpt lat="56.312691019847989" lon="8.12755398452282">
<ele>16</ele>
</trkpt>
<trkpt lat="56.312044020742178" lon="8.127293977886438">
<ele>16</ele>
</trkpt>
<trkpt lat="56.311313034966588" lon="8.127154000103474">
<ele>16</ele>
</trkpt>
<trkpt lat="56.310339979827404" lon="8.126721996814013">
<ele>16</ele>
</trkpt>
<trkpt lat="56.309560965746641" lon="8.126580007374287">
<ele>16</ele>
</trkpt>
<trkpt lat="56.30942702293396" lon="8.126640021800995">
<ele>16</ele>
</trkpt>
<trkpt lat="56.309201968833804" lon="8.126870021224022">
<ele>17</ele>
</trkpt>
<trkpt lat="56.308641135692596" lon="8.127561276778579">
<ele>17</ele>
</trkpt>
<trkpt lat="56.308003021404147" lon="8.12832897529006">
<ele>17</ele>
</trkpt>
<trkpt lat="56.307662967592478" lon="8.128562998026609">
<ele>18</ele>
</trkpt>
<trkpt lat="56.307275975123048" lon="8.128728959709406">
<ele>18</ele>
</trkpt>
<trkpt lat="56.306818993762136" lon="8.129083011299372">
<ele>18</ele>
</trkpt>
<trkpt lat="56.305892039090395" lon="8.129639988765121">
<ele>18</ele>
</trkpt>
<trkpt lat="56.305307988077402" lon="8.130118008702993">
<ele>19</ele>
</trkpt>
<trkpt lat="56.305048987269402" lon="8.130489997565746">
<ele>19</ele>
</trkpt>
<trkpt lat="56.304839020594954" lon="8.13090599142015">
<ele>20</ele>
</trkpt>
<trkpt lat="56.304591000080109" lon="8.131236992776394">
<ele>21</ele>
</trkpt>
<trkpt lat="56.304395031183958" lon="8.131534969434142">
<ele>22</ele>
</trkpt>
<trkpt lat="56.304262010380626" lon="8.131730016320944">
<ele>22</ele>
</trkpt>
<trkpt lat="56.304166037589312" lon="8.131935959681869">
<ele>23</ele>
</trkpt>
<trkpt lat="56.303968979045749" lon="8.131918022409082">
<ele>24</ele>
</trkpt>
<trkpt lat="56.303850961849093" lon="8.131918022409082">
<ele>25</ele>
</trkpt>
<trkpt lat="56.303852973505855" lon="8.132168976590037">
<ele>24</ele>
</trkpt>
<trkpt lat="56.30386495962739" lon="8.132334016263485">
<ele>23</ele>
</trkpt>
<trkpt lat="56.30382196046412" lon="8.132481034845114">
<ele>23</ele>
</trkpt>
<trkpt lat="56.303593553602695" lon="8.132725702598691">
<ele>22</ele>
</trkpt>
<trkpt lat="56.303259367123246" lon="8.133239848539233">
<ele>21</ele>
</trkpt>
<trkpt lat="56.303077982738614" lon="8.133434979245067">
<ele>20</ele>
</trkpt>
<trkpt lat="56.302726026624441" lon="8.133517038077116">
<ele>19</ele>
</trkpt>
<trkpt lat="56.302140969783068" lon="8.133324002847076">
<ele>19</ele>
</trkpt>
<trkpt lat="56.301857996731997" lon="8.133351998403668">
<ele>18</ele>
</trkpt>
<trkpt lat="56.301416018977761" lon="8.133111018687487">
<ele>17</ele>
</trkpt>
<trkpt lat="56.301356004551053" lon="8.133068019524217">
<ele>17</ele>
</trkpt>
<trkpt lat="56.301419036462903" lon="8.132928041741252">
<ele>17</ele>
</trkpt>
<trkpt lat="56.301444014534354" lon="8.132815975695849">
<ele>17</ele>
</trkpt>
<trkpt lat="56.301405960693955" lon="8.132539037615061">
<ele>17</ele>
</trkpt>
<trkpt lat="56.301418030634522" lon="8.132147016003728">
<ele>18</ele>
</trkpt>
<trkpt lat="56.301362039521337" lon="8.131929002702236">
<ele>18</ele>
</trkpt>
<trkpt lat="56.301262965425849" lon="8.13176304101944">
<ele>18</ele>
</trkpt>
<trkpt lat="56.301045035943389" lon="8.131845016032457">
<ele>18</ele>
</trkpt>
<trkpt lat="56.300870021805167" lon="8.1318290065974">
<ele>18</ele>
</trkpt>
<trkpt lat="56.300692996010184" lon="8.131113024428487">
<ele>18</ele>
</trkpt>
<trkpt lat="56.30061998963356" lon="8.130580019205809">
<ele>18</ele>
</trkpt>
<trkpt lat="56.300474982708693" lon="8.13017601147294">
<ele>18</ele>
</trkpt>
<trkpt lat="56.300235008820891" lon="8.129726992920041">
<ele>18</ele>
</trkpt>
<trkpt lat="56.299857990816236" lon="8.129319967702031">
<ele>18</ele>
</trkpt>
<trkpt lat="56.29969697445631" lon="8.129193987697363">
<ele>18</ele>
</trkpt>
<trkpt lat="56.299239993095398" lon="8.129070019349456">
<ele>17</ele>
</trkpt>
<trkpt lat="56.29898501560092" lon="8.128921994939446">
<ele>17</ele>
</trkpt>
<trkpt lat="56.297725969925523" lon="8.128101993352175">
<ele>17</ele>
</trkpt>
<trkpt lat="56.296755010262132" lon="8.127478966489434">
<ele>17</ele>
</trkpt>
<trkpt lat="56.296518975868821" lon="8.127504028379917">
<ele>17</ele>
</trkpt>
<trkpt lat="56.295944983139634" lon="8.126918971538544">
<ele>17</ele>
</trkpt>
<trkpt lat="56.295798970386386" lon="8.126968005672097">
<ele>18</ele>
</trkpt>
<trkpt lat="56.295463023707271" lon="8.127656998112798">
<ele>18</ele>
</trkpt>
<trkpt lat="56.29507209174335" lon="8.128814455121756">
<ele>19</ele>
</trkpt>
<trkpt lat="56.29438896663487" lon="8.130695018917322">
<ele>19</ele>
</trkpt>
<trkpt lat="56.293970961123705" lon="8.131716018542647">
<ele>19</ele>
</trkpt>
<trkpt lat="56.293954029679298" lon="8.131858007982373">
<ele>20</ele>
</trkpt>
<trkpt lat="56.29299396649003" lon="8.134182980284095">
<ele>20</ele>
</trkpt>
<trkpt lat="56.292893970385194" lon="8.134376015514135">
<ele>21</ele>
</trkpt>
<trkpt lat="56.292657013982534" lon="8.134595034644008">
<ele>21</ele>
</trkpt>
<trkpt lat="56.292402036488056" lon="8.134635016322136">
<ele>21</ele>
</trkpt>
<trkpt lat="56.291421018540859" lon="8.134093964472413">
<ele>21</ele>
</trkpt>
<trkpt lat="56.290740994736552" lon="8.133536987006664">
<ele>20</ele>
</trkpt>
<trkpt lat="56.290120985358953" lon="8.13299098983407">
<ele>20</ele>
</trkpt>
<trkpt lat="56.289853015914559" lon="8.13275302760303">
<ele>20</ele>
</trkpt>
<trkpt lat="56.289598038420081" lon="8.132658982649446">
<ele>20</ele>
</trkpt>
<trkpt lat="56.289692167192698" lon="8.133657099679112">
<ele>19</ele>
</trkpt>
<trkpt lat="56.2897680234164" lon="8.134094970300794">
<ele>19</ele>
</trkpt>
<trkpt lat="56.289708008989692" lon="8.13490197993815">
<ele>19</ele>
</trkpt>
<trkpt lat="56.289595020934939" lon="8.135471027344465">
<ele>19</ele>
</trkpt>
<trkpt lat="56.289573982357979" lon="8.136457996442914">
<ele>18</ele>
</trkpt>
<trkpt lat="56.289857961237431" lon="8.137421999126673">
<ele>18</ele>
</trkpt>
<trkpt lat="56.289972960948944" lon="8.138410979881883">
<ele>18</ele>
</trkpt>
<trkpt lat="56.290172031149268" lon="8.139324020594358">
<ele>18</ele>
</trkpt>
<trkpt lat="56.291157994419336" lon="8.138514999300242">
<ele>18</ele>
</trkpt>
<trkpt lat="56.291006365790963" lon="8.141101570799947">
<ele>17</ele>
</trkpt>
<trkpt lat="56.290809977799654" lon="8.143768021836877">
<ele>17</ele>
</trkpt>
<trkpt lat="56.291983025148511" lon="8.143231999129057">
<ele>17</ele>
</trkpt>
<trkpt lat="56.291737016290426" lon="8.145780013874173">
<ele>16</ele>
</trkpt>
<trkpt lat="56.291536018252373" lon="8.14811403863132">
<ele>16</ele>
</trkpt>
<trkpt lat="56.291602989658713" lon="8.148862039670348">
<ele>16</ele>
</trkpt>
<trkpt lat="56.291013993322849" lon="8.148915013298392">
<ele>16</ele>
</trkpt>
<trkpt lat="56.290686009451747" lon="8.148882994428277">
<ele>16</ele>
</trkpt>
<trkpt lat="56.290245959535241" lon="8.149119028821588">
<ele>15</ele>
</trkpt>
<trkpt lat="56.289501981809735" lon="8.149420022964478">
<ele>15</ele>
</trkpt>
<trkpt lat="56.288858000189066" lon="8.149752030149102">
<ele>15</ele>
</trkpt>
<trkpt lat="56.288724979385734" lon="8.149786982685328">
<ele>15</ele>
</trkpt>
<trkpt lat="56.288799997419119" lon="8.149918997660279">
<ele>15</ele>
</trkpt>
<trkpt lat="56.288819024339318" lon="8.150144973769784">
<ele>14</ele>
</trkpt>
<trkpt lat="56.288744006305933" lon="8.150453008711338">
<ele>14</ele>
</trkpt>
<trkpt lat="56.288842996582389" lon="8.151088021695614">
<ele>14</ele>
</trkpt>
<trkpt lat="56.288863029330969" lon="8.151714988052845">
<ele>14</ele>
</trkpt>
<trkpt lat="56.288645016029477" lon="8.152151014655829">
<ele>14</ele>
</trkpt>
<trkpt lat="56.288493974134326" lon="8.153280979022384">
<ele>14</ele>
</trkpt>
<trkpt lat="56.288364976644516" lon="8.153770985081792">
<ele>14</ele>
</trkpt>
<trkpt lat="56.288357013836503" lon="8.15423802472651">
<ele>14</ele>
</trkpt>
<trkpt lat="56.288448963314295" lon="8.154659969732165">
<ele>14</ele>
</trkpt>
<trkpt lat="56.288409987464547" lon="8.155109994113445">
<ele>14</ele>
</trkpt>
<trkpt lat="56.2879219930619" lon="8.156359987333417">
<ele>14</ele>
</trkpt>
<trkpt lat="56.287443973124027" lon="8.158037960529327">
<ele>14</ele>
</trkpt>
<trkpt lat="56.287466017529368" lon="8.158223032951355">
<ele>14</ele>
</trkpt>
<trkpt lat="56.288111004978418" lon="8.158597033470869">
<ele>14</ele>
</trkpt>
<trkpt lat="56.288168001919985" lon="8.158692000433803">
<ele>14</ele>
</trkpt>
<trkpt lat="56.288207983598113" lon="8.158968016505241">
<ele>14</ele>
</trkpt>
<trkpt lat="56.288228016346693" lon="8.159753987565637">
<ele>14</ele>
</trkpt>
<trkpt lat="56.288158027455211" lon="8.160680020228028">
<ele>14</ele>
</trkpt>
<trkpt lat="56.28807102330029" lon="8.16107296384871">
<ele>13</ele>
</trkpt>
<trkpt lat="56.288123996928334" lon="8.161681992933154">
<ele>13</ele>
</trkpt>
<trkpt lat="56.288386015221477" lon="8.162046018987894">
<ele>13</ele>
</trkpt>
<trkpt lat="56.288446029648185" lon="8.162367967888713">
<ele>13</ele>
</trkpt>
<trkpt lat="56.288427002727985" lon="8.162821009755135">
<ele>13</ele>
</trkpt>
<trkpt lat="56.288306973874569" lon="8.162841964513063">
<ele>13</ele>
</trkpt>
<trkpt lat="56.28826598636806" lon="8.163163997232914">
<ele>13</ele>
</trkpt>
<trkpt lat="56.288146963343024" lon="8.163454011082649">
<ele>14</ele>
</trkpt>
<trkpt lat="56.288396995514631" lon="8.164182985201478">
<ele>14</ele>
</trkpt>
<trkpt lat="56.287968009710312" lon="8.164044013246894">
<ele>14</ele>
</trkpt>
<trkpt lat="56.287735998630524" lon="8.163979975506663">
<ele>14</ele>
</trkpt>
<trkpt lat="56.287574982270598" lon="8.163856007158756">
<ele>14</ele>
</trkpt>
<trkpt lat="56.28738203085959" lon="8.163728015497327">
<ele>15</ele>
</trkpt>
<trkpt lat="56.287400973960757" lon="8.163868999108672">
<ele>15</ele>
</trkpt>
<trkpt lat="56.287485966458917" lon="8.164005959406495">
<ele>15</ele>
</trkpt>
<trkpt lat="56.287670033052564" lon="8.164612976834178">
<ele>15</ele>
</trkpt>
<trkpt lat="56.287701968103647" lon="8.164932997897267">
<ele>15</ele>
</trkpt>
<trkpt lat="56.287613958120346" lon="8.165442030876875">
<ele>15</ele>
</trkpt>
<trkpt lat="56.287654023617506" lon="8.165576979517937">
<ele>15</ele>
</trkpt>
<trkpt lat="56.28759702667594" lon="8.165956009179354">
<ele>16</ele>
</trkpt>
<trkpt lat="56.287603983655572" lon="8.166976002976298">
<ele>16</ele>
</trkpt>
<trkpt lat="56.287763994187117" lon="8.168179979547858">
<ele>16</ele>
</trkpt>
<trkpt lat="56.287928028032184" lon="8.168605025857687">
<ele>16</ele>
</trkpt>
<trkpt lat="56.288063982501626" lon="8.168941978365183">
<ele>16</ele>
</trkpt>
<trkpt lat="56.288142018020153" lon="8.169574979692698">
<ele>16</ele>
</trkpt>
<trkpt lat="56.288075968623161" lon="8.169906986877322">
<ele>16</ele>
</trkpt>
<trkpt lat="56.287826020270586" lon="8.170261038467288">
<ele>16</ele>
</trkpt>
<trkpt lat="56.28755796700716" lon="8.170905020087957">
<ele>16</ele>
</trkpt>
<trkpt lat="56.287515973672271" lon="8.171527041122317">
<ele>16</ele>
</trkpt>
<trkpt lat="56.287140967324376" lon="8.171730972826481">
<ele>16</ele>
</trkpt>
<trkpt lat="56.286635035648942" lon="8.171902969479561">
<ele>17</ele>
</trkpt>
<trkpt lat="56.286492040380836" lon="8.171913027763367">
<ele>17</ele>
</trkpt>
<trkpt lat="56.286406042054296" lon="8.171900622546673">
<ele>17</ele>
</trkpt>
<trkpt lat="56.286307973787189" lon="8.171785036101937">
<ele>17</ele>
</trkpt>
<trkpt lat="56.286228178068995" lon="8.171507678925991">
<ele>17</ele>
</trkpt>
<trkpt lat="56.286188028752804" lon="8.171195033937693">
<ele>17</ele>
</trkpt>
<trkpt lat="56.286141006276011" lon="8.170744003728032">
<ele>17</ele>
</trkpt>
<trkpt lat="56.286016032099724" lon="8.170572007074952">
<ele>17</ele>
</trkpt>
<trkpt lat="56.285910168662667" lon="8.170600589364767">
<ele>17</ele>
</trkpt>
<trkpt lat="56.2857720348984" lon="8.170754984021187">
<ele>17</ele>
</trkpt>
<trkpt lat="56.285675978288054" lon="8.171129990369082">
<ele>17</ele>
</trkpt>
<trkpt lat="56.285705985501409" lon="8.171506002545357">
<ele>17</ele>
</trkpt>
<trkpt lat="56.285401973873377" lon="8.171956026926637">
<ele>17</ele>
</trkpt>
<trkpt lat="56.285295020788908" lon="8.172225002199411">
<ele>17</ele>
</trkpt>
<trkpt lat="56.285328967496753" lon="8.172718025743961">
<ele>17</ele>
</trkpt>
<trkpt lat="56.285102991387248" lon="8.173114992678165">
<ele>17</ele>
</trkpt>
<trkpt lat="56.284817000851035" lon="8.173448005691171">
<ele>16</ele>
</trkpt>
<trkpt lat="56.284722033888102" lon="8.173972964286804">
<ele>16</ele>
</trkpt>
<trkpt lat="56.284621031954885" lon="8.174895979464054">
<ele>16</ele>
</trkpt>
<trkpt lat="56.284472001716495" lon="8.174875024706125">
<ele>16</ele>
</trkpt>
<trkpt lat="56.284162038937211" lon="8.174734963104129">
<ele>15</ele>
</trkpt>
<trkpt lat="56.283769011497498" lon="8.17449901252985">
<ele>15</ele>
</trkpt>
<trkpt lat="56.28364403732121" lon="8.17441301420331">
<ele>15</ele>
</trkpt>
<trkpt lat="56.283645965158939" lon="8.174244035035372">
<ele>14</ele>
</trkpt>
<trkpt lat="56.283676978200674" lon="8.174008000642061">
<ele>14</ele>
</trkpt>
<trkpt lat="56.283633979037404" lon="8.173267962411046">
<ele>14</ele>
</trkpt>
<trkpt lat="56.283679995685816" lon="8.171823006123304">
<ele>14</ele>
</trkpt>
<trkpt lat="56.283918963745236" lon="8.171886960044503">
<ele>15</ele>
</trkpt>
<trkpt lat="56.284102024510503" lon="8.1718560308218">
<ele>15</ele>
</trkpt>
<trkpt lat="56.284176958724856" lon="8.171742036938667">
<ele>15</ele>
</trkpt>
<trkpt lat="56.284309979528189" lon="8.171250019222498">
<ele>15</ele>
</trkpt>
<trkpt lat="56.284425985068083" lon="8.170475028455257">
<ele>15</ele>
</trkpt>
<trkpt lat="56.28450502641499" lon="8.170087030157447">
<ele>16</ele>
</trkpt>
<trkpt lat="56.28431199118495" lon="8.169959038496018">
<ele>16</ele>
</trkpt>
<trkpt lat="56.284143012017012" lon="8.169554024934769">
<ele>16</ele>
</trkpt>
<trkpt lat="56.284195985645056" lon="8.169082039967179">
<ele>16</ele>
</trkpt>
<trkpt lat="56.284180982038379" lon="8.16811996512115">
<ele>15</ele>
</trkpt>
<trkpt lat="56.284626480191946" lon="8.167633647099137">
<ele>15</ele>
</trkpt>
<trkpt lat="56.284895036369562" lon="8.167390991002321">
<ele>14</ele>
</trkpt>
<trkpt lat="56.284795040264726" lon="8.166929986327887">
<ele>14</ele>
</trkpt>
<trkpt lat="56.284803003072739" lon="8.166406033560634">
<ele>14</ele>
</trkpt>
<trkpt lat="56.285002995282412" lon="8.165716035291553">
<ele>13</ele>
</trkpt>
<trkpt lat="56.28540800884366" lon="8.164719007909298">
<ele>13</ele>
</trkpt>
<trkpt lat="56.285366015508771" lon="8.164426982402802">
<ele>13</ele>
</trkpt>
<trkpt lat="56.28530097194016" lon="8.164024986326695">
<ele>12</ele>
</trkpt>
<trkpt lat="56.285351011902094" lon="8.163621984422207">
<ele>12</ele>
</trkpt>
<trkpt lat="56.28539627417922" lon="8.163277739658952">
<ele>11</ele>
</trkpt>
<trkpt lat="56.285102991387248" lon="8.163104988634586">
<ele>11</ele>
</trkpt>
</trkseg>
</trk>
</gpx>
