<?xml version="1.0" encoding="UTF-8"?>
<gpx version="1.1"
creator="Smartprofil-Office - http://www.rother.de"
xmlns:xsi="http://www.w3.org/2001/XMLSchema-instance"
xmlns="http://www.topografix.com/GPX/1/1"
xsi:schemaLocation="http://www.topografix.com/GPX/1/1 http://www.topografix.com/GPX/1/1/gpx.xsd">
<metadata>

<bounds minlat="49.327794536948204" minlon="-1.781719112768769" maxlat="49.381652120500803" maxlon="-1.724518993869424"/>
</metadata>
<wpt lat="49.378519300371408" lon="-1.781719112768769">
<ele>8</ele>
<name>11_Carteret (1)</name>
<cmt></cmt>
<desc></desc>
<sym>Crossing</sym>
</wpt>

<wpt lat="49.367491230368614" lon="-1.770777711644769">
<ele>11</ele>
<name>11_Barneville-Plage (2)</name>
<cmt></cmt>
<desc></desc>
<sym>Crossing</sym>
</wpt>

<wpt lat="49.351521609351039" lon="-1.748395599424839">
<ele>16</ele>
<name>11_D 132 (3)</name>
<cmt></cmt>
<desc></desc>
<sym>Crossing</sym>
</wpt>

<wpt lat="49.327794536948204" lon="-1.724518993869424">
<ele>10</ele>
<name>11_Portbail-Plage (4)</name>
<cmt></cmt>
<desc></desc>
<sym>Crossing</sym>
</wpt>

<trk>
<name>Norm_11_Carteret</name>
<trkseg>
<trkpt lat="49.378519300371408" lon="-1.781719112768769">
<ele>8</ele>
</trkpt>
<trkpt lat="49.37899237498641" lon="-1.779724890366197">
<ele>8</ele>
</trkpt>
<trkpt lat="49.379420857876539" lon="-1.779690440744162">
<ele>8</ele>
</trkpt>
<trkpt lat="49.379535187035799" lon="-1.778321759775281">
<ele>8</ele>
</trkpt>
<trkpt lat="49.379969453439116" lon="-1.777461022138596">
<ele>8</ele>
</trkpt>
<trkpt lat="49.380578398704529" lon="-1.776752080768347">
<ele>8</ele>
</trkpt>
<trkpt lat="49.38107879832387" lon="-1.775931073352695">
<ele>9</ele>
</trkpt>
<trkpt lat="49.381215590983629" lon="-1.775218695402145">
<ele>9</ele>
</trkpt>
<trkpt lat="49.381652120500803" lon="-1.774289226159453">
<ele>9</ele>
</trkpt>
<trkpt lat="49.381057005375624" lon="-1.773276943713427">
<ele>9</ele>
</trkpt>
<trkpt lat="49.380280170589685" lon="-1.772319059818983">
<ele>9</ele>
</trkpt>
<trkpt lat="49.380379244685173" lon="-1.772051509469748">
<ele>9</ele>
</trkpt>
<trkpt lat="49.380054613575339" lon="-1.771681029349566">
<ele>9</ele>
</trkpt>
<trkpt lat="49.379597632214427" lon="-1.771231004968286">
<ele>8</ele>
</trkpt>
<trkpt lat="49.37913604080677" lon="-1.770918527618051">
<ele>8</ele>
</trkpt>
<trkpt lat="49.378705127164721" lon="-1.770367249846458">
<ele>8</ele>
</trkpt>
<trkpt lat="49.377540042623878" lon="-1.770239509642124">
<ele>8</ele>
</trkpt>
<trkpt lat="49.376412760466337" lon="-1.77032140083611">
<ele>8</ele>
</trkpt>
<trkpt lat="49.375673811882734" lon="-1.770227774977684">
<ele>7</ele>
</trkpt>
<trkpt lat="49.374536387622356" lon="-1.767312465235591">
<ele>7</ele>
</trkpt>
<trkpt lat="49.373388234525919" lon="-1.764051988720894">
<ele>7</ele>
</trkpt>
<trkpt lat="49.37314298003912" lon="-1.760691599920392">
<ele>8</ele>
</trkpt>
<trkpt lat="49.372183755040169" lon="-1.762440232560039">
<ele>8</ele>
</trkpt>
<trkpt lat="49.370628660544753" lon="-1.765174409374595">
<ele>9</ele>
</trkpt>
<trkpt lat="49.369308426976204" lon="-1.767617147415876">
<ele>10</ele>
</trkpt>
<trkpt lat="49.368428159505129" lon="-1.769027570262551">
<ele>10</ele>
</trkpt>
<trkpt lat="49.367491230368614" lon="-1.770777711644769">
<ele>11</ele>
</trkpt>
<trkpt lat="49.365844018757343" lon="-1.768304128199816">
<ele>11</ele>
</trkpt>
<trkpt lat="49.364292360842228" lon="-1.765666175633669">
<ele>12</ele>
</trkpt>
<trkpt lat="49.363435059785843" lon="-1.764426827430725">
<ele>12</ele>
</trkpt>
<trkpt lat="49.361600009724498" lon="-1.762179639190435">
<ele>12</ele>
</trkpt>
<trkpt lat="49.360022451728582" lon="-1.760297482833266">
<ele>12</ele>
</trkpt>
<trkpt lat="49.359224159270525" lon="-1.759304059669375">
<ele>13</ele>
</trkpt>
<trkpt lat="49.359083510935307" lon="-1.75881078466773">
<ele>13</ele>
</trkpt>
<trkpt lat="49.358683107420802" lon="-1.758021377027035">
<ele>13</ele>
</trkpt>
<trkpt lat="49.35715994797647" lon="-1.7565225251019">
<ele>14</ele>
</trkpt>
<trkpt lat="49.356375820934772" lon="-1.755771422758699">
<ele>14</ele>
</trkpt>
<trkpt lat="49.354699105024338" lon="-1.754157152026892">
<ele>14</ele>
</trkpt>
<trkpt lat="49.353454308584332" lon="-1.752405418083072">
<ele>14</ele>
</trkpt>
<trkpt lat="49.354158723726869" lon="-1.751532023772597">
<ele>15</ele>
</trkpt>
<trkpt lat="49.353620437905192" lon="-1.751489108428359">
<ele>15</ele>
</trkpt>
<trkpt lat="49.353191703557968" lon="-1.750869685783982">
<ele>15</ele>
</trkpt>
<trkpt lat="49.352835137397051" lon="-1.750772371888161">
<ele>15</ele>
</trkpt>
<trkpt lat="49.352494748309255" lon="-1.749540315940976">
<ele>15</ele>
</trkpt>
<trkpt lat="49.352084873244166" lon="-1.749025750905275">
<ele>16</ele>
</trkpt>
<trkpt lat="49.351664604619145" lon="-1.748820142820478">
<ele>16</ele>
</trkpt>
<trkpt lat="49.351521609351039" lon="-1.748395599424839">
<ele>16</ele>
</trkpt>
<trkpt lat="49.351191865280271" lon="-1.747508710250258">
<ele>16</ele>
</trkpt>
<trkpt lat="49.350431375205517" lon="-1.746725253760815">
<ele>16</ele>
</trkpt>
<trkpt lat="49.350139517337084" lon="-1.746047912165523">
<ele>15</ele>
</trkpt>
<trkpt lat="49.349167803302407" lon="-1.745523037388921">
<ele>15</ele>
</trkpt>
<trkpt lat="49.348664470016956" lon="-1.744450321421027">
<ele>15</ele>
</trkpt>
<trkpt lat="49.347514221444726" lon="-1.743222791701555">
<ele>15</ele>
</trkpt>
<trkpt lat="49.345780424773693" lon="-1.741294953972101">
<ele>15</ele>
</trkpt>
<trkpt lat="49.343643793836236" lon="-1.738646859303117">
<ele>14</ele>
</trkpt>
<trkpt lat="49.341533314436674" lon="-1.736551718786359">
<ele>14</ele>
</trkpt>
<trkpt lat="49.33984930627048" lon="-1.735144564881921">
<ele>14</ele>
</trkpt>
<trkpt lat="49.338519517332315" lon="-1.733903288841248">
<ele>14</ele>
</trkpt>
<trkpt lat="49.338218942284584" lon="-1.734808702021837">
<ele>13</ele>
</trkpt>
<trkpt lat="49.33756347745657" lon="-1.734240492805839">
<ele>13</ele>
</trkpt>
<trkpt lat="49.336210051551461" lon="-1.733031822368503">
<ele>13</ele>
</trkpt>
<trkpt lat="49.335404550656676" lon="-1.732245180755854">
<ele>12</ele>
</trkpt>
<trkpt lat="49.3335797265172" lon="-1.730345422402024">
<ele>12</ele>
</trkpt>
<trkpt lat="49.332225127145648" lon="-1.729171201586723">
<ele>11</ele>
</trkpt>
<trkpt lat="49.331198763102293" lon="-1.728264028206468">
<ele>11</ele>
</trkpt>
<trkpt lat="49.329939633607864" lon="-1.726925522089005">
<ele>11</ele>
</trkpt>
<trkpt lat="49.328503394499421" lon="-1.725504202768207">
<ele>10</ele>
</trkpt>
<trkpt lat="49.327794536948204" lon="-1.724518993869424">
<ele>10</ele>
</trkpt>
<trkpt lat="49.328503394499421" lon="-1.725504202768207">
<ele>10</ele>
</trkpt>
<trkpt lat="49.329199092462659" lon="-1.726213060319424">
<ele>10</ele>
</trkpt>
<trkpt lat="49.329939633607864" lon="-1.726925522089005">
<ele>11</ele>
</trkpt>
<trkpt lat="49.331198763102293" lon="-1.728264028206468">
<ele>11</ele>
</trkpt>
<trkpt lat="49.332225127145648" lon="-1.729171201586723">
<ele>11</ele>
</trkpt>
<trkpt lat="49.3335797265172" lon="-1.730345422402024">
<ele>11</ele>
</trkpt>
<trkpt lat="49.334752606227994" lon="-1.731574041768909">
<ele>11</ele>
</trkpt>
<trkpt lat="49.335671430453658" lon="-1.732335202395916">
<ele>12</ele>
</trkpt>
<trkpt lat="49.336537197232246" lon="-1.733333067968488">
<ele>12</ele>
</trkpt>
<trkpt lat="49.337720470502973" lon="-1.734252898022533">
<ele>12</ele>
</trkpt>
<trkpt lat="49.338218942284584" lon="-1.734808702021837">
<ele>12</ele>
</trkpt>
<trkpt lat="49.338519517332315" lon="-1.733903288841248">
<ele>13</ele>
</trkpt>
<trkpt lat="49.33984930627048" lon="-1.735144564881921">
<ele>13</ele>
</trkpt>
<trkpt lat="49.341052696108818" lon="-1.73613497056067">
<ele>14</ele>
</trkpt>
<trkpt lat="49.341708077117801" lon="-1.736703347414732">
<ele>14</ele>
</trkpt>
<trkpt lat="49.342685993760824" lon="-1.737710265442729">
<ele>14</ele>
</trkpt>
<trkpt lat="49.343643793836236" lon="-1.738646859303117">
<ele>15</ele>
</trkpt>
<trkpt lat="49.344873335212469" lon="-1.740190219134092">
<ele>15</ele>
</trkpt>
<trkpt lat="49.345780424773693" lon="-1.741294953972101">
<ele>16</ele>
</trkpt>
<trkpt lat="49.347514221444726" lon="-1.743222791701555">
<ele>16</ele>
</trkpt>
<trkpt lat="49.348664470016956" lon="-1.744450321421027">
<ele>16</ele>
</trkpt>
<trkpt lat="49.349167803302407" lon="-1.745523037388921">
<ele>16</ele>
</trkpt>
<trkpt lat="49.350139517337084" lon="-1.746047912165523">
<ele>16</ele>
</trkpt>
<trkpt lat="49.350431375205517" lon="-1.746725253760815">
<ele>16</ele>
</trkpt>
<trkpt lat="49.351191865280271" lon="-1.747508710250258">
<ele>16</ele>
</trkpt>
<trkpt lat="49.351521609351039" lon="-1.748395599424839">
<ele>16</ele>
</trkpt>
<trkpt lat="49.351664604619145" lon="-1.748820142820478">
<ele>16</ele>
</trkpt>
<trkpt lat="49.352084873244166" lon="-1.749025750905275">
<ele>16</ele>
</trkpt>
<trkpt lat="49.352494748309255" lon="-1.749540315940976">
<ele>15</ele>
</trkpt>
<trkpt lat="49.352835137397051" lon="-1.750772371888161">
<ele>15</ele>
</trkpt>
<trkpt lat="49.353191703557968" lon="-1.750869685783982">
<ele>15</ele>
</trkpt>
<trkpt lat="49.353620437905192" lon="-1.751489108428359">
<ele>15</ele>
</trkpt>
<trkpt lat="49.354158723726869" lon="-1.751532023772597">
<ele>15</ele>
</trkpt>
<trkpt lat="49.353454308584332" lon="-1.752405418083072">
<ele>14</ele>
</trkpt>
<trkpt lat="49.354699105024338" lon="-1.754157152026892">
<ele>14</ele>
</trkpt>
<trkpt lat="49.356375820934772" lon="-1.755771422758699">
<ele>14</ele>
</trkpt>
<trkpt lat="49.358683107420802" lon="-1.758021377027035">
<ele>14</ele>
</trkpt>
<trkpt lat="49.359083510935307" lon="-1.75881078466773">
<ele>13</ele>
</trkpt>
<trkpt lat="49.359224159270525" lon="-1.759304059669375">
<ele>13</ele>
</trkpt>
<trkpt lat="49.360022451728582" lon="-1.760297482833266">
<ele>13</ele>
</trkpt>
<trkpt lat="49.361600009724498" lon="-1.762179639190435">
<ele>13</ele>
</trkpt>
<trkpt lat="49.362571807578206" lon="-1.763359140604734">
<ele>12</ele>
</trkpt>
<trkpt lat="49.363435059785843" lon="-1.764426827430725">
<ele>12</ele>
</trkpt>
<trkpt lat="49.364292360842228" lon="-1.765666175633669">
<ele>12</ele>
</trkpt>
<trkpt lat="49.365101214498281" lon="-1.767004933208227">
<ele>12</ele>
</trkpt>
<trkpt lat="49.365844018757343" lon="-1.768304128199816">
<ele>11</ele>
</trkpt>
<trkpt lat="49.367491230368614" lon="-1.770777711644769">
<ele>11</ele>
</trkpt>
<trkpt lat="49.368547350168228" lon="-1.768830427899957">
<ele>11</ele>
</trkpt>
<trkpt lat="49.369621071964502" lon="-1.767022283747792">
<ele>10</ele>
</trkpt>
<trkpt lat="49.370628660544753" lon="-1.765174409374595">
<ele>10</ele>
</trkpt>
<trkpt lat="49.372183755040169" lon="-1.762440232560039">
<ele>9</ele>
</trkpt>
<trkpt lat="49.37314298003912" lon="-1.760691599920392">
<ele>9</ele>
</trkpt>
<trkpt lat="49.373388234525919" lon="-1.764051988720894">
<ele>9</ele>
</trkpt>
<trkpt lat="49.374804524704814" lon="-1.768022747710347">
<ele>8</ele>
</trkpt>
<trkpt lat="49.375673811882734" lon="-1.770227774977684">
<ele>8</ele>
</trkpt>
<trkpt lat="49.376412760466337" lon="-1.77032140083611">
<ele>7</ele>
</trkpt>
<trkpt lat="49.377540042623878" lon="-1.770239509642124">
<ele>7</ele>
</trkpt>
<trkpt lat="49.378705127164721" lon="-1.770367249846458">
<ele>7</ele>
</trkpt>
<trkpt lat="49.37913604080677" lon="-1.770918527618051">
<ele>7</ele>
</trkpt>
<trkpt lat="49.379597632214427" lon="-1.771231004968286">
<ele>7</ele>
</trkpt>
<trkpt lat="49.380379244685173" lon="-1.772051509469748">
<ele>7</ele>
</trkpt>
<trkpt lat="49.380280170589685" lon="-1.772319059818983">
<ele>7</ele>
</trkpt>
<trkpt lat="49.381057005375624" lon="-1.773276943713427">
<ele>7</ele>
</trkpt>
<trkpt lat="49.381652120500803" lon="-1.774289226159453">
<ele>8</ele>
</trkpt>
<trkpt lat="49.381215590983629" lon="-1.775218695402145">
<ele>8</ele>
</trkpt>
<trkpt lat="49.38107879832387" lon="-1.775931073352695">
<ele>8</ele>
</trkpt>
<trkpt lat="49.380344711244106" lon="-1.777008902281523">
<ele>8</ele>
</trkpt>
<trkpt lat="49.379592938348651" lon="-1.777947507798672">
<ele>8</ele>
</trkpt>
<trkpt lat="49.379420857876539" lon="-1.779690440744162">
<ele>8</ele>
</trkpt>
<trkpt lat="49.37899237498641" lon="-1.779724890366197">
<ele>8</ele>
</trkpt>
<trkpt lat="49.378519300371408" lon="-1.781719112768769">
<ele>8</ele>
</trkpt>
</trkseg>
</trk>
</gpx>
