<?xml version='1.0' encoding='UTF-8'?>
<gpx version="1.1" creator="https://www.komoot.de" xmlns="http://www.topografix.com/GPX/1/1" xmlns:xsi="http://www.w3.org/2001/XMLSchema-instance" xsi:schemaLocation="http://www.topografix.com/GPX/1/1 http://www.topografix.com/GPX/1/1/gpx.xsd">
  <metadata>
    <name>GPX Download: Blick auf Port de Soller – Alte Olivenhaine Runde von Can Tambor</name>
    <author>
      <link href="https://www.komoot.de">
        <text>komoot</text>
        <type>text/html</type>
      </link>
    </author>
  </metadata>
  <trk>
    <name>GPX Download: Blick auf Port de Soller – Alte Olivenhaine Runde von Can Tambor</name>
    <trkseg>
      <trkpt lat="39.762997" lon="2.708801">
        <ele>61.983024</ele>
        <time>2025-04-20T07:41:31.048Z</time>
      </trkpt>
      <trkpt lat="39.763031" lon="2.708776">
        <ele>61.983024</ele>
        <time>2025-04-20T07:41:35.288Z</time>
      </trkpt>
      <trkpt lat="39.762801" lon="2.709191">
        <ele>61.983024</ele>
        <time>2025-04-20T07:42:18.220Z</time>
      </trkpt>
      <trkpt lat="39.763027" lon="2.709515">
        <ele>61.983024</ele>
        <time>2025-04-20T07:42:54.883Z</time>
      </trkpt>
      <trkpt lat="39.763125" lon="2.709459">
        <ele>61.983024</ele>
        <time>2025-04-20T07:43:06.419Z</time>
      </trkpt>
      <trkpt lat="39.763158" lon="2.709624">
        <ele>61.478020</ele>
        <time>2025-04-20T07:43:20.421Z</time>
      </trkpt>
      <trkpt lat="39.763146" lon="2.709693">
        <ele>61.222362</ele>
        <time>2025-04-20T07:43:26.288Z</time>
      </trkpt>
      <trkpt lat="39.763003" lon="2.709947">
        <ele>60.084580</ele>
        <time>2025-04-20T07:43:52.644Z</time>
      </trkpt>
      <trkpt lat="39.762906" lon="2.710186">
        <ele>59.107869</ele>
        <time>2025-04-20T07:44:15.454Z</time>
      </trkpt>
      <trkpt lat="39.762828" lon="2.710534">
        <ele>57.797869</ele>
        <time>2025-04-20T07:44:46.058Z</time>
      </trkpt>
      <trkpt lat="39.762634" lon="2.710834">
        <ele>56.381095</ele>
        <time>2025-04-20T07:45:18.613Z</time>
      </trkpt>
      <trkpt lat="39.762611" lon="2.710914">
        <ele>56.072424</ele>
        <time>2025-04-20T07:45:25.692Z</time>
      </trkpt>
      <trkpt lat="39.763215" lon="2.711012">
        <ele>53.120150</ele>
        <time>2025-04-20T07:46:32.713Z</time>
      </trkpt>
      <trkpt lat="39.763637" lon="2.710871">
        <ele>50.484373</ele>
        <time>2025-04-20T07:47:22.096Z</time>
      </trkpt>
      <trkpt lat="39.764074" lon="2.710714">
        <ele>47.741750</ele>
        <time>2025-04-20T07:48:14.228Z</time>
      </trkpt>
      <trkpt lat="39.764502" lon="2.711219">
        <ele>44.246210</ele>
        <time>2025-04-20T07:49:19.388Z</time>
      </trkpt>
      <trkpt lat="39.764784" lon="2.711266">
        <ele>42.578317</ele>
        <time>2025-04-20T07:49:50.881Z</time>
      </trkpt>
      <trkpt lat="39.765053" lon="2.711092">
        <ele>41.550460</ele>
        <time>2025-04-20T07:50:23.782Z</time>
      </trkpt>
      <trkpt lat="39.765308" lon="2.711295">
        <ele>40.527605</ele>
        <time>2025-04-20T07:50:56.097Z</time>
      </trkpt>
      <trkpt lat="39.765368" lon="2.711002">
        <ele>39.730150</ele>
        <time>2025-04-20T07:51:21.048Z</time>
      </trkpt>
      <trkpt lat="39.765376" lon="2.710769">
        <ele>39.116758</ele>
        <time>2025-04-20T07:51:40.056Z</time>
      </trkpt>
      <trkpt lat="39.765317" lon="2.710044">
        <ele>37.199380</ele>
        <time>2025-04-20T07:52:39.228Z</time>
      </trkpt>
      <trkpt lat="39.765387" lon="2.709852">
        <ele>36.640508</ele>
        <time>2025-04-20T07:52:56.309Z</time>
      </trkpt>
      <trkpt lat="39.765529" lon="2.709618">
        <ele>36.107967</ele>
        <time>2025-04-20T07:53:20.269Z</time>
      </trkpt>
      <trkpt lat="39.765550" lon="2.709478">
        <ele>35.881272</ele>
        <time>2025-04-20T07:53:31.698Z</time>
      </trkpt>
      <trkpt lat="39.765710" lon="2.709604">
        <ele>35.494575</ele>
        <time>2025-04-20T07:53:51.263Z</time>
      </trkpt>
      <trkpt lat="39.765880" lon="2.709802">
        <ele>35.022810</ele>
        <time>2025-04-20T07:54:15.068Z</time>
      </trkpt>
      <trkpt lat="39.766213" lon="2.709605">
        <ele>34.266468</ele>
        <time>2025-04-20T07:54:52.911Z</time>
      </trkpt>
      <trkpt lat="39.766715" lon="2.709335">
        <ele>33.143348</ele>
        <time>2025-04-20T07:55:49.519Z</time>
      </trkpt>
      <trkpt lat="39.766883" lon="2.709218">
        <ele>32.751332</ele>
        <time>2025-04-20T07:56:09.518Z</time>
      </trkpt>
      <trkpt lat="39.767131" lon="2.708936">
        <ele>32.126463</ele>
        <time>2025-04-20T07:56:44.002Z</time>
      </trkpt>
      <trkpt lat="39.767632" lon="2.708522">
        <ele>31.000480</ele>
        <time>2025-04-20T07:57:45.987Z</time>
      </trkpt>
      <trkpt lat="39.767727" lon="2.708443">
        <ele>30.786582</ele>
        <time>2025-04-20T07:57:57.733Z</time>
      </trkpt>
      <trkpt lat="39.768264" lon="2.708216">
        <ele>29.715396</ele>
        <time>2025-04-20T07:58:56.500Z</time>
      </trkpt>
      <trkpt lat="39.768745" lon="2.707917">
        <ele>29.244970</ele>
        <time>2025-04-20T07:59:51.541Z</time>
      </trkpt>
      <trkpt lat="39.768999" lon="2.707620">
        <ele>29.130514</ele>
        <time>2025-04-20T08:00:26.179Z</time>
      </trkpt>
      <trkpt lat="39.769156" lon="2.707438">
        <ele>29.060039</ele>
        <time>2025-04-20T08:00:47.316Z</time>
      </trkpt>
      <trkpt lat="39.769449" lon="2.707097">
        <ele>28.928285</ele>
        <time>2025-04-20T08:01:27.154Z</time>
      </trkpt>
      <trkpt lat="39.769769" lon="2.706724">
        <ele>28.784291</ele>
        <time>2025-04-20T08:02:10.790Z</time>
      </trkpt>
      <trkpt lat="39.769958" lon="2.706463">
        <ele>28.835538</ele>
        <time>2025-04-20T08:02:38.946Z</time>
      </trkpt>
      <trkpt lat="39.770175" lon="2.706200">
        <ele>28.951448</ele>
        <time>2025-04-20T08:03:09.083Z</time>
      </trkpt>
      <trkpt lat="39.770725" lon="2.705572">
        <ele>29.237451</ele>
        <time>2025-04-20T08:04:23.136Z</time>
      </trkpt>
      <trkpt lat="39.770821" lon="2.705329">
        <ele>29.319527</ele>
        <time>2025-04-20T08:04:44.493Z</time>
      </trkpt>
      <trkpt lat="39.770856" lon="2.705342">
        <ele>29.333753</ele>
        <time>2025-04-20T08:04:48.149Z</time>
      </trkpt>
      <trkpt lat="39.770910" lon="2.705316">
        <ele>29.356257</ele>
        <time>2025-04-20T08:04:54.028Z</time>
      </trkpt>
      <trkpt lat="39.771049" lon="2.705156">
        <ele>29.428793</ele>
        <time>2025-04-20T08:05:12.918Z</time>
      </trkpt>
      <trkpt lat="39.771326" lon="2.704406">
        <ele>28.924955</ele>
        <time>2025-04-20T08:06:17.716Z</time>
      </trkpt>
      <trkpt lat="39.771673" lon="2.703756">
        <ele>28.338976</ele>
        <time>2025-04-20T08:07:19.270Z</time>
      </trkpt>
      <trkpt lat="39.771844" lon="2.703310">
        <ele>27.969939</ele>
        <time>2025-04-20T08:07:59.043Z</time>
      </trkpt>
      <trkpt lat="39.772042" lon="2.703129">
        <ele>27.736823</ele>
        <time>2025-04-20T08:08:24.600Z</time>
      </trkpt>
      <trkpt lat="39.772090" lon="2.703088">
        <ele>27.552085</ele>
        <time>2025-04-20T08:08:30.666Z</time>
      </trkpt>
      <trkpt lat="39.772184" lon="2.703046">
        <ele>27.192556</ele>
        <time>2025-04-20T08:08:41.265Z</time>
      </trkpt>
      <trkpt lat="39.772412" lon="2.703224">
        <ele>26.230698</ele>
        <time>2025-04-20T08:09:09.715Z</time>
      </trkpt>
      <trkpt lat="39.772803" lon="2.703450">
        <ele>24.682996</ele>
        <time>2025-04-20T08:09:56.207Z</time>
      </trkpt>
      <trkpt lat="39.773884" lon="2.702348">
        <ele>20.287533</ele>
        <time>2025-04-20T08:12:24.720Z</time>
      </trkpt>
      <trkpt lat="39.774222" lon="2.701952">
        <ele>19.267117</ele>
        <time>2025-04-20T08:13:12.727Z</time>
      </trkpt>
      <trkpt lat="39.775247" lon="2.700882">
        <ele>17.238575</ele>
        <time>2025-04-20T08:15:27.694Z</time>
      </trkpt>
      <trkpt lat="39.775991" lon="2.700214">
        <ele>17.359505</ele>
        <time>2025-04-20T08:16:58.395Z</time>
      </trkpt>
      <trkpt lat="39.776416" lon="2.699771">
        <ele>17.528933</ele>
        <time>2025-04-20T08:17:55.716Z</time>
      </trkpt>
      <trkpt lat="39.776445" lon="2.699745">
        <ele>17.626289</ele>
        <time>2025-04-20T08:17:59.472Z</time>
      </trkpt>
      <trkpt lat="39.776579" lon="2.699329">
        <ele>18.584599</ele>
        <time>2025-04-20T08:18:36.500Z</time>
      </trkpt>
      <trkpt lat="39.776820" lon="2.699000">
        <ele>19.550221</ele>
        <time>2025-04-20T08:19:14.138Z</time>
      </trkpt>
      <trkpt lat="39.777501" lon="2.698031">
        <ele>22.339886</ele>
        <time>2025-04-20T08:21:07.438Z</time>
      </trkpt>
      <trkpt lat="39.777574" lon="2.697861">
        <ele>22.960203</ele>
        <time>2025-04-20T08:21:24.169Z</time>
      </trkpt>
      <trkpt lat="39.777661" lon="2.697483">
        <ele>24.287760</ele>
        <time>2025-04-20T08:21:57.982Z</time>
      </trkpt>
      <trkpt lat="39.777656" lon="2.697456">
        <ele>24.381199</ele>
        <time>2025-04-20T08:22:00.390Z</time>
      </trkpt>
      <trkpt lat="39.777669" lon="2.697408">
        <ele>24.552426</ele>
        <time>2025-04-20T08:22:04.820Z</time>
      </trkpt>
      <trkpt lat="39.777676" lon="2.697390">
        <ele>24.620297</ele>
        <time>2025-04-20T08:22:06.623Z</time>
      </trkpt>
      <trkpt lat="39.777885" lon="2.696943">
        <ele>26.380643</ele>
        <time>2025-04-20T08:22:53.223Z</time>
      </trkpt>
      <trkpt lat="39.778041" lon="2.696605">
        <ele>27.707119</ele>
        <time>2025-04-20T08:23:29.088Z</time>
      </trkpt>
      <trkpt lat="39.778089" lon="2.696477">
        <ele>28.186294</ele>
        <time>2025-04-20T08:23:41.952Z</time>
      </trkpt>
      <trkpt lat="39.778145" lon="2.696204">
        <ele>29.136929</ele>
        <time>2025-04-20T08:24:07.549Z</time>
      </trkpt>
      <trkpt lat="39.778135" lon="2.695863">
        <ele>30.280237</ele>
        <time>2025-04-20T08:24:38.101Z</time>
      </trkpt>
      <trkpt lat="39.778192" lon="2.695289">
        <ele>31.413667</ele>
        <time>2025-04-20T08:25:29.632Z</time>
      </trkpt>
      <trkpt lat="39.778239" lon="2.695079">
        <ele>31.842001</ele>
        <time>2025-04-20T08:25:49.143Z</time>
      </trkpt>
      <trkpt lat="39.778325" lon="2.694424">
        <ele>33.143294</ele>
        <time>2025-04-20T08:26:45.609Z</time>
      </trkpt>
      <trkpt lat="39.778379" lon="2.694173">
        <ele>33.653731</ele>
        <time>2025-04-20T08:27:06.830Z</time>
      </trkpt>
      <trkpt lat="39.778334" lon="2.693781">
        <ele>34.429914</ele>
        <time>2025-04-20T08:27:38.339Z</time>
      </trkpt>
      <trkpt lat="39.778422" lon="2.693785">
        <ele>34.654289</ele>
        <time>2025-04-20T08:27:47.185Z</time>
      </trkpt>
      <trkpt lat="39.778602" lon="2.693897">
        <ele>34.904260</ele>
        <time>2025-04-20T08:28:07.180Z</time>
      </trkpt>
      <trkpt lat="39.779269" lon="2.694496">
        <ele>35.224583</ele>
        <time>2025-04-20T08:29:30.791Z</time>
      </trkpt>
      <trkpt lat="39.779672" lon="2.695635">
        <ele>35.708652</ele>
        <time>2025-04-20T08:31:11.536Z</time>
      </trkpt>
      <trkpt lat="39.779775" lon="2.695679">
        <ele>35.868653</ele>
        <time>2025-04-20T08:31:23.777Z</time>
      </trkpt>
      <trkpt lat="39.779867" lon="2.695895">
        <ele>36.148764</ele>
        <time>2025-04-20T08:31:44.816Z</time>
      </trkpt>
      <trkpt lat="39.779851" lon="2.695708">
        <ele>36.362179</ele>
        <time>2025-04-20T08:32:01.026Z</time>
      </trkpt>
      <trkpt lat="39.779881" lon="2.695692">
        <ele>36.410032</ele>
        <time>2025-04-20T08:32:04.705Z</time>
      </trkpt>
      <trkpt lat="39.780055" lon="2.695938">
        <ele>36.789249</ele>
        <time>2025-04-20T08:32:33.408Z</time>
      </trkpt>
      <trkpt lat="39.780060" lon="2.695868">
        <ele>36.868989</ele>
        <time>2025-04-20T08:32:39.380Z</time>
      </trkpt>
      <trkpt lat="39.780312" lon="2.696273">
        <ele>37.460050</ele>
        <time>2025-04-20T08:33:23.805Z</time>
      </trkpt>
      <trkpt lat="39.780401" lon="2.696571">
        <ele>37.822682</ele>
        <time>2025-04-20T08:33:49.462Z</time>
      </trkpt>
      <trkpt lat="39.780548" lon="2.696837">
        <ele>38.194299</ele>
        <time>2025-04-20T08:34:14.937Z</time>
      </trkpt>
      <trkpt lat="39.780794" lon="2.697558">
        <ele>35.463962</ele>
        <time>2025-04-20T08:35:20.088Z</time>
      </trkpt>
      <trkpt lat="39.780956" lon="2.697784">
        <ele>34.348314</ele>
        <time>2025-04-20T08:35:46.682Z</time>
      </trkpt>
      <trkpt lat="39.781187" lon="2.697975">
        <ele>33.062696</ele>
        <time>2025-04-20T08:36:17.777Z</time>
      </trkpt>
      <trkpt lat="39.781212" lon="2.698007">
        <ele>32.897970</ele>
        <time>2025-04-20T08:36:21.733Z</time>
      </trkpt>
      <trkpt lat="39.781531" lon="2.698410">
        <ele>30.809487</ele>
        <time>2025-04-20T08:37:12.305Z</time>
      </trkpt>
      <trkpt lat="39.781526" lon="2.698431">
        <ele>30.730124</ele>
        <time>2025-04-20T08:37:14.203Z</time>
      </trkpt>
      <trkpt lat="39.781481" lon="2.698418">
        <ele>30.513597</ele>
        <time>2025-04-20T08:37:19.337Z</time>
      </trkpt>
      <trkpt lat="39.781553" lon="2.698544">
        <ele>29.946791</ele>
        <time>2025-04-20T08:37:32.800Z</time>
      </trkpt>
      <trkpt lat="39.781661" lon="2.698653">
        <ele>29.410734</ele>
        <time>2025-04-20T08:37:47.929Z</time>
      </trkpt>
      <trkpt lat="39.781828" lon="2.698763">
        <ele>28.730267</ele>
        <time>2025-04-20T08:38:08.411Z</time>
      </trkpt>
      <trkpt lat="39.782086" lon="2.698668">
        <ele>27.755495</ele>
        <time>2025-04-20T08:38:37.384Z</time>
      </trkpt>
      <trkpt lat="39.782063" lon="2.698726">
        <ele>27.573154</ele>
        <time>2025-04-20T08:38:42.723Z</time>
      </trkpt>
      <trkpt lat="39.782320" lon="2.698689">
        <ele>26.633146</ele>
        <time>2025-04-20T08:39:10.221Z</time>
      </trkpt>
      <trkpt lat="39.782487" lon="2.698627">
        <ele>26.001802</ele>
        <time>2025-04-20T08:39:28.573Z</time>
      </trkpt>
      <trkpt lat="39.782617" lon="2.698520">
        <ele>25.442590</ele>
        <time>2025-04-20T08:39:44.947Z</time>
      </trkpt>
      <trkpt lat="39.782699" lon="2.698289">
        <ele>24.731709</ele>
        <time>2025-04-20T08:40:05.708Z</time>
      </trkpt>
      <trkpt lat="39.782706" lon="2.697780">
        <ele>23.309462</ele>
        <time>2025-04-20T08:40:47.290Z</time>
      </trkpt>
      <trkpt lat="39.782748" lon="2.697659">
        <ele>23.123359</ele>
        <time>2025-04-20T08:40:58.018Z</time>
      </trkpt>
      <trkpt lat="39.782870" lon="2.697711">
        <ele>22.947962</ele>
        <time>2025-04-20T08:41:11.595Z</time>
      </trkpt>
      <trkpt lat="39.783482" lon="2.697771">
        <ele>22.109441</ele>
        <time>2025-04-20T08:42:16.348Z</time>
      </trkpt>
      <trkpt lat="39.783988" lon="2.697523">
        <ele>21.370704</ele>
        <time>2025-04-20T08:43:12.637Z</time>
      </trkpt>
      <trkpt lat="39.784064" lon="2.697359">
        <ele>21.169632</ele>
        <time>2025-04-20T08:43:27.706Z</time>
      </trkpt>
      <trkpt lat="39.784205" lon="2.697239">
        <ele>20.939448</ele>
        <time>2025-04-20T08:43:44.683Z</time>
      </trkpt>
      <trkpt lat="39.784794" lon="2.696583">
        <ele>24.998036</ele>
        <time>2025-04-20T08:45:10.202Z</time>
      </trkpt>
      <trkpt lat="39.784804" lon="2.696506">
        <ele>25.383833</ele>
        <time>2025-04-20T08:45:17.345Z</time>
      </trkpt>
      <trkpt lat="39.784931" lon="2.696263">
        <ele>26.835660</ele>
        <time>2025-04-20T08:45:44.525Z</time>
      </trkpt>
      <trkpt lat="39.785134" lon="2.695935">
        <ele>28.916269</ele>
        <time>2025-04-20T08:46:24.848Z</time>
      </trkpt>
      <trkpt lat="39.785217" lon="2.695808">
        <ele>29.739905</ele>
        <time>2025-04-20T08:46:45.325Z</time>
      </trkpt>
      <trkpt lat="39.785287" lon="2.695559">
        <ele>31.049764</ele>
        <time>2025-04-20T08:47:19.045Z</time>
      </trkpt>
      <trkpt lat="39.785455" lon="2.695137">
        <ele>35.324493</ele>
        <time>2025-04-20T08:48:23.814Z</time>
      </trkpt>
      <trkpt lat="39.785503" lon="2.694777">
        <ele>40.419315</ele>
        <time>2025-04-20T08:49:20.960Z</time>
      </trkpt>
      <trkpt lat="39.785491" lon="2.694766">
        <ele>40.685662</ele>
        <time>2025-04-20T08:49:24.086Z</time>
      </trkpt>
      <trkpt lat="39.785445" lon="2.694849">
        <ele>42.112609</ele>
        <time>2025-04-20T08:49:41.019Z</time>
      </trkpt>
      <trkpt lat="39.785425" lon="2.694844">
        <ele>42.482158</ele>
        <time>2025-04-20T08:49:45.304Z</time>
      </trkpt>
      <trkpt lat="39.785464" lon="2.694596">
        <ele>46.011926</ele>
        <time>2025-04-20T08:50:28.861Z</time>
      </trkpt>
      <trkpt lat="39.785464" lon="2.694060">
        <ele>53.485881</ele>
        <time>2025-04-20T08:52:09.616Z</time>
      </trkpt>
      <trkpt lat="39.785386" lon="2.693753">
        <ele>57.994588</ele>
        <time>2025-04-20T08:53:13.903Z</time>
      </trkpt>
      <trkpt lat="39.785263" lon="2.693504">
        <ele>62.122126</ele>
        <time>2025-04-20T08:54:14.227Z</time>
      </trkpt>
      <trkpt lat="39.785233" lon="2.693508">
        <ele>62.669345</ele>
        <time>2025-04-20T08:54:22.274Z</time>
      </trkpt>
      <trkpt lat="39.785214" lon="2.693593">
        <ele>63.903710</ele>
        <time>2025-04-20T08:54:40.544Z</time>
      </trkpt>
      <trkpt lat="39.785185" lon="2.693597">
        <ele>64.432882</ele>
        <time>2025-04-20T08:54:48.361Z</time>
      </trkpt>
      <trkpt lat="39.785093" lon="2.693390">
        <ele>67.842235</ele>
        <time>2025-04-20T08:55:37.539Z</time>
      </trkpt>
      <trkpt lat="39.784928" lon="2.692896">
        <ele>75.554959</ele>
        <time>2025-04-20T08:57:25.143Z</time>
      </trkpt>
      <trkpt lat="39.784804" lon="2.692439">
        <ele>82.494563</ele>
        <time>2025-04-20T08:58:56.407Z</time>
      </trkpt>
      <trkpt lat="39.784698" lon="2.692425">
        <ele>84.479832</ele>
        <time>2025-04-20T08:59:21.052Z</time>
      </trkpt>
      <trkpt lat="39.784560" lon="2.691965">
        <ele>91.550613</ele>
        <time>2025-04-20T09:00:45.396Z</time>
      </trkpt>
      <trkpt lat="39.784572" lon="2.691912">
        <ele>92.341765</ele>
        <time>2025-04-20T09:00:54.393Z</time>
      </trkpt>
      <trkpt lat="39.784615" lon="2.691877">
        <ele>93.286819</ele>
        <time>2025-04-20T09:01:05.028Z</time>
      </trkpt>
      <trkpt lat="39.784513" lon="2.691653">
        <ele>97.015055</ele>
        <time>2025-04-20T09:01:46.116Z</time>
      </trkpt>
      <trkpt lat="39.784501" lon="2.691516">
        <ele>98.801222</ele>
        <time>2025-04-20T09:02:07.366Z</time>
      </trkpt>
      <trkpt lat="39.784567" lon="2.691315">
        <ele>100.745460</ele>
        <time>2025-04-20T09:02:40.119Z</time>
      </trkpt>
      <trkpt lat="39.784628" lon="2.690927">
        <ele>104.268139</ele>
        <time>2025-04-20T09:03:35.529Z</time>
      </trkpt>
      <trkpt lat="39.784628" lon="2.690927">
        <ele>104.268139</ele>
        <time>2025-04-20T09:03:35.534Z</time>
      </trkpt>
      <trkpt lat="39.784570" lon="2.690504">
        <ele>108.090074</ele>
        <time>2025-04-20T09:04:32.269Z</time>
      </trkpt>
      <trkpt lat="39.784528" lon="2.690355">
        <ele>109.501753</ele>
        <time>2025-04-20T09:04:52.984Z</time>
      </trkpt>
      <trkpt lat="39.784510" lon="2.690041">
        <ele>112.302492</ele>
        <time>2025-04-20T09:05:33.838Z</time>
      </trkpt>
      <trkpt lat="39.784562" lon="2.689961">
        <ele>113.234498</ele>
        <time>2025-04-20T09:05:47.413Z</time>
      </trkpt>
      <trkpt lat="39.784610" lon="2.689612">
        <ele>116.388120</ele>
        <time>2025-04-20T09:06:32.972Z</time>
      </trkpt>
      <trkpt lat="39.784607" lon="2.689452">
        <ele>117.811715</ele>
        <time>2025-04-20T09:06:53.573Z</time>
      </trkpt>
      <trkpt lat="39.784636" lon="2.689353">
        <ele>118.754111</ele>
        <time>2025-04-20T09:07:07.087Z</time>
      </trkpt>
      <trkpt lat="39.784575" lon="2.688968">
        <ele>122.087080</ele>
        <time>2025-04-20T09:07:57.331Z</time>
      </trkpt>
      <trkpt lat="39.784599" lon="2.688681">
        <ele>124.512045</ele>
        <time>2025-04-20T09:08:34.120Z</time>
      </trkpt>
      <trkpt lat="39.784585" lon="2.688616">
        <ele>125.079071</ele>
        <time>2025-04-20T09:08:42.867Z</time>
      </trkpt>
      <trkpt lat="39.784534" lon="2.688599">
        <ele>125.654535</ele>
        <time>2025-04-20T09:08:51.741Z</time>
      </trkpt>
      <trkpt lat="39.784422" lon="2.688806">
        <ele>127.781042</ele>
        <time>2025-04-20T09:09:24.715Z</time>
      </trkpt>
      <trkpt lat="39.784401" lon="2.688780">
        <ele>128.097881</ele>
        <time>2025-04-20T09:09:29.758Z</time>
      </trkpt>
      <trkpt lat="39.784419" lon="2.688619">
        <ele>129.464485</ele>
        <time>2025-04-20T09:09:51.886Z</time>
      </trkpt>
      <trkpt lat="39.784337" lon="2.688333">
        <ele>132.028589</ele>
        <time>2025-04-20T09:10:34.316Z</time>
      </trkpt>
      <trkpt lat="39.784247" lon="2.688236">
        <ele>133.305953</ele>
        <time>2025-04-20T09:10:55.543Z</time>
      </trkpt>
      <trkpt lat="39.784115" lon="2.688163">
        <ele>134.873699</ele>
        <time>2025-04-20T09:11:21.569Z</time>
      </trkpt>
      <trkpt lat="39.783539" lon="2.687938">
        <ele>140.510782</ele>
        <time>2025-04-20T09:13:06.247Z</time>
      </trkpt>
      <trkpt lat="39.783405" lon="2.687861">
        <ele>141.506090</ele>
        <time>2025-04-20T09:13:30.637Z</time>
      </trkpt>
      <trkpt lat="39.783333" lon="2.687780">
        <ele>142.152784</ele>
        <time>2025-04-20T09:13:46.239Z</time>
      </trkpt>
      <trkpt lat="39.783297" lon="2.687674">
        <ele>142.757907</ele>
        <time>2025-04-20T09:14:00.707Z</time>
      </trkpt>
      <trkpt lat="39.783289" lon="2.687466">
        <ele>143.845342</ele>
        <time>2025-04-20T09:14:26.229Z</time>
      </trkpt>
      <trkpt lat="39.783313" lon="2.687370">
        <ele>144.372466</ele>
        <time>2025-04-20T09:14:38.530Z</time>
      </trkpt>
      <trkpt lat="39.783741" lon="2.687100">
        <ele>147.604299</ele>
        <time>2025-04-20T09:15:49.402Z</time>
      </trkpt>
      <trkpt lat="39.783827" lon="2.687072">
        <ele>148.206654</ele>
        <time>2025-04-20T09:16:01.714Z</time>
      </trkpt>
      <trkpt lat="39.783916" lon="2.686983">
        <ele>148.969314</ele>
        <time>2025-04-20T09:16:17.469Z</time>
      </trkpt>
      <trkpt lat="39.783989" lon="2.686911">
        <ele>149.591699</ele>
        <time>2025-04-20T09:16:30.129Z</time>
      </trkpt>
      <trkpt lat="39.784114" lon="2.686877">
        <ele>150.459391</ele>
        <time>2025-04-20T09:16:47.954Z</time>
      </trkpt>
      <trkpt lat="39.784183" lon="2.686792">
        <ele>151.104979</ele>
        <time>2025-04-20T09:17:01.212Z</time>
      </trkpt>
      <trkpt lat="39.784332" lon="2.686746">
        <ele>151.702455</ele>
        <time>2025-04-20T09:17:22.275Z</time>
      </trkpt>
      <trkpt lat="39.784447" lon="2.686611">
        <ele>152.265108</ele>
        <time>2025-04-20T09:17:43.869Z</time>
      </trkpt>
      <trkpt lat="39.784660" lon="2.686469">
        <ele>153.134543</ele>
        <time>2025-04-20T09:18:16.926Z</time>
      </trkpt>
      <trkpt lat="39.784776" lon="2.686360">
        <ele>153.654335</ele>
        <time>2025-04-20T09:18:36.771Z</time>
      </trkpt>
      <trkpt lat="39.784793" lon="2.686232">
        <ele>154.016969</ele>
        <time>2025-04-20T09:18:50.907Z</time>
      </trkpt>
      <trkpt lat="39.784860" lon="2.685482">
        <ele>156.124834</ele>
        <time>2025-04-20T09:20:13.535Z</time>
      </trkpt>
      <trkpt lat="39.784757" lon="2.685082">
        <ele>157.302534</ele>
        <time>2025-04-20T09:21:00.157Z</time>
      </trkpt>
      <trkpt lat="39.784569" lon="2.684360">
        <ele>159.353982</ele>
        <time>2025-04-20T09:22:22.700Z</time>
      </trkpt>
      <trkpt lat="39.784336" lon="2.684019">
        <ele>160.570460</ele>
        <time>2025-04-20T09:23:10.617Z</time>
      </trkpt>
      <trkpt lat="39.784204" lon="2.683922">
        <ele>161.096366</ele>
        <time>2025-04-20T09:23:31.450Z</time>
      </trkpt>
      <trkpt lat="39.784019" lon="2.683630">
        <ele>162.105278</ele>
        <time>2025-04-20T09:24:11.554Z</time>
      </trkpt>
      <trkpt lat="39.783983" lon="2.683499">
        <ele>162.476177</ele>
        <time>2025-04-20T09:24:26.419Z</time>
      </trkpt>
      <trkpt lat="39.783997" lon="2.683390">
        <ele>162.770797</ele>
        <time>2025-04-20T09:24:38.345Z</time>
      </trkpt>
      <trkpt lat="39.784067" lon="2.683330">
        <ele>163.061588</ele>
        <time>2025-04-20T09:24:50.108Z</time>
      </trkpt>
      <trkpt lat="39.784070" lon="2.683282">
        <ele>163.189976</ele>
        <time>2025-04-20T09:24:55.373Z</time>
      </trkpt>
      <trkpt lat="39.784000" lon="2.683238">
        <ele>163.459667</ele>
        <time>2025-04-20T09:25:06.393Z</time>
      </trkpt>
      <trkpt lat="39.783926" lon="2.683082">
        <ele>163.948409</ele>
        <time>2025-04-20T09:25:26.402Z</time>
      </trkpt>
      <trkpt lat="39.784056" lon="2.683024">
        <ele>164.650602</ele>
        <time>2025-04-20T09:25:46.199Z</time>
      </trkpt>
      <trkpt lat="39.784080" lon="2.682989">
        <ele>164.837253</ele>
        <time>2025-04-20T09:25:51.362Z</time>
      </trkpt>
      <trkpt lat="39.784018" lon="2.682806">
        <ele>165.633050</ele>
        <time>2025-04-20T09:26:13.704Z</time>
      </trkpt>
      <trkpt lat="39.784048" lon="2.682758">
        <ele>165.879240</ele>
        <time>2025-04-20T09:26:20.647Z</time>
      </trkpt>
      <trkpt lat="39.783947" lon="2.682555">
        <ele>166.841511</ele>
        <time>2025-04-20T09:26:48.159Z</time>
      </trkpt>
      <trkpt lat="39.783974" lon="2.682484">
        <ele>167.156725</ele>
        <time>2025-04-20T09:26:57.420Z</time>
      </trkpt>
      <trkpt lat="39.783969" lon="2.682221">
        <ele>168.203541</ele>
        <time>2025-04-20T09:27:27.703Z</time>
      </trkpt>
      <trkpt lat="39.783833" lon="2.682100">
        <ele>169.056602</ele>
        <time>2025-04-20T09:27:52.101Z</time>
      </trkpt>
      <trkpt lat="39.783788" lon="2.682030">
        <ele>169.419749</ele>
        <time>2025-04-20T09:28:02.415Z</time>
      </trkpt>
      <trkpt lat="39.783689" lon="2.681693">
        <ele>170.855343</ele>
        <time>2025-04-20T09:28:43.475Z</time>
      </trkpt>
      <trkpt lat="39.783782" lon="2.681487">
        <ele>171.806019</ele>
        <time>2025-04-20T09:29:10.771Z</time>
      </trkpt>
      <trkpt lat="39.783850" lon="2.681204">
        <ele>172.985863</ele>
        <time>2025-04-20T09:29:45.007Z</time>
      </trkpt>
      <trkpt lat="39.783878" lon="2.681185">
        <ele>173.149374</ele>
        <time>2025-04-20T09:29:49.772Z</time>
      </trkpt>
      <trkpt lat="39.783900" lon="2.681227">
        <ele>173.346826</ele>
        <time>2025-04-20T09:29:55.725Z</time>
      </trkpt>
      <trkpt lat="39.783900" lon="2.681227">
        <ele>173.346826</ele>
        <time>2025-04-20T09:29:55.725Z</time>
      </trkpt>
      <trkpt lat="39.783877" lon="2.681372">
        <ele>173.896017</ele>
        <time>2025-04-20T09:30:12.914Z</time>
      </trkpt>
      <trkpt lat="39.783875" lon="2.681379">
        <ele>173.923718</ele>
        <time>2025-04-20T09:30:13.736Z</time>
      </trkpt>
      <trkpt lat="39.783894" lon="2.681463">
        <ele>174.248518</ele>
        <time>2025-04-20T09:30:23.891Z</time>
      </trkpt>
      <trkpt lat="39.783992" lon="2.681622">
        <ele>175.004567</ele>
        <time>2025-04-20T09:30:47.452Z</time>
      </trkpt>
      <trkpt lat="39.784218" lon="2.681559">
        <ele>176.120203</ele>
        <time>2025-04-20T09:31:22.282Z</time>
      </trkpt>
      <trkpt lat="39.784720" lon="2.681619">
        <ele>178.553523</ele>
        <time>2025-04-20T09:32:35.941Z</time>
      </trkpt>
      <trkpt lat="39.784824" lon="2.681529">
        <ele>179.156392</ele>
        <time>2025-04-20T09:32:53.526Z</time>
      </trkpt>
      <trkpt lat="39.784885" lon="2.681397">
        <ele>179.727730</ele>
        <time>2025-04-20T09:33:10.316Z</time>
      </trkpt>
      <trkpt lat="39.784915" lon="2.681127">
        <ele>180.739648</ele>
        <time>2025-04-20T09:33:39.733Z</time>
      </trkpt>
      <trkpt lat="39.784915" lon="2.681127">
        <ele>180.739648</ele>
        <time>2025-04-20T09:33:39.733Z</time>
      </trkpt>
      <trkpt lat="39.784911" lon="2.680943">
        <ele>181.422426</ele>
        <time>2025-04-20T09:33:59.691Z</time>
      </trkpt>
      <trkpt lat="39.784956" lon="2.680759">
        <ele>182.137860</ele>
        <time>2025-04-20T09:34:16.676Z</time>
      </trkpt>
      <trkpt lat="39.784957" lon="2.680653">
        <ele>182.529278</ele>
        <time>2025-04-20T09:34:25.998Z</time>
      </trkpt>
      <trkpt lat="39.785084" lon="2.680259">
        <ele>184.106864</ele>
        <time>2025-04-20T09:35:04.224Z</time>
      </trkpt>
      <trkpt lat="39.785178" lon="2.679706">
        <ele>186.198087</ele>
        <time>2025-04-20T09:35:54.998Z</time>
      </trkpt>
      <trkpt lat="39.785387" lon="2.679781">
        <ele>187.239799</ele>
        <time>2025-04-20T09:36:20.611Z</time>
      </trkpt>
      <trkpt lat="39.785569" lon="2.679751">
        <ele>188.121282</ele>
        <time>2025-04-20T09:36:42.344Z</time>
      </trkpt>
      <trkpt lat="39.785716" lon="2.679619">
        <ele>188.979442</ele>
        <time>2025-04-20T09:37:03.644Z</time>
      </trkpt>
      <trkpt lat="39.786092" lon="2.679724">
        <ele>190.581596</ele>
        <time>2025-04-20T09:37:49.799Z</time>
      </trkpt>
      <trkpt lat="39.786498" lon="2.679637">
        <ele>190.372437</ele>
        <time>2025-04-20T09:38:37.882Z</time>
      </trkpt>
      <trkpt lat="39.786627" lon="2.679646">
        <ele>190.306768</ele>
        <time>2025-04-20T09:38:52.000Z</time>
      </trkpt>
      <trkpt lat="39.786964" lon="2.679534">
        <ele>190.129964</ele>
        <time>2025-04-20T09:39:27.885Z</time>
      </trkpt>
      <trkpt lat="39.787091" lon="2.679550">
        <ele>190.065105</ele>
        <time>2025-04-20T09:39:40.810Z</time>
      </trkpt>
      <trkpt lat="39.787304" lon="2.679641">
        <ele>189.951146</ele>
        <time>2025-04-20T09:40:04.300Z</time>
      </trkpt>
      <trkpt lat="39.787387" lon="2.679819">
        <ele>189.869818</ele>
        <time>2025-04-20T09:40:21.476Z</time>
      </trkpt>
      <trkpt lat="39.787576" lon="2.679841">
        <ele>189.773360</ele>
        <time>2025-04-20T09:40:42.343Z</time>
      </trkpt>
      <trkpt lat="39.787737" lon="2.679821">
        <ele>189.691148</ele>
        <time>2025-04-20T09:41:00.615Z</time>
      </trkpt>
      <trkpt lat="39.787836" lon="2.679760">
        <ele>188.484736</ele>
        <time>2025-04-20T09:41:13.157Z</time>
      </trkpt>
      <trkpt lat="39.787911" lon="2.679693">
        <ele>187.476764</ele>
        <time>2025-04-20T09:41:23.647Z</time>
      </trkpt>
      <trkpt lat="39.788012" lon="2.679514">
        <ele>185.585966</ele>
        <time>2025-04-20T09:41:43.728Z</time>
      </trkpt>
      <trkpt lat="39.788079" lon="2.679465">
        <ele>184.734394</ele>
        <time>2025-04-20T09:41:52.843Z</time>
      </trkpt>
      <trkpt lat="39.788651" lon="2.679592">
        <ele>178.304929</ele>
        <time>2025-04-20T09:43:03.435Z</time>
      </trkpt>
      <trkpt lat="39.788744" lon="2.679552">
        <ele>177.219648</ele>
        <time>2025-04-20T09:43:15.624Z</time>
      </trkpt>
      <trkpt lat="39.788922" lon="2.679604">
        <ele>175.198287</ele>
        <time>2025-04-20T09:43:38.475Z</time>
      </trkpt>
      <trkpt lat="39.789022" lon="2.679738">
        <ele>173.607895</ele>
        <time>2025-04-20T09:43:56.501Z</time>
      </trkpt>
      <trkpt lat="39.789098" lon="2.679934">
        <ele>171.738697</ele>
        <time>2025-04-20T09:44:17.880Z</time>
      </trkpt>
      <trkpt lat="39.789144" lon="2.679958">
        <ele>171.189572</ele>
        <time>2025-04-20T09:44:24.269Z</time>
      </trkpt>
      <trkpt lat="39.789288" lon="2.679858">
        <ele>169.223187</ele>
        <time>2025-04-20T09:44:45.069Z</time>
      </trkpt>
      <trkpt lat="39.789400" lon="2.679733">
        <ele>166.909760</ele>
        <time>2025-04-20T09:45:04.061Z</time>
      </trkpt>
      <trkpt lat="39.789719" lon="2.679690">
        <ele>161.881268</ele>
        <time>2025-04-20T09:45:45.581Z</time>
      </trkpt>
      <trkpt lat="39.789986" lon="2.679698">
        <ele>157.693754</ele>
        <time>2025-04-20T09:46:20.382Z</time>
      </trkpt>
      <trkpt lat="39.790139" lon="2.679778">
        <ele>155.108421</ele>
        <time>2025-04-20T09:46:42.036Z</time>
      </trkpt>
      <trkpt lat="39.790332" lon="2.679738">
        <ele>152.044160</ele>
        <time>2025-04-20T09:47:07.579Z</time>
      </trkpt>
      <trkpt lat="39.790411" lon="2.679793">
        <ele>150.639383</ele>
        <time>2025-04-20T09:47:19.236Z</time>
      </trkpt>
      <trkpt lat="39.790660" lon="2.679856">
        <ele>146.662111</ele>
        <time>2025-04-20T09:47:52.551Z</time>
      </trkpt>
      <trkpt lat="39.790786" lon="2.679803">
        <ele>144.585877</ele>
        <time>2025-04-20T09:48:09.949Z</time>
      </trkpt>
      <trkpt lat="39.790886" lon="2.679839">
        <ele>142.959053</ele>
        <time>2025-04-20T09:48:23.574Z</time>
      </trkpt>
      <trkpt lat="39.791228" lon="2.679819">
        <ele>139.196226</ele>
        <time>2025-04-20T09:49:08.400Z</time>
      </trkpt>
      <trkpt lat="39.791375" lon="2.679730">
        <ele>137.682223</ele>
        <time>2025-04-20T09:49:29.666Z</time>
      </trkpt>
      <trkpt lat="39.791578" lon="2.679659">
        <ele>135.719287</ele>
        <time>2025-04-20T09:49:56.995Z</time>
      </trkpt>
      <trkpt lat="39.791758" lon="2.679730">
        <ele>133.962888</ele>
        <time>2025-04-20T09:50:20.690Z</time>
      </trkpt>
      <trkpt lat="39.791853" lon="2.679612">
        <ele>132.736555</ele>
        <time>2025-04-20T09:50:36.691Z</time>
      </trkpt>
      <trkpt lat="39.791910" lon="2.679624">
        <ele>132.197353</ele>
        <time>2025-04-20T09:50:43.503Z</time>
      </trkpt>
      <trkpt lat="39.791958" lon="2.679695">
        <ele>131.518787</ele>
        <time>2025-04-20T09:50:52.026Z</time>
      </trkpt>
      <trkpt lat="39.791948" lon="2.679977">
        <ele>129.493200</ele>
        <time>2025-04-20T09:51:16.562Z</time>
      </trkpt>
      <trkpt lat="39.791894" lon="2.680128">
        <ele>128.298129</ele>
        <time>2025-04-20T09:51:30.562Z</time>
      </trkpt>
      <trkpt lat="39.791960" lon="2.680182">
        <ele>127.570125</ele>
        <time>2025-04-20T09:51:38.737Z</time>
      </trkpt>
      <trkpt lat="39.792026" lon="2.680160">
        <ele>126.933904</ele>
        <time>2025-04-20T09:51:45.969Z</time>
      </trkpt>
      <trkpt lat="39.792121" lon="2.679998">
        <ele>125.471653</ele>
        <time>2025-04-20T09:52:02.038Z</time>
      </trkpt>
      <trkpt lat="39.792150" lon="2.679895">
        <ele>124.760910</ele>
        <time>2025-04-20T09:52:10.579Z</time>
      </trkpt>
      <trkpt lat="39.792139" lon="2.679503">
        <ele>124.668603</ele>
        <time>2025-04-20T09:52:42.174Z</time>
      </trkpt>
      <trkpt lat="39.792111" lon="2.679306">
        <ele>124.621459</ele>
        <time>2025-04-20T09:52:58.775Z</time>
      </trkpt>
      <trkpt lat="39.792044" lon="2.679222">
        <ele>124.592967</ele>
        <time>2025-04-20T09:53:08.667Z</time>
      </trkpt>
      <trkpt lat="39.792043" lon="2.679170">
        <ele>124.580727</ele>
        <time>2025-04-20T09:53:13.121Z</time>
      </trkpt>
      <trkpt lat="39.791847" lon="2.678727">
        <ele>124.460434</ele>
        <time>2025-04-20T09:53:56.271Z</time>
      </trkpt>
      <trkpt lat="39.791840" lon="2.678592">
        <ele>124.428593</ele>
        <time>2025-04-20T09:54:07.588Z</time>
      </trkpt>
      <trkpt lat="39.791946" lon="2.678530">
        <ele>124.393002</ele>
        <time>2025-04-20T09:54:19.714Z</time>
      </trkpt>
      <trkpt lat="39.792138" lon="2.678536">
        <ele>124.334184</ele>
        <time>2025-04-20T09:54:38.976Z</time>
      </trkpt>
      <trkpt lat="39.792647" lon="2.678633">
        <ele>123.418919</ele>
        <time>2025-04-20T09:55:33.668Z</time>
      </trkpt>
      <trkpt lat="39.792792" lon="2.678749">
        <ele>122.270135</ele>
        <time>2025-04-20T09:55:52.567Z</time>
      </trkpt>
      <trkpt lat="39.792964" lon="2.678780">
        <ele>121.098146</ele>
        <time>2025-04-20T09:56:12.176Z</time>
      </trkpt>
      <trkpt lat="39.793072" lon="2.678821">
        <ele>120.338825</ele>
        <time>2025-04-20T09:56:25.025Z</time>
      </trkpt>
      <trkpt lat="39.793121" lon="2.678906">
        <ele>119.787740</ele>
        <time>2025-04-20T09:56:34.568Z</time>
      </trkpt>
      <trkpt lat="39.793235" lon="2.678969">
        <ele>118.951807</ele>
        <time>2025-04-20T09:56:48.925Z</time>
      </trkpt>
      <trkpt lat="39.793331" lon="2.678951">
        <ele>118.297168</ele>
        <time>2025-04-20T09:57:00.274Z</time>
      </trkpt>
      <trkpt lat="39.793351" lon="2.678891">
        <ele>117.957988</ele>
        <time>2025-04-20T09:57:06.200Z</time>
      </trkpt>
      <trkpt lat="39.793319" lon="2.678747">
        <ele>117.180596</ele>
        <time>2025-04-20T09:57:19.690Z</time>
      </trkpt>
      <trkpt lat="39.793376" lon="2.678684">
        <ele>116.675864</ele>
        <time>2025-04-20T09:57:28.450Z</time>
      </trkpt>
      <trkpt lat="39.793440" lon="2.678673">
        <ele>116.240147</ele>
        <time>2025-04-20T09:57:35.974Z</time>
      </trkpt>
      <trkpt lat="39.793541" lon="2.678748">
        <ele>115.455295</ele>
        <time>2025-04-20T09:57:49.551Z</time>
      </trkpt>
      <trkpt lat="39.793679" lon="2.679027">
        <ele>113.734523</ele>
        <time>2025-04-20T09:58:19.192Z</time>
      </trkpt>
      <trkpt lat="39.793800" lon="2.679114">
        <ele>112.801496</ele>
        <time>2025-04-20T09:58:35.106Z</time>
      </trkpt>
      <trkpt lat="39.793946" lon="2.679271">
        <ele>111.753205</ele>
        <time>2025-04-20T09:58:56.898Z</time>
      </trkpt>
      <trkpt lat="39.794102" lon="2.679294">
        <ele>111.137021</ele>
        <time>2025-04-20T09:59:14.883Z</time>
      </trkpt>
      <trkpt lat="39.794212" lon="2.679385">
        <ele>110.625460</ele>
        <time>2025-04-20T09:59:29.787Z</time>
      </trkpt>
      <trkpt lat="39.794520" lon="2.679499">
        <ele>109.368691</ele>
        <time>2025-04-20T10:00:05.921Z</time>
      </trkpt>
      <trkpt lat="39.794669" lon="2.679872">
        <ele>108.100939</ele>
        <time>2025-04-20T10:00:41.663Z</time>
      </trkpt>
      <trkpt lat="39.794742" lon="2.679965">
        <ele>107.700016</ele>
        <time>2025-04-20T10:00:52.723Z</time>
      </trkpt>
      <trkpt lat="39.794828" lon="2.680010">
        <ele>107.336226</ele>
        <time>2025-04-20T10:01:02.586Z</time>
      </trkpt>
      <trkpt lat="39.795235" lon="2.680106">
        <ele>105.712815</ele>
        <time>2025-04-20T10:01:44.855Z</time>
      </trkpt>
      <trkpt lat="39.795489" lon="2.680262">
        <ele>104.988206</ele>
        <time>2025-04-20T10:02:13.734Z</time>
      </trkpt>
      <trkpt lat="39.795559" lon="2.680551">
        <ele>104.930956</ele>
        <time>2025-04-20T10:02:38.379Z</time>
      </trkpt>
      <trkpt lat="39.795683" lon="2.680759">
        <ele>104.881217</ele>
        <time>2025-04-20T10:03:00.132Z</time>
      </trkpt>
      <trkpt lat="39.795773" lon="2.680834">
        <ele>104.854938</ele>
        <time>2025-04-20T10:03:11.772Z</time>
      </trkpt>
      <trkpt lat="39.795742" lon="2.680880">
        <ele>104.843378</ele>
        <time>2025-04-20T10:03:16.851Z</time>
      </trkpt>
      <trkpt lat="39.795752" lon="2.680913">
        <ele>104.836676</ele>
        <time>2025-04-20T10:03:19.729Z</time>
      </trkpt>
      <trkpt lat="39.795810" lon="2.680907">
        <ele>104.822369</ele>
        <time>2025-04-20T10:03:26.038Z</time>
      </trkpt>
      <trkpt lat="39.795828" lon="2.680932">
        <ele>104.815896</ele>
        <time>2025-04-20T10:03:28.878Z</time>
      </trkpt>
      <trkpt lat="39.795829" lon="2.680967">
        <ele>104.809279</ele>
        <time>2025-04-20T10:03:31.699Z</time>
      </trkpt>
      <trkpt lat="39.795871" lon="2.681016">
        <ele>104.795409</ele>
        <time>2025-04-20T10:03:37.585Z</time>
      </trkpt>
      <trkpt lat="39.795842" lon="2.681048">
        <ele>104.786060</ele>
        <time>2025-04-20T10:03:41.659Z</time>
      </trkpt>
      <trkpt lat="39.795859" lon="2.681097">
        <ele>104.775903</ele>
        <time>2025-04-20T10:03:45.988Z</time>
      </trkpt>
      <trkpt lat="39.796012" lon="2.681084">
        <ele>104.738200</ele>
        <time>2025-04-20T10:04:01.565Z</time>
      </trkpt>
      <trkpt lat="39.796038" lon="2.681107">
        <ele>104.730470</ele>
        <time>2025-04-20T10:04:04.786Z</time>
      </trkpt>
      <trkpt lat="39.795984" lon="2.681168">
        <ele>104.712888</ele>
        <time>2025-04-20T10:04:11.998Z</time>
      </trkpt>
      <trkpt lat="39.795991" lon="2.681205">
        <ele>104.705688</ele>
        <time>2025-04-20T10:04:14.967Z</time>
      </trkpt>
      <trkpt lat="39.796033" lon="2.681209">
        <ele>104.695333</ele>
        <time>2025-04-20T10:04:19.099Z</time>
      </trkpt>
      <trkpt lat="39.796095" lon="2.681225">
        <ele>104.679791</ele>
        <time>2025-04-20T10:04:25.575Z</time>
      </trkpt>
      <trkpt lat="39.796268" lon="2.681166">
        <ele>104.635814</ele>
        <time>2025-04-20T10:04:43.990Z</time>
      </trkpt>
      <trkpt lat="39.796498" lon="2.681179">
        <ele>104.579204</ele>
        <time>2025-04-20T10:05:07.986Z</time>
      </trkpt>
      <trkpt lat="39.796525" lon="2.681299">
        <ele>104.101066</ele>
        <time>2025-04-20T10:05:18.226Z</time>
      </trkpt>
      <trkpt lat="39.796702" lon="2.681294">
        <ele>102.788288</ele>
        <time>2025-04-20T10:05:37.207Z</time>
      </trkpt>
      <trkpt lat="39.796754" lon="2.681448">
        <ele>101.829937</ele>
        <time>2025-04-20T10:05:51.579Z</time>
      </trkpt>
      <trkpt lat="39.796791" lon="2.681449">
        <ele>101.555520</ele>
        <time>2025-04-20T10:05:55.700Z</time>
      </trkpt>
      <trkpt lat="39.796853" lon="2.681055">
        <ele>99.264249</ele>
        <time>2025-04-20T10:06:31.003Z</time>
      </trkpt>
      <trkpt lat="39.796950" lon="2.681014">
        <ele>98.508009</ele>
        <time>2025-04-20T10:06:42.822Z</time>
      </trkpt>
      <trkpt lat="39.796941" lon="2.681204">
        <ele>97.423499</ele>
        <time>2025-04-20T10:06:59.962Z</time>
      </trkpt>
      <trkpt lat="39.796867" lon="2.681648">
        <ele>94.835139</ele>
        <time>2025-04-20T10:07:41.417Z</time>
      </trkpt>
      <trkpt lat="39.796847" lon="2.681895">
        <ele>93.420152</ele>
        <time>2025-04-20T10:08:04.075Z</time>
      </trkpt>
      <trkpt lat="39.796774" lon="2.682030">
        <ele>92.479651</ele>
        <time>2025-04-20T10:08:19.107Z</time>
      </trkpt>
      <trkpt lat="39.796585" lon="2.682177">
        <ele>90.652768</ele>
        <time>2025-04-20T10:08:45.419Z</time>
      </trkpt>
      <trkpt lat="39.796498" lon="2.682279">
        <ele>89.348740</ele>
        <time>2025-04-20T10:08:59.368Z</time>
      </trkpt>
      <trkpt lat="39.796507" lon="2.682317">
        <ele>89.008491</ele>
        <time>2025-04-20T10:09:02.924Z</time>
      </trkpt>
      <trkpt lat="39.796557" lon="2.682326">
        <ele>88.446355</ele>
        <time>2025-04-20T10:09:08.989Z</time>
      </trkpt>
      <trkpt lat="39.796718" lon="2.682271">
        <ele>86.592610</ele>
        <time>2025-04-20T10:09:29.151Z</time>
      </trkpt>
      <trkpt lat="39.796968" lon="2.682034">
        <ele>83.148186</ele>
        <time>2025-04-20T10:10:06.979Z</time>
      </trkpt>
      <trkpt lat="39.797010" lon="2.682041">
        <ele>82.676625</ele>
        <time>2025-04-20T10:10:12.101Z</time>
      </trkpt>
      <trkpt lat="39.797024" lon="2.682075">
        <ele>82.346557</ele>
        <time>2025-04-20T10:10:15.678Z</time>
      </trkpt>
      <trkpt lat="39.797006" lon="2.682135">
        <ele>81.795416</ele>
        <time>2025-04-20T10:10:21.747Z</time>
      </trkpt>
      <trkpt lat="39.796937" lon="2.682206">
        <ele>80.815843</ele>
        <time>2025-04-20T10:10:32.441Z</time>
      </trkpt>
      <trkpt lat="39.796775" lon="2.682351">
        <ele>78.626255</ele>
        <time>2025-04-20T10:10:56.496Z</time>
      </trkpt>
      <trkpt lat="39.796599" lon="2.682509">
        <ele>76.245166</ele>
        <time>2025-04-20T10:11:22.944Z</time>
      </trkpt>
      <trkpt lat="39.796375" lon="2.682636">
        <ele>73.524128</ele>
        <time>2025-04-20T10:11:52.927Z</time>
      </trkpt>
      <trkpt lat="39.795579" lon="2.682898">
        <ele>67.546921</ele>
        <time>2025-04-20T10:13:34.304Z</time>
      </trkpt>
      <trkpt lat="39.794960" lon="2.683171">
        <ele>63.646498</ele>
        <time>2025-04-20T10:14:49.712Z</time>
      </trkpt>
      <trkpt lat="39.794863" lon="2.683151">
        <ele>63.060399</ele>
        <time>2025-04-20T10:15:00.245Z</time>
      </trkpt>
      <trkpt lat="39.794600" lon="2.682979">
        <ele>61.303846</ele>
        <time>2025-04-20T10:15:30.341Z</time>
      </trkpt>
      <trkpt lat="39.794064" lon="2.682870">
        <ele>61.989859</ele>
        <time>2025-04-20T10:16:34.382Z</time>
      </trkpt>
      <trkpt lat="39.793717" lon="2.682755">
        <ele>63.342342</ele>
        <time>2025-04-20T10:17:21.609Z</time>
      </trkpt>
      <trkpt lat="39.792917" lon="2.682560">
        <ele>66.416571</ele>
        <time>2025-04-20T10:18:56.955Z</time>
      </trkpt>
      <trkpt lat="39.792866" lon="2.682618">
        <ele>66.672386</ele>
        <time>2025-04-20T10:19:03.777Z</time>
      </trkpt>
      <trkpt lat="39.792858" lon="2.682676">
        <ele>66.843404</ele>
        <time>2025-04-20T10:19:08.407Z</time>
      </trkpt>
      <trkpt lat="39.793032" lon="2.683355">
        <ele>65.823125</ele>
        <time>2025-04-20T10:20:04.691Z</time>
      </trkpt>
      <trkpt lat="39.793285" lon="2.683756">
        <ele>64.515547</ele>
        <time>2025-04-20T10:20:48.330Z</time>
      </trkpt>
      <trkpt lat="39.793333" lon="2.683885">
        <ele>64.154345</ele>
        <time>2025-04-20T10:21:00.914Z</time>
      </trkpt>
      <trkpt lat="39.793333" lon="2.684089">
        <ele>63.640252</ele>
        <time>2025-04-20T10:21:18.896Z</time>
      </trkpt>
      <trkpt lat="39.793279" lon="2.684282">
        <ele>63.122637</ele>
        <time>2025-04-20T10:21:36.717Z</time>
      </trkpt>
      <trkpt lat="39.793231" lon="2.684874">
        <ele>61.622474</ele>
        <time>2025-04-20T10:22:26.164Z</time>
      </trkpt>
      <trkpt lat="39.793105" lon="2.685654">
        <ele>58.383026</ele>
        <time>2025-04-20T10:23:30.327Z</time>
      </trkpt>
      <trkpt lat="39.793102" lon="2.685784">
        <ele>57.824712</ele>
        <time>2025-04-20T10:23:41.114Z</time>
      </trkpt>
      <trkpt lat="39.793098" lon="2.685977">
        <ele>56.995902</ele>
        <time>2025-04-20T10:23:57.276Z</time>
      </trkpt>
      <trkpt lat="39.793117" lon="2.686137">
        <ele>56.300901</ele>
        <time>2025-04-20T10:24:10.877Z</time>
      </trkpt>
      <trkpt lat="39.793118" lon="2.686507">
        <ele>54.712560</ele>
        <time>2025-04-20T10:24:42.555Z</time>
      </trkpt>
      <trkpt lat="39.793040" lon="2.687118">
        <ele>52.053710</ele>
        <time>2025-04-20T10:25:37.254Z</time>
      </trkpt>
      <trkpt lat="39.793118" lon="2.687303">
        <ele>50.996721</ele>
        <time>2025-04-20T10:25:56.548Z</time>
      </trkpt>
      <trkpt lat="39.793144" lon="2.687450">
        <ele>49.762557</ele>
        <time>2025-04-20T10:26:10.604Z</time>
      </trkpt>
      <trkpt lat="39.793107" lon="2.687762">
        <ele>47.179640</ele>
        <time>2025-04-20T10:26:39.880Z</time>
      </trkpt>
      <trkpt lat="39.792981" lon="2.688191">
        <ele>43.421995</ele>
        <time>2025-04-20T10:27:21.375Z</time>
      </trkpt>
      <trkpt lat="39.793109" lon="2.688735">
        <ele>38.767127</ele>
        <time>2025-04-20T10:28:13.847Z</time>
      </trkpt>
      <trkpt lat="39.793150" lon="2.688782">
        <ele>38.185343</ele>
        <time>2025-04-20T10:28:20.548Z</time>
      </trkpt>
      <trkpt lat="39.793180" lon="2.688770">
        <ele>37.851148</ele>
        <time>2025-04-20T10:28:24.474Z</time>
      </trkpt>
      <trkpt lat="39.793195" lon="2.688707">
        <ele>37.311521</ele>
        <time>2025-04-20T10:28:30.585Z</time>
      </trkpt>
      <trkpt lat="39.793079" lon="2.688290">
        <ele>33.683037</ele>
        <time>2025-04-20T10:29:12.935Z</time>
      </trkpt>
      <trkpt lat="39.793098" lon="2.688218">
        <ele>33.060180</ele>
        <time>2025-04-20T10:29:20.527Z</time>
      </trkpt>
      <trkpt lat="39.793149" lon="2.688233">
        <ele>32.503424</ele>
        <time>2025-04-20T10:29:27.089Z</time>
      </trkpt>
      <trkpt lat="39.793195" lon="2.688502">
        <ele>30.070676</ele>
        <time>2025-04-20T10:29:54.033Z</time>
      </trkpt>
      <trkpt lat="39.793337" lon="2.688773">
        <ele>27.137259</ele>
        <time>2025-04-20T10:30:25.908Z</time>
      </trkpt>
      <trkpt lat="39.793330" lon="2.689287">
        <ele>22.539908</ele>
        <time>2025-04-20T10:31:14.911Z</time>
      </trkpt>
      <trkpt lat="39.793279" lon="2.689735">
        <ele>18.489773</ele>
        <time>2025-04-20T10:31:58.886Z</time>
      </trkpt>
      <trkpt lat="39.793197" lon="2.689927">
        <ele>16.525324</ele>
        <time>2025-04-20T10:32:19.791Z</time>
      </trkpt>
      <trkpt lat="39.792609" lon="2.690249">
        <ele>10.472760</ele>
        <time>2025-04-20T10:33:35.152Z</time>
      </trkpt>
      <trkpt lat="39.792451" lon="2.690300">
        <ele>9.800207</ele>
        <time>2025-04-20T10:33:53.494Z</time>
      </trkpt>
      <trkpt lat="39.792180" lon="2.690297">
        <ele>8.680532</ele>
        <time>2025-04-20T10:34:23.615Z</time>
      </trkpt>
      <trkpt lat="39.791840" lon="2.690163">
        <ele>7.212827</ele>
        <time>2025-04-20T10:35:01.999Z</time>
      </trkpt>
      <trkpt lat="39.791548" lon="2.690152">
        <ele>6.005926</ele>
        <time>2025-04-20T10:35:32.575Z</time>
      </trkpt>
      <trkpt lat="39.791326" lon="2.690157">
        <ele>5.088597</ele>
        <time>2025-04-20T10:35:55.487Z</time>
      </trkpt>
      <trkpt lat="39.791254" lon="2.690158">
        <ele>4.791113</ele>
        <time>2025-04-20T10:36:02.931Z</time>
      </trkpt>
      <trkpt lat="39.790930" lon="2.690170">
        <ele>3.788745</ele>
        <time>2025-04-20T10:36:35.895Z</time>
      </trkpt>
      <trkpt lat="39.790789" lon="2.690258">
        <ele>3.773526</ele>
        <time>2025-04-20T10:36:51.782Z</time>
      </trkpt>
      <trkpt lat="39.790709" lon="2.690332">
        <ele>3.763974</ele>
        <time>2025-04-20T10:37:01.691Z</time>
      </trkpt>
      <trkpt lat="39.790688" lon="2.690349">
        <ele>3.761567</ele>
        <time>2025-04-20T10:37:04.261Z</time>
      </trkpt>
      <trkpt lat="39.790523" lon="2.690516">
        <ele>3.741224</ele>
        <time>2025-04-20T10:37:25.600Z</time>
      </trkpt>
      <trkpt lat="39.790411" lon="2.690801">
        <ele>3.717285</ele>
        <time>2025-04-20T10:37:50.655Z</time>
      </trkpt>
      <trkpt lat="39.790405" lon="2.690829">
        <ele>3.715111</ele>
        <time>2025-04-20T10:37:52.907Z</time>
      </trkpt>
      <trkpt lat="39.790258" lon="2.691620">
        <ele>3.654253</ele>
        <time>2025-04-20T10:38:57.648Z</time>
      </trkpt>
      <trkpt lat="39.790354" lon="2.692256">
        <ele>3.832230</ele>
        <time>2025-04-20T10:39:47.870Z</time>
      </trkpt>
      <trkpt lat="39.790636" lon="2.693307">
        <ele>4.924492</ele>
        <time>2025-04-20T10:41:14.329Z</time>
      </trkpt>
      <trkpt lat="39.790700" lon="2.693551">
        <ele>5.177458</ele>
        <time>2025-04-20T10:41:35.190Z</time>
      </trkpt>
      <trkpt lat="39.790720" lon="2.693551">
        <ele>5.202996</ele>
        <time>2025-04-20T10:41:37.283Z</time>
      </trkpt>
      <trkpt lat="39.790735" lon="2.693611">
        <ele>5.264903</ele>
        <time>2025-04-20T10:41:42.436Z</time>
      </trkpt>
      <trkpt lat="39.790744" lon="2.693647">
        <ele>5.302047</ele>
        <time>2025-04-20T10:41:45.529Z</time>
      </trkpt>
      <trkpt lat="39.790748" lon="2.693662">
        <ele>5.317626</ele>
        <time>2025-04-20T10:41:46.828Z</time>
      </trkpt>
      <trkpt lat="39.790796" lon="2.693840">
        <ele>5.502715</ele>
        <time>2025-04-20T10:42:02.442Z</time>
      </trkpt>
      <trkpt lat="39.790814" lon="2.693909">
        <ele>5.574210</ele>
        <time>2025-04-20T10:42:08.480Z</time>
      </trkpt>
      <trkpt lat="39.790814" lon="2.694030">
        <ele>5.692930</ele>
        <time>2025-04-20T10:42:18.614Z</time>
      </trkpt>
      <trkpt lat="39.790934" lon="2.694458">
        <ele>6.382479</ele>
        <time>2025-04-20T10:42:57.386Z</time>
      </trkpt>
      <trkpt lat="39.790934" lon="2.694458">
        <ele>6.382479</ele>
        <time>2025-04-20T10:42:57.386Z</time>
      </trkpt>
      <trkpt lat="39.790944" lon="2.694494">
        <ele>6.461176</ele>
        <time>2025-04-20T10:43:00.731Z</time>
      </trkpt>
      <trkpt lat="39.790987" lon="2.694672">
        <ele>6.844769</ele>
        <time>2025-04-20T10:43:16.886Z</time>
      </trkpt>
      <trkpt lat="39.790984" lon="2.694708">
        <ele>6.919212</ele>
        <time>2025-04-20T10:43:20.081Z</time>
      </trkpt>
      <trkpt lat="39.791128" lon="2.694800">
        <ele>7.348405</ele>
        <time>2025-04-20T10:43:38.235Z</time>
      </trkpt>
      <trkpt lat="39.791670" lon="2.695262">
        <ele>9.081878</ele>
        <time>2025-04-20T10:44:52.472Z</time>
      </trkpt>
      <trkpt lat="39.792106" lon="2.695686">
        <ele>10.538085</ele>
        <time>2025-04-20T10:45:52.392Z</time>
      </trkpt>
      <trkpt lat="39.792488" lon="2.696004">
        <ele>9.575373</ele>
        <time>2025-04-20T10:46:38.900Z</time>
      </trkpt>
      <trkpt lat="39.792959" lon="2.696351">
        <ele>7.935943</ele>
        <time>2025-04-20T10:47:36.521Z</time>
      </trkpt>
      <trkpt lat="39.792992" lon="2.696374">
        <ele>7.822551</ele>
        <time>2025-04-20T10:47:40.552Z</time>
      </trkpt>
      <trkpt lat="39.793253" lon="2.696543">
        <ele>6.939517</ele>
        <time>2025-04-20T10:48:12.355Z</time>
      </trkpt>
      <trkpt lat="39.793572" lon="2.696699">
        <ele>5.907276</ele>
        <time>2025-04-20T10:48:50.200Z</time>
      </trkpt>
      <trkpt lat="39.794139" lon="2.696852">
        <ele>4.355649</ele>
        <time>2025-04-20T10:49:54.446Z</time>
      </trkpt>
      <trkpt lat="39.794167" lon="2.696858">
        <ele>4.285098</ele>
        <time>2025-04-20T10:49:57.477Z</time>
      </trkpt>
      <trkpt lat="39.794167" lon="2.696834">
        <ele>4.239252</ele>
        <time>2025-04-20T10:49:59.444Z</time>
      </trkpt>
      <trkpt lat="39.794170" lon="2.696770">
        <ele>4.116767</ele>
        <time>2025-04-20T10:50:04.722Z</time>
      </trkpt>
      <trkpt lat="39.794174" lon="2.696724">
        <ele>4.028334</ele>
        <time>2025-04-20T10:50:08.573Z</time>
      </trkpt>
      <trkpt lat="39.794190" lon="2.696726">
        <ele>3.988371</ele>
        <time>2025-04-20T10:50:10.281Z</time>
      </trkpt>
      <trkpt lat="39.794206" lon="2.696728">
        <ele>3.948409</ele>
        <time>2025-04-20T10:50:11.952Z</time>
      </trkpt>
      <trkpt lat="39.794206" lon="2.696716">
        <ele>3.925486</ele>
        <time>2025-04-20T10:50:12.962Z</time>
      </trkpt>
      <trkpt lat="39.794370" lon="2.696605">
        <ele>3.465909</ele>
        <time>2025-04-20T10:50:32.249Z</time>
      </trkpt>
      <trkpt lat="39.794883" lon="2.696562">
        <ele>2.187844</ele>
        <time>2025-04-20T10:51:25.538Z</time>
      </trkpt>
      <trkpt lat="39.795119" lon="2.696508">
        <ele>1.592102</ele>
        <time>2025-04-20T10:51:50.181Z</time>
      </trkpt>
      <trkpt lat="39.795188" lon="2.696666">
        <ele>1.244937</ele>
        <time>2025-04-20T10:52:04.631Z</time>
      </trkpt>
      <trkpt lat="39.795330" lon="2.696600">
        <ele>0.870060</ele>
        <time>2025-04-20T10:52:19.914Z</time>
      </trkpt>
      <trkpt lat="39.795442" lon="2.696599">
        <ele>0.810031</ele>
        <time>2025-04-20T10:52:31.261Z</time>
      </trkpt>
      <trkpt lat="39.795927" lon="2.696379">
        <ele>0.805916</ele>
        <time>2025-04-20T10:53:22.979Z</time>
      </trkpt>
      <trkpt lat="39.796156" lon="2.696206">
        <ele>0.803795</ele>
        <time>2025-04-20T10:53:49.474Z</time>
      </trkpt>
      <trkpt lat="39.796524" lon="2.695840">
        <ele>0.800084</ele>
        <time>2025-04-20T10:54:35.950Z</time>
      </trkpt>
      <trkpt lat="39.796633" lon="2.695653">
        <ele>0.798639</ele>
        <time>2025-04-20T10:54:54.070Z</time>
      </trkpt>
      <trkpt lat="39.796703" lon="2.695705">
        <ele>0.797993</ele>
        <time>2025-04-20T10:55:02.377Z</time>
      </trkpt>
      <trkpt lat="39.796807" lon="2.695912">
        <ele>0.796471</ele>
        <time>2025-04-20T10:55:22.244Z</time>
      </trkpt>
      <trkpt lat="39.796838" lon="2.695889">
        <ele>0.805902</ele>
        <time>2025-04-20T10:55:26.033Z</time>
      </trkpt>
      <trkpt lat="39.796855" lon="2.695925">
        <ele>0.823477</ele>
        <time>2025-04-20T10:55:29.368Z</time>
      </trkpt>
      <trkpt lat="39.797119" lon="2.695768">
        <ele>0.980604</ele>
        <time>2025-04-20T10:55:59.429Z</time>
      </trkpt>
      <trkpt lat="39.797243" lon="2.695695">
        <ele>1.054278</ele>
        <time>2025-04-20T10:56:13.534Z</time>
      </trkpt>
      <trkpt lat="39.797402" lon="2.695498">
        <ele>1.173116</ele>
        <time>2025-04-20T10:56:35.964Z</time>
      </trkpt>
      <trkpt lat="39.797575" lon="2.695708">
        <ele>1.301178</ele>
        <time>2025-04-20T10:57:00.395Z</time>
      </trkpt>
      <trkpt lat="39.797318" lon="2.695985">
        <ele>1.481814</ele>
        <time>2025-04-20T10:57:34.396Z</time>
      </trkpt>
      <trkpt lat="39.796998" lon="2.696195">
        <ele>1.675819</ele>
        <time>2025-04-20T10:58:10.766Z</time>
      </trkpt>
      <trkpt lat="39.796959" lon="2.696128">
        <ele>1.710781</ele>
        <time>2025-04-20T10:58:17.386Z</time>
      </trkpt>
      <trkpt lat="39.796928" lon="2.696159">
        <ele>1.731944</ele>
        <time>2025-04-20T10:58:21.349Z</time>
      </trkpt>
      <trkpt lat="39.796915" lon="2.696131">
        <ele>1.745551</ele>
        <time>2025-04-20T10:58:23.821Z</time>
      </trkpt>
      <trkpt lat="39.796775" lon="2.696220">
        <ele>1.782993</ele>
        <time>2025-04-20T10:58:39.780Z</time>
      </trkpt>
      <trkpt lat="39.796451" lon="2.696426">
        <ele>1.825297</ele>
        <time>2025-04-20T10:59:16.201Z</time>
      </trkpt>
      <trkpt lat="39.796413" lon="2.696321">
        <ele>1.835759</ele>
        <time>2025-04-20T10:59:25.222Z</time>
      </trkpt>
      <trkpt lat="39.796303" lon="2.696382">
        <ele>1.849787</ele>
        <time>2025-04-20T10:59:37.317Z</time>
      </trkpt>
      <trkpt lat="39.796309" lon="2.696452">
        <ele>1.856136</ele>
        <time>2025-04-20T10:59:42.724Z</time>
      </trkpt>
      <trkpt lat="39.796309" lon="2.696515">
        <ele>1.861815</ele>
        <time>2025-04-20T10:59:47.582Z</time>
      </trkpt>
      <trkpt lat="39.796197" lon="2.696576">
        <ele>1.876059</ele>
        <time>2025-04-20T10:59:59.782Z</time>
      </trkpt>
      <trkpt lat="39.796118" lon="2.696617">
        <ele>1.886036</ele>
        <time>2025-04-20T11:00:08.350Z</time>
      </trkpt>
      <trkpt lat="39.796058" lon="2.696639">
        <ele>1.893350</ele>
        <time>2025-04-20T11:00:14.545Z</time>
      </trkpt>
      <trkpt lat="39.795703" lon="2.696727">
        <ele>1.935747</ele>
        <time>2025-04-20T11:00:50.862Z</time>
      </trkpt>
      <trkpt lat="39.795491" lon="2.696759">
        <ele>1.960785</ele>
        <time>2025-04-20T11:01:12.252Z</time>
      </trkpt>
      <trkpt lat="39.795158" lon="2.696769">
        <ele>2.352089</ele>
        <time>2025-04-20T11:01:46.267Z</time>
      </trkpt>
      <trkpt lat="39.794892" lon="2.696773">
        <ele>2.967032</ele>
        <time>2025-04-20T11:02:13.817Z</time>
      </trkpt>
      <trkpt lat="39.794422" lon="2.696764">
        <ele>4.053629</ele>
        <time>2025-04-20T11:03:02.977Z</time>
      </trkpt>
      <trkpt lat="39.794297" lon="2.696759">
        <ele>4.342722</ele>
        <time>2025-04-20T11:03:16.057Z</time>
      </trkpt>
      <trkpt lat="39.794205" lon="2.696745">
        <ele>4.556844</ele>
        <time>2025-04-20T11:03:26.074Z</time>
      </trkpt>
      <trkpt lat="39.794206" lon="2.696728">
        <ele>4.587127</ele>
        <time>2025-04-20T11:03:27.385Z</time>
      </trkpt>
      <trkpt lat="39.794190" lon="2.696726">
        <ele>4.624284</ele>
        <time>2025-04-20T11:03:29.074Z</time>
      </trkpt>
      <trkpt lat="39.794174" lon="2.696724">
        <ele>4.661440</ele>
        <time>2025-04-20T11:03:30.825Z</time>
      </trkpt>
      <trkpt lat="39.794170" lon="2.696770">
        <ele>4.743665</ele>
        <time>2025-04-20T11:03:34.819Z</time>
      </trkpt>
      <trkpt lat="39.794167" lon="2.696834">
        <ele>4.857551</ele>
        <time>2025-04-20T11:03:40.308Z</time>
      </trkpt>
      <trkpt lat="39.794167" lon="2.696858">
        <ele>4.900179</ele>
        <time>2025-04-20T11:03:42.339Z</time>
      </trkpt>
      <trkpt lat="39.794139" lon="2.696852">
        <ele>4.965777</ele>
        <time>2025-04-20T11:03:45.367Z</time>
      </trkpt>
      <trkpt lat="39.793572" lon="2.696699">
        <ele>6.322471</ele>
        <time>2025-04-20T11:04:53.041Z</time>
      </trkpt>
      <trkpt lat="39.793253" lon="2.696543">
        <ele>7.196432</ele>
        <time>2025-04-20T11:05:32.993Z</time>
      </trkpt>
      <trkpt lat="39.792992" lon="2.696374">
        <ele>7.944065</ele>
        <time>2025-04-20T11:06:06.632Z</time>
      </trkpt>
      <trkpt lat="39.792959" lon="2.696351">
        <ele>8.040069</ele>
        <time>2025-04-20T11:06:10.889Z</time>
      </trkpt>
      <trkpt lat="39.792488" lon="2.696004">
        <ele>9.428116</ele>
        <time>2025-04-20T11:07:10.949Z</time>
      </trkpt>
      <trkpt lat="39.792106" lon="2.695686">
        <ele>10.591071</ele>
        <time>2025-04-20T11:07:58.306Z</time>
      </trkpt>
      <trkpt lat="39.791670" lon="2.695262">
        <ele>9.487042</ele>
        <time>2025-04-20T11:08:55.717Z</time>
      </trkpt>
      <trkpt lat="39.791128" lon="2.694800">
        <ele>7.785773</ele>
        <time>2025-04-20T11:10:05.430Z</time>
      </trkpt>
      <trkpt lat="39.790984" lon="2.694708">
        <ele>7.364554</ele>
        <time>2025-04-20T11:10:22.639Z</time>
      </trkpt>
      <trkpt lat="39.790891" lon="2.694683">
        <ele>7.115201</ele>
        <time>2025-04-20T11:10:32.871Z</time>
      </trkpt>
      <trkpt lat="39.790589" lon="2.694672">
        <ele>6.321900</ele>
        <time>2025-04-20T11:11:05.050Z</time>
      </trkpt>
      <trkpt lat="39.790110" lon="2.694733">
        <ele>5.509838</ele>
        <time>2025-04-20T11:11:55.724Z</time>
      </trkpt>
      <trkpt lat="39.789747" lon="2.694831">
        <ele>4.989357</ele>
        <time>2025-04-20T11:12:34.205Z</time>
      </trkpt>
      <trkpt lat="39.789509" lon="2.694930">
        <ele>4.638566</ele>
        <time>2025-04-20T11:12:59.892Z</time>
      </trkpt>
      <trkpt lat="39.788634" lon="2.695345">
        <ele>3.538420</ele>
        <time>2025-04-20T11:14:34.284Z</time>
      </trkpt>
      <trkpt lat="39.788221" lon="2.695533">
        <ele>3.662128</ele>
        <time>2025-04-20T11:15:18.141Z</time>
      </trkpt>
      <trkpt lat="39.787614" lon="2.695747">
        <ele>3.839937</ele>
        <time>2025-04-20T11:16:21.981Z</time>
      </trkpt>
      <trkpt lat="39.787254" lon="2.695862">
        <ele>3.944745</ele>
        <time>2025-04-20T11:16:59.944Z</time>
      </trkpt>
      <trkpt lat="39.786971" lon="2.696028">
        <ele>4.080959</ele>
        <time>2025-04-20T11:17:31.768Z</time>
      </trkpt>
      <trkpt lat="39.786802" lon="2.696188">
        <ele>4.281047</ele>
        <time>2025-04-20T11:17:53.223Z</time>
      </trkpt>
      <trkpt lat="39.786334" lon="2.696706">
        <ele>4.869258</ele>
        <time>2025-04-20T11:18:56.780Z</time>
      </trkpt>
      <trkpt lat="39.785374" lon="2.697890">
        <ele>6.203194</ele>
        <time>2025-04-20T11:21:14.277Z</time>
      </trkpt>
      <trkpt lat="39.785074" lon="2.698210">
        <ele>6.637158</ele>
        <time>2025-04-20T11:21:54.810Z</time>
      </trkpt>
      <trkpt lat="39.784849" lon="2.698375">
        <ele>6.926093</ele>
        <time>2025-04-20T11:22:21.725Z</time>
      </trkpt>
      <trkpt lat="39.784214" lon="2.698783">
        <ele>7.718370</ele>
        <time>2025-04-20T11:23:35.452Z</time>
      </trkpt>
      <trkpt lat="39.782845" lon="2.699663">
        <ele>8.597309</ele>
        <time>2025-04-20T11:26:12.612Z</time>
      </trkpt>
      <trkpt lat="39.782605" lon="2.699869">
        <ele>8.760198</ele>
        <time>2025-04-20T11:26:41.529Z</time>
      </trkpt>
      <trkpt lat="39.782383" lon="2.699995">
        <ele>8.667212</ele>
        <time>2025-04-20T11:27:05.933Z</time>
      </trkpt>
      <trkpt lat="39.782125" lon="2.700160">
        <ele>8.545911</ele>
        <time>2025-04-20T11:27:34.974Z</time>
      </trkpt>
      <trkpt lat="39.781826" lon="2.700355">
        <ele>8.404788</ele>
        <time>2025-04-20T11:28:08.944Z</time>
      </trkpt>
      <trkpt lat="39.780748" lon="2.701066">
        <ele>7.946829</ele>
        <time>2025-04-20T11:30:11.220Z</time>
      </trkpt>
      <trkpt lat="39.780545" lon="2.701256">
        <ele>7.890435</ele>
        <time>2025-04-20T11:30:36.376Z</time>
      </trkpt>
      <trkpt lat="39.780294" lon="2.701574">
        <ele>7.811430</ele>
        <time>2025-04-20T11:31:11.566Z</time>
      </trkpt>
      <trkpt lat="39.780334" lon="2.701650">
        <ele>7.795465</ele>
        <time>2025-04-20T11:31:18.679Z</time>
      </trkpt>
      <trkpt lat="39.780337" lon="2.701734">
        <ele>7.780891</ele>
        <time>2025-04-20T11:31:25.191Z</time>
      </trkpt>
      <trkpt lat="39.780317" lon="2.702250">
        <ele>7.691347</ele>
        <time>2025-04-20T11:32:05.170Z</time>
      </trkpt>
      <trkpt lat="39.780300" lon="2.702327">
        <ele>7.677462</ele>
        <time>2025-04-20T11:32:11.402Z</time>
      </trkpt>
      <trkpt lat="39.780254" lon="2.702538">
        <ele>7.639450</ele>
        <time>2025-04-20T11:32:28.241Z</time>
      </trkpt>
      <trkpt lat="39.780184" lon="2.703125">
        <ele>7.704059</ele>
        <time>2025-04-20T11:33:14.159Z</time>
      </trkpt>
      <trkpt lat="39.780130" lon="2.703254">
        <ele>7.744841</ele>
        <time>2025-04-20T11:33:25.628Z</time>
      </trkpt>
      <trkpt lat="39.780027" lon="2.703365">
        <ele>7.793155</ele>
        <time>2025-04-20T11:33:39.197Z</time>
      </trkpt>
      <trkpt lat="39.779742" lon="2.703723">
        <ele>7.936259</ele>
        <time>2025-04-20T11:34:19.329Z</time>
      </trkpt>
      <trkpt lat="39.779621" lon="2.703927">
        <ele>8.007802</ele>
        <time>2025-04-20T11:34:39.559Z</time>
      </trkpt>
      <trkpt lat="39.779566" lon="2.704027">
        <ele>8.041943</ele>
        <time>2025-04-20T11:34:49.170Z</time>
      </trkpt>
      <trkpt lat="39.779341" lon="2.704300">
        <ele>8.153080</ele>
        <time>2025-04-20T11:35:20.642Z</time>
      </trkpt>
      <trkpt lat="39.779064" lon="2.704436">
        <ele>8.264513</ele>
        <time>2025-04-20T11:35:50.790Z</time>
      </trkpt>
      <trkpt lat="39.778695" lon="2.704564">
        <ele>8.468436</ele>
        <time>2025-04-20T11:36:29.592Z</time>
      </trkpt>
      <trkpt lat="39.778643" lon="2.704583">
        <ele>8.497278</ele>
        <time>2025-04-20T11:36:35.075Z</time>
      </trkpt>
      <trkpt lat="39.778623" lon="2.704566">
        <ele>8.510034</ele>
        <time>2025-04-20T11:36:37.498Z</time>
      </trkpt>
      <trkpt lat="39.778565" lon="2.704547">
        <ele>8.541972</ele>
        <time>2025-04-20T11:36:43.556Z</time>
      </trkpt>
      <trkpt lat="39.778412" lon="2.704489">
        <ele>8.627069</ele>
        <time>2025-04-20T11:36:59.675Z</time>
      </trkpt>
      <trkpt lat="39.778385" lon="2.704489">
        <ele>8.641487</ele>
        <time>2025-04-20T11:37:02.398Z</time>
      </trkpt>
      <trkpt lat="39.778173" lon="2.704567">
        <ele>8.759131</ele>
        <time>2025-04-20T11:37:24.706Z</time>
      </trkpt>
      <trkpt lat="39.777939" lon="2.704739">
        <ele>8.902643</ele>
        <time>2025-04-20T11:37:52.131Z</time>
      </trkpt>
      <trkpt lat="39.777907" lon="2.704666">
        <ele>8.937132</ele>
        <time>2025-04-20T11:37:58.740Z</time>
      </trkpt>
      <trkpt lat="39.777805" lon="2.704719">
        <ele>8.995781</ele>
        <time>2025-04-20T11:38:09.926Z</time>
      </trkpt>
      <trkpt lat="39.777519" lon="2.704880">
        <ele>9.162182</ele>
        <time>2025-04-20T11:38:41.927Z</time>
      </trkpt>
      <trkpt lat="39.777198" lon="2.705113">
        <ele>9.466171</ele>
        <time>2025-04-20T11:39:19.633Z</time>
      </trkpt>
      <trkpt lat="39.776818" lon="2.705449">
        <ele>9.890860</ele>
        <time>2025-04-20T11:40:07.024Z</time>
      </trkpt>
      <trkpt lat="39.776769" lon="2.705582">
        <ele>9.995641</ele>
        <time>2025-04-20T11:40:18.739Z</time>
      </trkpt>
      <trkpt lat="39.776809" lon="2.705685">
        <ele>10.077625</ele>
        <time>2025-04-20T11:40:28.001Z</time>
      </trkpt>
      <trkpt lat="39.776905" lon="2.705704">
        <ele>10.167385</ele>
        <time>2025-04-20T11:40:38.109Z</time>
      </trkpt>
      <trkpt lat="39.777003" lon="2.705621">
        <ele>10.275473</ele>
        <time>2025-04-20T11:40:50.163Z</time>
      </trkpt>
      <trkpt lat="39.776805" lon="2.705965">
        <ele>10.580794</ele>
        <time>2025-04-20T11:41:24.437Z</time>
      </trkpt>
      <trkpt lat="39.776488" lon="2.706409">
        <ele>11.031939</ele>
        <time>2025-04-20T11:42:12.765Z</time>
      </trkpt>
      <trkpt lat="39.775774" lon="2.707176">
        <ele>12.016039</ele>
        <time>2025-04-20T11:43:49.275Z</time>
      </trkpt>
      <trkpt lat="39.775660" lon="2.707299">
        <ele>12.173445</ele>
        <time>2025-04-20T11:44:04.694Z</time>
      </trkpt>
      <trkpt lat="39.776612" lon="2.708611">
        <ele>13.417126</ele>
        <time>2025-04-20T11:46:27.770Z</time>
      </trkpt>
      <trkpt lat="39.776426" lon="2.709020">
        <ele>13.701633</ele>
        <time>2025-04-20T11:47:05.392Z</time>
      </trkpt>
      <trkpt lat="39.776289" lon="2.709223">
        <ele>13.863366</ele>
        <time>2025-04-20T11:47:26.666Z</time>
      </trkpt>
      <trkpt lat="39.776102" lon="2.709449">
        <ele>14.062172</ele>
        <time>2025-04-20T11:47:52.794Z</time>
      </trkpt>
      <trkpt lat="39.776005" lon="2.709712">
        <ele>14.221110</ele>
        <time>2025-04-20T11:48:15.724Z</time>
      </trkpt>
      <trkpt lat="39.775934" lon="2.710046">
        <ele>14.363823</ele>
        <time>2025-04-20T11:48:43.090Z</time>
      </trkpt>
      <trkpt lat="39.775870" lon="2.710192">
        <ele>14.433042</ele>
        <time>2025-04-20T11:48:56.318Z</time>
      </trkpt>
      <trkpt lat="39.775749" lon="2.710336">
        <ele>14.520909</ele>
        <time>2025-04-20T11:49:13.191Z</time>
      </trkpt>
      <trkpt lat="39.775523" lon="2.710565">
        <ele>14.674400</ele>
        <time>2025-04-20T11:49:42.565Z</time>
      </trkpt>
      <trkpt lat="39.775340" lon="2.710712">
        <ele>14.789641</ele>
        <time>2025-04-20T11:50:04.527Z</time>
      </trkpt>
      <trkpt lat="39.775071" lon="2.711010">
        <ele>14.978951</ele>
        <time>2025-04-20T11:50:40.384Z</time>
      </trkpt>
      <trkpt lat="39.774910" lon="2.711114">
        <ele>15.075268</ele>
        <time>2025-04-20T11:50:58.596Z</time>
      </trkpt>
      <trkpt lat="39.774863" lon="2.711093">
        <ele>15.101896</ele>
        <time>2025-04-20T11:51:03.547Z</time>
      </trkpt>
      <trkpt lat="39.774652" lon="2.711056">
        <ele>15.171964</ele>
        <time>2025-04-20T11:51:25.054Z</time>
      </trkpt>
      <trkpt lat="39.774192" lon="2.711282">
        <ele>15.258888</ele>
        <time>2025-04-20T11:52:14.422Z</time>
      </trkpt>
      <trkpt lat="39.773095" lon="2.710767">
        <ele>15.465055</ele>
        <time>2025-04-20T11:54:11.493Z</time>
      </trkpt>
      <trkpt lat="39.772828" lon="2.710227">
        <ele>16.051831</ele>
        <time>2025-04-20T11:55:01.929Z</time>
      </trkpt>
      <trkpt lat="39.772508" lon="2.710423">
        <ele>16.486014</ele>
        <time>2025-04-20T11:55:38.562Z</time>
      </trkpt>
      <trkpt lat="39.772247" lon="2.710576">
        <ele>16.837436</ele>
        <time>2025-04-20T11:56:08.312Z</time>
      </trkpt>
      <trkpt lat="39.772112" lon="2.710392">
        <ele>17.077446</ele>
        <time>2025-04-20T11:56:28.824Z</time>
      </trkpt>
      <trkpt lat="39.772053" lon="2.710397">
        <ele>17.150028</ele>
        <time>2025-04-20T11:56:35.147Z</time>
      </trkpt>
      <trkpt lat="39.771927" lon="2.710051">
        <ele>17.511277</ele>
        <time>2025-04-20T11:57:06.468Z</time>
      </trkpt>
      <trkpt lat="39.771800" lon="2.709868">
        <ele>17.831082</ele>
        <time>2025-04-20T11:57:27.051Z</time>
      </trkpt>
      <trkpt lat="39.771648" lon="2.710072">
        <ele>18.444610</ele>
        <time>2025-04-20T11:57:50.777Z</time>
      </trkpt>
      <trkpt lat="39.771537" lon="2.710113">
        <ele>18.768787</ele>
        <time>2025-04-20T11:58:03.515Z</time>
      </trkpt>
      <trkpt lat="39.771069" lon="2.709935">
        <ele>20.138659</ele>
        <time>2025-04-20T11:58:56.629Z</time>
      </trkpt>
      <trkpt lat="39.770757" lon="2.710101">
        <ele>21.085681</ele>
        <time>2025-04-20T11:59:33.783Z</time>
      </trkpt>
      <trkpt lat="39.770628" lon="2.709887">
        <ele>21.672963</ele>
        <time>2025-04-20T11:59:56.976Z</time>
      </trkpt>
      <trkpt lat="39.770354" lon="2.710172">
        <ele>22.658533</ele>
        <time>2025-04-20T12:00:36.285Z</time>
      </trkpt>
      <trkpt lat="39.769996" lon="2.710541">
        <ele>24.245947</ele>
        <time>2025-04-20T12:01:27.566Z</time>
      </trkpt>
      <trkpt lat="39.769261" lon="2.711298">
        <ele>27.540642</ele>
        <time>2025-04-20T12:03:13.397Z</time>
      </trkpt>
      <trkpt lat="39.768774" lon="2.711794">
        <ele>29.669096</ele>
        <time>2025-04-20T12:04:22.849Z</time>
      </trkpt>
      <trkpt lat="39.768505" lon="2.712065">
        <ele>30.783262</ele>
        <time>2025-04-20T12:05:00.723Z</time>
      </trkpt>
      <trkpt lat="39.768445" lon="2.712131">
        <ele>31.040572</ele>
        <time>2025-04-20T12:05:09.477Z</time>
      </trkpt>
      <trkpt lat="39.767876" lon="2.712601">
        <ele>33.247798</ele>
        <time>2025-04-20T12:06:23.999Z</time>
      </trkpt>
      <trkpt lat="39.767412" lon="2.712929">
        <ele>34.977991</ele>
        <time>2025-04-20T12:07:22.933Z</time>
      </trkpt>
      <trkpt lat="39.767046" lon="2.713331">
        <ele>36.583810</ele>
        <time>2025-04-20T12:08:17.333Z</time>
      </trkpt>
      <trkpt lat="39.766536" lon="2.713736">
        <ele>38.586932</ele>
        <time>2025-04-20T12:09:25.388Z</time>
      </trkpt>
      <trkpt lat="39.766244" lon="2.713926">
        <ele>39.681471</ele>
        <time>2025-04-20T12:10:01.971Z</time>
      </trkpt>
      <trkpt lat="39.766108" lon="2.714019">
        <ele>40.196557</ele>
        <time>2025-04-20T12:10:18.878Z</time>
      </trkpt>
      <trkpt lat="39.766114" lon="2.714103">
        <ele>40.413952</ele>
        <time>2025-04-20T12:10:25.980Z</time>
      </trkpt>
      <trkpt lat="39.765937" lon="2.714203">
        <ele>41.027347</ele>
        <time>2025-04-20T12:10:46.797Z</time>
      </trkpt>
      <trkpt lat="39.765788" lon="2.714223">
        <ele>41.341631</ele>
        <time>2025-04-20T12:11:02.993Z</time>
      </trkpt>
      <trkpt lat="39.765783" lon="2.714014">
        <ele>41.678865</ele>
        <time>2025-04-20T12:11:20.228Z</time>
      </trkpt>
      <trkpt lat="39.765386" lon="2.714139">
        <ele>42.535881</ele>
        <time>2025-04-20T12:12:03.512Z</time>
      </trkpt>
      <trkpt lat="39.765338" lon="2.714073">
        <ele>42.682418</ele>
        <time>2025-04-20T12:12:10.879Z</time>
      </trkpt>
      <trkpt lat="39.765130" lon="2.714226">
        <ele>43.183765</ele>
        <time>2025-04-20T12:12:35.919Z</time>
      </trkpt>
      <trkpt lat="39.764244" lon="2.713278">
        <ele>46.386059</ele>
        <time>2025-04-20T12:14:39.717Z</time>
      </trkpt>
      <trkpt lat="39.763921" lon="2.712894">
        <ele>48.167597</ele>
        <time>2025-04-20T12:15:29.301Z</time>
      </trkpt>
      <trkpt lat="39.763645" lon="2.712620">
        <ele>49.581174</ele>
        <time>2025-04-20T12:16:09.353Z</time>
      </trkpt>
      <trkpt lat="39.763461" lon="2.712395">
        <ele>50.609346</ele>
        <time>2025-04-20T12:16:39.190Z</time>
      </trkpt>
      <trkpt lat="39.762993" lon="2.711802">
        <ele>53.307195</ele>
        <time>2025-04-20T12:17:57.884Z</time>
      </trkpt>
      <trkpt lat="39.762775" lon="2.711441">
        <ele>54.789314</ele>
        <time>2025-04-20T12:18:38.708Z</time>
      </trkpt>
      <trkpt lat="39.762664" lon="2.711262">
        <ele>55.531817</ele>
        <time>2025-04-20T12:18:58.907Z</time>
      </trkpt>
      <trkpt lat="39.762555" lon="2.711199">
        <ele>56.032764</ele>
        <time>2025-04-20T12:19:12.355Z</time>
      </trkpt>
      <trkpt lat="39.762566" lon="2.711060">
        <ele>56.483900</ele>
        <time>2025-04-20T12:19:24.412Z</time>
      </trkpt>
      <trkpt lat="39.762611" lon="2.710914">
        <ele>56.991742</ele>
        <time>2025-04-20T12:19:37.894Z</time>
      </trkpt>
      <trkpt lat="39.762634" lon="2.710834">
        <ele>57.267497</ele>
        <time>2025-04-20T12:19:45.137Z</time>
      </trkpt>
      <trkpt lat="39.762828" lon="2.710534">
        <ele>58.533192</ele>
        <time>2025-04-20T12:20:18.608Z</time>
      </trkpt>
      <trkpt lat="39.762906" lon="2.710186">
        <ele>59.622579</ele>
        <time>2025-04-20T12:20:50.318Z</time>
      </trkpt>
      <trkpt lat="39.763003" lon="2.709947">
        <ele>59.622579</ele>
        <time>2025-04-20T12:21:13.980Z</time>
      </trkpt>
      <trkpt lat="39.763146" lon="2.709693">
        <ele>59.622579</ele>
        <time>2025-04-20T12:21:41.515Z</time>
      </trkpt>
      <trkpt lat="39.763158" lon="2.709624">
        <ele>59.622579</ele>
        <time>2025-04-20T12:21:47.656Z</time>
      </trkpt>
      <trkpt lat="39.763125" lon="2.709459">
        <ele>59.622579</ele>
        <time>2025-04-20T12:22:02.330Z</time>
      </trkpt>
      <trkpt lat="39.763027" lon="2.709515">
        <ele>59.622579</ele>
        <time>2025-04-20T12:22:14.486Z</time>
      </trkpt>
      <trkpt lat="39.762801" lon="2.709191">
        <ele>59.622579</ele>
        <time>2025-04-20T12:22:53.270Z</time>
      </trkpt>
      <trkpt lat="39.763031" lon="2.708776">
        <ele>59.622579</ele>
        <time>2025-04-20T12:23:38.768Z</time>
      </trkpt>
      <trkpt lat="39.762997" lon="2.708801">
        <ele>59.622579</ele>
        <time>2025-04-20T12:23:43.249Z</time>
      </trkpt>
    </trkseg>
  </trk>
</gpx>