<?xml version='1.0' encoding='UTF-8'?>
<gpx version="1.1" creator="https://www.komoot.de" xmlns="http://www.topografix.com/GPX/1/1" xmlns:xsi="http://www.w3.org/2001/XMLSchema-instance" xsi:schemaLocation="http://www.topografix.com/GPX/1/1 http://www.topografix.com/GPX/1/1/gpx.xsd">
  <metadata>
    <name>Das Kap Arkona und das Leuchtfeuer – Inselwandern Rügen</name>
    <author>
      <link href="https://www.komoot.de">
        <text>komoot</text>
        <type>text/html</type>
      </link>
    </author>
  </metadata>
  <trk>
    <name>Das Kap Arkona und das Leuchtfeuer – Inselwandern Rügen</name>
    <trkseg>
      <trkpt lat="54.671261" lon="13.409920">
        <ele>22.094117</ele>
        <time>2025-08-08T09:56:18.613Z</time>
      </trkpt>
      <trkpt lat="54.671311" lon="13.409888">
        <ele>22.094117</ele>
        <time>2025-08-08T09:56:24.032Z</time>
      </trkpt>
      <trkpt lat="54.671266" lon="13.409607">
        <ele>22.094117</ele>
        <time>2025-08-08T09:56:40.952Z</time>
      </trkpt>
      <trkpt lat="54.671243" lon="13.409470">
        <ele>22.094117</ele>
        <time>2025-08-08T09:56:49.253Z</time>
      </trkpt>
      <trkpt lat="54.671215" lon="13.409337">
        <ele>22.094117</ele>
        <time>2025-08-08T09:56:57.577Z</time>
      </trkpt>
      <trkpt lat="54.671190" lon="13.409216">
        <ele>22.094117</ele>
        <time>2025-08-08T09:57:05.215Z</time>
      </trkpt>
      <trkpt lat="54.671175" lon="13.409073">
        <ele>22.094117</ele>
        <time>2025-08-08T09:57:13.622Z</time>
      </trkpt>
      <trkpt lat="54.671142" lon="13.408936">
        <ele>22.094117</ele>
        <time>2025-08-08T09:57:22.335Z</time>
      </trkpt>
      <trkpt lat="54.671089" lon="13.408773">
        <ele>22.094117</ele>
        <time>2025-08-08T09:57:33.343Z</time>
      </trkpt>
      <trkpt lat="54.671912" lon="13.408245">
        <ele>22.516936</ele>
        <time>2025-08-08T09:59:02.795Z</time>
      </trkpt>
      <trkpt lat="54.672243" lon="13.408031">
        <ele>22.725307</ele>
        <time>2025-08-08T09:59:39.014Z</time>
      </trkpt>
      <trkpt lat="54.672035" lon="13.407051">
        <ele>23.081259</ele>
        <time>2025-08-08T10:00:40.783Z</time>
      </trkpt>
      <trkpt lat="54.671992" lon="13.406735">
        <ele>23.188360</ele>
        <time>2025-08-08T10:01:00.052Z</time>
      </trkpt>
      <trkpt lat="54.671994" lon="13.406520">
        <ele>23.254611</ele>
        <time>2025-08-08T10:01:12.791Z</time>
      </trkpt>
      <trkpt lat="54.672442" lon="13.402883">
        <ele>24.267677</ele>
        <time>2025-08-08T10:04:51.915Z</time>
      </trkpt>
      <trkpt lat="54.672509" lon="13.402038">
        <ele>24.409119</ele>
        <time>2025-08-08T10:05:41.819Z</time>
      </trkpt>
      <trkpt lat="54.672567" lon="13.400732">
        <ele>24.626336</ele>
        <time>2025-08-08T10:06:58.043Z</time>
      </trkpt>
      <trkpt lat="54.672552" lon="13.397732">
        <ele>24.749246</ele>
        <time>2025-08-08T10:09:51.680Z</time>
      </trkpt>
      <trkpt lat="54.672528" lon="13.397545">
        <ele>24.777096</ele>
        <time>2025-08-08T10:10:02.908Z</time>
      </trkpt>
      <trkpt lat="54.672619" lon="13.397057">
        <ele>24.954582</ele>
        <time>2025-08-08T10:10:32.943Z</time>
      </trkpt>
      <trkpt lat="54.672794" lon="13.396532">
        <ele>25.164341</ele>
        <time>2025-08-08T10:11:08.701Z</time>
      </trkpt>
      <trkpt lat="54.673093" lon="13.395483">
        <ele>25.569164</ele>
        <time>2025-08-08T10:12:18.097Z</time>
      </trkpt>
      <trkpt lat="54.673152" lon="13.394998">
        <ele>25.740718</ele>
        <time>2025-08-08T10:12:47.644Z</time>
      </trkpt>
      <trkpt lat="54.673169" lon="13.394531">
        <ele>25.912854</ele>
        <time>2025-08-08T10:13:15.540Z</time>
      </trkpt>
      <trkpt lat="54.673152" lon="13.393943">
        <ele>26.145546</ele>
        <time>2025-08-08T10:13:50.699Z</time>
      </trkpt>
      <trkpt lat="54.672931" lon="13.391826">
        <ele>26.995800</ele>
        <time>2025-08-08T10:15:58.148Z</time>
      </trkpt>
      <trkpt lat="54.672810" lon="13.389742">
        <ele>27.397806</ele>
        <time>2025-08-08T10:18:00.820Z</time>
      </trkpt>
      <trkpt lat="54.672457" lon="13.386466">
        <ele>27.575614</ele>
        <time>2025-08-08T10:21:14.693Z</time>
      </trkpt>
      <trkpt lat="54.672399" lon="13.385958">
        <ele>27.568811</ele>
        <time>2025-08-08T10:21:44.791Z</time>
      </trkpt>
      <trkpt lat="54.671984" lon="13.382007">
        <ele>26.718519</ele>
        <time>2025-08-08T10:25:39.288Z</time>
      </trkpt>
      <trkpt lat="54.671874" lon="13.381065">
        <ele>26.501407</ele>
        <time>2025-08-08T10:26:35.355Z</time>
      </trkpt>
      <trkpt lat="54.671363" lon="13.376711">
        <ele>25.449267</ele>
        <time>2025-08-08T10:30:54.426Z</time>
      </trkpt>
      <trkpt lat="54.671086" lon="13.374597">
        <ele>24.794324</ele>
        <time>2025-08-08T10:33:01.482Z</time>
      </trkpt>
      <trkpt lat="54.670974" lon="13.374082">
        <ele>24.621820</ele>
        <time>2025-08-08T10:33:33.719Z</time>
      </trkpt>
      <trkpt lat="54.670584" lon="13.372652">
        <ele>24.278375</ele>
        <time>2025-08-08T10:35:06.215Z</time>
      </trkpt>
      <trkpt lat="54.669963" lon="13.370518">
        <ele>23.998300</ele>
        <time>2025-08-08T10:37:24.882Z</time>
      </trkpt>
      <trkpt lat="54.670887" lon="13.370554">
        <ele>24.262140</ele>
        <time>2025-08-08T10:38:58.037Z</time>
      </trkpt>
      <trkpt lat="54.675419" lon="13.370577">
        <ele>26.423098</ele>
        <time>2025-08-08T10:46:39.523Z</time>
      </trkpt>
      <trkpt lat="54.675793" lon="13.370560">
        <ele>26.769000</ele>
        <time>2025-08-08T10:47:18.073Z</time>
      </trkpt>
      <trkpt lat="54.676232" lon="13.370564">
        <ele>27.174884</ele>
        <time>2025-08-08T10:48:03.714Z</time>
      </trkpt>
      <trkpt lat="54.676434" lon="13.370575">
        <ele>27.361736</ele>
        <time>2025-08-08T10:48:24.706Z</time>
      </trkpt>
      <trkpt lat="54.676933" lon="13.370571">
        <ele>27.823092</ele>
        <time>2025-08-08T10:49:16.656Z</time>
      </trkpt>
      <trkpt lat="54.676955" lon="13.370917">
        <ele>27.988055</ele>
        <time>2025-08-08T10:49:37.507Z</time>
      </trkpt>
      <trkpt lat="54.677000" lon="13.371023">
        <ele>28.021774</ele>
        <time>2025-08-08T10:49:45.339Z</time>
      </trkpt>
      <trkpt lat="54.677074" lon="13.371070">
        <ele>28.056734</ele>
        <time>2025-08-08T10:49:53.469Z</time>
      </trkpt>
      <trkpt lat="54.677174" lon="13.371062">
        <ele>28.101128</ele>
        <time>2025-08-08T10:50:03.721Z</time>
      </trkpt>
      <trkpt lat="54.677404" lon="13.371120">
        <ele>28.204206</ele>
        <time>2025-08-08T10:50:27.546Z</time>
      </trkpt>
      <trkpt lat="54.677514" lon="13.371208">
        <ele>28.257954</ele>
        <time>2025-08-08T10:50:39.843Z</time>
      </trkpt>
      <trkpt lat="54.677737" lon="13.371292">
        <ele>28.359167</ele>
        <time>2025-08-08T10:51:02.905Z</time>
      </trkpt>
      <trkpt lat="54.679022" lon="13.371387">
        <ele>28.510176</ele>
        <time>2025-08-08T10:53:12.638Z</time>
      </trkpt>
      <trkpt lat="54.679249" lon="13.371403">
        <ele>28.352193</ele>
        <time>2025-08-08T10:53:35.408Z</time>
      </trkpt>
      <trkpt lat="54.680811" lon="13.371477">
        <ele>26.939222</ele>
        <time>2025-08-08T10:56:15.427Z</time>
      </trkpt>
      <trkpt lat="54.681262" lon="13.371463">
        <ele>26.215902</ele>
        <time>2025-08-08T10:57:01.599Z</time>
      </trkpt>
      <trkpt lat="54.681460" lon="13.371453">
        <ele>25.898263</ele>
        <time>2025-08-08T10:57:22.291Z</time>
      </trkpt>
      <trkpt lat="54.681867" lon="13.373737">
        <ele>23.983785</ele>
        <time>2025-08-08T10:59:46.234Z</time>
      </trkpt>
      <trkpt lat="54.681888" lon="13.374389">
        <ele>23.570616</ele>
        <time>2025-08-08T11:00:24.823Z</time>
      </trkpt>
      <trkpt lat="54.681911" lon="13.374476">
        <ele>23.510087</ele>
        <time>2025-08-08T11:00:30.386Z</time>
      </trkpt>
      <trkpt lat="54.681972" lon="13.374513">
        <ele>23.439341</ele>
        <time>2025-08-08T11:00:37.011Z</time>
      </trkpt>
      <trkpt lat="54.682160" lon="13.374429">
        <ele>23.226832</ele>
        <time>2025-08-08T11:00:56.602Z</time>
      </trkpt>
      <trkpt lat="54.682255" lon="13.374427">
        <ele>23.122852</ele>
        <time>2025-08-08T11:01:06.288Z</time>
      </trkpt>
      <trkpt lat="54.682333" lon="13.374545">
        <ele>23.009444</ele>
        <time>2025-08-08T11:01:16.773Z</time>
      </trkpt>
      <trkpt lat="54.682411" lon="13.374935">
        <ele>22.748339</ele>
        <time>2025-08-08T11:01:40.898Z</time>
      </trkpt>
      <trkpt lat="54.682558" lon="13.375959">
        <ele>22.936475</ele>
        <time>2025-08-08T11:02:42.389Z</time>
      </trkpt>
      <trkpt lat="54.682712" lon="13.376384">
        <ele>23.085731</ele>
        <time>2025-08-08T11:03:11.623Z</time>
      </trkpt>
      <trkpt lat="54.682788" lon="13.376777">
        <ele>23.209044</ele>
        <time>2025-08-08T11:03:36.056Z</time>
      </trkpt>
      <trkpt lat="54.682791" lon="13.377407">
        <ele>23.396518</ele>
        <time>2025-08-08T11:04:13.877Z</time>
      </trkpt>
      <trkpt lat="54.682954" lon="13.379603">
        <ele>24.626266</ele>
        <time>2025-08-08T11:06:28.685Z</time>
      </trkpt>
      <trkpt lat="54.682892" lon="13.380529">
        <ele>25.242947</ele>
        <time>2025-08-08T11:07:24.909Z</time>
      </trkpt>
      <trkpt lat="54.682823" lon="13.381127">
        <ele>25.646350</ele>
        <time>2025-08-08T11:08:01.186Z</time>
      </trkpt>
      <trkpt lat="54.682762" lon="13.382376">
        <ele>25.734360</ele>
        <time>2025-08-08T11:09:14.527Z</time>
      </trkpt>
      <trkpt lat="54.682777" lon="13.382763">
        <ele>25.761464</ele>
        <time>2025-08-08T11:09:36.968Z</time>
      </trkpt>
      <trkpt lat="54.682655" lon="13.385049">
        <ele>25.867140</ele>
        <time>2025-08-08T11:11:50.346Z</time>
      </trkpt>
      <trkpt lat="54.682559" lon="13.385549">
        <ele>25.868997</ele>
        <time>2025-08-08T11:12:20.929Z</time>
      </trkpt>
      <trkpt lat="54.682439" lon="13.385795">
        <ele>25.870131</ele>
        <time>2025-08-08T11:12:39.538Z</time>
      </trkpt>
      <trkpt lat="54.682355" lon="13.386050">
        <ele>25.871166</ele>
        <time>2025-08-08T11:12:56.538Z</time>
      </trkpt>
      <trkpt lat="54.682341" lon="13.386219">
        <ele>25.871767</ele>
        <time>2025-08-08T11:13:06.452Z</time>
      </trkpt>
      <trkpt lat="54.682427" lon="13.386744">
        <ele>25.873691</ele>
        <time>2025-08-08T11:13:38.202Z</time>
      </trkpt>
      <trkpt lat="54.682436" lon="13.386960">
        <ele>25.874454</ele>
        <time>2025-08-08T11:13:50.864Z</time>
      </trkpt>
      <trkpt lat="54.682339" lon="13.387460">
        <ele>25.937605</ele>
        <time>2025-08-08T11:14:21.726Z</time>
      </trkpt>
      <trkpt lat="54.682186" lon="13.388069">
        <ele>26.068595</ele>
        <time>2025-08-08T11:15:00.825Z</time>
      </trkpt>
      <trkpt lat="54.682209" lon="13.388708">
        <ele>26.194894</ele>
        <time>2025-08-08T11:15:38.490Z</time>
      </trkpt>
      <trkpt lat="54.682069" lon="13.390194">
        <ele>26.492898</ele>
        <time>2025-08-08T11:17:06.591Z</time>
      </trkpt>
      <trkpt lat="54.681999" lon="13.390434">
        <ele>26.563779</ele>
        <time>2025-08-08T11:17:22.269Z</time>
      </trkpt>
      <trkpt lat="54.681805" lon="13.390768">
        <ele>26.688623</ele>
        <time>2025-08-08T11:17:49.915Z</time>
      </trkpt>
      <trkpt lat="54.681791" lon="13.391022">
        <ele>26.755903</ele>
        <time>2025-08-08T11:18:04.831Z</time>
      </trkpt>
      <trkpt lat="54.681958" lon="13.391687">
        <ele>26.947081</ele>
        <time>2025-08-08T11:18:47.482Z</time>
      </trkpt>
      <trkpt lat="54.681927" lon="13.392136">
        <ele>27.066316</ele>
        <time>2025-08-08T11:19:14.168Z</time>
      </trkpt>
      <trkpt lat="54.681976" lon="13.392793">
        <ele>27.240992</ele>
        <time>2025-08-08T11:19:53.512Z</time>
      </trkpt>
      <trkpt lat="54.681969" lon="13.393394">
        <ele>27.263168</ele>
        <time>2025-08-08T11:20:28.999Z</time>
      </trkpt>
      <trkpt lat="54.681862" lon="13.394585">
        <ele>27.100488</ele>
        <time>2025-08-08T11:21:39.173Z</time>
      </trkpt>
      <trkpt lat="54.681782" lon="13.394839">
        <ele>27.061448</ele>
        <time>2025-08-08T11:21:55.961Z</time>
      </trkpt>
      <trkpt lat="54.681691" lon="13.395338">
        <ele>26.990826</ele>
        <time>2025-08-08T11:22:26.561Z</time>
      </trkpt>
      <trkpt lat="54.681545" lon="13.396194">
        <ele>26.759847</ele>
        <time>2025-08-08T11:23:19.239Z</time>
      </trkpt>
      <trkpt lat="54.681536" lon="13.396262">
        <ele>26.695760</ele>
        <time>2025-08-08T11:23:23.357Z</time>
      </trkpt>
      <trkpt lat="54.681539" lon="13.396399">
        <ele>26.569810</ele>
        <time>2025-08-08T11:23:31.462Z</time>
      </trkpt>
      <trkpt lat="54.681808" lon="13.397687">
        <ele>25.311705</ele>
        <time>2025-08-08T11:24:53.245Z</time>
      </trkpt>
      <trkpt lat="54.681818" lon="13.398028">
        <ele>24.998034</ele>
        <time>2025-08-08T11:25:13.805Z</time>
      </trkpt>
      <trkpt lat="54.681784" lon="13.398352">
        <ele>24.695519</ele>
        <time>2025-08-08T11:25:33.668Z</time>
      </trkpt>
      <trkpt lat="54.681872" lon="13.398903">
        <ele>24.170367</ele>
        <time>2025-08-08T11:26:08.134Z</time>
      </trkpt>
      <trkpt lat="54.681852" lon="13.399139">
        <ele>23.964201</ele>
        <time>2025-08-08T11:26:22.481Z</time>
      </trkpt>
      <trkpt lat="54.681785" lon="13.399474">
        <ele>23.691325</ele>
        <time>2025-08-08T11:26:43.841Z</time>
      </trkpt>
      <trkpt lat="54.681822" lon="13.400326">
        <ele>23.033615</ele>
        <time>2025-08-08T11:27:34.835Z</time>
      </trkpt>
      <trkpt lat="54.681760" lon="13.400719">
        <ele>22.720024</ele>
        <time>2025-08-08T11:27:58.989Z</time>
      </trkpt>
      <trkpt lat="54.681802" lon="13.401039">
        <ele>22.467422</ele>
        <time>2025-08-08T11:28:18.347Z</time>
      </trkpt>
      <trkpt lat="54.681801" lon="13.401223">
        <ele>22.325774</ele>
        <time>2025-08-08T11:28:29.214Z</time>
      </trkpt>
      <trkpt lat="54.681672" lon="13.401868">
        <ele>21.800385</ele>
        <time>2025-08-08T11:29:09.545Z</time>
      </trkpt>
      <trkpt lat="54.681663" lon="13.401911">
        <ele>21.765181</ele>
        <time>2025-08-08T11:29:12.239Z</time>
      </trkpt>
      <trkpt lat="54.681524" lon="13.402309">
        <ele>21.534621</ele>
        <time>2025-08-08T11:29:39.677Z</time>
      </trkpt>
      <trkpt lat="54.681528" lon="13.402631">
        <ele>21.424615</ele>
        <time>2025-08-08T11:29:58.633Z</time>
      </trkpt>
      <trkpt lat="54.681485" lon="13.403029">
        <ele>21.286324</ele>
        <time>2025-08-08T11:30:22.496Z</time>
      </trkpt>
      <trkpt lat="54.681493" lon="13.403484">
        <ele>21.130846</ele>
        <time>2025-08-08T11:30:49.270Z</time>
      </trkpt>
      <trkpt lat="54.681401" lon="13.404292">
        <ele>20.849570</ele>
        <time>2025-08-08T11:31:37.382Z</time>
      </trkpt>
      <trkpt lat="54.681427" lon="13.405316">
        <ele>20.582034</ele>
        <time>2025-08-08T11:32:36.903Z</time>
      </trkpt>
      <trkpt lat="54.681344" lon="13.405777">
        <ele>20.600840</ele>
        <time>2025-08-08T11:33:04.871Z</time>
      </trkpt>
      <trkpt lat="54.681350" lon="13.406002">
        <ele>20.609612</ele>
        <time>2025-08-08T11:33:17.918Z</time>
      </trkpt>
      <trkpt lat="54.681415" lon="13.406465">
        <ele>20.628169</ele>
        <time>2025-08-08T11:33:45.564Z</time>
      </trkpt>
      <trkpt lat="54.681472" lon="13.407502">
        <ele>20.668740</ele>
        <time>2025-08-08T11:34:46.220Z</time>
      </trkpt>
      <trkpt lat="54.681467" lon="13.407821">
        <ele>20.681169</ele>
        <time>2025-08-08T11:35:04.832Z</time>
      </trkpt>
      <trkpt lat="54.681420" lon="13.408414">
        <ele>20.608377</ele>
        <time>2025-08-08T11:35:39.732Z</time>
      </trkpt>
      <trkpt lat="54.681495" lon="13.409171">
        <ele>20.342627</ele>
        <time>2025-08-08T11:36:24.211Z</time>
      </trkpt>
      <trkpt lat="54.681482" lon="13.409323">
        <ele>20.289461</ele>
        <time>2025-08-08T11:36:33.184Z</time>
      </trkpt>
      <trkpt lat="54.681432" lon="13.409515">
        <ele>20.216598</ele>
        <time>2025-08-08T11:36:45.417Z</time>
      </trkpt>
      <trkpt lat="54.681294" lon="13.409921">
        <ele>20.053635</ele>
        <time>2025-08-08T11:37:13.079Z</time>
      </trkpt>
      <trkpt lat="54.681290" lon="13.410070">
        <ele>20.002024</ele>
        <time>2025-08-08T11:37:21.813Z</time>
      </trkpt>
      <trkpt lat="54.681322" lon="13.410143">
        <ele>19.970325</ele>
        <time>2025-08-08T11:37:27.248Z</time>
      </trkpt>
      <trkpt lat="54.681587" lon="13.410345">
        <ele>19.797002</ele>
        <time>2025-08-08T11:37:56.907Z</time>
      </trkpt>
      <trkpt lat="54.681738" lon="13.411092">
        <ele>19.433865</ele>
        <time>2025-08-08T11:38:44.120Z</time>
      </trkpt>
      <trkpt lat="54.681894" lon="13.411490">
        <ele>19.111154</ele>
        <time>2025-08-08T11:39:12.733Z</time>
      </trkpt>
      <trkpt lat="54.682215" lon="13.412552">
        <ele>18.306889</ele>
        <time>2025-08-08T11:40:23.736Z</time>
      </trkpt>
      <trkpt lat="54.682380" lon="13.413223">
        <ele>17.817526</ele>
        <time>2025-08-08T11:41:06.844Z</time>
      </trkpt>
      <trkpt lat="54.682489" lon="13.413885">
        <ele>17.445176</ele>
        <time>2025-08-08T11:41:47.529Z</time>
      </trkpt>
      <trkpt lat="54.682469" lon="13.414025">
        <ele>17.398038</ele>
        <time>2025-08-08T11:41:55.993Z</time>
      </trkpt>
      <trkpt lat="54.682375" lon="13.414106">
        <ele>17.338660</ele>
        <time>2025-08-08T11:42:06.758Z</time>
      </trkpt>
      <trkpt lat="54.681962" lon="13.414013">
        <ele>17.103175</ele>
        <time>2025-08-08T11:42:49.108Z</time>
      </trkpt>
      <trkpt lat="54.681911" lon="13.414120">
        <ele>17.057846</ele>
        <time>2025-08-08T11:42:57.178Z</time>
      </trkpt>
      <trkpt lat="54.681972" lon="13.414274">
        <ele>16.996825</ele>
        <time>2025-08-08T11:43:08.001Z</time>
      </trkpt>
      <trkpt lat="54.682152" lon="13.414418">
        <ele>16.884694</ele>
        <time>2025-08-08T11:43:28.105Z</time>
      </trkpt>
      <trkpt lat="54.682476" lon="13.415174">
        <ele>16.577083</ele>
        <time>2025-08-08T11:44:22.742Z</time>
      </trkpt>
      <trkpt lat="54.682485" lon="13.415501">
        <ele>16.484226</ele>
        <time>2025-08-08T11:44:41.677Z</time>
      </trkpt>
      <trkpt lat="54.682668" lon="13.416282">
        <ele>16.298992</ele>
        <time>2025-08-08T11:45:31.067Z</time>
      </trkpt>
      <trkpt lat="54.682809" lon="13.416841">
        <ele>16.164933</ele>
        <time>2025-08-08T11:46:06.952Z</time>
      </trkpt>
      <trkpt lat="54.683004" lon="13.417936">
        <ele>15.913085</ele>
        <time>2025-08-08T11:47:13.727Z</time>
      </trkpt>
      <trkpt lat="54.683209" lon="13.418366">
        <ele>15.872539</ele>
        <time>2025-08-08T11:47:45.968Z</time>
      </trkpt>
      <trkpt lat="54.683391" lon="13.418557">
        <ele>15.962486</ele>
        <time>2025-08-08T11:48:07.387Z</time>
      </trkpt>
      <trkpt lat="54.683458" lon="13.418772">
        <ele>16.022147</ele>
        <time>2025-08-08T11:48:21.638Z</time>
      </trkpt>
      <trkpt lat="54.683498" lon="13.419400">
        <ele>16.176473</ele>
        <time>2025-08-08T11:48:58.385Z</time>
      </trkpt>
      <trkpt lat="54.683408" lon="13.419995">
        <ele>16.326702</ele>
        <time>2025-08-08T11:49:34.432Z</time>
      </trkpt>
      <trkpt lat="54.683399" lon="13.420840">
        <ele>16.533140</ele>
        <time>2025-08-08T11:50:24.428Z</time>
      </trkpt>
      <trkpt lat="54.683278" lon="13.421869">
        <ele>17.188940</ele>
        <time>2025-08-08T11:51:28.385Z</time>
      </trkpt>
      <trkpt lat="54.683306" lon="13.422765">
        <ele>17.845169</ele>
        <time>2025-08-08T11:52:23.197Z</time>
      </trkpt>
      <trkpt lat="54.683284" lon="13.423134">
        <ele>18.116462</ele>
        <time>2025-08-08T11:52:45.618Z</time>
      </trkpt>
      <trkpt lat="54.683386" lon="13.423581">
        <ele>18.467912</ele>
        <time>2025-08-08T11:53:14.592Z</time>
      </trkpt>
      <trkpt lat="54.683369" lon="13.423871">
        <ele>18.681085</ele>
        <time>2025-08-08T11:53:32.080Z</time>
      </trkpt>
      <trkpt lat="54.683392" lon="13.424401">
        <ele>19.062788</ele>
        <time>2025-08-08T11:54:03.985Z</time>
      </trkpt>
      <trkpt lat="54.683492" lon="13.424611">
        <ele>19.254973</ele>
        <time>2025-08-08T11:54:20.328Z</time>
      </trkpt>
      <trkpt lat="54.683532" lon="13.424796">
        <ele>19.394495</ele>
        <time>2025-08-08T11:54:32.047Z</time>
      </trkpt>
      <trkpt lat="54.683516" lon="13.425282">
        <ele>19.738351</ele>
        <time>2025-08-08T11:55:01.173Z</time>
      </trkpt>
      <trkpt lat="54.683798" lon="13.426520">
        <ele>20.678283</ele>
        <time>2025-08-08T11:56:21.125Z</time>
      </trkpt>
      <trkpt lat="54.683913" lon="13.426709">
        <ele>20.872111</ele>
        <time>2025-08-08T11:56:37.705Z</time>
      </trkpt>
      <trkpt lat="54.684063" lon="13.427155">
        <ele>21.481296</ele>
        <time>2025-08-08T11:57:09.290Z</time>
      </trkpt>
      <trkpt lat="54.684182" lon="13.427926">
        <ele>22.837662</ele>
        <time>2025-08-08T11:57:59.144Z</time>
      </trkpt>
      <trkpt lat="54.684182" lon="13.428000">
        <ele>22.963439</ele>
        <time>2025-08-08T11:58:03.753Z</time>
      </trkpt>
      <trkpt lat="54.684057" lon="13.428101">
        <ele>23.369082</ele>
        <time>2025-08-08T11:58:19.075Z</time>
      </trkpt>
      <trkpt lat="54.683975" lon="13.428297">
        <ele>23.780312</ele>
        <time>2025-08-08T11:58:34.438Z</time>
      </trkpt>
      <trkpt lat="54.683582" lon="13.428814">
        <ele>25.231997</ele>
        <time>2025-08-08T11:59:29.669Z</time>
      </trkpt>
      <trkpt lat="54.683274" lon="13.429042">
        <ele>26.217020</ele>
        <time>2025-08-08T12:00:07.694Z</time>
      </trkpt>
      <trkpt lat="54.683037" lon="13.429066">
        <ele>27.090402</ele>
        <time>2025-08-08T12:00:35.278Z</time>
      </trkpt>
      <trkpt lat="54.682924" lon="13.429391">
        <ele>27.935435</ele>
        <time>2025-08-08T12:01:00.737Z</time>
      </trkpt>
      <trkpt lat="54.682285" lon="13.430663">
        <ele>31.690253</ele>
        <time>2025-08-08T12:02:51.085Z</time>
      </trkpt>
      <trkpt lat="54.682230" lon="13.430779">
        <ele>32.024534</ele>
        <time>2025-08-08T12:03:01.176Z</time>
      </trkpt>
      <trkpt lat="54.682129" lon="13.430810">
        <ele>32.419896</ele>
        <time>2025-08-08T12:03:12.815Z</time>
      </trkpt>
      <trkpt lat="54.682060" lon="13.430769">
        <ele>32.701094</ele>
        <time>2025-08-08T12:03:21.054Z</time>
      </trkpt>
      <trkpt lat="54.682007" lon="13.430738">
        <ele>32.916733</ele>
        <time>2025-08-08T12:03:27.295Z</time>
      </trkpt>
      <trkpt lat="54.681876" lon="13.430834">
        <ele>33.385990</ele>
        <time>2025-08-08T12:03:43.423Z</time>
      </trkpt>
      <trkpt lat="54.681689" lon="13.431420">
        <ele>34.228052</ele>
        <time>2025-08-08T12:04:26.771Z</time>
      </trkpt>
      <trkpt lat="54.681610" lon="13.431761">
        <ele>34.690207</ele>
        <time>2025-08-08T12:04:49.936Z</time>
      </trkpt>
      <trkpt lat="54.681216" lon="13.432040">
        <ele>35.616651</ele>
        <time>2025-08-08T12:05:36.294Z</time>
      </trkpt>
      <trkpt lat="54.681106" lon="13.432085">
        <ele>35.862624</ele>
        <time>2025-08-08T12:05:48.502Z</time>
      </trkpt>
      <trkpt lat="54.681050" lon="13.432130">
        <ele>35.996994</ele>
        <time>2025-08-08T12:05:55.080Z</time>
      </trkpt>
      <trkpt lat="54.680991" lon="13.432178">
        <ele>36.138875</ele>
        <time>2025-08-08T12:06:02.062Z</time>
      </trkpt>
      <trkpt lat="54.680973" lon="13.432197">
        <ele>36.184762</ele>
        <time>2025-08-08T12:06:04.257Z</time>
      </trkpt>
      <trkpt lat="54.680937" lon="13.432234">
        <ele>36.275887</ele>
        <time>2025-08-08T12:06:08.662Z</time>
      </trkpt>
      <trkpt lat="54.680766" lon="13.432323">
        <ele>36.664479</ele>
        <time>2025-08-08T12:06:27.594Z</time>
      </trkpt>
      <trkpt lat="54.680584" lon="13.432223">
        <ele>37.080030</ele>
        <time>2025-08-08T12:06:46.797Z</time>
      </trkpt>
      <trkpt lat="54.680467" lon="13.432240">
        <ele>37.142722</ele>
        <time>2025-08-08T12:06:59.000Z</time>
      </trkpt>
      <trkpt lat="54.680295" lon="13.431866">
        <ele>36.904484</ele>
        <time>2025-08-08T12:07:26.747Z</time>
      </trkpt>
      <trkpt lat="54.679755" lon="13.432603">
        <ele>36.311361</ele>
        <time>2025-08-08T12:08:36.205Z</time>
      </trkpt>
      <trkpt lat="54.679660" lon="13.432743">
        <ele>36.203745</ele>
        <time>2025-08-08T12:08:48.995Z</time>
      </trkpt>
      <trkpt lat="54.679629" lon="13.432787">
        <ele>36.169167</ele>
        <time>2025-08-08T12:08:53.157Z</time>
      </trkpt>
      <trkpt lat="54.679522" lon="13.432984">
        <ele>36.034417</ele>
        <time>2025-08-08T12:09:09.602Z</time>
      </trkpt>
      <trkpt lat="54.679485" lon="13.433077">
        <ele>35.978138</ele>
        <time>2025-08-08T12:09:16.351Z</time>
      </trkpt>
      <trkpt lat="54.679425" lon="13.433230">
        <ele>35.885973</ele>
        <time>2025-08-08T12:09:27.367Z</time>
      </trkpt>
      <trkpt lat="54.679307" lon="13.433554">
        <ele>35.695076</ele>
        <time>2025-08-08T12:09:50.782Z</time>
      </trkpt>
      <trkpt lat="54.679062" lon="13.433930">
        <ele>35.036930</ele>
        <time>2025-08-08T12:10:25.014Z</time>
      </trkpt>
      <trkpt lat="54.678881" lon="13.434071">
        <ele>34.590774</ele>
        <time>2025-08-08T12:10:45.538Z</time>
      </trkpt>
      <trkpt lat="54.678712" lon="13.434120">
        <ele>34.205644</ele>
        <time>2025-08-08T12:11:03.406Z</time>
      </trkpt>
      <trkpt lat="54.678584" lon="13.434129">
        <ele>33.917724</ele>
        <time>2025-08-08T12:11:16.552Z</time>
      </trkpt>
      <trkpt lat="54.678396" lon="13.434073">
        <ele>33.488970</ele>
        <time>2025-08-08T12:11:36.480Z</time>
      </trkpt>
      <trkpt lat="54.678399" lon="13.434174">
        <ele>33.357554</ele>
        <time>2025-08-08T12:11:42.430Z</time>
      </trkpt>
      <trkpt lat="54.677648" lon="13.435198">
        <ele>30.621395</ele>
        <time>2025-08-08T12:13:23.022Z</time>
      </trkpt>
      <trkpt lat="54.677460" lon="13.435416">
        <ele>29.358432</ele>
        <time>2025-08-08T12:13:47.132Z</time>
      </trkpt>
      <trkpt lat="54.677366" lon="13.435476">
        <ele>28.799344</ele>
        <time>2025-08-08T12:13:57.983Z</time>
      </trkpt>
      <trkpt lat="54.677191" lon="13.435523">
        <ele>27.811162</ele>
        <time>2025-08-08T12:14:17.095Z</time>
      </trkpt>
      <trkpt lat="54.675676" lon="13.435280">
        <ele>18.584845</ele>
        <time>2025-08-08T12:17:10.578Z</time>
      </trkpt>
      <trkpt lat="54.675491" lon="13.435115">
        <ele>17.042593</ele>
        <time>2025-08-08T12:17:35.834Z</time>
      </trkpt>
      <trkpt lat="54.675277" lon="13.434740">
        <ele>14.785367</ele>
        <time>2025-08-08T12:18:11.847Z</time>
      </trkpt>
      <trkpt lat="54.675207" lon="13.434494">
        <ele>13.610764</ele>
        <time>2025-08-08T12:18:29.764Z</time>
      </trkpt>
      <trkpt lat="54.675142" lon="13.434580">
        <ele>13.004392</ele>
        <time>2025-08-08T12:18:39.562Z</time>
      </trkpt>
      <trkpt lat="54.674755" lon="13.434727">
        <ele>10.068653</ele>
        <time>2025-08-08T12:19:24.907Z</time>
      </trkpt>
      <trkpt lat="54.674658" lon="13.434880">
        <ele>9.095932</ele>
        <time>2025-08-08T12:19:39.766Z</time>
      </trkpt>
      <trkpt lat="54.674371" lon="13.434381">
        <ele>7.355471</ele>
        <time>2025-08-08T12:20:24.648Z</time>
      </trkpt>
      <trkpt lat="54.673992" lon="13.433610">
        <ele>5.578208</ele>
        <time>2025-08-08T12:21:28.627Z</time>
      </trkpt>
      <trkpt lat="54.673477" lon="13.433208">
        <ele>3.862030</ele>
        <time>2025-08-08T12:22:27.813Z</time>
      </trkpt>
      <trkpt lat="54.672968" lon="13.433048">
        <ele>2.805463</ele>
        <time>2025-08-08T12:23:20.537Z</time>
      </trkpt>
      <trkpt lat="54.672331" lon="13.432913">
        <ele>2.914984</ele>
        <time>2025-08-08T12:24:25.302Z</time>
      </trkpt>
      <trkpt lat="54.671394" lon="13.432388">
        <ele>3.083072</ele>
        <time>2025-08-08T12:26:04.165Z</time>
      </trkpt>
      <trkpt lat="54.670672" lon="13.431867">
        <ele>3.791032</ele>
        <time>2025-08-08T12:27:24.977Z</time>
      </trkpt>
      <trkpt lat="54.668497" lon="13.431656">
        <ele>5.090591</ele>
        <time>2025-08-08T12:31:11.399Z</time>
      </trkpt>
      <trkpt lat="54.667875" lon="13.431846">
        <ele>5.287266</ele>
        <time>2025-08-08T12:32:15.477Z</time>
      </trkpt>
      <trkpt lat="54.667015" lon="13.432109">
        <ele>5.123293</ele>
        <time>2025-08-08T12:33:45.525Z</time>
      </trkpt>
      <trkpt lat="54.666054" lon="13.432344">
        <ele>5.019663</ele>
        <time>2025-08-08T12:35:24.148Z</time>
      </trkpt>
      <trkpt lat="54.666025" lon="13.432451">
        <ele>5.213850</ele>
        <time>2025-08-08T12:35:31.339Z</time>
      </trkpt>
      <trkpt lat="54.665996" lon="13.432353">
        <ele>5.394754</ele>
        <time>2025-08-08T12:35:38.601Z</time>
      </trkpt>
      <trkpt lat="54.665846" lon="13.432342">
        <ele>5.821357</ele>
        <time>2025-08-08T12:35:54.150Z</time>
      </trkpt>
      <trkpt lat="54.665802" lon="13.432337">
        <ele>5.946651</ele>
        <time>2025-08-08T12:35:58.599Z</time>
      </trkpt>
      <trkpt lat="54.665816" lon="13.432047">
        <ele>6.424878</ele>
        <time>2025-08-08T12:36:17.000Z</time>
      </trkpt>
      <trkpt lat="54.665939" lon="13.431791">
        <ele>6.971811</ele>
        <time>2025-08-08T12:36:36.786Z</time>
      </trkpt>
      <trkpt lat="54.666012" lon="13.431439">
        <ele>7.586332</ele>
        <time>2025-08-08T12:37:00.476Z</time>
      </trkpt>
      <trkpt lat="54.666019" lon="13.430990">
        <ele>8.324458</ele>
        <time>2025-08-08T12:37:28.842Z</time>
      </trkpt>
      <trkpt lat="54.666008" lon="13.430783">
        <ele>8.666061</ele>
        <time>2025-08-08T12:37:43.215Z</time>
      </trkpt>
      <trkpt lat="54.665960" lon="13.430568">
        <ele>9.044790</ele>
        <time>2025-08-08T12:37:57.940Z</time>
      </trkpt>
      <trkpt lat="54.665787" lon="13.430306">
        <ele>9.698260</ele>
        <time>2025-08-08T12:38:25.691Z</time>
      </trkpt>
      <trkpt lat="54.666253" lon="13.430218">
        <ele>11.318915</ele>
        <time>2025-08-08T12:39:20.758Z</time>
      </trkpt>
      <trkpt lat="54.666456" lon="13.430180">
        <ele>12.069656</ele>
        <time>2025-08-08T12:39:44.824Z</time>
      </trkpt>
      <trkpt lat="54.666603" lon="13.430198">
        <ele>12.611493</ele>
        <time>2025-08-08T12:40:01.538Z</time>
      </trkpt>
      <trkpt lat="54.666776" lon="13.430234">
        <ele>13.252160</ele>
        <time>2025-08-08T12:40:21.264Z</time>
      </trkpt>
      <trkpt lat="54.666834" lon="13.430177">
        <ele>13.497449</ele>
        <time>2025-08-08T12:40:28.864Z</time>
      </trkpt>
      <trkpt lat="54.666850" lon="13.429910">
        <ele>14.068231</ele>
        <time>2025-08-08T12:40:45.814Z</time>
      </trkpt>
      <trkpt lat="54.666944" lon="13.429669">
        <ele>14.686341</ele>
        <time>2025-08-08T12:41:04.608Z</time>
      </trkpt>
      <trkpt lat="54.667121" lon="13.429430">
        <ele>15.512047</ele>
        <time>2025-08-08T12:41:29.359Z</time>
      </trkpt>
      <trkpt lat="54.667128" lon="13.429389">
        <ele>15.602948</ele>
        <time>2025-08-08T12:41:32.009Z</time>
      </trkpt>
      <trkpt lat="54.667371" lon="13.428345">
        <ele>16.831319</ele>
        <time>2025-08-08T12:42:43.303Z</time>
      </trkpt>
      <trkpt lat="54.667567" lon="13.427962">
        <ele>16.969734</ele>
        <time>2025-08-08T12:43:15.117Z</time>
      </trkpt>
      <trkpt lat="54.667706" lon="13.427714">
        <ele>17.063205</ele>
        <time>2025-08-08T12:43:35.628Z</time>
      </trkpt>
      <trkpt lat="54.667771" lon="13.427675">
        <ele>17.095403</ele>
        <time>2025-08-08T12:43:42.468Z</time>
      </trkpt>
      <trkpt lat="54.668504" lon="13.426871">
        <ele>17.501633</ele>
        <time>2025-08-08T12:45:11.075Z</time>
      </trkpt>
      <trkpt lat="54.669394" lon="13.426032">
        <ele>16.220687</ele>
        <time>2025-08-08T12:46:56.113Z</time>
      </trkpt>
      <trkpt lat="54.670207" lon="13.425664">
        <ele>15.238325</ele>
        <time>2025-08-08T12:48:22.197Z</time>
      </trkpt>
      <trkpt lat="54.670446" lon="13.425530">
        <ele>15.327313</ele>
        <time>2025-08-08T12:48:47.573Z</time>
      </trkpt>
      <trkpt lat="54.670556" lon="13.425407">
        <ele>15.373709</ele>
        <time>2025-08-08T12:49:00.756Z</time>
      </trkpt>
      <trkpt lat="54.670806" lon="13.424940">
        <ele>15.504051</ele>
        <time>2025-08-08T12:49:37.759Z</time>
      </trkpt>
      <trkpt lat="54.671248" lon="13.423843">
        <ele>15.777892</ele>
        <time>2025-08-08T12:50:57.268Z</time>
      </trkpt>
      <trkpt lat="54.672988" lon="13.420469">
        <ele>18.703692</ele>
        <time>2025-08-08T12:55:31.135Z</time>
      </trkpt>
      <trkpt lat="54.673003" lon="13.420324">
        <ele>18.787377</ele>
        <time>2025-08-08T12:55:39.939Z</time>
      </trkpt>
      <trkpt lat="54.673322" lon="13.419713">
        <ele>19.255051</ele>
        <time>2025-08-08T12:56:29.193Z</time>
      </trkpt>
      <trkpt lat="54.673581" lon="13.419196">
        <ele>19.643664</ele>
        <time>2025-08-08T12:57:09.797Z</time>
      </trkpt>
      <trkpt lat="54.673583" lon="13.418839">
        <ele>19.846488</ele>
        <time>2025-08-08T12:57:30.978Z</time>
      </trkpt>
      <trkpt lat="54.673392" lon="13.418356">
        <ele>20.003696</ele>
        <time>2025-08-08T12:58:05.752Z</time>
      </trkpt>
      <trkpt lat="54.673219" lon="13.417863">
        <ele>20.133420</ele>
        <time>2025-08-08T12:58:39.970Z</time>
      </trkpt>
      <trkpt lat="54.672983" lon="13.417115">
        <ele>20.325100</ele>
        <time>2025-08-08T12:59:29.887Z</time>
      </trkpt>
      <trkpt lat="54.672865" lon="13.416556">
        <ele>20.458964</ele>
        <time>2025-08-08T13:00:04.334Z</time>
      </trkpt>
      <trkpt lat="54.672852" lon="13.416405">
        <ele>20.493306</ele>
        <time>2025-08-08T13:00:13.241Z</time>
      </trkpt>
      <trkpt lat="54.672834" lon="13.416201">
        <ele>20.539727</ele>
        <time>2025-08-08T13:00:25.360Z</time>
      </trkpt>
      <trkpt lat="54.672728" lon="13.415410">
        <ele>20.666766</ele>
        <time>2025-08-08T13:01:12.729Z</time>
      </trkpt>
      <trkpt lat="54.672621" lon="13.414872">
        <ele>20.741564</ele>
        <time>2025-08-08T13:01:46.049Z</time>
      </trkpt>
      <trkpt lat="54.672351" lon="13.413717">
        <ele>20.905351</ele>
        <time>2025-08-08T13:02:58.974Z</time>
      </trkpt>
      <trkpt lat="54.672243" lon="13.413483">
        <ele>20.944713</ele>
        <time>2025-08-08T13:03:16.349Z</time>
      </trkpt>
      <trkpt lat="54.672030" lon="13.413007">
        <ele>21.009315</ele>
        <time>2025-08-08T13:03:51.258Z</time>
      </trkpt>
      <trkpt lat="54.671876" lon="13.412722">
        <ele>21.032324</ele>
        <time>2025-08-08T13:04:13.816Z</time>
      </trkpt>
      <trkpt lat="54.671804" lon="13.412625">
        <ele>21.041634</ele>
        <time>2025-08-08T13:04:23.054Z</time>
      </trkpt>
      <trkpt lat="54.671478" lon="13.412426">
        <ele>21.076900</ele>
        <time>2025-08-08T13:04:57.718Z</time>
      </trkpt>
      <trkpt lat="54.671267" lon="13.412235">
        <ele>21.101195</ele>
        <time>2025-08-08T13:05:21.577Z</time>
      </trkpt>
      <trkpt lat="54.670886" lon="13.411603">
        <ele>21.155050</ele>
        <time>2025-08-08T13:06:14.840Z</time>
      </trkpt>
      <trkpt lat="54.670125" lon="13.410537">
        <ele>21.180970</ele>
        <time>2025-08-08T13:07:52.945Z</time>
      </trkpt>
      <trkpt lat="54.670345" lon="13.409983">
        <ele>21.180970</ele>
        <time>2025-08-08T13:08:32.196Z</time>
      </trkpt>
      <trkpt lat="54.670355" lon="13.409912">
        <ele>21.180970</ele>
        <time>2025-08-08T13:08:36.460Z</time>
      </trkpt>
      <trkpt lat="54.670420" lon="13.409793">
        <ele>21.180970</ele>
        <time>2025-08-08T13:08:46.054Z</time>
      </trkpt>
      <trkpt lat="54.670437" lon="13.409844">
        <ele>21.180970</ele>
        <time>2025-08-08T13:08:49.553Z</time>
      </trkpt>
      <trkpt lat="54.670663" lon="13.409697">
        <ele>21.180970</ele>
        <time>2025-08-08T13:09:13.871Z</time>
      </trkpt>
      <trkpt lat="54.671215" lon="13.409337">
        <ele>21.180970</ele>
        <time>2025-08-08T13:10:13.627Z</time>
      </trkpt>
      <trkpt lat="54.671243" lon="13.409470">
        <ele>21.180970</ele>
        <time>2025-08-08T13:10:21.798Z</time>
      </trkpt>
      <trkpt lat="54.671266" lon="13.409607">
        <ele>21.180970</ele>
        <time>2025-08-08T13:10:30.110Z</time>
      </trkpt>
      <trkpt lat="54.671311" lon="13.409888">
        <ele>21.180970</ele>
        <time>2025-08-08T13:10:47.291Z</time>
      </trkpt>
      <trkpt lat="54.671261" lon="13.409920">
        <ele>21.180970</ele>
        <time>2025-08-08T13:10:52.613Z</time>
      </trkpt>
    </trkseg>
  </trk>
</gpx>