<?xml version='1.0' encoding='UTF-8'?>
<gpx version="1.1" creator="https://www.komoot.de" xmlns="http://www.topografix.com/GPX/1/1" xmlns:xsi="http://www.w3.org/2001/XMLSchema-instance" xsi:schemaLocation="http://www.topografix.com/GPX/1/1 http://www.topografix.com/GPX/1/1/gpx.xsd">
  <metadata>
    <name>Fahrradstation – Straza Runde von Tkon</name>
    <author>
      <link href="https://www.komoot.de">
        <text>komoot</text>
        <type>text/html</type>
      </link>
    </author>
  </metadata>
  <trk>
    <name>Fahrradstation – Straza Runde von Tkon</name>
    <trkseg>
      <trkpt lat="43.898277" lon="15.413437">
        <ele>20.612785</ele>
        <time>2023-08-12T07:43:13.011Z</time>
      </trkpt>
      <trkpt lat="43.898603" lon="15.413541">
        <ele>20.612785</ele>
        <time>2023-08-12T07:43:51.013Z</time>
      </trkpt>
      <trkpt lat="43.898677" lon="15.413485">
        <ele>20.612785</ele>
        <time>2023-08-12T07:44:00.856Z</time>
      </trkpt>
      <trkpt lat="43.898877" lon="15.413217">
        <ele>20.612785</ele>
        <time>2023-08-12T07:44:33.200Z</time>
      </trkpt>
      <trkpt lat="43.899155" lon="15.412975">
        <ele>21.444305</ele>
        <time>2023-08-12T07:45:12.249Z</time>
      </trkpt>
      <trkpt lat="43.899625" lon="15.412686">
        <ele>24.846391</ele>
        <time>2023-08-12T07:46:15.223Z</time>
      </trkpt>
      <trkpt lat="43.900213" lon="15.412063">
        <ele>29.742176</ele>
        <time>2023-08-12T07:47:47.030Z</time>
      </trkpt>
      <trkpt lat="43.900497" lon="15.411815">
        <ele>31.962785</ele>
        <time>2023-08-12T07:48:28.892Z</time>
      </trkpt>
      <trkpt lat="43.900653" lon="15.411547">
        <ele>33.487387</ele>
        <time>2023-08-12T07:48:59.788Z</time>
      </trkpt>
      <trkpt lat="43.901043" lon="15.411094">
        <ele>36.487666</ele>
        <time>2023-08-12T07:50:02.511Z</time>
      </trkpt>
      <trkpt lat="43.901144" lon="15.411090">
        <ele>37.083755</ele>
        <time>2023-08-12T07:50:14.894Z</time>
      </trkpt>
      <trkpt lat="43.901177" lon="15.411122">
        <ele>37.321251</ele>
        <time>2023-08-12T07:50:19.779Z</time>
      </trkpt>
      <trkpt lat="43.901173" lon="15.411204">
        <ele>37.670614</ele>
        <time>2023-08-12T07:50:27.030Z</time>
      </trkpt>
      <trkpt lat="43.900909" lon="15.411581">
        <ele>39.905309</ele>
        <time>2023-08-12T07:51:12.590Z</time>
      </trkpt>
      <trkpt lat="43.900471" lon="15.412691">
        <ele>44.548839</ele>
        <time>2023-08-12T07:52:58.670Z</time>
      </trkpt>
      <trkpt lat="43.900100" lon="15.413452">
        <ele>47.122159</ele>
        <time>2023-08-12T07:54:12.769Z</time>
      </trkpt>
      <trkpt lat="43.899872" lon="15.414312">
        <ele>49.688617</ele>
        <time>2023-08-12T07:55:26.582Z</time>
      </trkpt>
      <trkpt lat="43.899900" lon="15.414483">
        <ele>50.222960</ele>
        <time>2023-08-12T07:55:40.820Z</time>
      </trkpt>
      <trkpt lat="43.900157" lon="15.415037">
        <ele>53.367009</ele>
        <time>2023-08-12T07:56:35.654Z</time>
      </trkpt>
      <trkpt lat="43.900343" lon="15.415224">
        <ele>54.888020</ele>
        <time>2023-08-12T07:57:03.123Z</time>
      </trkpt>
      <trkpt lat="43.900766" lon="15.416006">
        <ele>59.553972</ele>
        <time>2023-08-12T07:58:30.925Z</time>
      </trkpt>
      <trkpt lat="43.900970" lon="15.416264">
        <ele>61.381735</ele>
        <time>2023-08-12T07:59:06.546Z</time>
      </trkpt>
      <trkpt lat="43.901249" lon="15.416391">
        <ele>63.871028</ele>
        <time>2023-08-12T07:59:45.267Z</time>
      </trkpt>
      <trkpt lat="43.901536" lon="15.416382">
        <ele>66.570967</ele>
        <time>2023-08-12T08:00:23.707Z</time>
      </trkpt>
      <trkpt lat="43.902041" lon="15.416778">
        <ele>72.026207</ele>
        <time>2023-08-12T08:01:42.157Z</time>
      </trkpt>
      <trkpt lat="43.902191" lon="15.416920">
        <ele>73.733898</ele>
        <time>2023-08-12T08:02:06.445Z</time>
      </trkpt>
      <trkpt lat="43.902358" lon="15.417157">
        <ele>75.980296</ele>
        <time>2023-08-12T08:02:38.313Z</time>
      </trkpt>
      <trkpt lat="43.902525" lon="15.417296">
        <ele>77.811736</ele>
        <time>2023-08-12T08:03:03.771Z</time>
      </trkpt>
      <trkpt lat="43.903081" lon="15.417577">
        <ele>80.711887</ele>
        <time>2023-08-12T08:04:18.164Z</time>
      </trkpt>
      <trkpt lat="43.903317" lon="15.417785">
        <ele>81.759783</ele>
        <time>2023-08-12T08:04:51.079Z</time>
      </trkpt>
      <trkpt lat="43.903677" lon="15.418212">
        <ele>83.534814</ele>
        <time>2023-08-12T08:05:43.985Z</time>
      </trkpt>
      <trkpt lat="43.903766" lon="15.418411">
        <ele>84.167371</ele>
        <time>2023-08-12T08:06:01.903Z</time>
      </trkpt>
      <trkpt lat="43.903914" lon="15.418867">
        <ele>85.518064</ele>
        <time>2023-08-12T08:06:38.568Z</time>
      </trkpt>
      <trkpt lat="43.903990" lon="15.418998">
        <ele>85.373696</ele>
        <time>2023-08-12T08:06:50.687Z</time>
      </trkpt>
      <trkpt lat="43.904183" lon="15.419147">
        <ele>84.459157</ele>
        <time>2023-08-12T08:07:13.846Z</time>
      </trkpt>
      <trkpt lat="43.904415" lon="15.419192">
        <ele>83.489102</ele>
        <time>2023-08-12T08:07:38.578Z</time>
      </trkpt>
      <trkpt lat="43.904459" lon="15.419256">
        <ele>83.225169</ele>
        <time>2023-08-12T08:07:45.460Z</time>
      </trkpt>
      <trkpt lat="43.904507" lon="15.419327">
        <ele>82.934681</ele>
        <time>2023-08-12T08:07:53.078Z</time>
      </trkpt>
      <trkpt lat="43.904498" lon="15.419515">
        <ele>82.372528</ele>
        <time>2023-08-12T08:08:07.599Z</time>
      </trkpt>
      <trkpt lat="43.904624" lon="15.419622">
        <ele>81.760841</ele>
        <time>2023-08-12T08:08:23.857Z</time>
      </trkpt>
      <trkpt lat="43.904848" lon="15.419593">
        <ele>80.829225</ele>
        <time>2023-08-12T08:08:48.733Z</time>
      </trkpt>
      <trkpt lat="43.905056" lon="15.419689">
        <ele>79.921517</ele>
        <time>2023-08-12T08:09:13.330Z</time>
      </trkpt>
      <trkpt lat="43.905464" lon="15.419669">
        <ele>78.224031</ele>
        <time>2023-08-12T08:09:59.501Z</time>
      </trkpt>
      <trkpt lat="43.906338" lon="15.419891">
        <ele>71.641354</ele>
        <time>2023-08-12T08:11:41.020Z</time>
      </trkpt>
      <trkpt lat="43.906924" lon="15.420674">
        <ele>65.615095</ele>
        <time>2023-08-12T08:13:15.264Z</time>
      </trkpt>
      <trkpt lat="43.907411" lon="15.421428">
        <ele>61.022897</ele>
        <time>2023-08-12T08:14:40.061Z</time>
      </trkpt>
      <trkpt lat="43.907669" lon="15.421758">
        <ele>58.872799</ele>
        <time>2023-08-12T08:15:20.275Z</time>
      </trkpt>
      <trkpt lat="43.908155" lon="15.421959">
        <ele>55.764990</ele>
        <time>2023-08-12T08:16:16.917Z</time>
      </trkpt>
      <trkpt lat="43.908296" lon="15.422112">
        <ele>54.668170</ele>
        <time>2023-08-12T08:16:36.364Z</time>
      </trkpt>
      <trkpt lat="43.909134" lon="15.422692">
        <ele>53.771714</ele>
        <time>2023-08-12T08:18:13.602Z</time>
      </trkpt>
      <trkpt lat="43.909245" lon="15.422627">
        <ele>53.753908</ele>
        <time>2023-08-12T08:18:25.808Z</time>
      </trkpt>
      <trkpt lat="43.909367" lon="15.422423">
        <ele>53.725679</ele>
        <time>2023-08-12T08:18:45.616Z</time>
      </trkpt>
      <trkpt lat="43.909492" lon="15.422310">
        <ele>53.703632</ele>
        <time>2023-08-12T08:19:01.259Z</time>
      </trkpt>
      <trkpt lat="43.909767" lon="15.422188">
        <ele>53.660963</ele>
        <time>2023-08-12T08:19:32.440Z</time>
      </trkpt>
      <trkpt lat="43.910045" lon="15.422107">
        <ele>53.697893</ele>
        <time>2023-08-12T08:20:03.495Z</time>
      </trkpt>
      <trkpt lat="43.910578" lon="15.421717">
        <ele>54.679151</ele>
        <time>2023-08-12T08:21:09.483Z</time>
      </trkpt>
      <trkpt lat="43.911024" lon="15.421196">
        <ele>55.628487</ele>
        <time>2023-08-12T08:22:11.924Z</time>
      </trkpt>
      <trkpt lat="43.911633" lon="15.421093">
        <ele>56.560345</ele>
        <time>2023-08-12T08:23:14.565Z</time>
      </trkpt>
      <trkpt lat="43.911764" lon="15.421019">
        <ele>56.577899</ele>
        <time>2023-08-12T08:23:28.753Z</time>
      </trkpt>
      <trkpt lat="43.912030" lon="15.420762">
        <ele>56.618123</ele>
        <time>2023-08-12T08:24:01.315Z</time>
      </trkpt>
      <trkpt lat="43.912454" lon="15.420293">
        <ele>56.685412</ele>
        <time>2023-08-12T08:24:55.940Z</time>
      </trkpt>
      <trkpt lat="43.912714" lon="15.419847">
        <ele>56.736711</ele>
        <time>2023-08-12T08:25:37.356Z</time>
      </trkpt>
      <trkpt lat="43.913020" lon="15.419488">
        <ele>56.817912</ele>
        <time>2023-08-12T08:26:18.143Z</time>
      </trkpt>
      <trkpt lat="43.913483" lon="15.418739">
        <ele>57.236576</ele>
        <time>2023-08-12T08:27:31.457Z</time>
      </trkpt>
      <trkpt lat="43.913722" lon="15.418308">
        <ele>57.467298</ele>
        <time>2023-08-12T08:28:11.272Z</time>
      </trkpt>
      <trkpt lat="43.913816" lon="15.418001">
        <ele>57.608801</ele>
        <time>2023-08-12T08:28:35.705Z</time>
      </trkpt>
      <trkpt lat="43.913909" lon="15.417577">
        <ele>57.796811</ele>
        <time>2023-08-12T08:29:08.319Z</time>
      </trkpt>
      <trkpt lat="43.913953" lon="15.417504">
        <ele>57.837141</ele>
        <time>2023-08-12T08:29:15.286Z</time>
      </trkpt>
      <trkpt lat="43.914075" lon="15.417463">
        <ele>57.805431</ele>
        <time>2023-08-12T08:29:28.192Z</time>
      </trkpt>
      <trkpt lat="43.914294" lon="15.417577">
        <ele>57.746347</ele>
        <time>2023-08-12T08:29:52.091Z</time>
      </trkpt>
      <trkpt lat="43.914646" lon="15.417696">
        <ele>57.654827</ele>
        <time>2023-08-12T08:30:29.192Z</time>
      </trkpt>
      <trkpt lat="43.914688" lon="15.417659">
        <ele>57.642261</ele>
        <time>2023-08-12T08:30:34.278Z</time>
      </trkpt>
      <trkpt lat="43.914858" lon="15.417152">
        <ele>57.540493</ele>
        <time>2023-08-12T08:31:14.811Z</time>
      </trkpt>
      <trkpt lat="43.914925" lon="15.417054">
        <ele>57.515907</ele>
        <time>2023-08-12T08:31:24.662Z</time>
      </trkpt>
      <trkpt lat="43.915112" lon="15.416886">
        <ele>57.459638</ele>
        <time>2023-08-12T08:31:47.411Z</time>
      </trkpt>
      <trkpt lat="43.915277" lon="15.416874">
        <ele>57.417899</ele>
        <time>2023-08-12T08:32:04.461Z</time>
      </trkpt>
      <trkpt lat="43.915449" lon="15.416695">
        <ele>57.079599</ele>
        <time>2023-08-12T08:32:26.743Z</time>
      </trkpt>
      <trkpt lat="43.915710" lon="15.416795">
        <ele>55.999182</ele>
        <time>2023-08-12T08:32:55.060Z</time>
      </trkpt>
      <trkpt lat="43.916052" lon="15.416840">
        <ele>54.628372</ele>
        <time>2023-08-12T08:33:31.219Z</time>
      </trkpt>
      <trkpt lat="43.916495" lon="15.416694">
        <ele>52.811522</ele>
        <time>2023-08-12T08:34:19.975Z</time>
      </trkpt>
      <trkpt lat="43.916684" lon="15.416684">
        <ele>52.056802</ele>
        <time>2023-08-12T08:34:40.862Z</time>
      </trkpt>
      <trkpt lat="43.916821" lon="15.416743">
        <ele>51.484425</ele>
        <time>2023-08-12T08:34:56.688Z</time>
      </trkpt>
      <trkpt lat="43.917710" lon="15.417485">
        <ele>44.474698</ele>
        <time>2023-08-12T08:36:55.746Z</time>
      </trkpt>
      <trkpt lat="43.918311" lon="15.417883">
        <ele>39.151120</ele>
        <time>2023-08-12T08:38:13.481Z</time>
      </trkpt>
      <trkpt lat="43.918796" lon="15.418280">
        <ele>34.457746</ele>
        <time>2023-08-12T08:39:19.402Z</time>
      </trkpt>
      <trkpt lat="43.919272" lon="15.418726">
        <ele>29.116803</ele>
        <time>2023-08-12T08:40:27.930Z</time>
      </trkpt>
      <trkpt lat="43.919501" lon="15.418867">
        <ele>26.786937</ele>
        <time>2023-08-12T08:40:57.933Z</time>
      </trkpt>
      <trkpt lat="43.919681" lon="15.419146">
        <ele>24.277758</ele>
        <time>2023-08-12T08:41:29.905Z</time>
      </trkpt>
      <trkpt lat="43.920212" lon="15.418843">
        <ele>18.983493</ele>
        <time>2023-08-12T08:42:37.912Z</time>
      </trkpt>
      <trkpt lat="43.920289" lon="15.418857">
        <ele>18.465893</ele>
        <time>2023-08-12T08:42:47.045Z</time>
      </trkpt>
      <trkpt lat="43.920429" lon="15.418811">
        <ele>17.506992</ele>
        <time>2023-08-12T08:43:04.127Z</time>
      </trkpt>
      <trkpt lat="43.920707" lon="15.418623">
        <ele>15.445940</ele>
        <time>2023-08-12T08:43:40.211Z</time>
      </trkpt>
      <trkpt lat="43.921092" lon="15.419184">
        <ele>11.725899</ele>
        <time>2023-08-12T08:44:44.801Z</time>
      </trkpt>
      <trkpt lat="43.921314" lon="15.419432">
        <ele>9.826693</ele>
        <time>2023-08-12T08:45:17.156Z</time>
      </trkpt>
      <trkpt lat="43.921574" lon="15.419693">
        <ele>7.688198</ele>
        <time>2023-08-12T08:45:52.260Z</time>
      </trkpt>
      <trkpt lat="43.921647" lon="15.419380">
        <ele>7.632240</ele>
        <time>2023-08-12T08:46:17.351Z</time>
      </trkpt>
      <trkpt lat="43.921732" lon="15.419018">
        <ele>8.587280</ele>
        <time>2023-08-12T08:46:45.278Z</time>
      </trkpt>
      <trkpt lat="43.921858" lon="15.418664">
        <ele>9.577718</ele>
        <time>2023-08-12T08:47:15.138Z</time>
      </trkpt>
      <trkpt lat="43.921922" lon="15.418480">
        <ele>10.090242</ele>
        <time>2023-08-12T08:47:31.644Z</time>
      </trkpt>
      <trkpt lat="43.922025" lon="15.418145">
        <ele>11.003877</ele>
        <time>2023-08-12T08:48:02.104Z</time>
      </trkpt>
      <trkpt lat="43.921524" lon="15.417563">
        <ele>13.278740</ele>
        <time>2023-08-12T08:49:24.937Z</time>
      </trkpt>
      <trkpt lat="43.921464" lon="15.417481">
        <ele>13.795909</ele>
        <time>2023-08-12T08:49:36.094Z</time>
      </trkpt>
      <trkpt lat="43.921421" lon="15.417208">
        <ele>15.285901</ele>
        <time>2023-08-12T08:50:02.734Z</time>
      </trkpt>
      <trkpt lat="43.921367" lon="15.417099">
        <ele>15.991268</ele>
        <time>2023-08-12T08:50:15.359Z</time>
      </trkpt>
      <trkpt lat="43.921301" lon="15.416846">
        <ele>17.425975</ele>
        <time>2023-08-12T08:50:40.910Z</time>
      </trkpt>
      <trkpt lat="43.921272" lon="15.416634">
        <ele>18.576534</ele>
        <time>2023-08-12T08:51:00.436Z</time>
      </trkpt>
      <trkpt lat="43.921165" lon="15.416437">
        <ele>19.892073</ele>
        <time>2023-08-12T08:51:23.551Z</time>
      </trkpt>
      <trkpt lat="43.921078" lon="15.416182">
        <ele>21.396511</ele>
        <time>2023-08-12T08:51:48.897Z</time>
      </trkpt>
      <trkpt lat="43.920958" lon="15.415923">
        <ele>23.038491</ele>
        <time>2023-08-12T08:52:16.359Z</time>
      </trkpt>
      <trkpt lat="43.920706" lon="15.415657">
        <ele>25.381828</ele>
        <time>2023-08-12T08:52:55.040Z</time>
      </trkpt>
      <trkpt lat="43.920522" lon="15.415356">
        <ele>27.337024</ele>
        <time>2023-08-12T08:53:28.965Z</time>
      </trkpt>
      <trkpt lat="43.920658" lon="15.415136">
        <ele>28.593296</ele>
        <time>2023-08-12T08:53:52.653Z</time>
      </trkpt>
      <trkpt lat="43.920684" lon="15.415007">
        <ele>29.173761</ele>
        <time>2023-08-12T08:54:03.912Z</time>
      </trkpt>
      <trkpt lat="43.920626" lon="15.414787">
        <ele>30.188931</ele>
        <time>2023-08-12T08:54:23.513Z</time>
      </trkpt>
      <trkpt lat="43.920289" lon="15.414280">
        <ele>33.178403</ele>
        <time>2023-08-12T08:55:21.247Z</time>
      </trkpt>
      <trkpt lat="43.919964" lon="15.413853">
        <ele>35.870323</ele>
        <time>2023-08-12T08:56:14.940Z</time>
      </trkpt>
      <trkpt lat="43.919636" lon="15.413532">
        <ele>39.239349</ele>
        <time>2023-08-12T08:57:05.005Z</time>
      </trkpt>
      <trkpt lat="43.919424" lon="15.413322">
        <ele>42.731637</ele>
        <time>2023-08-12T08:57:40.640Z</time>
      </trkpt>
      <trkpt lat="43.919299" lon="15.413064">
        <ele>45.734959</ele>
        <time>2023-08-12T08:58:13.491Z</time>
      </trkpt>
      <trkpt lat="43.919217" lon="15.412723">
        <ele>49.207416</ele>
        <time>2023-08-12T08:58:53.784Z</time>
      </trkpt>
      <trkpt lat="43.918848" lon="15.412219">
        <ele>56.148847</ele>
        <time>2023-08-12T09:00:21.760Z</time>
      </trkpt>
      <trkpt lat="43.918708" lon="15.411943">
        <ele>59.409466</ele>
        <time>2023-08-12T09:01:04.641Z</time>
      </trkpt>
      <trkpt lat="43.918529" lon="15.411728">
        <ele>62.590304</ele>
        <time>2023-08-12T09:01:46.572Z</time>
      </trkpt>
      <trkpt lat="43.918227" lon="15.411490">
        <ele>67.280267</ele>
        <time>2023-08-12T09:02:44.881Z</time>
      </trkpt>
      <trkpt lat="43.917437" lon="15.411149">
        <ele>78.453301</ele>
        <time>2023-08-12T09:04:51.643Z</time>
      </trkpt>
      <trkpt lat="43.917036" lon="15.411015">
        <ele>84.023620</ele>
        <time>2023-08-12T09:05:49.754Z</time>
      </trkpt>
      <trkpt lat="43.916696" lon="15.410742">
        <ele>88.289447</ele>
        <time>2023-08-12T09:06:43.665Z</time>
      </trkpt>
      <trkpt lat="43.916075" lon="15.410348">
        <ele>94.701990</ele>
        <time>2023-08-12T09:08:15.881Z</time>
      </trkpt>
      <trkpt lat="43.915967" lon="15.410039">
        <ele>97.025581</ele>
        <time>2023-08-12T09:08:48.251Z</time>
      </trkpt>
      <trkpt lat="43.915835" lon="15.409864">
        <ele>98.739823</ele>
        <time>2023-08-12T09:09:11.736Z</time>
      </trkpt>
      <trkpt lat="43.915745" lon="15.409669">
        <ele>100.306640</ele>
        <time>2023-08-12T09:09:32.835Z</time>
      </trkpt>
      <trkpt lat="43.915712" lon="15.409503">
        <ele>101.471685</ele>
        <time>2023-08-12T09:09:48.415Z</time>
      </trkpt>
      <trkpt lat="43.915674" lon="15.408876">
        <ele>104.631414</ele>
        <time>2023-08-12T09:10:43.917Z</time>
      </trkpt>
      <trkpt lat="43.915633" lon="15.408763">
        <ele>105.165581</ele>
        <time>2023-08-12T09:10:54.939Z</time>
      </trkpt>
      <trkpt lat="43.915200" lon="15.408368">
        <ele>108.202178</ele>
        <time>2023-08-12T09:11:58.686Z</time>
      </trkpt>
      <trkpt lat="43.914683" lon="15.408084">
        <ele>111.460788</ele>
        <time>2023-08-12T09:13:05.255Z</time>
      </trkpt>
      <trkpt lat="43.914234" lon="15.407986">
        <ele>113.967963</ele>
        <time>2023-08-12T09:13:57.056Z</time>
      </trkpt>
      <trkpt lat="43.914095" lon="15.407741">
        <ele>115.017811</ele>
        <time>2023-08-12T09:14:22.462Z</time>
      </trkpt>
      <trkpt lat="43.913845" lon="15.407458">
        <ele>116.525297</ele>
        <time>2023-08-12T09:14:58.541Z</time>
      </trkpt>
      <trkpt lat="43.912940" lon="15.406962">
        <ele>121.072164</ele>
        <time>2023-08-12T09:16:51.594Z</time>
      </trkpt>
      <trkpt lat="43.912693" lon="15.406643">
        <ele>122.878199</ele>
        <time>2023-08-12T09:17:32.713Z</time>
      </trkpt>
      <trkpt lat="43.912563" lon="15.406584">
        <ele>123.681800</ele>
        <time>2023-08-12T09:17:49.265Z</time>
      </trkpt>
      <trkpt lat="43.912242" lon="15.406551">
        <ele>125.572994</ele>
        <time>2023-08-12T09:18:28.482Z</time>
      </trkpt>
      <trkpt lat="43.911951" lon="15.406418">
        <ele>127.373053</ele>
        <time>2023-08-12T09:19:06.222Z</time>
      </trkpt>
      <trkpt lat="43.911748" lon="15.406380">
        <ele>128.576572</ele>
        <time>2023-08-12T09:19:31.669Z</time>
      </trkpt>
      <trkpt lat="43.911076" lon="15.405585">
        <ele>132.986512</ele>
        <time>2023-08-12T09:21:17.285Z</time>
      </trkpt>
      <trkpt lat="43.910933" lon="15.405502">
        <ele>133.405119</ele>
        <time>2023-08-12T09:21:34.631Z</time>
      </trkpt>
      <trkpt lat="43.910331" lon="15.405300">
        <ele>135.077783</ele>
        <time>2023-08-12T09:22:41.408Z</time>
      </trkpt>
      <trkpt lat="43.909785" lon="15.404937">
        <ele>136.712794</ele>
        <time>2023-08-12T09:23:46.064Z</time>
      </trkpt>
      <trkpt lat="43.909572" lon="15.404929">
        <ele>137.168184</ele>
        <time>2023-08-12T09:24:09.687Z</time>
      </trkpt>
      <trkpt lat="43.909391" lon="15.405000">
        <ele>137.099599</ele>
        <time>2023-08-12T09:24:29.764Z</time>
      </trkpt>
      <trkpt lat="43.909290" lon="15.405133">
        <ele>137.048834</ele>
        <time>2023-08-12T09:24:43.687Z</time>
      </trkpt>
      <trkpt lat="43.909221" lon="15.405294">
        <ele>136.999621</ele>
        <time>2023-08-12T09:24:57.621Z</time>
      </trkpt>
      <trkpt lat="43.909187" lon="15.405714">
        <ele>136.888592</ele>
        <time>2023-08-12T09:25:29.523Z</time>
      </trkpt>
      <trkpt lat="43.909229" lon="15.405855">
        <ele>136.848510</ele>
        <time>2023-08-12T09:25:41.061Z</time>
      </trkpt>
      <trkpt lat="43.909321" lon="15.405943">
        <ele>136.807769</ele>
        <time>2023-08-12T09:25:52.784Z</time>
      </trkpt>
      <trkpt lat="43.909436" lon="15.405980">
        <ele>136.764723</ele>
        <time>2023-08-12T09:26:05.251Z</time>
      </trkpt>
      <trkpt lat="43.909540" lon="15.405974">
        <ele>136.726768</ele>
        <time>2023-08-12T09:26:16.114Z</time>
      </trkpt>
      <trkpt lat="43.909598" lon="15.405944">
        <ele>136.704198</ele>
        <time>2023-08-12T09:26:22.555Z</time>
      </trkpt>
      <trkpt lat="43.909636" lon="15.405858">
        <ele>136.677695</ele>
        <time>2023-08-12T09:26:30.015Z</time>
      </trkpt>
      <trkpt lat="43.909647" lon="15.405726">
        <ele>136.642788</ele>
        <time>2023-08-12T09:26:39.845Z</time>
      </trkpt>
      <trkpt lat="43.909622" lon="15.405586">
        <ele>136.604897</ele>
        <time>2023-08-12T09:26:50.376Z</time>
      </trkpt>
      <trkpt lat="43.909647" lon="15.405726">
        <ele>136.567006</ele>
        <time>2023-08-12T09:27:00.981Z</time>
      </trkpt>
      <trkpt lat="43.909636" lon="15.405858">
        <ele>136.532098</ele>
        <time>2023-08-12T09:27:11.004Z</time>
      </trkpt>
      <trkpt lat="43.909598" lon="15.405944">
        <ele>136.530563</ele>
        <time>2023-08-12T09:27:18.563Z</time>
      </trkpt>
      <trkpt lat="43.909540" lon="15.405974">
        <ele>136.534811</ele>
        <time>2023-08-12T09:27:25.159Z</time>
      </trkpt>
      <trkpt lat="43.909436" lon="15.405980">
        <ele>136.541955</ele>
        <time>2023-08-12T09:27:36.327Z</time>
      </trkpt>
      <trkpt lat="43.909321" lon="15.405943">
        <ele>136.550056</ele>
        <time>2023-08-12T09:27:49.298Z</time>
      </trkpt>
      <trkpt lat="43.909229" lon="15.405855">
        <ele>136.557724</ele>
        <time>2023-08-12T09:28:01.401Z</time>
      </trkpt>
      <trkpt lat="43.909187" lon="15.405714">
        <ele>136.565268</ele>
        <time>2023-08-12T09:28:13.356Z</time>
      </trkpt>
      <trkpt lat="43.909221" lon="15.405294">
        <ele>136.586164</ele>
        <time>2023-08-12T09:28:46.279Z</time>
      </trkpt>
      <trkpt lat="43.909290" lon="15.405133">
        <ele>136.595426</ele>
        <time>2023-08-12T09:29:00.484Z</time>
      </trkpt>
      <trkpt lat="43.909391" lon="15.405000">
        <ele>136.604981</ele>
        <time>2023-08-12T09:29:14.444Z</time>
      </trkpt>
      <trkpt lat="43.909572" lon="15.404929">
        <ele>136.617889</ele>
        <time>2023-08-12T09:29:34.006Z</time>
      </trkpt>
      <trkpt lat="43.909785" lon="15.404937">
        <ele>136.632512</ele>
        <time>2023-08-12T09:29:56.683Z</time>
      </trkpt>
      <trkpt lat="43.910331" lon="15.405300">
        <ele>135.440753</ele>
        <time>2023-08-12T09:30:59.648Z</time>
      </trkpt>
      <trkpt lat="43.910933" lon="15.405502">
        <ele>133.300284</ele>
        <time>2023-08-12T09:32:04.521Z</time>
      </trkpt>
      <trkpt lat="43.911076" lon="15.405585">
        <ele>132.764602</ele>
        <time>2023-08-12T09:32:21.125Z</time>
      </trkpt>
      <trkpt lat="43.911748" lon="15.406380">
        <ele>129.490037</ele>
        <time>2023-08-12T09:33:58.894Z</time>
      </trkpt>
      <trkpt lat="43.911337" lon="15.407255">
        <ele>126.084513</ele>
        <time>2023-08-12T09:35:22.490Z</time>
      </trkpt>
      <trkpt lat="43.911050" lon="15.407707">
        <ele>124.120187</ele>
        <time>2023-08-12T09:36:09.524Z</time>
      </trkpt>
      <trkpt lat="43.910906" lon="15.407851">
        <ele>123.317008</ele>
        <time>2023-08-12T09:36:28.550Z</time>
      </trkpt>
      <trkpt lat="43.910657" lon="15.407925">
        <ele>122.196948</ele>
        <time>2023-08-12T09:36:55.696Z</time>
      </trkpt>
      <trkpt lat="43.910328" lon="15.407893">
        <ele>121.077373</ele>
        <time>2023-08-12T09:37:30.753Z</time>
      </trkpt>
      <trkpt lat="43.910253" lon="15.407921">
        <ele>120.813727</ele>
        <time>2023-08-12T09:37:38.977Z</time>
      </trkpt>
      <trkpt lat="43.909708" lon="15.408677">
        <ele>118.198171</ele>
        <time>2023-08-12T09:39:01.131Z</time>
      </trkpt>
      <trkpt lat="43.909284" lon="15.409112">
        <ele>116.408358</ele>
        <time>2023-08-12T09:39:57.884Z</time>
      </trkpt>
      <trkpt lat="43.909182" lon="15.409132">
        <ele>116.048852</ele>
        <time>2023-08-12T09:40:08.975Z</time>
      </trkpt>
      <trkpt lat="43.909114" lon="15.409106">
        <ele>115.791285</ele>
        <time>2023-08-12T09:40:16.565Z</time>
      </trkpt>
      <trkpt lat="43.908655" lon="15.408688">
        <ele>113.786586</ele>
        <time>2023-08-12T09:41:15.885Z</time>
      </trkpt>
      <trkpt lat="43.908225" lon="15.409007">
        <ele>112.006131</ele>
        <time>2023-08-12T09:42:08.272Z</time>
      </trkpt>
      <trkpt lat="43.907758" lon="15.409603">
        <ele>109.689464</ele>
        <time>2023-08-12T09:43:16.718Z</time>
      </trkpt>
      <trkpt lat="43.907345" lon="15.410008">
        <ele>108.294197</ele>
        <time>2023-08-12T09:44:10.769Z</time>
      </trkpt>
      <trkpt lat="43.907184" lon="15.410260">
        <ele>107.633101</ele>
        <time>2023-08-12T09:44:36.370Z</time>
      </trkpt>
      <trkpt lat="43.907159" lon="15.410349">
        <ele>107.445602</ele>
        <time>2023-08-12T09:44:43.577Z</time>
      </trkpt>
      <trkpt lat="43.907162" lon="15.410491">
        <ele>107.166763</ele>
        <time>2023-08-12T09:44:54.394Z</time>
      </trkpt>
      <trkpt lat="43.907274" lon="15.411081">
        <ele>105.969179</ele>
        <time>2023-08-12T09:45:40.417Z</time>
      </trkpt>
      <trkpt lat="43.907274" lon="15.411630">
        <ele>104.891596</ele>
        <time>2023-08-12T09:46:21.779Z</time>
      </trkpt>
      <trkpt lat="43.907201" lon="15.412033">
        <ele>104.129793</ele>
        <time>2023-08-12T09:46:53.224Z</time>
      </trkpt>
      <trkpt lat="43.906936" lon="15.412714">
        <ele>102.737596</ele>
        <time>2023-08-12T09:47:51.968Z</time>
      </trkpt>
      <trkpt lat="43.906511" lon="15.413385">
        <ele>101.130539</ele>
        <time>2023-08-12T09:48:59.477Z</time>
      </trkpt>
      <trkpt lat="43.906210" lon="15.414051">
        <ele>99.495009</ele>
        <time>2023-08-12T09:49:59.251Z</time>
      </trkpt>
      <trkpt lat="43.906151" lon="15.414254">
        <ele>98.931365</ele>
        <time>2023-08-12T09:50:16.046Z</time>
      </trkpt>
      <trkpt lat="43.906067" lon="15.414776">
        <ele>97.554122</ele>
        <time>2023-08-12T09:50:57.355Z</time>
      </trkpt>
      <trkpt lat="43.905844" lon="15.415466">
        <ele>95.606833</ele>
        <time>2023-08-12T09:51:56.178Z</time>
      </trkpt>
      <trkpt lat="43.905729" lon="15.416145">
        <ele>93.810773</ele>
        <time>2023-08-12T09:52:50.621Z</time>
      </trkpt>
      <trkpt lat="43.905679" lon="15.416244">
        <ele>93.536282</ele>
        <time>2023-08-12T09:53:00.138Z</time>
      </trkpt>
      <trkpt lat="43.905349" lon="15.416661">
        <ele>92.136028</ele>
        <time>2023-08-12T09:53:48.501Z</time>
      </trkpt>
      <trkpt lat="43.905242" lon="15.416898">
        <ele>91.503766</ele>
        <time>2023-08-12T09:54:10.389Z</time>
      </trkpt>
      <trkpt lat="43.905101" lon="15.417092">
        <ele>90.880824</ele>
        <time>2023-08-12T09:54:31.772Z</time>
      </trkpt>
      <trkpt lat="43.904976" lon="15.417406">
        <ele>90.069844</ele>
        <time>2023-08-12T09:54:59.510Z</time>
      </trkpt>
      <trkpt lat="43.904790" lon="15.417901">
        <ele>88.807794</ele>
        <time>2023-08-12T09:55:41.691Z</time>
      </trkpt>
      <trkpt lat="43.904689" lon="15.418278">
        <ele>88.067490</ele>
        <time>2023-08-12T09:56:11.487Z</time>
      </trkpt>
      <trkpt lat="43.904602" lon="15.418476">
        <ele>87.885093</ele>
        <time>2023-08-12T09:56:28.551Z</time>
      </trkpt>
      <trkpt lat="43.904544" lon="15.418747">
        <ele>87.662751</ele>
        <time>2023-08-12T09:56:49.303Z</time>
      </trkpt>
      <trkpt lat="43.904521" lon="15.418986">
        <ele>87.473111</ele>
        <time>2023-08-12T09:57:06.909Z</time>
      </trkpt>
      <trkpt lat="43.904528" lon="15.419209">
        <ele>87.297559</ele>
        <time>2023-08-12T09:57:23.212Z</time>
      </trkpt>
      <trkpt lat="43.904507" lon="15.419327">
        <ele>87.201964</ele>
        <time>2023-08-12T09:57:32.093Z</time>
      </trkpt>
      <trkpt lat="43.904415" lon="15.419192">
        <ele>87.055818</ele>
        <time>2023-08-12T09:57:45.692Z</time>
      </trkpt>
      <trkpt lat="43.904183" lon="15.419147">
        <ele>86.800108</ele>
        <time>2023-08-12T09:58:09.247Z</time>
      </trkpt>
      <trkpt lat="43.903990" lon="15.418998">
        <ele>86.559033</ele>
        <time>2023-08-12T09:58:31.648Z</time>
      </trkpt>
      <trkpt lat="43.903914" lon="15.418867">
        <ele>86.426754</ele>
        <time>2023-08-12T09:58:44.013Z</time>
      </trkpt>
      <trkpt lat="43.903766" lon="15.418411">
        <ele>85.423878</ele>
        <time>2023-08-12T09:59:21.197Z</time>
      </trkpt>
      <trkpt lat="43.903677" lon="15.418212">
        <ele>84.541618</ele>
        <time>2023-08-12T09:59:38.854Z</time>
      </trkpt>
      <trkpt lat="43.903317" lon="15.417785">
        <ele>82.065891</ele>
        <time>2023-08-12T10:00:29.343Z</time>
      </trkpt>
      <trkpt lat="43.903081" lon="15.417577">
        <ele>80.604338</ele>
        <time>2023-08-12T10:01:00.199Z</time>
      </trkpt>
      <trkpt lat="43.902525" lon="15.417296">
        <ele>77.510859</ele>
        <time>2023-08-12T10:02:08.332Z</time>
      </trkpt>
      <trkpt lat="43.902358" lon="15.417157">
        <ele>76.251236</ele>
        <time>2023-08-12T10:02:31.336Z</time>
      </trkpt>
      <trkpt lat="43.902191" lon="15.416920">
        <ele>73.990829</ele>
        <time>2023-08-12T10:02:59.918Z</time>
      </trkpt>
      <trkpt lat="43.902041" lon="15.416778">
        <ele>72.272488</ele>
        <time>2023-08-12T10:03:21.697Z</time>
      </trkpt>
      <trkpt lat="43.901536" lon="15.416382">
        <ele>66.783229</ele>
        <time>2023-08-12T10:04:31.764Z</time>
      </trkpt>
      <trkpt lat="43.901249" lon="15.416391">
        <ele>64.066453</ele>
        <time>2023-08-12T10:05:06.195Z</time>
      </trkpt>
      <trkpt lat="43.900970" lon="15.416264">
        <ele>61.287687</ele>
        <time>2023-08-12T10:05:41.069Z</time>
      </trkpt>
      <trkpt lat="43.900766" lon="15.416006">
        <ele>59.081542</ele>
        <time>2023-08-12T10:06:13.390Z</time>
      </trkpt>
      <trkpt lat="43.900343" lon="15.415224">
        <ele>54.888360</ele>
        <time>2023-08-12T10:07:34.031Z</time>
      </trkpt>
      <trkpt lat="43.900157" lon="15.415037">
        <ele>53.521464</ele>
        <time>2023-08-12T10:07:59.670Z</time>
      </trkpt>
      <trkpt lat="43.899900" lon="15.414483">
        <ele>50.695980</ele>
        <time>2023-08-12T10:08:51.464Z</time>
      </trkpt>
      <trkpt lat="43.899872" lon="15.414312">
        <ele>49.943988</ele>
        <time>2023-08-12T10:09:05.033Z</time>
      </trkpt>
      <trkpt lat="43.900100" lon="15.413452">
        <ele>47.024609</ele>
        <time>2023-08-12T10:10:15.640Z</time>
      </trkpt>
      <trkpt lat="43.900471" lon="15.412691">
        <ele>44.389397</ele>
        <time>2023-08-12T10:11:26.481Z</time>
      </trkpt>
      <trkpt lat="43.900909" lon="15.411581">
        <ele>40.113287</ele>
        <time>2023-08-12T10:13:06.439Z</time>
      </trkpt>
      <trkpt lat="43.901173" lon="15.411204">
        <ele>37.754776</ele>
        <time>2023-08-12T10:13:48.802Z</time>
      </trkpt>
      <trkpt lat="43.901177" lon="15.411122">
        <ele>37.386056</ele>
        <time>2023-08-12T10:13:55.519Z</time>
      </trkpt>
      <trkpt lat="43.901144" lon="15.411090">
        <ele>37.135401</ele>
        <time>2023-08-12T10:14:00.045Z</time>
      </trkpt>
      <trkpt lat="43.901043" lon="15.411094">
        <ele>36.506284</ele>
        <time>2023-08-12T10:14:11.506Z</time>
      </trkpt>
      <trkpt lat="43.900653" lon="15.411547">
        <ele>33.339771</ele>
        <time>2023-08-12T10:15:09.321Z</time>
      </trkpt>
      <trkpt lat="43.900497" lon="15.411815">
        <ele>31.794108</ele>
        <time>2023-08-12T10:15:37.724Z</time>
      </trkpt>
      <trkpt lat="43.900213" lon="15.412063">
        <ele>30.706517</ele>
        <time>2023-08-12T10:16:16.170Z</time>
      </trkpt>
      <trkpt lat="43.899625" lon="15.412686">
        <ele>30.706517</ele>
        <time>2023-08-12T10:17:40.631Z</time>
      </trkpt>
      <trkpt lat="43.899155" lon="15.412975">
        <ele>30.706517</ele>
        <time>2023-08-12T10:18:38.841Z</time>
      </trkpt>
      <trkpt lat="43.898877" lon="15.413217">
        <ele>30.706517</ele>
        <time>2023-08-12T10:19:15.301Z</time>
      </trkpt>
      <trkpt lat="43.898677" lon="15.413485">
        <ele>30.706517</ele>
        <time>2023-08-12T10:19:45.778Z</time>
      </trkpt>
      <trkpt lat="43.898603" lon="15.413541">
        <ele>30.706517</ele>
        <time>2023-08-12T10:19:55.044Z</time>
      </trkpt>
      <trkpt lat="43.898277" lon="15.413437">
        <ele>30.706517</ele>
        <time>2023-08-12T10:20:31.159Z</time>
      </trkpt>
    </trkseg>
  </trk>
</gpx>