<?xml version='1.0' encoding='UTF-8'?>
<gpx version="1.1" creator="https://www.komoot.de" xmlns="http://www.topografix.com/GPX/1/1" xmlns:xsi="http://www.w3.org/2001/XMLSchema-instance" xsi:schemaLocation="http://www.topografix.com/GPX/1/1 http://www.topografix.com/GPX/1/1/gpx.xsd">
  <metadata>
    <name>Pyramidenkogel – Trattnigteich Runde von Zauchen</name>
    <author>
      <link href="https://www.komoot.de">
        <text>komoot</text>
        <type>text/html</type>
      </link>
    </author>
  </metadata>
  <trk>
    <name>Pyramidenkogel – Trattnigteich Runde von Zauchen</name>
    <trkseg>
      <trkpt lat="46.614787" lon="14.125511">
        <ele>561.442810</ele>
        <time>2023-08-02T16:45:01.010Z</time>
      </trkpt>
      <trkpt lat="46.614801" lon="14.125237">
        <ele>561.442810</ele>
        <time>2023-08-02T16:45:20.110Z</time>
      </trkpt>
      <trkpt lat="46.614722" lon="14.125183">
        <ele>561.442810</ele>
        <time>2023-08-02T16:45:29.071Z</time>
      </trkpt>
      <trkpt lat="46.614458" lon="14.125119">
        <ele>561.442810</ele>
        <time>2023-08-02T16:45:56.262Z</time>
      </trkpt>
      <trkpt lat="46.614392" lon="14.125035">
        <ele>561.442810</ele>
        <time>2023-08-02T16:46:05.315Z</time>
      </trkpt>
      <trkpt lat="46.614345" lon="14.125031">
        <ele>561.442810</ele>
        <time>2023-08-02T16:46:10.078Z</time>
      </trkpt>
      <trkpt lat="46.614232" lon="14.125126">
        <ele>561.442810</ele>
        <time>2023-08-02T16:46:23.265Z</time>
      </trkpt>
      <trkpt lat="46.614114" lon="14.125168">
        <ele>561.582378</ele>
        <time>2023-08-02T16:46:35.390Z</time>
      </trkpt>
      <trkpt lat="46.614302" lon="14.125815">
        <ele>563.752893</ele>
        <time>2023-08-02T16:47:24.840Z</time>
      </trkpt>
      <trkpt lat="46.614469" lon="14.126513">
        <ele>566.036550</ele>
        <time>2023-08-02T16:48:20.934Z</time>
      </trkpt>
      <trkpt lat="46.614493" lon="14.126613">
        <ele>566.363831</ele>
        <time>2023-08-02T16:48:29.326Z</time>
      </trkpt>
      <trkpt lat="46.614557" lon="14.126844">
        <ele>567.133409</ele>
        <time>2023-08-02T16:48:49.339Z</time>
      </trkpt>
      <trkpt lat="46.614737" lon="14.127141">
        <ele>568.357148</ele>
        <time>2023-08-02T16:49:23.134Z</time>
      </trkpt>
      <trkpt lat="46.614790" lon="14.127338">
        <ele>569.010827</ele>
        <time>2023-08-02T16:49:41.963Z</time>
      </trkpt>
      <trkpt lat="46.614849" lon="14.128243">
        <ele>576.043316</ele>
        <time>2023-08-02T16:51:11.234Z</time>
      </trkpt>
      <trkpt lat="46.614943" lon="14.128566">
        <ele>579.129258</ele>
        <time>2023-08-02T16:51:48.839Z</time>
      </trkpt>
      <trkpt lat="46.615040" lon="14.128937">
        <ele>582.621380</ele>
        <time>2023-08-02T16:52:31.327Z</time>
      </trkpt>
      <trkpt lat="46.614970" lon="14.129225">
        <ele>585.308852</ele>
        <time>2023-08-02T16:53:04.722Z</time>
      </trkpt>
      <trkpt lat="46.614816" lon="14.129573">
        <ele>588.950525</ele>
        <time>2023-08-02T16:53:49.592Z</time>
      </trkpt>
      <trkpt lat="46.614777" lon="14.130002">
        <ele>592.710899</ele>
        <time>2023-08-02T16:54:36.324Z</time>
      </trkpt>
      <trkpt lat="46.614785" lon="14.130213">
        <ele>594.113673</ele>
        <time>2023-08-02T16:54:58.533Z</time>
      </trkpt>
      <trkpt lat="46.615145" lon="14.130961">
        <ele>600.176469</ele>
        <time>2023-08-02T16:56:31.775Z</time>
      </trkpt>
      <trkpt lat="46.615389" lon="14.131363">
        <ele>603.737502</ele>
        <time>2023-08-02T16:57:20.941Z</time>
      </trkpt>
      <trkpt lat="46.615431" lon="14.132248">
        <ele>609.626167</ele>
        <time>2023-08-02T16:58:34.481Z</time>
      </trkpt>
      <trkpt lat="46.615502" lon="14.132860">
        <ele>611.703641</ele>
        <time>2023-08-02T16:59:22.377Z</time>
      </trkpt>
      <trkpt lat="46.615945" lon="14.133951">
        <ele>615.590074</ele>
        <time>2023-08-02T17:01:03.292Z</time>
      </trkpt>
      <trkpt lat="46.616194" lon="14.134645">
        <ele>617.988932</ele>
        <time>2023-08-02T17:02:04.254Z</time>
      </trkpt>
      <trkpt lat="46.616465" lon="14.135541">
        <ele>620.424773</ele>
        <time>2023-08-02T17:03:22.000Z</time>
      </trkpt>
      <trkpt lat="46.616476" lon="14.135551">
        <ele>620.471748</ele>
        <time>2023-08-02T17:03:23.477Z</time>
      </trkpt>
      <trkpt lat="46.616827" lon="14.135890">
        <ele>621.997483</ele>
        <time>2023-08-02T17:04:11.933Z</time>
      </trkpt>
      <trkpt lat="46.616988" lon="14.136117">
        <ele>622.809319</ele>
        <time>2023-08-02T17:04:37.143Z</time>
      </trkpt>
      <trkpt lat="46.616967" lon="14.136169">
        <ele>622.959401</ele>
        <time>2023-08-02T17:04:41.893Z</time>
      </trkpt>
      <trkpt lat="46.616914" lon="14.136306">
        <ele>623.350604</ele>
        <time>2023-08-02T17:04:53.938Z</time>
      </trkpt>
      <trkpt lat="46.616852" lon="14.136352">
        <ele>623.602664</ele>
        <time>2023-08-02T17:05:01.844Z</time>
      </trkpt>
      <trkpt lat="46.616631" lon="14.136399">
        <ele>624.411675</ele>
        <time>2023-08-02T17:05:26.230Z</time>
      </trkpt>
      <trkpt lat="46.616563" lon="14.136479">
        <ele>624.727051</ele>
        <time>2023-08-02T17:05:35.372Z</time>
      </trkpt>
      <trkpt lat="46.616512" lon="14.136623">
        <ele>625.127895</ele>
        <time>2023-08-02T17:05:46.792Z</time>
      </trkpt>
      <trkpt lat="46.616531" lon="14.136760">
        <ele>625.473689</ele>
        <time>2023-08-02T17:05:56.874Z</time>
      </trkpt>
      <trkpt lat="46.616695" lon="14.137055">
        <ele>626.412654</ele>
        <time>2023-08-02T17:06:23.734Z</time>
      </trkpt>
      <trkpt lat="46.616692" lon="14.137559">
        <ele>627.659652</ele>
        <time>2023-08-02T17:07:01.529Z</time>
      </trkpt>
      <trkpt lat="46.616781" lon="14.137680">
        <ele>628.098274</ele>
        <time>2023-08-02T17:07:15.241Z</time>
      </trkpt>
      <trkpt lat="46.616827" lon="14.137845">
        <ele>628.538845</ele>
        <time>2023-08-02T17:07:29.568Z</time>
      </trkpt>
      <trkpt lat="46.616826" lon="14.138030">
        <ele>628.996569</ele>
        <time>2023-08-02T17:07:44.001Z</time>
      </trkpt>
      <trkpt lat="46.616795" lon="14.138204">
        <ele>629.441308</ele>
        <time>2023-08-02T17:07:58.505Z</time>
      </trkpt>
      <trkpt lat="46.616789" lon="14.138450">
        <ele>630.050322</ele>
        <time>2023-08-02T17:08:18.187Z</time>
      </trkpt>
      <trkpt lat="46.616728" lon="14.138550">
        <ele>630.381213</ele>
        <time>2023-08-02T17:08:28.706Z</time>
      </trkpt>
      <trkpt lat="46.616391" lon="14.138641">
        <ele>632.539617</ele>
        <time>2023-08-02T17:09:09.665Z</time>
      </trkpt>
      <trkpt lat="46.616132" lon="14.138452">
        <ele>635.084165</ele>
        <time>2023-08-02T17:09:45.639Z</time>
      </trkpt>
      <trkpt lat="46.615788" lon="14.138438">
        <ele>638.106681</ele>
        <time>2023-08-02T17:10:28.931Z</time>
      </trkpt>
      <trkpt lat="46.615364" lon="14.138096">
        <ele>642.364029</ele>
        <time>2023-08-02T17:11:32.061Z</time>
      </trkpt>
      <trkpt lat="46.614988" lon="14.138117">
        <ele>645.668849</ele>
        <time>2023-08-02T17:12:25.875Z</time>
      </trkpt>
      <trkpt lat="46.614883" lon="14.138253">
        <ele>646.947104</ele>
        <time>2023-08-02T17:12:47.179Z</time>
      </trkpt>
      <trkpt lat="46.614865" lon="14.138524">
        <ele>649.134446</ele>
        <time>2023-08-02T17:13:14.062Z</time>
      </trkpt>
      <trkpt lat="46.615047" lon="14.139413">
        <ele>656.587040</ele>
        <time>2023-08-02T17:14:43.488Z</time>
      </trkpt>
      <trkpt lat="46.614978" lon="14.139587">
        <ele>658.201162</ele>
        <time>2023-08-02T17:15:02.366Z</time>
      </trkpt>
      <trkpt lat="46.614633" lon="14.139861">
        <ele>662.797639</ele>
        <time>2023-08-02T17:15:56.655Z</time>
      </trkpt>
      <trkpt lat="46.614313" lon="14.140189">
        <ele>667.374939</ele>
        <time>2023-08-02T17:16:50.712Z</time>
      </trkpt>
      <trkpt lat="46.614251" lon="14.140450">
        <ele>669.454578</ele>
        <time>2023-08-02T17:17:17.979Z</time>
      </trkpt>
      <trkpt lat="46.614257" lon="14.140766">
        <ele>671.796518</ele>
        <time>2023-08-02T17:17:50.967Z</time>
      </trkpt>
      <trkpt lat="46.614227" lon="14.140978">
        <ele>673.400075</ele>
        <time>2023-08-02T17:18:13.989Z</time>
      </trkpt>
      <trkpt lat="46.614176" lon="14.141127">
        <ele>674.633375</ele>
        <time>2023-08-02T17:18:31.903Z</time>
      </trkpt>
      <trkpt lat="46.613670" lon="14.141964">
        <ele>682.893661</ele>
        <time>2023-08-02T17:20:23.647Z</time>
      </trkpt>
      <trkpt lat="46.613670" lon="14.141964">
        <ele>682.893661</ele>
        <time>2023-08-02T17:20:23.652Z</time>
      </trkpt>
      <trkpt lat="46.613412" lon="14.142499">
        <ele>687.374311</ele>
        <time>2023-08-02T17:21:20.784Z</time>
      </trkpt>
      <trkpt lat="46.613366" lon="14.142651">
        <ele>687.764394</ele>
        <time>2023-08-02T17:21:34.282Z</time>
      </trkpt>
      <trkpt lat="46.613335" lon="14.142817">
        <ele>688.168397</ele>
        <time>2023-08-02T17:21:47.804Z</time>
      </trkpt>
      <trkpt lat="46.613274" lon="14.143540">
        <ele>689.879134</ele>
        <time>2023-08-02T17:22:40.563Z</time>
      </trkpt>
      <trkpt lat="46.613310" lon="14.144158">
        <ele>691.335727</ele>
        <time>2023-08-02T17:23:23.417Z</time>
      </trkpt>
      <trkpt lat="46.613393" lon="14.144682">
        <ele>692.598641</ele>
        <time>2023-08-02T17:24:03.700Z</time>
      </trkpt>
      <trkpt lat="46.613391" lon="14.144791">
        <ele>692.854721</ele>
        <time>2023-08-02T17:24:12.441Z</time>
      </trkpt>
      <trkpt lat="46.613294" lon="14.145292">
        <ele>695.010982</ele>
        <time>2023-08-02T17:24:54.500Z</time>
      </trkpt>
      <trkpt lat="46.613309" lon="14.145690">
        <ele>697.158651</ele>
        <time>2023-08-02T17:25:27.870Z</time>
      </trkpt>
      <trkpt lat="46.613179" lon="14.145818">
        <ele>698.389675</ele>
        <time>2023-08-02T17:25:47.389Z</time>
      </trkpt>
      <trkpt lat="46.613011" lon="14.145857">
        <ele>699.724081</ele>
        <time>2023-08-02T17:26:08.475Z</time>
      </trkpt>
      <trkpt lat="46.612711" lon="14.145763">
        <ele>702.131108</ele>
        <time>2023-08-02T17:26:46.808Z</time>
      </trkpt>
      <trkpt lat="46.612350" lon="14.145835">
        <ele>704.989169</ele>
        <time>2023-08-02T17:27:32.441Z</time>
      </trkpt>
      <trkpt lat="46.612108" lon="14.145850">
        <ele>706.889086</ele>
        <time>2023-08-02T17:28:04.217Z</time>
      </trkpt>
      <trkpt lat="46.611959" lon="14.145825">
        <ele>708.474741</ele>
        <time>2023-08-02T17:28:26.926Z</time>
      </trkpt>
      <trkpt lat="46.611920" lon="14.145738">
        <ele>709.415158</ele>
        <time>2023-08-02T17:28:37.660Z</time>
      </trkpt>
      <trkpt lat="46.611963" lon="14.145611">
        <ele>710.696876</ele>
        <time>2023-08-02T17:28:53.603Z</time>
      </trkpt>
      <trkpt lat="46.612155" lon="14.145496">
        <ele>713.432835</ele>
        <time>2023-08-02T17:29:31.105Z</time>
      </trkpt>
      <trkpt lat="46.612285" lon="14.145351">
        <ele>715.591010</ele>
        <time>2023-08-02T17:29:59.929Z</time>
      </trkpt>
      <trkpt lat="46.612442" lon="14.145029">
        <ele>719.165484</ele>
        <time>2023-08-02T17:30:47.134Z</time>
      </trkpt>
      <trkpt lat="46.612659" lon="14.145000">
        <ele>722.037123</ele>
        <time>2023-08-02T17:31:22.765Z</time>
      </trkpt>
      <trkpt lat="46.612699" lon="14.144949">
        <ele>722.737829</ele>
        <time>2023-08-02T17:31:31.222Z</time>
      </trkpt>
      <trkpt lat="46.612726" lon="14.144857">
        <ele>723.643461</ele>
        <time>2023-08-02T17:31:41.168Z</time>
      </trkpt>
      <trkpt lat="46.612703" lon="14.144714">
        <ele>724.972946</ele>
        <time>2023-08-02T17:31:55.352Z</time>
      </trkpt>
      <trkpt lat="46.612599" lon="14.144419">
        <ele>727.974522</ele>
        <time>2023-08-02T17:32:27.313Z</time>
      </trkpt>
      <trkpt lat="46.612575" lon="14.144285">
        <ele>729.228083</ele>
        <time>2023-08-02T17:32:39.855Z</time>
      </trkpt>
      <trkpt lat="46.612564" lon="14.143461">
        <ele>736.569482</ele>
        <time>2023-08-02T17:33:54.710Z</time>
      </trkpt>
      <trkpt lat="46.612383" lon="14.142932">
        <ele>741.803922</ele>
        <time>2023-08-02T17:34:53.297Z</time>
      </trkpt>
      <trkpt lat="46.612374" lon="14.142752">
        <ele>743.402417</ele>
        <time>2023-08-02T17:35:12.769Z</time>
      </trkpt>
      <trkpt lat="46.612454" lon="14.142376">
        <ele>746.888769</ele>
        <time>2023-08-02T17:35:58.603Z</time>
      </trkpt>
      <trkpt lat="46.612461" lon="14.142103">
        <ele>749.308435</ele>
        <time>2023-08-02T17:36:28.673Z</time>
      </trkpt>
      <trkpt lat="46.612474" lon="14.142020">
        <ele>750.062440</ele>
        <time>2023-08-02T17:36:37.318Z</time>
      </trkpt>
      <trkpt lat="46.612461" lon="14.142103">
        <ele>750.816445</ele>
        <time>2023-08-02T17:36:46.750Z</time>
      </trkpt>
      <trkpt lat="46.612402" lon="14.141566">
        <ele>755.501800</ele>
        <time>2023-08-02T17:37:48.965Z</time>
      </trkpt>
      <trkpt lat="46.612330" lon="14.141200">
        <ele>758.526607</ele>
        <time>2023-08-02T17:38:28.566Z</time>
      </trkpt>
      <trkpt lat="46.612135" lon="14.140631">
        <ele>763.578766</ele>
        <time>2023-08-02T17:39:27.902Z</time>
      </trkpt>
      <trkpt lat="46.612136" lon="14.140390">
        <ele>765.493583</ele>
        <time>2023-08-02T17:39:49.842Z</time>
      </trkpt>
      <trkpt lat="46.612084" lon="14.140237">
        <ele>766.849841</ele>
        <time>2023-08-02T17:40:05.587Z</time>
      </trkpt>
      <trkpt lat="46.611986" lon="14.140144">
        <ele>768.202893</ele>
        <time>2023-08-02T17:40:20.758Z</time>
      </trkpt>
      <trkpt lat="46.611865" lon="14.140050">
        <ele>769.789204</ele>
        <time>2023-08-02T17:40:39.592Z</time>
      </trkpt>
      <trkpt lat="46.611774" lon="14.140051">
        <ele>770.841751</ele>
        <time>2023-08-02T17:40:52.918Z</time>
      </trkpt>
      <trkpt lat="46.611744" lon="14.140174">
        <ele>771.878784</ele>
        <time>2023-08-02T17:41:04.943Z</time>
      </trkpt>
      <trkpt lat="46.611852" lon="14.140551">
        <ele>775.124154</ele>
        <time>2023-08-02T17:41:44.117Z</time>
      </trkpt>
      <trkpt lat="46.611904" lon="14.141212">
        <ele>779.766981</ele>
        <time>2023-08-02T17:42:46.506Z</time>
      </trkpt>
      <trkpt lat="46.612001" lon="14.141573">
        <ele>782.469402</ele>
        <time>2023-08-02T17:43:23.396Z</time>
      </trkpt>
      <trkpt lat="46.611969" lon="14.141626">
        <ele>782.961332</ele>
        <time>2023-08-02T17:43:29.917Z</time>
      </trkpt>
      <trkpt lat="46.611905" lon="14.141620">
        <ele>783.612201</ele>
        <time>2023-08-02T17:43:38.173Z</time>
      </trkpt>
      <trkpt lat="46.611846" lon="14.141553">
        <ele>784.371618</ele>
        <time>2023-08-02T17:43:48.346Z</time>
      </trkpt>
      <trkpt lat="46.611758" lon="14.141341">
        <ele>786.098476</ele>
        <time>2023-08-02T17:44:12.046Z</time>
      </trkpt>
      <trkpt lat="46.611713" lon="14.141025">
        <ele>788.348341</ele>
        <time>2023-08-02T17:44:40.223Z</time>
      </trkpt>
      <trkpt lat="46.611656" lon="14.140825">
        <ele>789.857902</ele>
        <time>2023-08-02T17:44:59.051Z</time>
      </trkpt>
      <trkpt lat="46.611559" lon="14.140676">
        <ele>791.289040</ele>
        <time>2023-08-02T17:45:17.305Z</time>
      </trkpt>
      <trkpt lat="46.611472" lon="14.140650">
        <ele>792.190399</ele>
        <time>2023-08-02T17:45:29.146Z</time>
      </trkpt>
      <trkpt lat="46.611424" lon="14.140720">
        <ele>792.879940</ele>
        <time>2023-08-02T17:45:38.036Z</time>
      </trkpt>
      <trkpt lat="46.611431" lon="14.140820">
        <ele>793.569153</ele>
        <time>2023-08-02T17:45:47.162Z</time>
      </trkpt>
      <trkpt lat="46.611536" lon="14.141004">
        <ele>795.120570</ele>
        <time>2023-08-02T17:46:09.058Z</time>
      </trkpt>
      <trkpt lat="46.611576" lon="14.141126">
        <ele>795.997328</ele>
        <time>2023-08-02T17:46:21.644Z</time>
      </trkpt>
      <trkpt lat="46.611565" lon="14.141264">
        <ele>796.898357</ele>
        <time>2023-08-02T17:46:34.461Z</time>
      </trkpt>
      <trkpt lat="46.611117" lon="14.142489">
        <ele>805.899115</ele>
        <time>2023-08-02T17:48:41.521Z</time>
      </trkpt>
      <trkpt lat="46.611012" lon="14.142970">
        <ele>809.172481</ele>
        <time>2023-08-02T17:49:26.594Z</time>
      </trkpt>
      <trkpt lat="46.610927" lon="14.143693">
        <ele>812.782197</ele>
        <time>2023-08-02T17:50:31.548Z</time>
      </trkpt>
      <trkpt lat="46.610960" lon="14.144107">
        <ele>814.607308</ele>
        <time>2023-08-02T17:51:08.185Z</time>
      </trkpt>
      <trkpt lat="46.610947" lon="14.144198">
        <ele>815.014332</ele>
        <time>2023-08-02T17:51:16.213Z</time>
      </trkpt>
      <trkpt lat="46.610901" lon="14.144225">
        <ele>815.330508</ele>
        <time>2023-08-02T17:51:22.439Z</time>
      </trkpt>
      <trkpt lat="46.610857" lon="14.144204">
        <ele>815.625686</ele>
        <time>2023-08-02T17:51:28.364Z</time>
      </trkpt>
      <trkpt lat="46.610812" lon="14.143727">
        <ele>817.734127</ele>
        <time>2023-08-02T17:52:09.014Z</time>
      </trkpt>
      <trkpt lat="46.610735" lon="14.143421">
        <ele>819.161208</ele>
        <time>2023-08-02T17:52:35.765Z</time>
      </trkpt>
      <trkpt lat="46.610680" lon="14.143062">
        <ele>820.771933</ele>
        <time>2023-08-02T17:53:04.696Z</time>
      </trkpt>
      <trkpt lat="46.610683" lon="14.142943">
        <ele>821.293399</ele>
        <time>2023-08-02T17:53:13.885Z</time>
      </trkpt>
      <trkpt lat="46.610661" lon="14.142891">
        <ele>821.560836</ele>
        <time>2023-08-02T17:53:18.467Z</time>
      </trkpt>
      <trkpt lat="46.610620" lon="14.142916">
        <ele>821.844201</ele>
        <time>2023-08-02T17:53:23.259Z</time>
      </trkpt>
      <trkpt lat="46.610557" lon="14.143116">
        <ele>822.469518</ele>
        <time>2023-08-02T17:53:39.440Z</time>
      </trkpt>
      <trkpt lat="46.610580" lon="14.143461">
        <ele>823.444376</ele>
        <time>2023-08-02T17:54:04.242Z</time>
      </trkpt>
      <trkpt lat="46.610524" lon="14.143852">
        <ele>824.567695</ele>
        <time>2023-08-02T17:54:34.679Z</time>
      </trkpt>
      <trkpt lat="46.610629" lon="14.144742">
        <ele>827.107432</ele>
        <time>2023-08-02T17:55:46.463Z</time>
      </trkpt>
      <trkpt lat="46.610647" lon="14.145445">
        <ele>829.085963</ele>
        <time>2023-08-02T17:56:43.767Z</time>
      </trkpt>
      <trkpt lat="46.610613" lon="14.145563">
        <ele>829.511000</ele>
        <time>2023-08-02T17:56:53.649Z</time>
      </trkpt>
      <trkpt lat="46.610535" lon="14.145606">
        <ele>829.953783</ele>
        <time>2023-08-02T17:57:03.687Z</time>
      </trkpt>
      <trkpt lat="46.610369" lon="14.145693">
        <ele>830.890414</ele>
        <time>2023-08-02T17:57:24.587Z</time>
      </trkpt>
      <trkpt lat="46.610258" lon="14.145486">
        <ele>831.848082</ele>
        <time>2023-08-02T17:57:45.329Z</time>
      </trkpt>
      <trkpt lat="46.610147" lon="14.145292">
        <ele>832.768842</ele>
        <time>2023-08-02T17:58:05.812Z</time>
      </trkpt>
      <trkpt lat="46.609983" lon="14.144812">
        <ele>834.723918</ele>
        <time>2023-08-02T17:58:49.480Z</time>
      </trkpt>
      <trkpt lat="46.609787" lon="14.144433">
        <ele>836.453979</ele>
        <time>2023-08-02T17:59:29.361Z</time>
      </trkpt>
      <trkpt lat="46.609805" lon="14.144041">
        <ele>837.886766</ele>
        <time>2023-08-02T18:00:02.808Z</time>
      </trkpt>
      <trkpt lat="46.609780" lon="14.143842">
        <ele>838.624541</ele>
        <time>2023-08-02T18:00:19.845Z</time>
      </trkpt>
      <trkpt lat="46.609647" lon="14.143489">
        <ele>838.930537</ele>
        <time>2023-08-02T18:00:51.888Z</time>
      </trkpt>
      <trkpt lat="46.609624" lon="14.143339">
        <ele>838.996760</ele>
        <time>2023-08-02T18:01:03.020Z</time>
      </trkpt>
      <trkpt lat="46.609383" lon="14.143673">
        <ele>839.205475</ele>
        <time>2023-08-02T18:01:38.230Z</time>
      </trkpt>
      <trkpt lat="46.609367" lon="14.143976">
        <ele>839.336419</ele>
        <time>2023-08-02T18:01:59.893Z</time>
      </trkpt>
      <trkpt lat="46.609431" lon="14.144134">
        <ele>839.415453</ele>
        <time>2023-08-02T18:02:12.867Z</time>
      </trkpt>
      <trkpt lat="46.609394" lon="14.144245">
        <ele>839.468614</ele>
        <time>2023-08-02T18:02:21.647Z</time>
      </trkpt>
      <trkpt lat="46.609419" lon="14.144329">
        <ele>839.508060</ele>
        <time>2023-08-02T18:02:28.189Z</time>
      </trkpt>
      <trkpt lat="46.609398" lon="14.144411">
        <ele>839.545768</ele>
        <time>2023-08-02T18:02:34.432Z</time>
      </trkpt>
      <trkpt lat="46.609303" lon="14.144418">
        <ele>839.605431</ele>
        <time>2023-08-02T18:02:44.309Z</time>
      </trkpt>
      <trkpt lat="46.609229" lon="14.144471">
        <ele>839.657160</ele>
        <time>2023-08-02T18:02:52.739Z</time>
      </trkpt>
      <trkpt lat="46.609232" lon="14.144567">
        <ele>839.698568</ele>
        <time>2023-08-02T18:02:59.471Z</time>
      </trkpt>
      <trkpt lat="46.609080" lon="14.144528">
        <ele>839.795377</ele>
        <time>2023-08-02T18:03:15.507Z</time>
      </trkpt>
      <trkpt lat="46.608903" lon="14.144608">
        <ele>839.827626</ele>
        <time>2023-08-02T18:03:34.662Z</time>
      </trkpt>
      <trkpt lat="46.608857" lon="14.144700">
        <ele>839.400363</ele>
        <time>2023-08-02T18:03:43.204Z</time>
      </trkpt>
      <trkpt lat="46.608830" lon="14.144755">
        <ele>839.146533</ele>
        <time>2023-08-02T18:03:48.482Z</time>
      </trkpt>
      <trkpt lat="46.608857" lon="14.144700">
        <ele>838.892702</ele>
        <time>2023-08-02T18:03:53.388Z</time>
      </trkpt>
      <trkpt lat="46.608903" lon="14.144608">
        <ele>838.465440</ele>
        <time>2023-08-02T18:04:01.689Z</time>
      </trkpt>
      <trkpt lat="46.609080" lon="14.144528">
        <ele>837.452421</ele>
        <time>2023-08-02T18:04:22.532Z</time>
      </trkpt>
      <trkpt lat="46.609232" lon="14.144567">
        <ele>836.608804</ele>
        <time>2023-08-02T18:04:40.029Z</time>
      </trkpt>
      <trkpt lat="46.609254" lon="14.144660">
        <ele>836.239476</ele>
        <time>2023-08-02T18:04:47.708Z</time>
      </trkpt>
      <trkpt lat="46.609294" lon="14.144832">
        <ele>835.557633</ele>
        <time>2023-08-02T18:05:01.415Z</time>
      </trkpt>
      <trkpt lat="46.609313" lon="14.144911">
        <ele>835.243344</ele>
        <time>2023-08-02T18:05:08.114Z</time>
      </trkpt>
      <trkpt lat="46.609338" lon="14.144949">
        <ele>835.045781</ele>
        <time>2023-08-02T18:05:12.080Z</time>
      </trkpt>
      <trkpt lat="46.609368" lon="14.144983">
        <ele>834.837967</ele>
        <time>2023-08-02T18:05:16.382Z</time>
      </trkpt>
      <trkpt lat="46.609515" lon="14.144946">
        <ele>834.022563</ele>
        <time>2023-08-02T18:05:33.187Z</time>
      </trkpt>
      <trkpt lat="46.609582" lon="14.145006">
        <ele>833.592601</ele>
        <time>2023-08-02T18:05:42.390Z</time>
      </trkpt>
      <trkpt lat="46.609609" lon="14.145079">
        <ele>833.281293</ele>
        <time>2023-08-02T18:05:49.083Z</time>
      </trkpt>
      <trkpt lat="46.609553" lon="14.145285">
        <ele>832.449432</ele>
        <time>2023-08-02T18:06:06.118Z</time>
      </trkpt>
      <trkpt lat="46.609619" lon="14.145494">
        <ele>831.585722</ele>
        <time>2023-08-02T18:06:24.275Z</time>
      </trkpt>
      <trkpt lat="46.609660" lon="14.145779">
        <ele>830.492376</ele>
        <time>2023-08-02T18:06:46.538Z</time>
      </trkpt>
      <trkpt lat="46.609857" lon="14.146235">
        <ele>828.820312</ele>
        <time>2023-08-02T18:07:27.626Z</time>
      </trkpt>
      <trkpt lat="46.609808" lon="14.146225">
        <ele>828.609046</ele>
        <time>2023-08-02T18:07:32.991Z</time>
      </trkpt>
      <trkpt lat="46.609669" lon="14.146099">
        <ele>827.909879</ele>
        <time>2023-08-02T18:07:51.584Z</time>
      </trkpt>
      <trkpt lat="46.609605" lon="14.146094">
        <ele>827.636219</ele>
        <time>2023-08-02T18:07:58.685Z</time>
      </trkpt>
      <trkpt lat="46.609555" lon="14.146146">
        <ele>827.373841</ele>
        <time>2023-08-02T18:08:05.162Z</time>
      </trkpt>
      <trkpt lat="46.609535" lon="14.146227">
        <ele>827.121370</ele>
        <time>2023-08-02T18:08:11.549Z</time>
      </trkpt>
      <trkpt lat="46.609572" lon="14.146368">
        <ele>826.678642</ele>
        <time>2023-08-02T18:08:23.690Z</time>
      </trkpt>
      <trkpt lat="46.609722" lon="14.146379">
        <ele>826.037360</ele>
        <time>2023-08-02T18:08:41.077Z</time>
      </trkpt>
      <trkpt lat="46.610013" lon="14.146620">
        <ele>824.607837</ele>
        <time>2023-08-02T18:09:18.454Z</time>
      </trkpt>
      <trkpt lat="46.610169" lon="14.146617">
        <ele>823.941691</ele>
        <time>2023-08-02T18:09:34.643Z</time>
      </trkpt>
      <trkpt lat="46.610232" lon="14.146489">
        <ele>823.479826</ele>
        <time>2023-08-02T18:09:46.354Z</time>
      </trkpt>
      <trkpt lat="46.610316" lon="14.145912">
        <ele>822.448744</ele>
        <time>2023-08-02T18:10:27.241Z</time>
      </trkpt>
      <trkpt lat="46.610369" lon="14.145693">
        <ele>822.508903</ele>
        <time>2023-08-02T18:10:45.419Z</time>
      </trkpt>
      <trkpt lat="46.610535" lon="14.145606">
        <ele>822.575445</ele>
        <time>2023-08-02T18:11:03.558Z</time>
      </trkpt>
      <trkpt lat="46.610613" lon="14.145563">
        <ele>822.606903</ele>
        <time>2023-08-02T18:11:12.093Z</time>
      </trkpt>
      <trkpt lat="46.610647" lon="14.145445">
        <ele>822.640056</ele>
        <time>2023-08-02T18:11:22.564Z</time>
      </trkpt>
      <trkpt lat="46.610629" lon="14.144742">
        <ele>822.822322</ele>
        <time>2023-08-02T18:12:13.853Z</time>
      </trkpt>
      <trkpt lat="46.610524" lon="14.143852">
        <ele>823.056288</ele>
        <time>2023-08-02T18:13:16.937Z</time>
      </trkpt>
      <trkpt lat="46.610580" lon="14.143461">
        <ele>822.063760</ele>
        <time>2023-08-02T18:13:46.128Z</time>
      </trkpt>
      <trkpt lat="46.610557" lon="14.143116">
        <ele>821.052352</ele>
        <time>2023-08-02T18:14:10.527Z</time>
      </trkpt>
      <trkpt lat="46.610620" lon="14.142916">
        <ele>820.410342</ele>
        <time>2023-08-02T18:14:26.248Z</time>
      </trkpt>
      <trkpt lat="46.610661" lon="14.142891">
        <ele>820.221530</ele>
        <time>2023-08-02T18:14:30.898Z</time>
      </trkpt>
      <trkpt lat="46.610683" lon="14.142943">
        <ele>820.043331</ele>
        <time>2023-08-02T18:14:35.305Z</time>
      </trkpt>
      <trkpt lat="46.610680" lon="14.143062">
        <ele>819.695867</ele>
        <time>2023-08-02T18:14:44.098Z</time>
      </trkpt>
      <trkpt lat="46.610735" lon="14.143421">
        <ele>818.622606</ele>
        <time>2023-08-02T18:15:11.513Z</time>
      </trkpt>
      <trkpt lat="46.610812" lon="14.143727">
        <ele>817.671712</ele>
        <time>2023-08-02T18:15:36.470Z</time>
      </trkpt>
      <trkpt lat="46.610857" lon="14.144204">
        <ele>816.266813</ele>
        <time>2023-08-02T18:16:13.984Z</time>
      </trkpt>
      <trkpt lat="46.610901" lon="14.144225">
        <ele>816.070129</ele>
        <time>2023-08-02T18:16:19.405Z</time>
      </trkpt>
      <trkpt lat="46.610947" lon="14.144198">
        <ele>815.859454</ele>
        <time>2023-08-02T18:16:25.107Z</time>
      </trkpt>
      <trkpt lat="46.610960" lon="14.144107">
        <ele>815.588245</ele>
        <time>2023-08-02T18:16:32.449Z</time>
      </trkpt>
      <trkpt lat="46.610927" lon="14.143693">
        <ele>813.210389</ele>
        <time>2023-08-02T18:17:05.792Z</time>
      </trkpt>
      <trkpt lat="46.611012" lon="14.142970">
        <ele>808.720629</ele>
        <time>2023-08-02T18:18:04.748Z</time>
      </trkpt>
      <trkpt lat="46.611117" lon="14.142489">
        <ele>805.631399</ele>
        <time>2023-08-02T18:18:45.550Z</time>
      </trkpt>
      <trkpt lat="46.611565" lon="14.141264">
        <ele>796.922341</ele>
        <time>2023-08-02T18:20:39.567Z</time>
      </trkpt>
      <trkpt lat="46.611576" lon="14.141126">
        <ele>795.991498</ele>
        <time>2023-08-02T18:20:51.035Z</time>
      </trkpt>
      <trkpt lat="46.611536" lon="14.141004">
        <ele>795.085728</ele>
        <time>2023-08-02T18:21:02.279Z</time>
      </trkpt>
      <trkpt lat="46.611431" lon="14.140820">
        <ele>793.482976</ele>
        <time>2023-08-02T18:21:21.933Z</time>
      </trkpt>
      <trkpt lat="46.611424" lon="14.140720">
        <ele>792.809476</ele>
        <time>2023-08-02T18:21:30.152Z</time>
      </trkpt>
      <trkpt lat="46.611472" lon="14.140650">
        <ele>792.146773</ele>
        <time>2023-08-02T18:21:38.162Z</time>
      </trkpt>
      <trkpt lat="46.611559" lon="14.140676">
        <ele>791.280495</ele>
        <time>2023-08-02T18:21:48.827Z</time>
      </trkpt>
      <trkpt lat="46.611656" lon="14.140825">
        <ele>789.905057</ele>
        <time>2023-08-02T18:22:05.370Z</time>
      </trkpt>
      <trkpt lat="46.611713" lon="14.141025">
        <ele>788.454249</ele>
        <time>2023-08-02T18:22:22.570Z</time>
      </trkpt>
      <trkpt lat="46.611758" lon="14.141341">
        <ele>786.291948</ele>
        <time>2023-08-02T18:22:48.269Z</time>
      </trkpt>
      <trkpt lat="46.611846" lon="14.141553">
        <ele>784.632301</ele>
        <time>2023-08-02T18:23:09.097Z</time>
      </trkpt>
      <trkpt lat="46.611905" lon="14.141620">
        <ele>783.902440</ele>
        <time>2023-08-02T18:23:18.178Z</time>
      </trkpt>
      <trkpt lat="46.611969" lon="14.141626">
        <ele>783.276903</ele>
        <time>2023-08-02T18:23:25.659Z</time>
      </trkpt>
      <trkpt lat="46.612001" lon="14.141573">
        <ele>782.804119</ele>
        <time>2023-08-02T18:23:31.509Z</time>
      </trkpt>
      <trkpt lat="46.611904" lon="14.141212">
        <ele>779.979263</ele>
        <time>2023-08-02T18:24:04.042Z</time>
      </trkpt>
      <trkpt lat="46.611852" lon="14.140551">
        <ele>774.907821</ele>
        <time>2023-08-02T18:24:59.600Z</time>
      </trkpt>
      <trkpt lat="46.611744" lon="14.140174">
        <ele>771.794239</ele>
        <time>2023-08-02T18:25:33.995Z</time>
      </trkpt>
      <trkpt lat="46.611774" lon="14.140051">
        <ele>770.799318</ele>
        <time>2023-08-02T18:25:44.757Z</time>
      </trkpt>
      <trkpt lat="46.611865" lon="14.140050">
        <ele>769.789513</ele>
        <time>2023-08-02T18:25:56.095Z</time>
      </trkpt>
      <trkpt lat="46.611986" lon="14.140144">
        <ele>768.267619</ele>
        <time>2023-08-02T18:26:12.799Z</time>
      </trkpt>
      <trkpt lat="46.612084" lon="14.140237">
        <ele>766.969511</ele>
        <time>2023-08-02T18:26:26.563Z</time>
      </trkpt>
      <trkpt lat="46.612136" lon="14.140390">
        <ele>765.668328</ele>
        <time>2023-08-02T18:26:40.744Z</time>
      </trkpt>
      <trkpt lat="46.612135" lon="14.140631">
        <ele>763.831267</ele>
        <time>2023-08-02T18:27:00.565Z</time>
      </trkpt>
      <trkpt lat="46.612330" lon="14.141200">
        <ele>758.328090</ele>
        <time>2023-08-02T18:27:53.940Z</time>
      </trkpt>
      <trkpt lat="46.612402" lon="14.141566">
        <ele>754.773450</ele>
        <time>2023-08-02T18:28:27.213Z</time>
      </trkpt>
      <trkpt lat="46.612461" lon="14.142103">
        <ele>749.695864</ele>
        <time>2023-08-02T18:29:16.120Z</time>
      </trkpt>
      <trkpt lat="46.612454" lon="14.142376">
        <ele>747.145144</ele>
        <time>2023-08-02T18:29:40.178Z</time>
      </trkpt>
      <trkpt lat="46.612374" lon="14.142752">
        <ele>743.469966</ele>
        <time>2023-08-02T18:30:15.695Z</time>
      </trkpt>
      <trkpt lat="46.612383" lon="14.142932">
        <ele>741.784895</ele>
        <time>2023-08-02T18:30:31.450Z</time>
      </trkpt>
      <trkpt lat="46.612564" lon="14.143461">
        <ele>736.321855</ele>
        <time>2023-08-02T18:31:22.077Z</time>
      </trkpt>
      <trkpt lat="46.612575" lon="14.144285">
        <ele>728.982643</ele>
        <time>2023-08-02T18:32:29.985Z</time>
      </trkpt>
      <trkpt lat="46.612599" lon="14.144419">
        <ele>727.749463</ele>
        <time>2023-08-02T18:32:41.286Z</time>
      </trkpt>
      <trkpt lat="46.612703" lon="14.144714">
        <ele>724.796687</ele>
        <time>2023-08-02T18:33:09.240Z</time>
      </trkpt>
      <trkpt lat="46.612726" lon="14.144857">
        <ele>723.488816</ele>
        <time>2023-08-02T18:33:21.614Z</time>
      </trkpt>
      <trkpt lat="46.612699" lon="14.144949">
        <ele>722.597909</ele>
        <time>2023-08-02T18:33:30.148Z</time>
      </trkpt>
      <trkpt lat="46.612659" lon="14.145000">
        <ele>721.908595</ele>
        <time>2023-08-02T18:33:36.890Z</time>
      </trkpt>
      <trkpt lat="46.612442" lon="14.145029">
        <ele>719.083643</ele>
        <time>2023-08-02T18:34:04.994Z</time>
      </trkpt>
      <trkpt lat="46.612285" lon="14.145351">
        <ele>715.567283</ele>
        <time>2023-08-02T18:34:40.638Z</time>
      </trkpt>
      <trkpt lat="46.612155" lon="14.145496">
        <ele>713.599495</ele>
        <time>2023-08-02T18:35:02.327Z</time>
      </trkpt>
      <trkpt lat="46.611963" lon="14.145611">
        <ele>711.510887</ele>
        <time>2023-08-02T18:35:30.347Z</time>
      </trkpt>
      <trkpt lat="46.611920" lon="14.145738">
        <ele>710.532434</ele>
        <time>2023-08-02T18:35:42.906Z</time>
      </trkpt>
      <trkpt lat="46.611959" lon="14.145825">
        <ele>709.814528</ele>
        <time>2023-08-02T18:35:51.878Z</time>
      </trkpt>
      <trkpt lat="46.612108" lon="14.145850">
        <ele>708.305675</ele>
        <time>2023-08-02T18:36:10.648Z</time>
      </trkpt>
      <trkpt lat="46.612350" lon="14.145835">
        <ele>705.868965</ele>
        <time>2023-08-02T18:36:39.319Z</time>
      </trkpt>
      <trkpt lat="46.612711" lon="14.145763">
        <ele>702.203404</ele>
        <time>2023-08-02T18:37:21.186Z</time>
      </trkpt>
      <trkpt lat="46.613011" lon="14.145857">
        <ele>699.116310</ele>
        <time>2023-08-02T18:37:56.354Z</time>
      </trkpt>
      <trkpt lat="46.613179" lon="14.145818">
        <ele>697.404888</ele>
        <time>2023-08-02T18:38:15.766Z</time>
      </trkpt>
      <trkpt lat="46.613309" lon="14.145690">
        <ele>695.966169</ele>
        <time>2023-08-02T18:38:33.712Z</time>
      </trkpt>
      <trkpt lat="46.613294" lon="14.145292">
        <ele>694.988283</ele>
        <time>2023-08-02T18:39:04.615Z</time>
      </trkpt>
      <trkpt lat="46.613391" lon="14.144791">
        <ele>693.711285</ele>
        <time>2023-08-02T18:39:44.076Z</time>
      </trkpt>
      <trkpt lat="46.613393" lon="14.144682">
        <ele>693.443779</ele>
        <time>2023-08-02T18:39:52.304Z</time>
      </trkpt>
      <trkpt lat="46.613310" lon="14.144158">
        <ele>692.124511</ele>
        <time>2023-08-02T18:40:31.189Z</time>
      </trkpt>
      <trkpt lat="46.613274" lon="14.143540">
        <ele>690.602922</ele>
        <time>2023-08-02T18:41:14.173Z</time>
      </trkpt>
      <trkpt lat="46.613335" lon="14.142817">
        <ele>687.670476</ele>
        <time>2023-08-02T18:42:05.801Z</time>
      </trkpt>
      <trkpt lat="46.613366" lon="14.142651">
        <ele>686.646953</ele>
        <time>2023-08-02T18:42:18.633Z</time>
      </trkpt>
      <trkpt lat="46.613412" lon="14.142499">
        <ele>685.658698</ele>
        <time>2023-08-02T18:42:31.286Z</time>
      </trkpt>
      <trkpt lat="46.613670" lon="14.141964">
        <ele>681.769431</ele>
        <time>2023-08-02T18:43:23.371Z</time>
      </trkpt>
      <trkpt lat="46.613670" lon="14.141964">
        <ele>681.769431</ele>
        <time>2023-08-02T18:43:23.375Z</time>
      </trkpt>
      <trkpt lat="46.614176" lon="14.141127">
        <ele>675.135502</ele>
        <time>2023-08-02T18:44:58.440Z</time>
      </trkpt>
      <trkpt lat="46.614227" lon="14.140978">
        <ele>674.145026</ele>
        <time>2023-08-02T18:45:12.993Z</time>
      </trkpt>
      <trkpt lat="46.614257" lon="14.140766">
        <ele>672.411901</ele>
        <time>2023-08-02T18:45:31.780Z</time>
      </trkpt>
      <trkpt lat="46.614251" lon="14.140450">
        <ele>669.823143</ele>
        <time>2023-08-02T18:45:59.078Z</time>
      </trkpt>
      <trkpt lat="46.614313" lon="14.140189">
        <ele>667.561579</ele>
        <time>2023-08-02T18:46:22.501Z</time>
      </trkpt>
      <trkpt lat="46.614633" lon="14.139861">
        <ele>662.895884</ele>
        <time>2023-08-02T18:47:10.304Z</time>
      </trkpt>
      <trkpt lat="46.614978" lon="14.139587">
        <ele>658.210641</ele>
        <time>2023-08-02T18:47:58.300Z</time>
      </trkpt>
      <trkpt lat="46.615047" lon="14.139413">
        <ele>656.565348</ele>
        <time>2023-08-02T18:48:15.096Z</time>
      </trkpt>
      <trkpt lat="46.614865" lon="14.138524">
        <ele>648.801166</ele>
        <time>2023-08-02T18:49:33.273Z</time>
      </trkpt>
      <trkpt lat="46.614883" lon="14.138253">
        <ele>646.468555</ele>
        <time>2023-08-02T18:49:56.408Z</time>
      </trkpt>
      <trkpt lat="46.614988" lon="14.138117">
        <ele>644.715627</ele>
        <time>2023-08-02T18:50:14.087Z</time>
      </trkpt>
      <trkpt lat="46.615364" lon="14.138096">
        <ele>640.022455</ele>
        <time>2023-08-02T18:51:01.439Z</time>
      </trkpt>
      <trkpt lat="46.615788" lon="14.138438">
        <ele>633.976600</ele>
        <time>2023-08-02T18:52:01.858Z</time>
      </trkpt>
      <trkpt lat="46.616132" lon="14.138452">
        <ele>629.755333</ele>
        <time>2023-08-02T18:52:44.583Z</time>
      </trkpt>
      <trkpt lat="46.616391" lon="14.138641">
        <ele>626.677422</ele>
        <time>2023-08-02T18:53:20.623Z</time>
      </trkpt>
      <trkpt lat="46.616546" lon="14.138862">
        <ele>624.372531</ele>
        <time>2023-08-02T18:53:47.608Z</time>
      </trkpt>
      <trkpt lat="46.616715" lon="14.139187">
        <ele>621.397923</ele>
        <time>2023-08-02T18:54:22.011Z</time>
      </trkpt>
      <trkpt lat="46.616683" lon="14.139258">
        <ele>620.778233</ele>
        <time>2023-08-02T18:54:29.283Z</time>
      </trkpt>
      <trkpt lat="46.616493" lon="14.139362">
        <ele>618.621727</ele>
        <time>2023-08-02T18:54:53.952Z</time>
      </trkpt>
      <trkpt lat="46.616242" lon="14.139935">
        <ele>613.662401</ele>
        <time>2023-08-02T18:55:50.854Z</time>
      </trkpt>
      <trkpt lat="46.616007" lon="14.140254">
        <ele>610.842696</ele>
        <time>2023-08-02T18:56:28.284Z</time>
      </trkpt>
      <trkpt lat="46.615888" lon="14.140539">
        <ele>610.202407</ele>
        <time>2023-08-02T18:56:53.534Z</time>
      </trkpt>
      <trkpt lat="46.615807" lon="14.140883">
        <ele>609.504283</ele>
        <time>2023-08-02T18:57:19.967Z</time>
      </trkpt>
      <trkpt lat="46.615787" lon="14.141367">
        <ele>608.573436</ele>
        <time>2023-08-02T18:57:54.410Z</time>
      </trkpt>
      <trkpt lat="46.615562" lon="14.141816">
        <ele>607.506453</ele>
        <time>2023-08-02T18:58:33.742Z</time>
      </trkpt>
      <trkpt lat="46.615299" lon="14.142147">
        <ele>606.534807</ele>
        <time>2023-08-02T18:59:09.322Z</time>
      </trkpt>
      <trkpt lat="46.615038" lon="14.142423">
        <ele>605.701840</ele>
        <time>2023-08-02T18:59:41.740Z</time>
      </trkpt>
      <trkpt lat="46.614985" lon="14.142598">
        <ele>605.398545</ele>
        <time>2023-08-02T18:59:54.881Z</time>
      </trkpt>
      <trkpt lat="46.614953" lon="14.142954">
        <ele>604.829182</ele>
        <time>2023-08-02T19:00:20.045Z</time>
      </trkpt>
      <trkpt lat="46.614981" lon="14.143316">
        <ele>604.251488</ele>
        <time>2023-08-02T19:00:45.993Z</time>
      </trkpt>
      <trkpt lat="46.614864" lon="14.144065">
        <ele>603.033385</ele>
        <time>2023-08-02T19:01:39.274Z</time>
      </trkpt>
      <trkpt lat="46.614850" lon="14.144518">
        <ele>602.314283</ele>
        <time>2023-08-02T19:02:12.610Z</time>
      </trkpt>
      <trkpt lat="46.614842" lon="14.144761">
        <ele>601.928486</ele>
        <time>2023-08-02T19:02:31.591Z</time>
      </trkpt>
      <trkpt lat="46.614970" lon="14.145103">
        <ele>599.031016</ele>
        <time>2023-08-02T19:03:03.737Z</time>
      </trkpt>
      <trkpt lat="46.614945" lon="14.144905">
        <ele>597.422121</ele>
        <time>2023-08-02T19:03:19.896Z</time>
      </trkpt>
      <trkpt lat="46.614977" lon="14.144215">
        <ele>591.895200</ele>
        <time>2023-08-02T19:04:18.487Z</time>
      </trkpt>
      <trkpt lat="46.615050" lon="14.143878">
        <ele>589.071206</ele>
        <time>2023-08-02T19:04:48.459Z</time>
      </trkpt>
      <trkpt lat="46.615167" lon="14.143619">
        <ele>586.593823</ele>
        <time>2023-08-02T19:05:15.554Z</time>
      </trkpt>
      <trkpt lat="46.615614" lon="14.143386">
        <ele>581.069815</ele>
        <time>2023-08-02T19:06:15.261Z</time>
      </trkpt>
      <trkpt lat="46.615834" lon="14.142871">
        <ele>575.193996</ele>
        <time>2023-08-02T19:07:09.006Z</time>
      </trkpt>
      <trkpt lat="46.615899" lon="14.142719">
        <ele>573.451477</ele>
        <time>2023-08-02T19:07:25.202Z</time>
      </trkpt>
      <trkpt lat="46.616251" lon="14.142085">
        <ele>565.517833</ele>
        <time>2023-08-02T19:08:41.529Z</time>
      </trkpt>
      <trkpt lat="46.616415" lon="14.141882">
        <ele>562.467899</ele>
        <time>2023-08-02T19:09:09.026Z</time>
      </trkpt>
      <trkpt lat="46.616648" lon="14.141751">
        <ele>558.929058</ele>
        <time>2023-08-02T19:09:40.313Z</time>
      </trkpt>
      <trkpt lat="46.617084" lon="14.141831">
        <ele>554.980580</ele>
        <time>2023-08-02T19:10:33.110Z</time>
      </trkpt>
      <trkpt lat="46.617145" lon="14.141872">
        <ele>554.813693</ele>
        <time>2023-08-02T19:10:40.914Z</time>
      </trkpt>
      <trkpt lat="46.617199" lon="14.141956">
        <ele>554.617401</ele>
        <time>2023-08-02T19:10:49.793Z</time>
      </trkpt>
      <trkpt lat="46.617309" lon="14.142247">
        <ele>554.050699</ele>
        <time>2023-08-02T19:11:14.938Z</time>
      </trkpt>
      <trkpt lat="46.617402" lon="14.142305">
        <ele>553.799392</ele>
        <time>2023-08-02T19:11:26.225Z</time>
      </trkpt>
      <trkpt lat="46.617568" lon="14.142009">
        <ele>553.147431</ele>
        <time>2023-08-02T19:11:53.791Z</time>
      </trkpt>
      <trkpt lat="46.617833" lon="14.141800">
        <ele>552.398814</ele>
        <time>2023-08-02T19:12:24.679Z</time>
      </trkpt>
      <trkpt lat="46.617866" lon="14.141732">
        <ele>552.256763</ele>
        <time>2023-08-02T19:12:30.562Z</time>
      </trkpt>
      <trkpt lat="46.618009" lon="14.141364">
        <ele>551.535403</ele>
        <time>2023-08-02T19:13:00.387Z</time>
      </trkpt>
      <trkpt lat="46.618064" lon="14.141074">
        <ele>551.022118</ele>
        <time>2023-08-02T19:13:23.210Z</time>
      </trkpt>
      <trkpt lat="46.617968" lon="14.140323">
        <ele>554.930636</ele>
        <time>2023-08-02T19:14:29.503Z</time>
      </trkpt>
      <trkpt lat="46.618001" lon="14.140099">
        <ele>556.133390</ele>
        <time>2023-08-02T19:14:50.516Z</time>
      </trkpt>
      <trkpt lat="46.618127" lon="14.139895">
        <ele>557.573733</ele>
        <time>2023-08-02T19:15:15.170Z</time>
      </trkpt>
      <trkpt lat="46.618377" lon="14.139337">
        <ele>561.071372</ele>
        <time>2023-08-02T19:16:15.126Z</time>
      </trkpt>
      <trkpt lat="46.618488" lon="14.138163">
        <ele>567.018569</ele>
        <time>2023-08-02T19:17:58.951Z</time>
      </trkpt>
      <trkpt lat="46.618668" lon="14.137792">
        <ele>569.146398</ele>
        <time>2023-08-02T19:18:37.595Z</time>
      </trkpt>
      <trkpt lat="46.618853" lon="14.137084">
        <ele>572.694940</ele>
        <time>2023-08-02T19:19:41.623Z</time>
      </trkpt>
      <trkpt lat="46.618679" lon="14.135615">
        <ele>578.914197</ele>
        <time>2023-08-02T19:21:45.004Z</time>
      </trkpt>
      <trkpt lat="46.618458" lon="14.134697">
        <ele>582.165265</ele>
        <time>2023-08-02T19:23:05.935Z</time>
      </trkpt>
      <trkpt lat="46.618468" lon="14.134135">
        <ele>584.044173</ele>
        <time>2023-08-02T19:23:51.317Z</time>
      </trkpt>
      <trkpt lat="46.618424" lon="14.133616">
        <ele>585.763448</ele>
        <time>2023-08-02T19:24:31.180Z</time>
      </trkpt>
      <trkpt lat="46.618387" lon="14.133551">
        <ele>585.754252</ele>
        <time>2023-08-02T19:24:37.555Z</time>
      </trkpt>
      <trkpt lat="46.618314" lon="14.133220">
        <ele>585.716382</ele>
        <time>2023-08-02T19:25:02.338Z</time>
      </trkpt>
      <trkpt lat="46.618209" lon="14.132523">
        <ele>585.638652</ele>
        <time>2023-08-02T19:25:51.610Z</time>
      </trkpt>
      <trkpt lat="46.618209" lon="14.132309">
        <ele>585.615340</ele>
        <time>2023-08-02T19:26:06.731Z</time>
      </trkpt>
      <trkpt lat="46.618017" lon="14.132104">
        <ele>585.577579</ele>
        <time>2023-08-02T19:26:31.215Z</time>
      </trkpt>
      <trkpt lat="46.617501" lon="14.131042">
        <ele>584.962537</ele>
        <time>2023-08-02T19:28:02.952Z</time>
      </trkpt>
      <trkpt lat="46.617446" lon="14.130991">
        <ele>584.838925</ele>
        <time>2023-08-02T19:28:09.690Z</time>
      </trkpt>
      <trkpt lat="46.617317" lon="14.130870">
        <ele>584.548028</ele>
        <time>2023-08-02T19:28:25.621Z</time>
      </trkpt>
      <trkpt lat="46.617140" lon="14.130516">
        <ele>583.977906</ele>
        <time>2023-08-02T19:28:56.842Z</time>
      </trkpt>
      <trkpt lat="46.616904" lon="14.130194">
        <ele>583.364776</ele>
        <time>2023-08-02T19:29:30.403Z</time>
      </trkpt>
      <trkpt lat="46.616668" lon="14.129979">
        <ele>582.837032</ele>
        <time>2023-08-02T19:29:59.134Z</time>
      </trkpt>
      <trkpt lat="46.616226" lon="14.129819">
        <ele>581.792438</ele>
        <time>2023-08-02T19:30:46.611Z</time>
      </trkpt>
      <trkpt lat="46.615880" lon="14.129604">
        <ele>579.731022</ele>
        <time>2023-08-02T19:31:26.952Z</time>
      </trkpt>
      <trkpt lat="46.615696" lon="14.129454">
        <ele>578.575466</ele>
        <time>2023-08-02T19:31:49.967Z</time>
      </trkpt>
      <trkpt lat="46.615158" lon="14.129175">
        <ele>575.445993</ele>
        <time>2023-08-02T19:32:54.114Z</time>
      </trkpt>
      <trkpt lat="46.615040" lon="14.128937">
        <ele>574.341204</ele>
        <time>2023-08-02T19:33:17.149Z</time>
      </trkpt>
      <trkpt lat="46.614943" lon="14.128566">
        <ele>572.847053</ele>
        <time>2023-08-02T19:33:48.642Z</time>
      </trkpt>
      <trkpt lat="46.614849" lon="14.128243">
        <ele>571.522263</ele>
        <time>2023-08-02T19:34:16.537Z</time>
      </trkpt>
      <trkpt lat="46.614790" lon="14.127338">
        <ele>568.078541</ele>
        <time>2023-08-02T19:35:28.138Z</time>
      </trkpt>
      <trkpt lat="46.614790" lon="14.127338">
        <ele>568.078541</ele>
        <time>2023-08-02T19:35:28.141Z</time>
      </trkpt>
      <trkpt lat="46.614737" lon="14.127141">
        <ele>567.277067</ele>
        <time>2023-08-02T19:35:44.600Z</time>
      </trkpt>
      <trkpt lat="46.614557" lon="14.126844">
        <ele>565.776644</ele>
        <time>2023-08-02T19:36:15.242Z</time>
      </trkpt>
      <trkpt lat="46.614493" lon="14.126613">
        <ele>564.833066</ele>
        <time>2023-08-02T19:36:34.057Z</time>
      </trkpt>
      <trkpt lat="46.614469" lon="14.126513">
        <ele>564.431788</ele>
        <time>2023-08-02T19:36:41.980Z</time>
      </trkpt>
      <trkpt lat="46.614302" lon="14.125815">
        <ele>562.294276</ele>
        <time>2023-08-02T19:37:35.895Z</time>
      </trkpt>
      <trkpt lat="46.614114" lon="14.125168">
        <ele>562.294276</ele>
        <time>2023-08-02T19:38:24.834Z</time>
      </trkpt>
      <trkpt lat="46.614232" lon="14.125126">
        <ele>562.294276</ele>
        <time>2023-08-02T19:38:36.969Z</time>
      </trkpt>
      <trkpt lat="46.614345" lon="14.125031">
        <ele>562.294276</ele>
        <time>2023-08-02T19:38:50.227Z</time>
      </trkpt>
      <trkpt lat="46.614392" lon="14.125035">
        <ele>562.294276</ele>
        <time>2023-08-02T19:38:55.071Z</time>
      </trkpt>
      <trkpt lat="46.614458" lon="14.125119">
        <ele>562.294276</ele>
        <time>2023-08-02T19:39:04.286Z</time>
      </trkpt>
      <trkpt lat="46.614722" lon="14.125183">
        <ele>562.294276</ele>
        <time>2023-08-02T19:39:31.792Z</time>
      </trkpt>
      <trkpt lat="46.614801" lon="14.125237">
        <ele>562.294276</ele>
        <time>2023-08-02T19:39:40.916Z</time>
      </trkpt>
      <trkpt lat="46.614787" lon="14.125511">
        <ele>562.294276</ele>
        <time>2023-08-02T19:40:00.165Z</time>
      </trkpt>
    </trkseg>
  </trk>
</gpx>