<?xml version="1.0" encoding="UTF-8" standalone="yes"?>
<gpx xmlns="http://www.topografix.com/GPX/1/1" version="1.1" creator="outdooractive - http://www.outdooractive.com">
    <metadata>
        <name>Rundweg Sveti Vid - Paradiesweg - Njivice</name>
        <author>
            <name>Christoph Reithmair - Community</name>
        </author>
        <time>2017-06-09T08:48:28</time>
    </metadata>
    <trk>
        <name>Rundweg Sveti Vid - Paradiesweg - Njivice</name>
        <desc>Rundweg Sveti Vid - Paradiesweg - Njivice</desc>
        <trkseg>
            <trkpt lat="45.126082" lon="14.542235">
                <ele>82.90000</ele>
            </trkpt>
            <trkpt lat="45.126125" lon="14.542172">
                <ele>82.40000</ele>
            </trkpt>
            <trkpt lat="45.126437" lon="14.541854">
                <ele>79.80000</ele>
            </trkpt>
            <trkpt lat="45.126499" lon="14.541743">
                <ele>79.10000</ele>
            </trkpt>
            <trkpt lat="45.126595" lon="14.541272">
                <ele>75.80000</ele>
            </trkpt>
            <trkpt lat="45.126703" lon="14.540802">
                <ele>72.90000</ele>
            </trkpt>
            <trkpt lat="45.126873" lon="14.540470">
                <ele>71.70000</ele>
            </trkpt>
            <trkpt lat="45.126937" lon="14.540223">
                <ele>70.60000</ele>
            </trkpt>
            <trkpt lat="45.126991" lon="14.539880">
                <ele>69.10000</ele>
            </trkpt>
            <trkpt lat="45.126991" lon="14.539880">
                <ele>69.10000</ele>
            </trkpt>
            <trkpt lat="45.126904" lon="14.539604">
                <ele>67.90000</ele>
            </trkpt>
            <trkpt lat="45.126799" lon="14.539158">
                <ele>66.10000</ele>
            </trkpt>
            <trkpt lat="45.126694" lon="14.538713">
                <ele>63.30000</ele>
            </trkpt>
            <trkpt lat="45.126588" lon="14.538268">
                <ele>60.50000</ele>
            </trkpt>
            <trkpt lat="45.126604" lon="14.538161">
                <ele>60.0</ele>
            </trkpt>
            <trkpt lat="45.126531" lon="14.538087">
                <ele>59.50000</ele>
            </trkpt>
            <trkpt lat="45.126322" lon="14.537621">
                <ele>57.40000</ele>
            </trkpt>
            <trkpt lat="45.126335" lon="14.537583">
                <ele>57.30000</ele>
            </trkpt>
            <trkpt lat="45.126338" lon="14.537540">
                <ele>57.10000</ele>
            </trkpt>
            <trkpt lat="45.126330" lon="14.537499">
                <ele>57.0</ele>
            </trkpt>
            <trkpt lat="45.126313" lon="14.537464">
                <ele>56.80000</ele>
            </trkpt>
            <trkpt lat="45.126288" lon="14.537439">
                <ele>56.70000</ele>
            </trkpt>
            <trkpt lat="45.126259" lon="14.537428">
                <ele>56.60000</ele>
            </trkpt>
            <trkpt lat="45.126258" lon="14.537360">
                <ele>56.40000</ele>
            </trkpt>
            <trkpt lat="45.126264" lon="14.537018">
                <ele>55.50000</ele>
            </trkpt>
            <trkpt lat="45.126381" lon="14.536485">
                <ele>53.90000</ele>
            </trkpt>
            <trkpt lat="45.126498" lon="14.535953">
                <ele>52.10000</ele>
            </trkpt>
            <trkpt lat="45.126589" lon="14.535536">
                <ele>49.50000</ele>
            </trkpt>
            <trkpt lat="45.126681" lon="14.535120">
                <ele>46.0</ele>
            </trkpt>
            <trkpt lat="45.126728" lon="14.534903">
                <ele>44.50000</ele>
            </trkpt>
            <trkpt lat="45.126758" lon="14.534691">
                <ele>43.30000</ele>
            </trkpt>
            <trkpt lat="45.126743" lon="14.534375">
                <ele>41.50000</ele>
            </trkpt>
            <trkpt lat="45.126665" lon="14.534001">
                <ele>39.10000</ele>
            </trkpt>
            <trkpt lat="45.126587" lon="14.533628">
                <ele>36.90000</ele>
            </trkpt>
            <trkpt lat="45.126477" lon="14.533145">
                <ele>34.30000</ele>
            </trkpt>
            <trkpt lat="45.126366" lon="14.532662">
                <ele>32.40000</ele>
            </trkpt>
            <trkpt lat="45.126272" lon="14.532339">
                <ele>31.10000</ele>
            </trkpt>
            <trkpt lat="45.126177" lon="14.532017">
                <ele>29.30000</ele>
            </trkpt>
            <trkpt lat="45.126243" lon="14.531736">
                <ele>28.60000</ele>
            </trkpt>
            <trkpt lat="45.126019" lon="14.531765">
                <ele>27.30000</ele>
            </trkpt>
            <trkpt lat="45.125802" lon="14.531574">
                <ele>25.60000</ele>
            </trkpt>
            <trkpt lat="45.125560" lon="14.531256">
                <ele>24.50000</ele>
            </trkpt>
            <trkpt lat="45.125385" lon="14.530964">
                <ele>23.80000</ele>
            </trkpt>
            <trkpt lat="45.125245" lon="14.530492">
                <ele>22.30000</ele>
            </trkpt>
            <trkpt lat="45.125118" lon="14.529943">
                <ele>19.60000</ele>
            </trkpt>
            <trkpt lat="45.125058" lon="14.529385">
                <ele>16.0</ele>
            </trkpt>
            <trkpt lat="45.125053" lon="14.529160">
                <ele>14.30000</ele>
            </trkpt>
            <trkpt lat="45.125104" lon="14.528912">
                <ele>12.50000</ele>
            </trkpt>
            <trkpt lat="45.125185" lon="14.528709">
                <ele>11.10000</ele>
            </trkpt>
            <trkpt lat="45.125194" lon="14.528616">
                <ele>10.20000</ele>
            </trkpt>
            <trkpt lat="45.125190" lon="14.528517">
                <ele>9.20000</ele>
            </trkpt>
            <trkpt lat="45.125083" lon="14.528450">
                <ele>7.70000</ele>
            </trkpt>
            <trkpt lat="45.125003" lon="14.528442">
                <ele>7.10000</ele>
            </trkpt>
            <trkpt lat="45.124879" lon="14.528455">
                <ele>6.40000</ele>
            </trkpt>
            <trkpt lat="45.124755" lon="14.528542">
                <ele>6.20000</ele>
            </trkpt>
            <trkpt lat="45.124879" lon="14.528455">
                <ele>6.40000</ele>
            </trkpt>
            <trkpt lat="45.125003" lon="14.528442">
                <ele>7.10000</ele>
            </trkpt>
            <trkpt lat="45.125083" lon="14.528450">
                <ele>7.70000</ele>
            </trkpt>
            <trkpt lat="45.125190" lon="14.528517">
                <ele>9.20000</ele>
            </trkpt>
            <trkpt lat="45.125190" lon="14.528517">
                <ele>9.20000</ele>
            </trkpt>
            <trkpt lat="45.125475" lon="14.528274">
                <ele>9.0</ele>
            </trkpt>
            <trkpt lat="45.125616" lon="14.528104">
                <ele>8.60000</ele>
            </trkpt>
            <trkpt lat="45.125734" lon="14.527590">
                <ele>5.0</ele>
            </trkpt>
            <trkpt lat="45.125714" lon="14.527444">
                <ele>3.70000</ele>
            </trkpt>
            <trkpt lat="45.125668" lon="14.527318">
                <ele>2.50000</ele>
            </trkpt>
            <trkpt lat="45.125648" lon="14.527189">
                <ele>1.40000</ele>
            </trkpt>
            <trkpt lat="45.125594" lon="14.527049">
                <ele>0.20000</ele>
            </trkpt>
            <trkpt lat="45.125977" lon="14.526825">
                <ele>0.50000</ele>
            </trkpt>
            <trkpt lat="45.126361" lon="14.526601">
                <ele>0.60000</ele>
            </trkpt>
            <trkpt lat="45.126744" lon="14.526377">
                <ele>0.60000</ele>
            </trkpt>
            <trkpt lat="45.127127" lon="14.526153">
                <ele>0.20000</ele>
            </trkpt>
            <trkpt lat="45.127184" lon="14.526127">
                <ele>0.20000</ele>
            </trkpt>
            <trkpt lat="45.127247" lon="14.526098">
                <ele>0.20000</ele>
            </trkpt>
            <trkpt lat="45.127247" lon="14.526098">
                <ele>0.20000</ele>
            </trkpt>
            <trkpt lat="45.127327" lon="14.526135">
                <ele>0.50000</ele>
            </trkpt>
            <trkpt lat="45.127667" lon="14.526338">
                <ele>1.90000</ele>
            </trkpt>
            <trkpt lat="45.127916" lon="14.526317">
                <ele>2.30000</ele>
            </trkpt>
            <trkpt lat="45.128052" lon="14.526700">
                <ele>3.80000</ele>
            </trkpt>
            <trkpt lat="45.128159" lon="14.526866">
                <ele>4.50000</ele>
            </trkpt>
            <trkpt lat="45.128474" lon="14.526646">
                <ele>4.10000</ele>
            </trkpt>
            <trkpt lat="45.128780" lon="14.526612">
                <ele>4.50000</ele>
            </trkpt>
            <trkpt lat="45.129038" lon="14.526560">
                <ele>4.40000</ele>
            </trkpt>
            <trkpt lat="45.129213" lon="14.526520">
                <ele>4.0</ele>
            </trkpt>
            <trkpt lat="45.129268" lon="14.526672">
                <ele>4.90000</ele>
            </trkpt>
            <trkpt lat="45.129271" lon="14.526902">
                <ele>6.70000</ele>
            </trkpt>
            <trkpt lat="45.129333" lon="14.527067">
                <ele>8.10000</ele>
            </trkpt>
            <trkpt lat="45.129548" lon="14.526972">
                <ele>6.60000</ele>
            </trkpt>
            <trkpt lat="45.129611" lon="14.526912">
                <ele>5.80000</ele>
            </trkpt>
            <trkpt lat="45.129667" lon="14.526805">
                <ele>4.70000</ele>
            </trkpt>
            <trkpt lat="45.129772" lon="14.526664">
                <ele>3.20000</ele>
            </trkpt>
            <trkpt lat="45.129866" lon="14.526537">
                <ele>2.0</ele>
            </trkpt>
            <trkpt lat="45.130200" lon="14.526389">
                <ele>1.30000</ele>
            </trkpt>
            <trkpt lat="45.130443" lon="14.526362">
                <ele>2.40000</ele>
            </trkpt>
            <trkpt lat="45.130686" lon="14.526336">
                <ele>3.50000</ele>
            </trkpt>
            <trkpt lat="45.130829" lon="14.526428">
                <ele>4.80000</ele>
            </trkpt>
            <trkpt lat="45.131139" lon="14.526472">
                <ele>5.90000</ele>
            </trkpt>
            <trkpt lat="45.131532" lon="14.526209">
                <ele>3.80000</ele>
            </trkpt>
            <trkpt lat="45.131805" lon="14.526235">
                <ele>3.80000</ele>
            </trkpt>
            <trkpt lat="45.132078" lon="14.526260">
                <ele>3.60000</ele>
            </trkpt>
            <trkpt lat="45.132457" lon="14.526442">
                <ele>4.10000</ele>
            </trkpt>
            <trkpt lat="45.132796" lon="14.526550">
                <ele>3.70000</ele>
            </trkpt>
            <trkpt lat="45.133136" lon="14.526658">
                <ele>2.70000</ele>
            </trkpt>
            <trkpt lat="45.133475" lon="14.526766">
                <ele>2.50000</ele>
            </trkpt>
            <trkpt lat="45.133815" lon="14.526874">
                <ele>3.0</ele>
            </trkpt>
            <trkpt lat="45.133992" lon="14.526829">
                <ele>2.40000</ele>
            </trkpt>
            <trkpt lat="45.134286" lon="14.526790">
                <ele>1.90000</ele>
            </trkpt>
            <trkpt lat="45.134343" lon="14.526736">
                <ele>1.40000</ele>
            </trkpt>
            <trkpt lat="45.134372" lon="14.526530">
                <ele>0.40000</ele>
            </trkpt>
            <trkpt lat="45.134661" lon="14.526553">
                <ele>0.50000</ele>
            </trkpt>
            <trkpt lat="45.134764" lon="14.526609">
                <ele>0.70000</ele>
            </trkpt>
            <trkpt lat="45.134886" lon="14.526695">
                <ele>1.20000</ele>
            </trkpt>
            <trkpt lat="45.134978" lon="14.526595">
                <ele>0.60000</ele>
            </trkpt>
            <trkpt lat="45.135173" lon="14.526574">
                <ele>0.30000</ele>
            </trkpt>
            <trkpt lat="45.135476" lon="14.526640">
                <ele>0.20000</ele>
            </trkpt>
            <trkpt lat="45.135843" lon="14.526849">
                <ele>1.70000</ele>
            </trkpt>
            <trkpt lat="45.136210" lon="14.527058">
                <ele>3.70000</ele>
            </trkpt>
            <trkpt lat="45.136217" lon="14.527063">
                <ele>3.70000</ele>
            </trkpt>
            <trkpt lat="45.136495" lon="14.527285">
                <ele>4.30000</ele>
            </trkpt>
            <trkpt lat="45.136841" lon="14.527467">
                <ele>4.30000</ele>
            </trkpt>
            <trkpt lat="45.136922" lon="14.527750">
                <ele>6.70000</ele>
            </trkpt>
            <trkpt lat="45.136922" lon="14.527750">
                <ele>6.70000</ele>
            </trkpt>
            <trkpt lat="45.137098" lon="14.527634">
                <ele>5.60000</ele>
            </trkpt>
            <trkpt lat="45.137266" lon="14.527340">
                <ele>3.50000</ele>
            </trkpt>
            <trkpt lat="45.137586" lon="14.527262">
                <ele>3.30000</ele>
            </trkpt>
            <trkpt lat="45.137905" lon="14.527183">
                <ele>3.70000</ele>
            </trkpt>
            <trkpt lat="45.138297" lon="14.527428">
                <ele>6.50000</ele>
            </trkpt>
            <trkpt lat="45.138426" lon="14.527824">
                <ele>8.80000</ele>
            </trkpt>
            <trkpt lat="45.138554" lon="14.527832">
                <ele>7.70000</ele>
            </trkpt>
            <trkpt lat="45.138822" lon="14.527702">
                <ele>3.30000</ele>
            </trkpt>
            <trkpt lat="45.139252" lon="14.527784">
                <ele>0.30000</ele>
            </trkpt>
            <trkpt lat="45.139532" lon="14.527958">
                <ele>2.20000</ele>
            </trkpt>
            <trkpt lat="45.139694" lon="14.528322">
                <ele>7.90000</ele>
            </trkpt>
            <trkpt lat="45.139896" lon="14.528125">
                <ele>4.80000</ele>
            </trkpt>
            <trkpt lat="45.140119" lon="14.527950">
                <ele>2.40000</ele>
            </trkpt>
            <trkpt lat="45.140527" lon="14.527849">
                <ele>3.50000</ele>
            </trkpt>
            <trkpt lat="45.140845" lon="14.527905">
                <ele>5.30000</ele>
            </trkpt>
            <trkpt lat="45.141164" lon="14.527961">
                <ele>4.30000</ele>
            </trkpt>
            <trkpt lat="45.141482" lon="14.528017">
                <ele>2.30000</ele>
            </trkpt>
            <trkpt lat="45.141601" lon="14.528207">
                <ele>2.90000</ele>
            </trkpt>
            <trkpt lat="45.141580" lon="14.528513">
                <ele>6.30000</ele>
            </trkpt>
            <trkpt lat="45.141598" lon="14.528674">
                <ele>8.80000</ele>
            </trkpt>
            <trkpt lat="45.141675" lon="14.528762">
                <ele>10.20000</ele>
            </trkpt>
            <trkpt lat="45.141944" lon="14.528521">
                <ele>8.10000</ele>
            </trkpt>
            <trkpt lat="45.142280" lon="14.528299">
                <ele>8.80000</ele>
            </trkpt>
            <trkpt lat="45.142567" lon="14.528138">
                <ele>8.0</ele>
            </trkpt>
            <trkpt lat="45.142855" lon="14.527977">
                <ele>5.70000</ele>
            </trkpt>
            <trkpt lat="45.143157" lon="14.527977">
                <ele>5.70000</ele>
            </trkpt>
            <trkpt lat="45.143460" lon="14.527977">
                <ele>4.80000</ele>
            </trkpt>
            <trkpt lat="45.143687" lon="14.528159">
                <ele>5.20000</ele>
            </trkpt>
            <trkpt lat="45.143914" lon="14.528342">
                <ele>4.50000</ele>
            </trkpt>
            <trkpt lat="45.144210" lon="14.528815">
                <ele>9.60000</ele>
            </trkpt>
            <trkpt lat="45.144277" lon="14.528921">
                <ele>11.30000</ele>
            </trkpt>
            <trkpt lat="45.144330" lon="14.528927">
                <ele>11.0</ele>
            </trkpt>
            <trkpt lat="45.144622" lon="14.528774">
                <ele>6.70000</ele>
            </trkpt>
            <trkpt lat="45.144819" lon="14.528802">
                <ele>6.60000</ele>
            </trkpt>
            <trkpt lat="45.144970" lon="14.528967">
                <ele>8.50000</ele>
            </trkpt>
            <trkpt lat="45.145091" lon="14.529013">
                <ele>8.60000</ele>
            </trkpt>
            <trkpt lat="45.145352" lon="14.529070">
                <ele>8.30000</ele>
            </trkpt>
            <trkpt lat="45.145769" lon="14.529279">
                <ele>10.30000</ele>
            </trkpt>
            <trkpt lat="45.146016" lon="14.529070">
                <ele>8.50000</ele>
            </trkpt>
            <trkpt lat="45.146200" lon="14.528860">
                <ele>7.10000</ele>
            </trkpt>
            <trkpt lat="45.146259" lon="14.528781">
                <ele>6.60000</ele>
            </trkpt>
            <trkpt lat="45.146499" lon="14.528625">
                <ele>6.50000</ele>
            </trkpt>
            <trkpt lat="45.146746" lon="14.528317">
                <ele>5.60000</ele>
            </trkpt>
            <trkpt lat="45.146976" lon="14.528146">
                <ele>6.40000</ele>
            </trkpt>
            <trkpt lat="45.147163" lon="14.527795">
                <ele>5.0</ele>
            </trkpt>
            <trkpt lat="45.147435" lon="14.527444">
                <ele>3.90000</ele>
            </trkpt>
            <trkpt lat="45.147622" lon="14.527264">
                <ele>4.30000</ele>
            </trkpt>
            <trkpt lat="45.147809" lon="14.527084">
                <ele>5.20000</ele>
            </trkpt>
            <trkpt lat="45.148035" lon="14.526956">
                <ele>7.0</ele>
            </trkpt>
            <trkpt lat="45.148262" lon="14.526828">
                <ele>8.10000</ele>
            </trkpt>
            <trkpt lat="45.148458" lon="14.526614">
                <ele>7.30000</ele>
            </trkpt>
            <trkpt lat="45.148654" lon="14.526400">
                <ele>6.20000</ele>
            </trkpt>
            <trkpt lat="45.148914" lon="14.526152">
                <ele>5.10000</ele>
            </trkpt>
            <trkpt lat="45.148922" lon="14.526137">
                <ele>5.0</ele>
            </trkpt>
            <trkpt lat="45.149190" lon="14.525687">
                <ele>3.40000</ele>
            </trkpt>
            <trkpt lat="45.149190" lon="14.525687">
                <ele>3.40000</ele>
            </trkpt>
            <trkpt lat="45.149283" lon="14.525736">
                <ele>4.40000</ele>
            </trkpt>
            <trkpt lat="45.149357" lon="14.525894">
                <ele>5.90000</ele>
            </trkpt>
            <trkpt lat="45.149488" lon="14.525939">
                <ele>7.40000</ele>
            </trkpt>
            <trkpt lat="45.149542" lon="14.526139">
                <ele>8.70000</ele>
            </trkpt>
            <trkpt lat="45.149742" lon="14.526326">
                <ele>10.40000</ele>
            </trkpt>
            <trkpt lat="45.149508" lon="14.526515">
                <ele>10.50000</ele>
            </trkpt>
            <trkpt lat="45.149673" lon="14.526680">
                <ele>11.80000</ele>
            </trkpt>
            <trkpt lat="45.149840" lon="14.526830">
                <ele>12.30000</ele>
            </trkpt>
            <trkpt lat="45.149902" lon="14.526956">
                <ele>12.80000</ele>
            </trkpt>
            <trkpt lat="45.149913" lon="14.527131">
                <ele>14.0</ele>
            </trkpt>
            <trkpt lat="45.149943" lon="14.527354">
                <ele>15.0</ele>
            </trkpt>
            <trkpt lat="45.150037" lon="14.527554">
                <ele>14.70000</ele>
            </trkpt>
            <trkpt lat="45.150113" lon="14.527672">
                <ele>13.90000</ele>
            </trkpt>
            <trkpt lat="45.150104" lon="14.527942">
                <ele>13.90000</ele>
            </trkpt>
            <trkpt lat="45.150302" lon="14.528242">
                <ele>10.60000</ele>
            </trkpt>
            <trkpt lat="45.150518" lon="14.528629">
                <ele>6.40000</ele>
            </trkpt>
            <trkpt lat="45.150468" lon="14.529106">
                <ele>5.70000</ele>
            </trkpt>
            <trkpt lat="45.150292" lon="14.529679">
                <ele>8.10000</ele>
            </trkpt>
            <trkpt lat="45.150220" lon="14.530005">
                <ele>9.0</ele>
            </trkpt>
            <trkpt lat="45.150148" lon="14.530330">
                <ele>10.80000</ele>
            </trkpt>
            <trkpt lat="45.150225" lon="14.530793">
                <ele>10.60000</ele>
            </trkpt>
            <trkpt lat="45.150369" lon="14.531113">
                <ele>7.50000</ele>
            </trkpt>
            <trkpt lat="45.150512" lon="14.531433">
                <ele>4.0</ele>
            </trkpt>
            <trkpt lat="45.150662" lon="14.531982">
                <ele>4.10000</ele>
            </trkpt>
            <trkpt lat="45.150811" lon="14.532530">
                <ele>7.60000</ele>
            </trkpt>
            <trkpt lat="45.150899" lon="14.532858">
                <ele>8.90000</ele>
            </trkpt>
            <trkpt lat="45.150986" lon="14.533187">
                <ele>9.70000</ele>
            </trkpt>
            <trkpt lat="45.151184" lon="14.533590">
                <ele>8.50000</ele>
            </trkpt>
            <trkpt lat="45.151390" lon="14.533826">
                <ele>6.40000</ele>
            </trkpt>
            <trkpt lat="45.151674" lon="14.533956">
                <ele>3.30000</ele>
            </trkpt>
            <trkpt lat="45.151717" lon="14.533976">
                <ele>2.90000</ele>
            </trkpt>
            <trkpt lat="45.151900" lon="14.534196">
                <ele>1.50000</ele>
            </trkpt>
            <trkpt lat="45.152211" lon="14.534587">
                <ele>0.30000</ele>
            </trkpt>
            <trkpt lat="45.152211" lon="14.534587">
                <ele>0.30000</ele>
            </trkpt>
            <trkpt lat="45.152564" lon="14.534634">
                <ele>-0.80000</ele>
            </trkpt>
            <trkpt lat="45.152704" lon="14.534621">
                <ele>-0.90000</ele>
            </trkpt>
            <trkpt lat="45.152769" lon="14.534612">
                <ele>-0.70000</ele>
            </trkpt>
            <trkpt lat="45.152889" lon="14.534594">
                <ele>-0.50000</ele>
            </trkpt>
            <trkpt lat="45.153092" lon="14.534597">
                <ele>0.60000</ele>
            </trkpt>
            <trkpt lat="45.153092" lon="14.534597">
                <ele>0.60000</ele>
            </trkpt>
            <trkpt lat="45.153212" lon="14.534674">
                <ele>1.50000</ele>
            </trkpt>
            <trkpt lat="45.153249" lon="14.534762">
                <ele>2.10000</ele>
            </trkpt>
            <trkpt lat="45.153335" lon="14.534811">
                <ele>2.70000</ele>
            </trkpt>
            <trkpt lat="45.153500" lon="14.534708">
                <ele>3.40000</ele>
            </trkpt>
            <trkpt lat="45.153580" lon="14.534586">
                <ele>3.50000</ele>
            </trkpt>
            <trkpt lat="45.153656" lon="14.534339">
                <ele>3.20000</ele>
            </trkpt>
            <trkpt lat="45.153820" lon="14.533934">
                <ele>2.20000</ele>
            </trkpt>
            <trkpt lat="45.154062" lon="14.533676">
                <ele>1.40000</ele>
            </trkpt>
            <trkpt lat="45.154260" lon="14.533598">
                <ele>1.40000</ele>
            </trkpt>
            <trkpt lat="45.154668" lon="14.533500">
                <ele>2.20000</ele>
            </trkpt>
            <trkpt lat="45.154896" lon="14.533448">
                <ele>2.50000</ele>
            </trkpt>
            <trkpt lat="45.154910" lon="14.533445">
                <ele>2.50000</ele>
            </trkpt>
            <trkpt lat="45.155266" lon="14.533487">
                <ele>2.50000</ele>
            </trkpt>
            <trkpt lat="45.155516" lon="14.533810">
                <ele>4.60000</ele>
            </trkpt>
            <trkpt lat="45.155944" lon="14.533772">
                <ele>3.20000</ele>
            </trkpt>
            <trkpt lat="45.156098" lon="14.534004">
                <ele>4.50000</ele>
            </trkpt>
            <trkpt lat="45.156258" lon="14.534334">
                <ele>5.30000</ele>
            </trkpt>
            <trkpt lat="45.156409" lon="14.534598">
                <ele>5.40000</ele>
            </trkpt>
            <trkpt lat="45.156612" lon="14.534784">
                <ele>5.0</ele>
            </trkpt>
            <trkpt lat="45.156846" lon="14.534760">
                <ele>3.90000</ele>
            </trkpt>
            <trkpt lat="45.156972" lon="14.534768">
                <ele>3.50000</ele>
            </trkpt>
            <trkpt lat="45.157060" lon="14.534718">
                <ele>3.0</ele>
            </trkpt>
            <trkpt lat="45.157166" lon="14.534662">
                <ele>2.40000</ele>
            </trkpt>
            <trkpt lat="45.157166" lon="14.534662">
                <ele>2.40000</ele>
            </trkpt>
            <trkpt lat="45.157268" lon="14.534608">
                <ele>1.90000</ele>
            </trkpt>
            <trkpt lat="45.157413" lon="14.534614">
                <ele>1.70000</ele>
            </trkpt>
            <trkpt lat="45.157720" lon="14.534752">
                <ele>2.10000</ele>
            </trkpt>
            <trkpt lat="45.157836" lon="14.534884">
                <ele>2.90000</ele>
            </trkpt>
            <trkpt lat="45.157890" lon="14.534898">
                <ele>3.0</ele>
            </trkpt>
            <trkpt lat="45.158011" lon="14.534885">
                <ele>2.90000</ele>
            </trkpt>
            <trkpt lat="45.158039" lon="14.534888">
                <ele>2.90000</ele>
            </trkpt>
            <trkpt lat="45.158082" lon="14.534894">
                <ele>2.90000</ele>
            </trkpt>
            <trkpt lat="45.158148" lon="14.534920">
                <ele>3.0</ele>
            </trkpt>
            <trkpt lat="45.158192" lon="14.534977">
                <ele>3.20000</ele>
            </trkpt>
            <trkpt lat="45.158266" lon="14.534988">
                <ele>3.10000</ele>
            </trkpt>
            <trkpt lat="45.158372" lon="14.535021">
                <ele>3.0</ele>
            </trkpt>
            <trkpt lat="45.158434" lon="14.535071">
                <ele>3.0</ele>
            </trkpt>
            <trkpt lat="45.158620" lon="14.535031">
                <ele>1.50000</ele>
            </trkpt>
            <trkpt lat="45.158852" lon="14.535084">
                <ele>0.10000</ele>
            </trkpt>
            <trkpt lat="45.159062" lon="14.535180">
                <ele>-0.30000</ele>
            </trkpt>
            <trkpt lat="45.159106" lon="14.535215">
                <ele>-0.10000</ele>
            </trkpt>
            <trkpt lat="45.159167" lon="14.535222">
                <ele>-0.20000</ele>
            </trkpt>
            <trkpt lat="45.159313" lon="14.535278">
                <ele>0.20000</ele>
            </trkpt>
            <trkpt lat="45.159372" lon="14.535341">
                <ele>0.80000</ele>
            </trkpt>
            <trkpt lat="45.159453" lon="14.535395">
                <ele>1.30000</ele>
            </trkpt>
            <trkpt lat="45.159785" lon="14.535782">
                <ele>3.10000</ele>
            </trkpt>
            <trkpt lat="45.159908" lon="14.535945">
                <ele>2.90000</ele>
            </trkpt>
            <trkpt lat="45.160012" lon="14.536083">
                <ele>2.70000</ele>
            </trkpt>
            <trkpt lat="45.160297" lon="14.536331">
                <ele>1.10000</ele>
            </trkpt>
            <trkpt lat="45.160485" lon="14.536528">
                <ele>-0.10000</ele>
            </trkpt>
            <trkpt lat="45.160674" lon="14.536725">
                <ele>-0.80000</ele>
            </trkpt>
            <trkpt lat="45.160820" lon="14.536875">
                <ele>-0.60000</ele>
            </trkpt>
            <trkpt lat="45.161024" lon="14.537182">
                <ele>0.80000</ele>
            </trkpt>
            <trkpt lat="45.161320" lon="14.537431">
                <ele>-1.20000</ele>
            </trkpt>
            <trkpt lat="45.161578" lon="14.537772">
                <ele>-1.90000</ele>
            </trkpt>
            <trkpt lat="45.161578" lon="14.537772">
                <ele>-1.90000</ele>
            </trkpt>
            <trkpt lat="45.161437" lon="14.537636">
                <ele>-1.20000</ele>
            </trkpt>
            <trkpt lat="45.161578" lon="14.537772">
                <ele>-1.90000</ele>
            </trkpt>
            <trkpt lat="45.161578" lon="14.537772">
                <ele>-1.90000</ele>
            </trkpt>
            <trkpt lat="45.161691" lon="14.537869">
                <ele>-1.80000</ele>
            </trkpt>
            <trkpt lat="45.161758" lon="14.537963">
                <ele>-1.30000</ele>
            </trkpt>
            <trkpt lat="45.161837" lon="14.538084">
                <ele>-0.60000</ele>
            </trkpt>
            <trkpt lat="45.161555" lon="14.538453">
                <ele>5.20000</ele>
            </trkpt>
            <trkpt lat="45.161217" lon="14.538762">
                <ele>13.0</ele>
            </trkpt>
            <trkpt lat="45.161029" lon="14.538385">
                <ele>10.90000</ele>
            </trkpt>
            <trkpt lat="45.160971" lon="14.538270">
                <ele>10.60000</ele>
            </trkpt>
            <trkpt lat="45.160840" lon="14.538008">
                <ele>9.90000</ele>
            </trkpt>
            <trkpt lat="45.160565" lon="14.537652">
                <ele>11.30000</ele>
            </trkpt>
            <trkpt lat="45.160565" lon="14.537652">
                <ele>11.30000</ele>
            </trkpt>
            <trkpt lat="45.160310" lon="14.537351">
                <ele>11.70000</ele>
            </trkpt>
            <trkpt lat="45.160055" lon="14.537051">
                <ele>10.50000</ele>
            </trkpt>
            <trkpt lat="45.159743" lon="14.536895">
                <ele>12.40000</ele>
            </trkpt>
            <trkpt lat="45.159432" lon="14.536739">
                <ele>15.0</ele>
            </trkpt>
            <trkpt lat="45.159127" lon="14.536606">
                <ele>16.60000</ele>
            </trkpt>
            <trkpt lat="45.159002" lon="14.536550">
                <ele>16.50000</ele>
            </trkpt>
            <trkpt lat="45.158683" lon="14.536415">
                <ele>15.40000</ele>
            </trkpt>
            <trkpt lat="45.158363" lon="14.536279">
                <ele>14.10000</ele>
            </trkpt>
            <trkpt lat="45.158043" lon="14.536143">
                <ele>14.20000</ele>
            </trkpt>
            <trkpt lat="45.157992" lon="14.536122">
                <ele>14.30000</ele>
            </trkpt>
            <trkpt lat="45.158156" lon="14.535531">
                <ele>8.0</ele>
            </trkpt>
            <trkpt lat="45.157813" lon="14.535643">
                <ele>10.80000</ele>
            </trkpt>
            <trkpt lat="45.157469" lon="14.535754">
                <ele>13.20000</ele>
            </trkpt>
            <trkpt lat="45.157126" lon="14.535866">
                <ele>13.50000</ele>
            </trkpt>
            <trkpt lat="45.156899" lon="14.535896">
                <ele>12.90000</ele>
            </trkpt>
            <trkpt lat="45.156561" lon="14.535897">
                <ele>12.80000</ele>
            </trkpt>
            <trkpt lat="45.156223" lon="14.535897">
                <ele>14.40000</ele>
            </trkpt>
            <trkpt lat="45.155884" lon="14.535898">
                <ele>16.30000</ele>
            </trkpt>
            <trkpt lat="45.155627" lon="14.535899">
                <ele>17.60000</ele>
            </trkpt>
            <trkpt lat="45.155370" lon="14.535900">
                <ele>19.10000</ele>
            </trkpt>
            <trkpt lat="45.154980" lon="14.535883">
                <ele>20.40000</ele>
            </trkpt>
            <trkpt lat="45.154753" lon="14.535884">
                <ele>20.20000</ele>
            </trkpt>
            <trkpt lat="45.154526" lon="14.535886">
                <ele>19.60000</ele>
            </trkpt>
            <trkpt lat="45.154628" lon="14.536363">
                <ele>23.50000</ele>
            </trkpt>
            <trkpt lat="45.154731" lon="14.536842">
                <ele>27.0</ele>
            </trkpt>
            <trkpt lat="45.154565" lon="14.536903">
                <ele>27.10000</ele>
            </trkpt>
            <trkpt lat="45.154447" lon="14.537015">
                <ele>27.70000</ele>
            </trkpt>
            <trkpt lat="45.154356" lon="14.537278">
                <ele>29.30000</ele>
            </trkpt>
            <trkpt lat="45.154333" lon="14.537396">
                <ele>30.10000</ele>
            </trkpt>
            <trkpt lat="45.154040" lon="14.537440">
                <ele>30.80000</ele>
            </trkpt>
            <trkpt lat="45.153821" lon="14.537425">
                <ele>31.40000</ele>
            </trkpt>
            <trkpt lat="45.153527" lon="14.537444">
                <ele>32.70000</ele>
            </trkpt>
            <trkpt lat="45.153232" lon="14.537463">
                <ele>34.0</ele>
            </trkpt>
            <trkpt lat="45.153057" lon="14.537473">
                <ele>34.80000</ele>
            </trkpt>
            <trkpt lat="45.153052" lon="14.537474">
                <ele>34.90000</ele>
            </trkpt>
            <trkpt lat="45.152895" lon="14.538009">
                <ele>39.70000</ele>
            </trkpt>
            <trkpt lat="45.152809" lon="14.538244">
                <ele>41.70000</ele>
            </trkpt>
            <trkpt lat="45.152721" lon="14.538280">
                <ele>42.10000</ele>
            </trkpt>
            <trkpt lat="45.152711" lon="14.538703">
                <ele>46.50000</ele>
            </trkpt>
            <trkpt lat="45.152701" lon="14.539125">
                <ele>51.10000</ele>
            </trkpt>
            <trkpt lat="45.152693" lon="14.539524">
                <ele>54.30000</ele>
            </trkpt>
            <trkpt lat="45.152618" lon="14.539930">
                <ele>57.20000</ele>
            </trkpt>
            <trkpt lat="45.152436" lon="14.540351">
                <ele>60.90000</ele>
            </trkpt>
            <trkpt lat="45.152141" lon="14.540482">
                <ele>63.0</ele>
            </trkpt>
            <trkpt lat="45.152005" lon="14.540954">
                <ele>68.0</ele>
            </trkpt>
            <trkpt lat="45.151767" lon="14.540883">
                <ele>68.90000</ele>
            </trkpt>
            <trkpt lat="45.151501" lon="14.540863">
                <ele>70.20000</ele>
            </trkpt>
            <trkpt lat="45.151235" lon="14.540843">
                <ele>71.40000</ele>
            </trkpt>
            <trkpt lat="45.150846" lon="14.540819">
                <ele>72.80000</ele>
            </trkpt>
            <trkpt lat="45.150648" lon="14.540713">
                <ele>72.20000</ele>
            </trkpt>
            <trkpt lat="45.150254" lon="14.540452">
                <ele>71.20000</ele>
            </trkpt>
            <trkpt lat="45.149954" lon="14.540393">
                <ele>72.0</ele>
            </trkpt>
            <trkpt lat="45.149553" lon="14.540493">
                <ele>72.70000</ele>
            </trkpt>
            <trkpt lat="45.149421" lon="14.540590">
                <ele>73.10000</ele>
            </trkpt>
            <trkpt lat="45.149217" lon="14.540697">
                <ele>73.40000</ele>
            </trkpt>
            <trkpt lat="45.149168" lon="14.540616">
                <ele>73.0</ele>
            </trkpt>
            <trkpt lat="45.149069" lon="14.540627">
                <ele>73.0</ele>
            </trkpt>
            <trkpt lat="45.149010" lon="14.540732">
                <ele>73.40000</ele>
            </trkpt>
            <trkpt lat="45.148772" lon="14.540805">
                <ele>73.50000</ele>
            </trkpt>
            <trkpt lat="45.148722" lon="14.541021">
                <ele>74.30000</ele>
            </trkpt>
            <trkpt lat="45.148670" lon="14.541254">
                <ele>75.10000</ele>
            </trkpt>
            <trkpt lat="45.148493" lon="14.541525">
                <ele>75.80000</ele>
            </trkpt>
            <trkpt lat="45.148457" lon="14.541579">
                <ele>75.90000</ele>
            </trkpt>
            <trkpt lat="45.148244" lon="14.541904">
                <ele>76.10000</ele>
            </trkpt>
            <trkpt lat="45.148290" lon="14.542335">
                <ele>76.10000</ele>
            </trkpt>
            <trkpt lat="45.148335" lon="14.542767">
                <ele>75.60000</ele>
            </trkpt>
            <trkpt lat="45.148410" lon="14.543220">
                <ele>74.90000</ele>
            </trkpt>
            <trkpt lat="45.148486" lon="14.543673">
                <ele>75.90000</ele>
            </trkpt>
            <trkpt lat="45.148561" lon="14.544126">
                <ele>77.60000</ele>
            </trkpt>
            <trkpt lat="45.148487" lon="14.544633">
                <ele>79.0</ele>
            </trkpt>
            <trkpt lat="45.148400" lon="14.544772">
                <ele>79.40000</ele>
            </trkpt>
            <trkpt lat="45.148400" lon="14.544772">
                <ele>79.40000</ele>
            </trkpt>
            <trkpt lat="45.148138" lon="14.544591">
                <ele>79.40000</ele>
            </trkpt>
            <trkpt lat="45.147976" lon="14.544383">
                <ele>79.10000</ele>
            </trkpt>
            <trkpt lat="45.147710" lon="14.544340">
                <ele>79.30000</ele>
            </trkpt>
            <trkpt lat="45.147444" lon="14.544297">
                <ele>79.20000</ele>
            </trkpt>
            <trkpt lat="45.147185" lon="14.544230">
                <ele>78.80000</ele>
            </trkpt>
            <trkpt lat="45.146926" lon="14.544164">
                <ele>78.20000</ele>
            </trkpt>
            <trkpt lat="45.146491" lon="14.544011">
                <ele>77.90000</ele>
            </trkpt>
            <trkpt lat="45.146152" lon="14.543918">
                <ele>78.40000</ele>
            </trkpt>
            <trkpt lat="45.145730" lon="14.543892">
                <ele>78.60000</ele>
            </trkpt>
            <trkpt lat="45.145393" lon="14.543871">
                <ele>78.10000</ele>
            </trkpt>
            <trkpt lat="45.145309" lon="14.543866">
                <ele>78.0</ele>
            </trkpt>
            <trkpt lat="45.144994" lon="14.543931">
                <ele>78.10000</ele>
            </trkpt>
            <trkpt lat="45.144679" lon="14.543996">
                <ele>78.60000</ele>
            </trkpt>
            <trkpt lat="45.144454" lon="14.544005">
                <ele>78.90000</ele>
            </trkpt>
            <trkpt lat="45.144164" lon="14.543977">
                <ele>79.40000</ele>
            </trkpt>
            <trkpt lat="45.143874" lon="14.543950">
                <ele>80.0</ele>
            </trkpt>
            <trkpt lat="45.143745" lon="14.543889">
                <ele>80.20000</ele>
            </trkpt>
            <trkpt lat="45.143679" lon="14.543818">
                <ele>80.20000</ele>
            </trkpt>
            <trkpt lat="45.143345" lon="14.543757">
                <ele>81.30000</ele>
            </trkpt>
            <trkpt lat="45.143012" lon="14.543697">
                <ele>82.80000</ele>
            </trkpt>
            <trkpt lat="45.142678" lon="14.543637">
                <ele>84.70000</ele>
            </trkpt>
            <trkpt lat="45.142490" lon="14.543620">
                <ele>86.0</ele>
            </trkpt>
            <trkpt lat="45.142264" lon="14.543551">
                <ele>87.90000</ele>
            </trkpt>
            <trkpt lat="45.142038" lon="14.543482">
                <ele>90.0</ele>
            </trkpt>
            <trkpt lat="45.141792" lon="14.543452">
                <ele>92.10000</ele>
            </trkpt>
            <trkpt lat="45.141585" lon="14.543383">
                <ele>93.50000</ele>
            </trkpt>
            <trkpt lat="45.141383" lon="14.543341">
                <ele>94.70000</ele>
            </trkpt>
            <trkpt lat="45.141312" lon="14.543278">
                <ele>95.10000</ele>
            </trkpt>
            <trkpt lat="45.140931" lon="14.543093">
                <ele>96.90000</ele>
            </trkpt>
            <trkpt lat="45.140611" lon="14.542748">
                <ele>97.70000</ele>
            </trkpt>
            <trkpt lat="45.140346" lon="14.542612">
                <ele>98.20000</ele>
            </trkpt>
            <trkpt lat="45.140138" lon="14.542447">
                <ele>98.60000</ele>
            </trkpt>
            <trkpt lat="45.139929" lon="14.542282">
                <ele>99.20000</ele>
            </trkpt>
            <trkpt lat="45.139651" lon="14.542141">
                <ele>99.90000</ele>
            </trkpt>
            <trkpt lat="45.139394" lon="14.542097">
                <ele>100.40000</ele>
            </trkpt>
            <trkpt lat="45.139138" lon="14.542053">
                <ele>100.90000</ele>
            </trkpt>
            <trkpt lat="45.138847" lon="14.542126">
                <ele>102.30000</ele>
            </trkpt>
            <trkpt lat="45.138721" lon="14.542138">
                <ele>102.90000</ele>
            </trkpt>
            <trkpt lat="45.138578" lon="14.542150">
                <ele>103.60000</ele>
            </trkpt>
            <trkpt lat="45.138308" lon="14.542175">
                <ele>104.40000</ele>
            </trkpt>
            <trkpt lat="45.138108" lon="14.542175">
                <ele>104.40000</ele>
            </trkpt>
            <trkpt lat="45.137797" lon="14.542225">
                <ele>104.0</ele>
            </trkpt>
            <trkpt lat="45.137488" lon="14.542239">
                <ele>103.70000</ele>
            </trkpt>
            <trkpt lat="45.137179" lon="14.542252">
                <ele>104.20000</ele>
            </trkpt>
            <trkpt lat="45.136907" lon="14.542187">
                <ele>104.60000</ele>
            </trkpt>
            <trkpt lat="45.136638" lon="14.542158">
                <ele>104.90000</ele>
            </trkpt>
            <trkpt lat="45.136200" lon="14.542172">
                <ele>105.10000</ele>
            </trkpt>
            <trkpt lat="45.135794" lon="14.542221">
                <ele>104.80000</ele>
            </trkpt>
            <trkpt lat="45.135619" lon="14.542147">
                <ele>104.10000</ele>
            </trkpt>
            <trkpt lat="45.135357" lon="14.542072">
                <ele>102.80000</ele>
            </trkpt>
            <trkpt lat="45.135095" lon="14.541996">
                <ele>101.80000</ele>
            </trkpt>
            <trkpt lat="45.134735" lon="14.541961">
                <ele>101.50000</ele>
            </trkpt>
            <trkpt lat="45.134374" lon="14.541927">
                <ele>101.60000</ele>
            </trkpt>
            <trkpt lat="45.134038" lon="14.541861">
                <ele>101.0</ele>
            </trkpt>
            <trkpt lat="45.133702" lon="14.541795">
                <ele>99.70000</ele>
            </trkpt>
            <trkpt lat="45.133366" lon="14.541729">
                <ele>98.20000</ele>
            </trkpt>
            <trkpt lat="45.133117" lon="14.541585">
                <ele>96.90000</ele>
            </trkpt>
            <trkpt lat="45.132830" lon="14.541388">
                <ele>95.20000</ele>
            </trkpt>
            <trkpt lat="45.132619" lon="14.541277">
                <ele>93.90000</ele>
            </trkpt>
            <trkpt lat="45.132373" lon="14.541183">
                <ele>92.40000</ele>
            </trkpt>
            <trkpt lat="45.132117" lon="14.541185">
                <ele>91.0</ele>
            </trkpt>
            <trkpt lat="45.131860" lon="14.541187">
                <ele>89.80000</ele>
            </trkpt>
            <trkpt lat="45.131825" lon="14.541216">
                <ele>89.80000</ele>
            </trkpt>
            <trkpt lat="45.131638" lon="14.541392">
                <ele>90.30000</ele>
            </trkpt>
            <trkpt lat="45.131638" lon="14.541392">
                <ele>90.30000</ele>
            </trkpt>
            <trkpt lat="45.131860" lon="14.541696">
                <ele>92.50000</ele>
            </trkpt>
            <trkpt lat="45.132026" lon="14.542145">
                <ele>95.60000</ele>
            </trkpt>
            <trkpt lat="45.132103" lon="14.542546">
                <ele>98.40000</ele>
            </trkpt>
            <trkpt lat="45.132181" lon="14.542947">
                <ele>100.70000</ele>
            </trkpt>
            <trkpt lat="45.132337" lon="14.543421">
                <ele>103.30000</ele>
            </trkpt>
            <trkpt lat="45.132212" lon="14.543514">
                <ele>103.60000</ele>
            </trkpt>
            <trkpt lat="45.132100" lon="14.543530">
                <ele>103.60000</ele>
            </trkpt>
            <trkpt lat="45.131955" lon="14.543462">
                <ele>103.0</ele>
            </trkpt>
            <trkpt lat="45.131652" lon="14.543359">
                <ele>102.10000</ele>
            </trkpt>
            <trkpt lat="45.131349" lon="14.543255">
                <ele>101.20000</ele>
            </trkpt>
            <trkpt lat="45.131025" lon="14.543238">
                <ele>100.70000</ele>
            </trkpt>
            <trkpt lat="45.130701" lon="14.543221">
                <ele>99.80000</ele>
            </trkpt>
            <trkpt lat="45.130291" lon="14.543174">
                <ele>98.0</ele>
            </trkpt>
            <trkpt lat="45.129881" lon="14.543126">
                <ele>96.40000</ele>
            </trkpt>
            <trkpt lat="45.129471" lon="14.543079">
                <ele>95.20000</ele>
            </trkpt>
            <trkpt lat="45.129060" lon="14.543032">
                <ele>94.10000</ele>
            </trkpt>
            <trkpt lat="45.128626" lon="14.542962">
                <ele>92.50000</ele>
            </trkpt>
            <trkpt lat="45.128191" lon="14.542892">
                <ele>91.0</ele>
            </trkpt>
            <trkpt lat="45.127884" lon="14.542828">
                <ele>90.0</ele>
            </trkpt>
            <trkpt lat="45.127721" lon="14.542800">
                <ele>89.40000</ele>
            </trkpt>
            <trkpt lat="45.127626" lon="14.542786">
                <ele>89.10000</ele>
            </trkpt>
            <trkpt lat="45.127292" lon="14.542719">
                <ele>87.90000</ele>
            </trkpt>
            <trkpt lat="45.126957" lon="14.542652">
                <ele>86.70000</ele>
            </trkpt>
            <trkpt lat="45.126686" lon="14.542564">
                <ele>85.50000</ele>
            </trkpt>
            <trkpt lat="45.126416" lon="14.542476">
                <ele>84.70000</ele>
            </trkpt>
            <trkpt lat="45.126066" lon="14.542398">
                <ele>84.30000</ele>
            </trkpt>
            <trkpt lat="45.126061" lon="14.542266">
                <ele>83.20000</ele>
            </trkpt>
            <trkpt lat="45.126077" lon="14.542242">
                <ele>83.0</ele>
            </trkpt>
        </trkseg>
    </trk>
</gpx>
