<?xml version="1.0" encoding="UTF-8"?>
<gpx version="1.1"
creator="Smartprofil-Office - http://www.rother.de"
xmlns:xsi="http://www.w3.org/2001/XMLSchema-instance"
xmlns="http://www.topografix.com/GPX/1/1"
xsi:schemaLocation="http://www.topografix.com/GPX/1/1 http://www.topografix.com/GPX/1/1/gpx.xsd">
<metadata>

<bounds minlat="40.633209748193622" minlon="14.476225040853024" maxlat="40.670951027423143" maxlon="14.4989949837327"/>
</metadata>
<wpt lat="40.633275965228677" lon="14.492820035666227">
<ele>352</ele>
<name>28_Montepertuso (1)</name>
<cmt></cmt>
<desc></desc>
<sym>Crossing</sym>
</wpt>

<wpt lat="40.63893299549818" lon="14.493984030559659">
<ele>767</ele>
<name>28_Caserma Forestale (2)</name>
<cmt></cmt>
<desc></desc>
<sym>Crossing</sym>
</wpt>

<wpt lat="40.646442845463753" lon="14.496428361162543">
<ele>1310</ele>
<name>28_Conocchia (3)</name>
<cmt></cmt>
<desc></desc>
<sym>Crossing</sym>
</wpt>

<wpt lat="40.65805597230792" lon="14.493609024211764">
<ele>1158</ele>
<name>28_Campo del Pero (4)</name>
<cmt></cmt>
<desc></desc>
<sym>Crossing</sym>
</wpt>

<wpt lat="40.658424021676183" lon="14.498454015702009">
<ele>1278</ele>
<name>28_Capella S. Michele (5)</name>
<cmt></cmt>
<desc></desc>
<sym>Crossing</sym>
</wpt>

<wpt lat="40.670951027423143" lon="14.476225040853024">
<ele>1102</ele>
<name>28_Stazione M. Faito (6)</name>
<cmt></cmt>
<desc></desc>
<sym>Crossing</sym>
</wpt>

<trk>
<name>Neapel_28_Positano - Monte Faito</name>
<trkseg>
<trkpt lat="40.633275965228677" lon="14.492820035666227">
<ele>352</ele>
</trkpt>
<trkpt lat="40.633209748193622" lon="14.49298239313066">
<ele>353</ele>
</trkpt>
<trkpt lat="40.633246125653386" lon="14.493049280717969">
<ele>354</ele>
</trkpt>
<trkpt lat="40.633271774277091" lon="14.493071073666215">
<ele>355</ele>
</trkpt>
<trkpt lat="40.63339532352984" lon="14.493235275149345">
<ele>356</ele>
</trkpt>
<trkpt lat="40.633496157824993" lon="14.493336863815784">
<ele>358</ele>
</trkpt>
<trkpt lat="40.633509820327163" lon="14.493378018960357">
<ele>359</ele>
</trkpt>
<trkpt lat="40.633555334061384" lon="14.493493186309934">
<ele>360</ele>
</trkpt>
<trkpt lat="40.633604200556874" lon="14.4935951102525">
<ele>361</ele>
</trkpt>
<trkpt lat="40.633629597723484" lon="14.49368798173964">
<ele>362</ele>
</trkpt>
<trkpt lat="40.633667651563883" lon="14.493801724165678">
<ele>363</ele>
</trkpt>
<trkpt lat="40.633783238008618" lon="14.493952514603734">
<ele>364</ele>
</trkpt>
<trkpt lat="40.633835792541504" lon="14.493971709161997">
<ele>365</ele>
</trkpt>
<trkpt lat="40.633974345400929" lon="14.493926363065839">
<ele>367</ele>
</trkpt>
<trkpt lat="40.634120274335146" lon="14.49404563754797">
<ele>368</ele>
</trkpt>
<trkpt lat="40.634099235758185" lon="14.494239930063486">
<ele>369</ele>
</trkpt>
<trkpt lat="40.63403838314116" lon="14.494569171220064">
<ele>370</ele>
</trkpt>
<trkpt lat="40.633910810574889" lon="14.494755836203694">
<ele>371</ele>
</trkpt>
<trkpt lat="40.633750883862376" lon="14.494773186743259">
<ele>373</ele>
</trkpt>
<trkpt lat="40.633703945204616" lon="14.494701102375984">
<ele>374</ele>
</trkpt>
<trkpt lat="40.633581569418311" lon="14.494714261963964">
<ele>375</ele>
</trkpt>
<trkpt lat="40.633540581911802" lon="14.494725661352277">
<ele>378</ele>
</trkpt>
<trkpt lat="40.633350480347872" lon="14.494764804840088">
<ele>382</ele>
</trkpt>
<trkpt lat="40.633308989927173" lon="14.494857005774975">
<ele>385</ele>
</trkpt>
<trkpt lat="40.633406639099121" lon="14.494836386293173">
<ele>388</ele>
</trkpt>
<trkpt lat="40.633367160335183" lon="14.494907464832067">
<ele>392</ele>
</trkpt>
<trkpt lat="40.633369004353881" lon="14.494919702410698">
<ele>395</ele>
</trkpt>
<trkpt lat="40.633407728746533" lon="14.494923558086157">
<ele>398</ele>
</trkpt>
<trkpt lat="40.633457852527499" lon="14.49495985172689">
<ele>401</ele>
</trkpt>
<trkpt lat="40.633513508364558" lon="14.495080718770623">
<ele>405</ele>
</trkpt>
<trkpt lat="40.633543515577912" lon="14.495199657976627">
<ele>408</ele>
</trkpt>
<trkpt lat="40.63363722525537" lon="14.495307197794318">
<ele>412</ele>
</trkpt>
<trkpt lat="40.633684247732162" lon="14.495396800339222">
<ele>417</ele>
</trkpt>
<trkpt lat="40.633688857778907" lon="14.495506854727864">
<ele>421</ele>
</trkpt>
<trkpt lat="40.63375742174685" lon="14.495590422302485">
<ele>426</ele>
</trkpt>
<trkpt lat="40.63381165266037" lon="14.495701398700476">
<ele>430</ele>
</trkpt>
<trkpt lat="40.633826740086079" lon="14.4958003051579">
<ele>434</ele>
</trkpt>
<trkpt lat="40.633857836946845" lon="14.495821176096797">
<ele>439</ele>
</trkpt>
<trkpt lat="40.633951546624303" lon="14.495961153879762">
<ele>443</ele>
</trkpt>
<trkpt lat="40.634034276008606" lon="14.496041871607304">
<ele>448</ele>
</trkpt>
<trkpt lat="40.634052380919456" lon="14.496029047295451">
<ele>452</ele>
</trkpt>
<trkpt lat="40.634126896038651" lon="14.496023263782263">
<ele>455</ele>
</trkpt>
<trkpt lat="40.634220857173204" lon="14.496094677597284">
<ele>458</ele>
</trkpt>
<trkpt lat="40.634178863838315" lon="14.496145555749536">
<ele>461</ele>
</trkpt>
<trkpt lat="40.634119603782892" lon="14.496201798319817">
<ele>464</ele>
</trkpt>
<trkpt lat="40.634145336225629" lon="14.496228117495775">
<ele>467</ele>
</trkpt>
<trkpt lat="40.634189005941153" lon="14.496326101943851">
<ele>470</ele>
</trkpt>
<trkpt lat="40.63417324796319" lon="14.496415704488754">
<ele>473</ele>
</trkpt>
<trkpt lat="40.634141564369202" lon="14.496484855189919">
<ele>476</ele>
</trkpt>
<trkpt lat="40.63423627987504" lon="14.496499188244343">
<ele>479</ele>
</trkpt>
<trkpt lat="40.634225299581885" lon="14.496528944000602">
<ele>482</ele>
</trkpt>
<trkpt lat="40.634191520512104" lon="14.496601279824972">
<ele>487</ele>
</trkpt>
<trkpt lat="40.63416687771678" lon="14.496721057221293">
<ele>492</ele>
</trkpt>
<trkpt lat="40.634217336773872" lon="14.496766738593578">
<ele>497</ele>
</trkpt>
<trkpt lat="40.63424801453948" lon="14.496860867366195">
<ele>502</ele>
</trkpt>
<trkpt lat="40.634327307343483" lon="14.496989697217941">
<ele>506</ele>
</trkpt>
<trkpt lat="40.634401319548488" lon="14.497089693322778">
<ele>511</ele>
</trkpt>
<trkpt lat="40.634477930143476" lon="14.497216679155827">
<ele>516</ele>
</trkpt>
<trkpt lat="40.634530065581203" lon="14.497331343591213">
<ele>521</ele>
</trkpt>
<trkpt lat="40.634535765275359" lon="14.497430166229606">
<ele>526</ele>
</trkpt>
<trkpt lat="40.63455387018621" lon="14.497649688273668">
<ele>531</ele>
</trkpt>
<trkpt lat="40.6345768366009" lon="14.497743146494031">
<ele>534</ele>
</trkpt>
<trkpt lat="40.634633246809244" lon="14.497900139540434">
<ele>537</ele>
</trkpt>
<trkpt lat="40.634679095819592" lon="14.497999800369143">
<ele>540</ele>
</trkpt>
<trkpt lat="40.63468873500824" lon="14.498157380148768">
<ele>543</ele>
</trkpt>
<trkpt lat="40.634692506864667" lon="14.498265758156776">
<ele>546</ele>
</trkpt>
<trkpt lat="40.634693261235952" lon="14.498375141993165">
<ele>550</ele>
</trkpt>
<trkpt lat="40.63466333784163" lon="14.498430294916034">
<ele>553</ele>
</trkpt>
<trkpt lat="40.634692506864667" lon="14.498580666258931">
<ele>556</ele>
</trkpt>
<trkpt lat="40.634815720841289" lon="14.498584773391485">
<ele>559</ele>
</trkpt>
<trkpt lat="40.634886715561152" lon="14.498522495850921">
<ele>562</ele>
</trkpt>
<trkpt lat="40.634925356134772" lon="14.498407663777471">
<ele>565</ele>
</trkpt>
<trkpt lat="40.634948993101716" lon="14.498369693756104">
<ele>568</ele>
</trkpt>
<trkpt lat="40.63490079715848" lon="14.498207671567798">
<ele>571</ele>
</trkpt>
<trkpt lat="40.63500146381557" lon="14.498309260234237">
<ele>574</ele>
</trkpt>
<trkpt lat="40.634986376389861" lon="14.498363491147757">
<ele>578</ele>
</trkpt>
<trkpt lat="40.63502979464829" lon="14.498414369300008">
<ele>581</ele>
</trkpt>
<trkpt lat="40.63507673330605" lon="14.49833725579083">
<ele>584</ele>
</trkpt>
<trkpt lat="40.635143872350454" lon="14.498266344889998">
<ele>587</ele>
</trkpt>
<trkpt lat="40.635228781029582" lon="14.4981799274683">
<ele>590</ele>
</trkpt>
<trkpt lat="40.635289885103703" lon="14.498169617727399">
<ele>593</ele>
</trkpt>
<trkpt lat="40.635405639186502" lon="14.498112453147769">
<ele>596</ele>
</trkpt>
<trkpt lat="40.635537821799517" lon="14.497924782335758">
<ele>598</ele>
</trkpt>
<trkpt lat="40.6356440205127" lon="14.497721688821912">
<ele>601</ele>
</trkpt>
<trkpt lat="40.635697413235903" lon="14.497537957504392">
<ele>603</ele>
</trkpt>
<trkpt lat="40.635702861472964" lon="14.497614903375506">
<ele>606</ele>
</trkpt>
<trkpt lat="40.635690204799175" lon="14.497702829539776">
<ele>609</ele>
</trkpt>
<trkpt lat="40.635678889229894" lon="14.497738787904382">
<ele>611</ele>
</trkpt>
<trkpt lat="40.635692803189158" lon="14.497871389612556">
<ele>614</ele>
</trkpt>
<trkpt lat="40.635764468461275" lon="14.497843645513058">
<ele>616</ele>
</trkpt>
<trkpt lat="40.635750722140074" lon="14.497918579727411">
<ele>619</ele>
</trkpt>
<trkpt lat="40.635744351893663" lon="14.49808269739151">
<ele>622</ele>
</trkpt>
<trkpt lat="40.635719457641244" lon="14.498193254694343">
<ele>625</ele>
</trkpt>
<trkpt lat="40.635679895058274" lon="14.498317306861281">
<ele>628</ele>
</trkpt>
<trkpt lat="40.63567478209734" lon="14.498320911079645">
<ele>631</ele>
</trkpt>
<trkpt lat="40.635607056319714" lon="14.498460050672293">
<ele>634</ele>
</trkpt>
<trkpt lat="40.635676626116037" lon="14.498489554971457">
<ele>636</ele>
</trkpt>
<trkpt lat="40.63574125058949" lon="14.498403472825885">
<ele>639</ele>
</trkpt>
<trkpt lat="40.635801097378135" lon="14.49835292994976">
<ele>642</ele>
</trkpt>
<trkpt lat="40.635902350768447" lon="14.498350583016872">
<ele>645</ele>
</trkpt>
<trkpt lat="40.635994635522366" lon="14.498224183917046">
<ele>648</ele>
</trkpt>
<trkpt lat="40.636064121499658" lon="14.498169617727399">
<ele>650</ele>
</trkpt>
<trkpt lat="40.636132098734379" lon="14.498066268861294">
<ele>653</ele>
</trkpt>
<trkpt lat="40.636187754571438" lon="14.49792729690671">
<ele>655</ele>
</trkpt>
<trkpt lat="40.63627534545958" lon="14.497756641358137">
<ele>658</ele>
</trkpt>
<trkpt lat="40.636361176148057" lon="14.497596127912402">
<ele>660</ele>
</trkpt>
<trkpt lat="40.636452455073595" lon="14.497436787933111">
<ele>662</ele>
</trkpt>
<trkpt lat="40.636623948812485" lon="14.497385071590543">
<ele>665</ele>
</trkpt>
<trkpt lat="40.636661751195788" lon="14.497164292261004">
<ele>667</ele>
</trkpt>
<trkpt lat="40.636725034564734" lon="14.497139984741807">
<ele>670</ele>
</trkpt>
<trkpt lat="40.636738361790776" lon="14.49705851264298">
<ele>672</ele>
</trkpt>
<trkpt lat="40.636745905503631" lon="14.496744107455015">
<ele>672</ele>
</trkpt>
<trkpt lat="40.636830814182758" lon="14.496525004506111">
<ele>673</ele>
</trkpt>
<trkpt lat="40.636905916035175" lon="14.496458452194929">
<ele>674</ele>
</trkpt>
<trkpt lat="40.637084953486919" lon="14.496337249875069">
<ele>674</ele>
</trkpt>
<trkpt lat="40.637249825522304" lon="14.496213616803288">
<ele>674</ele>
</trkpt>
<trkpt lat="40.637356946244836" lon="14.496266422793269">
<ele>675</ele>
</trkpt>
<trkpt lat="40.637425426393747" lon="14.49629919603467">
<ele>676</ele>
</trkpt>
<trkpt lat="40.637576803565025" lon="14.49635392986238">
<ele>676</ele>
</trkpt>
<trkpt lat="40.637778220698237" lon="14.496379578486085">
<ele>676</ele>
</trkpt>
<trkpt lat="40.637900345027447" lon="14.496348900720477">
<ele>677</ele>
</trkpt>
<trkpt lat="40.638009225949645" lon="14.49642525985837">
<ele>679</ele>
</trkpt>
<trkpt lat="40.638092206791043" lon="14.496561968699098">
<ele>681</ele>
</trkpt>
<trkpt lat="40.638175522908568" lon="14.496579319238663">
<ele>683</ele>
</trkpt>
<trkpt lat="40.638204021379352" lon="14.496557861566544">
<ele>685</ele>
</trkpt>
<trkpt lat="40.638366965577006" lon="14.496535481885076">
<ele>688</ele>
</trkpt>
<trkpt lat="40.638392362743616" lon="14.496568506583571">
<ele>690</ele>
</trkpt>
<trkpt lat="40.6384829711169" lon="14.496593317016959">
<ele>692</ele>
</trkpt>
<trkpt lat="40.638550529256463" lon="14.496430959552526">
<ele>694</ele>
</trkpt>
<trkpt lat="40.638536950573325" lon="14.496328113600612">
<ele>696</ele>
</trkpt>
<trkpt lat="40.638550529256463" lon="14.496284024789929">
<ele>698</ele>
</trkpt>
<trkpt lat="40.638600988313556" lon="14.496228620409966">
<ele>702</ele>
</trkpt>
<trkpt lat="40.638641305267811" lon="14.496081434190273">
<ele>706</ele>
</trkpt>
<trkpt lat="40.638626469299197" lon="14.49598940089345">
<ele>709</ele>
</trkpt>
<trkpt lat="40.638521695509553" lon="14.495706176385283">
<ele>713</ele>
</trkpt>
<trkpt lat="40.638550026342273" lon="14.495612299069762">
<ele>717</ele>
</trkpt>
<trkpt lat="40.638580620288849" lon="14.495520098134875">
<ele>721</ele>
</trkpt>
<trkpt lat="40.638713305816054" lon="14.4954514503479">
<ele>725</ele>
</trkpt>
<trkpt lat="40.638793688267469" lon="14.495394537225366">
<ele>728</ele>
</trkpt>
<trkpt lat="40.638831909745932" lon="14.495399398729205">
<ele>732</ele>
</trkpt>
<trkpt lat="40.638863844797015" lon="14.495335696265101">
<ele>736</ele>
</trkpt>
<trkpt lat="40.638939198106527" lon="14.495192700996995">
<ele>738</ele>
</trkpt>
<trkpt lat="40.639002565294504" lon="14.495058758184314">
<ele>740</ele>
</trkpt>
<trkpt lat="40.639118319377303" lon="14.494959767907858">
<ele>743</ele>
</trkpt>
<trkpt lat="40.63906442373991" lon="14.494834542274475">
<ele>745</ele>
</trkpt>
<trkpt lat="40.638947747647762" lon="14.494720967486501">
<ele>747</ele>
</trkpt>
<trkpt lat="40.638869293034077" lon="14.494593646377325">
<ele>749</ele>
</trkpt>
<trkpt lat="40.638749850913882" lon="14.494508067145944">
<ele>752</ele>
</trkpt>
<trkpt lat="40.638650190085173" lon="14.494398683309555">
<ele>754</ele>
</trkpt>
<trkpt lat="40.638637784868479" lon="14.494297932833433">
<ele>756</ele>
</trkpt>
<trkpt lat="40.63869402743876" lon="14.494272787123919">
<ele>758</ele>
</trkpt>
<trkpt lat="40.638768123462796" lon="14.494192823767662">
<ele>760</ele>
</trkpt>
<trkpt lat="40.638793185353279" lon="14.494267674162984">
<ele>763</ele>
</trkpt>
<trkpt lat="40.638821683824062" lon="14.494277900084853">
<ele>765</ele>
</trkpt>
<trkpt lat="40.63893299549818" lon="14.493984030559659">
<ele>767</ele>
</trkpt>
<trkpt lat="40.638967612758279" lon="14.49401780962944">
<ele>769</ele>
</trkpt>
<trkpt lat="40.63892075791955" lon="14.494107412174344">
<ele>771</ele>
</trkpt>
<trkpt lat="40.638890750706196" lon="14.494184777140617">
<ele>773</ele>
</trkpt>
<trkpt lat="40.63899502158165" lon="14.494337243959308">
<ele>775</ele>
</trkpt>
<trkpt lat="40.639070374891162" lon="14.494268596172333">
<ele>777</ele>
</trkpt>
<trkpt lat="40.639091245830059" lon="14.494201876223087">
<ele>779</ele>
</trkpt>
<trkpt lat="40.639184787869453" lon="14.494265913963318">
<ele>781</ele>
</trkpt>
<trkpt lat="40.639264835044742" lon="14.494265746325254">
<ele>783</ele>
</trkpt>
<trkpt lat="40.639251759275794" lon="14.494155691936612">
<ele>785</ele>
</trkpt>
<trkpt lat="40.639312025159597" lon="14.494198942556977">
<ele>787</ele>
</trkpt>
<trkpt lat="40.639383438974619" lon="14.494260801002383">
<ele>790</ele>
</trkpt>
<trkpt lat="40.639469772577286" lon="14.494304889813066">
<ele>793</ele>
</trkpt>
<trkpt lat="40.639485195279121" lon="14.494219478219748">
<ele>796</ele>
</trkpt>
<trkpt lat="40.639477400109172" lon="14.494105568155646">
<ele>799</ele>
</trkpt>
<trkpt lat="40.639542527496815" lon="14.494163235649467">
<ele>802</ele>
</trkpt>
<trkpt lat="40.639566415920854" lon="14.494113028049469">
<ele>804</ele>
</trkpt>
<trkpt lat="40.639612264931202" lon="14.494123756885529">
<ele>807</ele>
</trkpt>
<trkpt lat="40.639680493623018" lon="14.494117135182023">
<ele>810</ele>
</trkpt>
<trkpt lat="40.639735646545887" lon="14.494183100759983">
<ele>813</ele>
</trkpt>
<trkpt lat="40.639744699001312" lon="14.494090648368001">
<ele>816</ele>
</trkpt>
<trkpt lat="40.639828350394964" lon="14.494036752730608">
<ele>820</ele>
</trkpt>
<trkpt lat="40.639960365369916" lon="14.494051085785031">
<ele>823</ele>
</trkpt>
<trkpt lat="40.640044519677758" lon="14.49401437304914">
<ele>827</ele>
</trkpt>
<trkpt lat="40.640091290697455" lon="14.494007667526603">
<ele>830</ele>
</trkpt>
<trkpt lat="40.640159519389272" lon="14.494043542072177">
<ele>834</ele>
</trkpt>
<trkpt lat="40.640222886577249" lon="14.494061227887869">
<ele>838</ele>
</trkpt>
<trkpt lat="40.640274016186595" lon="14.494094420224428">
<ele>841</ele>
</trkpt>
<trkpt lat="40.640285164117813" lon="14.494217550382018">
<ele>845</ele>
</trkpt>
<trkpt lat="40.640374096110463" lon="14.494140604510903">
<ele>848</ele>
</trkpt>
<trkpt lat="40.640420783311129" lon="14.494143957272172">
<ele>852</ele>
</trkpt>
<trkpt lat="40.640455484390259" lon="14.494196763262153">
<ele>855</ele>
</trkpt>
<trkpt lat="40.640530586242676" lon="14.494330706074834">
<ele>857</ele>
</trkpt>
<trkpt lat="40.64057819545269" lon="14.494441514834762">
<ele>860</ele>
</trkpt>
<trkpt lat="40.640594959259033" lon="14.494498008862138">
<ele>863</ele>
</trkpt>
<trkpt lat="40.640656314790249" lon="14.494280833750963">
<ele>866</ele>
</trkpt>
<trkpt lat="40.640708701685071" lon="14.494411088526249">
<ele>868</ele>
</trkpt>
<trkpt lat="40.640750359743834" lon="14.494528854265809">
<ele>871</ele>
</trkpt>
<trkpt lat="40.640746587887406" lon="14.494375549256802">
<ele>874</ele>
</trkpt>
<trkpt lat="40.640752455219626" lon="14.494240684434772">
<ele>876</ele>
</trkpt>
<trkpt lat="40.640810206532478" lon="14.494185950607061">
<ele>879</ele>
</trkpt>
<trkpt lat="40.640918333083391" lon="14.494150830432773">
<ele>882</ele>
</trkpt>
<trkpt lat="40.641046240925789" lon="14.494092743843794">
<ele>884</ele>
</trkpt>
<trkpt lat="40.641002738848329" lon="14.494186453521252">
<ele>886</ele>
</trkpt>
<trkpt lat="40.641029728576541" lon="14.494205815717578">
<ele>889</ele>
</trkpt>
<trkpt lat="40.641113379970193" lon="14.494177401065826">
<ele>892</ele>
</trkpt>
<trkpt lat="40.64116895198822" lon="14.494061479344964">
<ele>894</ele>
</trkpt>
<trkpt lat="40.641187559813261" lon="14.494052594527602">
<ele>896</ele>
</trkpt>
<trkpt lat="40.641152020543814" lon="14.494247725233436">
<ele>899</ele>
</trkpt>
<trkpt lat="40.641202982515097" lon="14.494229704141617">
<ele>902</ele>
</trkpt>
<trkpt lat="40.641259225085378" lon="14.494241522625089">
<ele>904</ele>
</trkpt>
<trkpt lat="40.641220500692725" lon="14.494342273101211">
<ele>906</ele>
</trkpt>
<trkpt lat="40.64124665223062" lon="14.494378147646785">
<ele>908</ele>
</trkpt>
<trkpt lat="40.641333404928446" lon="14.494329784065485">
<ele>910</ele>
</trkpt>
<trkpt lat="40.641319071874022" lon="14.494357695803046">
<ele>912</ele>
</trkpt>
<trkpt lat="40.641325609758496" lon="14.494407651945949">
<ele>914</ele>
</trkpt>
<trkpt lat="40.641388222575188" lon="14.494357360526919">
<ele>916</ele>
</trkpt>
<trkpt lat="40.641444884240627" lon="14.49425577186048">
<ele>918</ele>
</trkpt>
<trkpt lat="40.641515711322427" lon="14.494131300598383">
<ele>920</ele>
</trkpt>
<trkpt lat="40.641637165099382" lon="14.494047146290541">
<ele>922</ele>
</trkpt>
<trkpt lat="40.641728024929762" lon="14.493909599259496">
<ele>924</ele>
</trkpt>
<trkpt lat="40.641753170639277" lon="14.493922758847475">
<ele>926</ele>
</trkpt>
<trkpt lat="40.641796085983515" lon="14.493862995877862">
<ele>929</ele>
</trkpt>
<trkpt lat="40.641812346875668" lon="14.493814799934626">
<ele>931</ele>
</trkpt>
<trkpt lat="40.641832128167152" lon="14.493672642856836">
<ele>933</ele>
</trkpt>
<trkpt lat="40.641841851174831" lon="14.493491593748331">
<ele>936</ele>
</trkpt>
<trkpt lat="40.641876384615898" lon="14.49340458959341">
<ele>938</ele>
</trkpt>
<trkpt lat="40.641933968290687" lon="14.4932203553617">
<ele>940</ele>
</trkpt>
<trkpt lat="40.641969507560134" lon="14.493182804435492">
<ele>942</ele>
</trkpt>
<trkpt lat="40.641993982717395" lon="14.493364188820124">
<ele>945</ele>
</trkpt>
<trkpt lat="40.641993647441268" lon="14.49345194734633">
<ele>947</ele>
</trkpt>
<trkpt lat="40.642010914161801" lon="14.493619417771697">
<ele>949</ele>
</trkpt>
<trkpt lat="40.642044357955456" lon="14.493770627304912">
<ele>951</ele>
</trkpt>
<trkpt lat="40.642020553350449" lon="14.493913035839796">
<ele>954</ele>
</trkpt>
<trkpt lat="40.641954503953457" lon="14.494037255644798">
<ele>956</ele>
</trkpt>
<trkpt lat="40.641898345202208" lon="14.494166672229767">
<ele>958</ele>
</trkpt>
<trkpt lat="40.641865152865648" lon="14.494250323623419">
<ele>960</ele>
</trkpt>
<trkpt lat="40.641993898898363" lon="14.494325006380677">
<ele>962</ele>
</trkpt>
<trkpt lat="40.64195467159152" lon="14.494380159303546">
<ele>965</ele>
</trkpt>
<trkpt lat="40.6418970040977" lon="14.494457608088851">
<ele>967</ele>
</trkpt>
<trkpt lat="40.64184470102191" lon="14.494559615850449">
<ele>969</ele>
</trkpt>
<trkpt lat="40.64181050285697" lon="14.494658522307873">
<ele>972</ele>
</trkpt>
<trkpt lat="40.641979984939098" lon="14.494596412405372">
<ele>975</ele>
</trkpt>
<trkpt lat="40.642066653817892" lon="14.494588617235422">
<ele>978</ele>
</trkpt>
<trkpt lat="40.642156256362796" lon="14.494543354958296">
<ele>981</ele>
</trkpt>
<trkpt lat="40.642198417335749" lon="14.494571937248111">
<ele>984</ele>
</trkpt>
<trkpt lat="40.642158603295684" lon="14.494655588641763">
<ele>987</ele>
</trkpt>
<trkpt lat="40.642129937186837" lon="14.494723482057452">
<ele>990</ele>
</trkpt>
<trkpt lat="40.64229522831738" lon="14.494681488722563">
<ele>993</ele>
</trkpt>
<trkpt lat="40.642237309366465" lon="14.494750890880823">
<ele>996</ele>
</trkpt>
<trkpt lat="40.642192885279655" lon="14.494786849245429">
<ele>999</ele>
</trkpt>
<trkpt lat="40.642194142565131" lon="14.494931101799011">
<ele>1002</ele>
</trkpt>
<trkpt lat="40.642210906371474" lon="14.495002934709191">
<ele>1005</ele>
</trkpt>
<trkpt lat="40.642200093716383" lon="14.495045766234398">
<ele>1008</ele>
</trkpt>
<trkpt lat="40.642346106469631" lon="14.495053226128221">
<ele>1011</ele>
</trkpt>
<trkpt lat="40.642464207485318" lon="14.494988601654768">
<ele>1014</ele>
</trkpt>
<trkpt lat="40.642504272982478" lon="14.494972843676805">
<ele>1016</ele>
</trkpt>
<trkpt lat="40.642596054822206" lon="14.494869830086827">
<ele>1019</ele>
</trkpt>
<trkpt lat="40.642680879682302" lon="14.494767235592008">
<ele>1022</ele>
</trkpt>
<trkpt lat="40.642798226326704" lon="14.494675034657121">
<ele>1025</ele>
</trkpt>
<trkpt lat="40.642929151654243" lon="14.494600519537926">
<ele>1028</ele>
</trkpt>
<trkpt lat="40.643030740320683" lon="14.494527261704206">
<ele>1031</ele>
</trkpt>
<trkpt lat="40.643092347308993" lon="14.49444729834795">
<ele>1034</ele>
</trkpt>
<trkpt lat="40.643068207427859" lon="14.494567327201366">
<ele>1036</ele>
</trkpt>
<trkpt lat="40.643036859109998" lon="14.494602950289845">
<ele>1039</ele>
</trkpt>
<trkpt lat="40.642910460010171" lon="14.4947849214077">
<ele>1042</ele>
</trkpt>
<trkpt lat="40.642864191904664" lon="14.494847115129232">
<ele>1045</ele>
</trkpt>
<trkpt lat="40.643018502742052" lon="14.494888773187995">
<ele>1048</ele>
</trkpt>
<trkpt lat="40.643122270703316" lon="14.494871087372303">
<ele>1050</ele>
</trkpt>
<trkpt lat="40.643245149403811" lon="14.494802774861455">
<ele>1053</ele>
</trkpt>
<trkpt lat="40.643288316205144" lon="14.494710154831409">
<ele>1056</ele>
</trkpt>
<trkpt lat="40.643380181863904" lon="14.494527345523238">
<ele>1058</ele>
</trkpt>
<trkpt lat="40.643445393070579" lon="14.494413351640105">
<ele>1061</ele>
</trkpt>
<trkpt lat="40.643458971753716" lon="14.494316875934601">
<ele>1063</ele>
</trkpt>
<trkpt lat="40.643510017544031" lon="14.494325341656804">
<ele>1065</ele>
</trkpt>
<trkpt lat="40.643532229587436" lon="14.494462553411722">
<ele>1068</ele>
</trkpt>
<trkpt lat="40.643575144931674" lon="14.494354343041778">
<ele>1070</ele>
</trkpt>
<trkpt lat="40.643600625917315" lon="14.494203217327595">
<ele>1072</ele>
</trkpt>
<trkpt lat="40.643591657280922" lon="14.494076818227768">
<ele>1074</ele>
</trkpt>
<trkpt lat="40.64357397146523" lon="14.493975648656487">
<ele>1077</ele>
</trkpt>
<trkpt lat="40.643686540424824" lon="14.49383307248354">
<ele>1079</ele>
</trkpt>
<trkpt lat="40.643724594265223" lon="14.493812117725611">
<ele>1079</ele>
</trkpt>
<trkpt lat="40.643844706937671" lon="14.493810944259167">
<ele>1080</ele>
</trkpt>
<trkpt lat="40.643960712477565" lon="14.493732573464513">
<ele>1080</ele>
</trkpt>
<trkpt lat="40.644016703590751" lon="14.493627799674869">
<ele>1081</ele>
</trkpt>
<trkpt lat="40.644035395234823" lon="14.493573317304254">
<ele>1081</ele>
</trkpt>
<trkpt lat="40.644109742715955" lon="14.493305599316955">
<ele>1081</ele>
</trkpt>
<trkpt lat="40.644169840961695" lon="14.493174506351352">
<ele>1082</ele>
</trkpt>
<trkpt lat="40.644249636679888" lon="14.493017764762044">
<ele>1082</ele>
</trkpt>
<trkpt lat="40.64427025616169" lon="14.492904944345355">
<ele>1083</ele>
</trkpt>
<trkpt lat="40.644303783774376" lon="14.492771085351706">
<ele>1083</ele>
</trkpt>
<trkpt lat="40.64434309490025" lon="14.492554496973753">
<ele>1084</ele>
</trkpt>
<trkpt lat="40.644369414076209" lon="14.492347547784448">
<ele>1085</ele>
</trkpt>
<trkpt lat="40.644372683018446" lon="14.492268254980445">
<ele>1085</ele>
</trkpt>
<trkpt lat="40.644360613077879" lon="14.492107406258583">
<ele>1086</ele>
</trkpt>
<trkpt lat="40.644367653876543" lon="14.492102125659585">
<ele>1087</ele>
</trkpt>
<trkpt lat="40.644404282793403" lon="14.491896936669946">
<ele>1088</ele>
</trkpt>
<trkpt lat="40.644417777657509" lon="14.49187321588397">
<ele>1089</ele>
</trkpt>
<trkpt lat="40.644450299441814" lon="14.491923004388809">
<ele>1089</ele>
</trkpt>
<trkpt lat="40.644478630274534" lon="14.491960471495986">
<ele>1090</ele>
</trkpt>
<trkpt lat="40.644452311098576" lon="14.491993160918355">
<ele>1091</ele>
</trkpt>
<trkpt lat="40.644534369930625" lon="14.492218550294638">
<ele>1094</ele>
</trkpt>
<trkpt lat="40.644569993019104" lon="14.492281079292297">
<ele>1098</ele>
</trkpt>
<trkpt lat="40.64462405629456" lon="14.492394318804145">
<ele>1102</ele>
</trkpt>
<trkpt lat="40.644659008830786" lon="14.492544187232852">
<ele>1105</ele>
</trkpt>
<trkpt lat="40.644662110134959" lon="14.49273370206356">
<ele>1108</ele>
</trkpt>
<trkpt lat="40.644772667437792" lon="14.492969317361712">
<ele>1112</ele>
</trkpt>
<trkpt lat="40.644778367131948" lon="14.493075096979737">
<ele>1116</ele>
</trkpt>
<trkpt lat="40.644809128716588" lon="14.493196047842503">
<ele>1119</ele>
</trkpt>
<trkpt lat="40.64482731744647" lon="14.493305264040828">
<ele>1122</ele>
</trkpt>
<trkpt lat="40.644858414307237" lon="14.493455803021789">
<ele>1126</ele>
</trkpt>
<trkpt lat="40.644866963848472" lon="14.493602402508259">
<ele>1130</ele>
</trkpt>
<trkpt lat="40.644877608865499" lon="14.493756797164679">
<ele>1134</ele>
</trkpt>
<trkpt lat="40.644888170063496" lon="14.493911862373352">
<ele>1137</ele>
</trkpt>
<trkpt lat="40.644925218075514" lon="14.493990065529943">
<ele>1141</ele>
</trkpt>
<trkpt lat="40.644945837557316" lon="14.494130043312907">
<ele>1145</ele>
</trkpt>
<trkpt lat="40.644985735416412" lon="14.494211263954639">
<ele>1149</ele>
</trkpt>
<trkpt lat="40.645009959116578" lon="14.494315199553967">
<ele>1153</ele>
</trkpt>
<trkpt lat="40.645098388195038" lon="14.494406394660473">
<ele>1156</ele>
</trkpt>
<trkpt lat="40.645047258585691" lon="14.494536397978663">
<ele>1160</ele>
</trkpt>
<trkpt lat="40.645085815340281" lon="14.494582917541265">
<ele>1164</ele>
</trkpt>
<trkpt lat="40.645107608288527" lon="14.494638741016388">
<ele>1167</ele>
</trkpt>
<trkpt lat="40.645016580820084" lon="14.494705963879824">
<ele>1170</ele>
</trkpt>
<trkpt lat="40.644941059872508" lon="14.494759775698185">
<ele>1173</ele>
</trkpt>
<trkpt lat="40.644938880577683" lon="14.494772935286164">
<ele>1176</ele>
</trkpt>
<trkpt lat="40.645039714872837" lon="14.494800176471472">
<ele>1180</ele>
</trkpt>
<trkpt lat="40.645039211958647" lon="14.494884749874473">
<ele>1183</ele>
</trkpt>
<trkpt lat="40.644986154511571" lon="14.494940573349595">
<ele>1186</ele>
</trkpt>
<trkpt lat="40.645034769549966" lon="14.495012238621712">
<ele>1189</ele>
</trkpt>
<trkpt lat="40.645052120089531" lon="14.495046772062778">
<ele>1192</ele>
</trkpt>
<trkpt lat="40.645072069019079" lon="14.495107792317867">
<ele>1195</ele>
</trkpt>
<trkpt lat="40.645224116742611" lon="14.495152467861772">
<ele>1198</ele>
</trkpt>
<trkpt lat="40.645308522507548" lon="14.495099410414696">
<ele>1201</ele>
</trkpt>
<trkpt lat="40.645355461165309" lon="14.49510452337563">
<ele>1204</ele>
</trkpt>
<trkpt lat="40.645401058718562" lon="14.49514995329082">
<ele>1207</ele>
</trkpt>
<trkpt lat="40.645412961021066" lon="14.495238130912185">
<ele>1210</ele>
</trkpt>
<trkpt lat="40.645484374836087" lon="14.495293200016022">
<ele>1213</ele>
</trkpt>
<trkpt lat="40.645443303510547" lon="14.495365787297487">
<ele>1216</ele>
</trkpt>
<trkpt lat="40.645475573837757" lon="14.495500987395644">
<ele>1219</ele>
</trkpt>
<trkpt lat="40.645549166947603" lon="14.495511967688799">
<ele>1222</ele>
</trkpt>
<trkpt lat="40.645540617406368" lon="14.495558822527528">
<ele>1225</ele>
</trkpt>
<trkpt lat="40.645505748689175" lon="14.495619339868426">
<ele>1230</ele>
</trkpt>
<trkpt lat="40.645496780052781" lon="14.495699303224683">
<ele>1234</ele>
</trkpt>
<trkpt lat="40.645567271858454" lon="14.495813380926847">
<ele>1238</ele>
</trkpt>
<trkpt lat="40.645619574934244" lon="14.495853614062071">
<ele>1243</ele>
</trkpt>
<trkpt lat="40.645625945180655" lon="14.495899463072419">
<ele>1248</ele>
</trkpt>
<trkpt lat="40.645642038434744" lon="14.49604170396924">
<ele>1252</ele>
</trkpt>
<trkpt lat="40.645542293787003" lon="14.496130468323827">
<ele>1256</ele>
</trkpt>
<trkpt lat="40.645587304607034" lon="14.496285784989595">
<ele>1261</ele>
</trkpt>
<trkpt lat="40.645534666255116" lon="14.496247982606292">
<ele>1266</ele>
</trkpt>
<trkpt lat="40.645497953519225" lon="14.496243791654706">
<ele>1270</ele>
</trkpt>
<trkpt lat="40.645449087023735" lon="14.496326772496104">
<ele>1273</ele>
</trkpt>
<trkpt lat="40.645407428964972" lon="14.496410172432661">
<ele>1277</ele>
</trkpt>
<trkpt lat="40.64540533348918" lon="14.496534056961536">
<ele>1280</ele>
</trkpt>
<trkpt lat="40.645486135035753" lon="14.496625252068043">
<ele>1284</ele>
</trkpt>
<trkpt lat="40.64545763656497" lon="14.496685601770878">
<ele>1287</ele>
</trkpt>
<trkpt lat="40.645500468090177" lon="14.496717704460025">
<ele>1290</ele>
</trkpt>
<trkpt lat="40.645565176382661" lon="14.496754081919789">
<ele>1294</ele>
</trkpt>
<trkpt lat="40.645670704543591" lon="14.496745448559523">
<ele>1297</ele>
</trkpt>
<trkpt lat="40.645758211612701" lon="14.496755255386233">
<ele>1301</ele>
</trkpt>
<trkpt lat="40.645852256566286" lon="14.496732959523797">
<ele>1304</ele>
</trkpt>
<trkpt lat="40.645963484421372" lon="14.496694318950176">
<ele>1305</ele>
</trkpt>
<trkpt lat="40.646052416414022" lon="14.496620893478394">
<ele>1306</ele>
</trkpt>
<trkpt lat="40.646199518814683" lon="14.496537744998932">
<ele>1307</ele>
</trkpt>
<trkpt lat="40.646326253190637" lon="14.496483765542507">
<ele>1308</ele>
</trkpt>
<trkpt lat="40.646398002281785" lon="14.496496673673391">
<ele>1309</ele>
</trkpt>
<trkpt lat="40.646442845463753" lon="14.496428361162543">
<ele>1310</ele>
</trkpt>
<trkpt lat="40.646480647847056" lon="14.496375806629658">
<ele>1309</ele>
</trkpt>
<trkpt lat="40.646470002830029" lon="14.496320569887757">
<ele>1308</ele>
</trkpt>
<trkpt lat="40.646459693089128" lon="14.496241779997945">
<ele>1307</ele>
</trkpt>
<trkpt lat="40.646504452452064" lon="14.496134910732508">
<ele>1306</ele>
</trkpt>
<trkpt lat="40.646513421088457" lon="14.496112279593945">
<ele>1304</ele>
</trkpt>
<trkpt lat="40.64660394564271" lon="14.496003063395619">
<ele>1303</ele>
</trkpt>
<trkpt lat="40.646689608693123" lon="14.495893763378263">
<ele>1302</ele>
</trkpt>
<trkpt lat="40.646729087457061" lon="14.495744062587619">
<ele>1301</ele>
</trkpt>
<trkpt lat="40.646727411076427" lon="14.495649095624685">
<ele>1300</ele>
</trkpt>
<trkpt lat="40.646721627563238" lon="14.495608024299145">
<ele>1299</ele>
</trkpt>
<trkpt lat="40.64667628146708" lon="14.495500484481454">
<ele>1296</ele>
</trkpt>
<trkpt lat="40.646741911768913" lon="14.495340893045068">
<ele>1294</ele>
</trkpt>
<trkpt lat="40.646746857091784" lon="14.495248775929213">
<ele>1292</ele>
</trkpt>
<trkpt lat="40.646720454096794" lon="14.495081473141909">
<ele>1289</ele>
</trkpt>
<trkpt lat="40.646711988374591" lon="14.494920540601015">
<ele>1286</ele>
</trkpt>
<trkpt lat="40.646711485460401" lon="14.494794476777315">
<ele>1284</ele>
</trkpt>
<trkpt lat="40.646716430783272" lon="14.494712837040424">
<ele>1282</ele>
</trkpt>
<trkpt lat="40.646792287006974" lon="14.49469305574894">
<ele>1279</ele>
</trkpt>
<trkpt lat="40.646846937015653" lon="14.49472532607615">
<ele>1276</ele>
</trkpt>
<trkpt lat="40.646904269233346" lon="14.494798500090837">
<ele>1274</ele>
</trkpt>
<trkpt lat="40.646964116021991" lon="14.494944009929895">
<ele>1274</ele>
</trkpt>
<trkpt lat="40.646982556208968" lon="14.495050124824047">
<ele>1273</ele>
</trkpt>
<trkpt lat="40.647004600614309" lon="14.495194125920534">
<ele>1272</ele>
</trkpt>
<trkpt lat="40.64710384234786" lon="14.495395040139556">
<ele>1272</ele>
</trkpt>
<trkpt lat="40.647149020805955" lon="14.495635936036706">
<ele>1272</ele>
</trkpt>
<trkpt lat="40.647098561748862" lon="14.495806591585279">
<ele>1271</ele>
</trkpt>
<trkpt lat="40.647096885368228" lon="14.495841208845377">
<ele>1270</ele>
</trkpt>
<trkpt lat="40.647035278379917" lon="14.49597624130547">
<ele>1270</ele>
</trkpt>
<trkpt lat="40.647042319178581" lon="14.496196350082755">
<ele>1270</ele>
</trkpt>
<trkpt lat="40.647044917568564" lon="14.496217137202621">
<ele>1269</ele>
</trkpt>
<trkpt lat="40.647245328873396" lon="14.496393827721477">
<ele>1266</ele>
</trkpt>
<trkpt lat="40.647296793758869" lon="14.496503714472055">
<ele>1264</ele>
</trkpt>
<trkpt lat="40.647416990250349" lon="14.496586779132485">
<ele>1261</ele>
</trkpt>
<trkpt lat="40.647579347714782" lon="14.496597843244672">
<ele>1259</ele>
</trkpt>
<trkpt lat="40.647689402103424" lon="14.496644278988242">
<ele>1256</ele>
</trkpt>
<trkpt lat="40.647799791768193" lon="14.496740084141493">
<ele>1253</ele>
</trkpt>
<trkpt lat="40.647975895553827" lon="14.496814012527466">
<ele>1251</ele>
</trkpt>
<trkpt lat="40.647994838654995" lon="14.496919708326459">
<ele>1248</ele>
</trkpt>
<trkpt lat="40.648062564432621" lon="14.497296558693051">
<ele>1246</ele>
</trkpt>
<trkpt lat="40.648217713460326" lon="14.497489593923092">
<ele>1243</ele>
</trkpt>
<trkpt lat="40.648361630737782" lon="14.497638205066323">
<ele>1242</ele>
</trkpt>
<trkpt lat="40.6484055519104" lon="14.497750606387854">
<ele>1240</ele>
</trkpt>
<trkpt lat="40.648430362343788" lon="14.497793857008219">
<ele>1239</ele>
</trkpt>
<trkpt lat="40.648493729531765" lon="14.497970044612885">
<ele>1237</ele>
</trkpt>
<trkpt lat="40.648504206910729" lon="14.498053276911378">
<ele>1236</ele>
</trkpt>
<trkpt lat="40.648585930466652" lon="14.498236924409866">
<ele>1235</ele>
</trkpt>
<trkpt lat="40.648638233542442" lon="14.498312612995505">
<ele>1233</ele>
</trkpt>
<trkpt lat="40.648815846070647" lon="14.498577564954758">
<ele>1232</ele>
</trkpt>
<trkpt lat="40.648974599316716" lon="14.498481340706348">
<ele>1230</ele>
</trkpt>
<trkpt lat="40.64910720102489" lon="14.498451752588153">
<ele>1229</ele>
</trkpt>
<trkpt lat="40.649180542677641" lon="14.498483100906014">
<ele>1228</ele>
</trkpt>
<trkpt lat="40.649342648684978" lon="14.498545126989484">
<ele>1227</ele>
</trkpt>
<trkpt lat="40.649413978680968" lon="14.498568009585142">
<ele>1227</ele>
</trkpt>
<trkpt lat="40.649668956175447" lon="14.498647302389145">
<ele>1226</ele>
</trkpt>
<trkpt lat="40.649906666949391" lon="14.498645374551415">
<ele>1225</ele>
</trkpt>
<trkpt lat="40.649994090199471" lon="14.498626431450248">
<ele>1224</ele>
</trkpt>
<trkpt lat="40.650099283084273" lon="14.498652750626206">
<ele>1223</ele>
</trkpt>
<trkpt lat="40.650240266695619" lon="14.498712932690978">
<ele>1223</ele>
</trkpt>
<trkpt lat="40.650254683569074" lon="14.498721146956086">
<ele>1222</ele>
</trkpt>
<trkpt lat="40.650343196466565" lon="14.498802870512009">
<ele>1221</ele>
</trkpt>
<trkpt lat="40.650406312197447" lon="14.498939495533705">
<ele>1220</ele>
</trkpt>
<trkpt lat="40.650441097095609" lon="14.4989949837327">
<ele>1219</ele>
</trkpt>
<trkpt lat="40.650782324373722" lon="14.498915942385793">
<ele>1217</ele>
</trkpt>
<trkpt lat="40.651022214442492" lon="14.498696671798825">
<ele>1216</ele>
</trkpt>
<trkpt lat="40.651062866672873" lon="14.498550910502672">
<ele>1215</ele>
</trkpt>
<trkpt lat="40.651083486154675" lon="14.498301548883319">
<ele>1214</ele>
</trkpt>
<trkpt lat="40.651123719289899" lon="14.498048331588507">
<ele>1213</ele>
</trkpt>
<trkpt lat="40.65113210119307" lon="14.497766448184848">
<ele>1211</ele>
</trkpt>
<trkpt lat="40.651260679587722" lon="14.497619429603219">
<ele>1210</ele>
</trkpt>
<trkpt lat="40.651293452829123" lon="14.497612304985523">
<ele>1209</ele>
</trkpt>
<trkpt lat="40.651437873020768" lon="14.497502669692039">
<ele>1207</ele>
</trkpt>
<trkpt lat="40.651465281844139" lon="14.497453719377518">
<ele>1205</ele>
</trkpt>
<trkpt lat="40.651565780863166" lon="14.497249871492386">
<ele>1204</ele>
</trkpt>
<trkpt lat="40.651626884937286" lon="14.497081227600574">
<ele>1202</ele>
</trkpt>
<trkpt lat="40.651635015383363" lon="14.496954074129462">
<ele>1200</ele>
</trkpt>
<trkpt lat="40.651575671508908" lon="14.496612176299095">
<ele>1198</ele>
</trkpt>
<trkpt lat="40.651459749788046" lon="14.496157122775912">
<ele>1196</ele>
</trkpt>
<trkpt lat="40.651539210230112" lon="14.496052851900458">
<ele>1195</ele>
</trkpt>
<trkpt lat="40.651575839146972" lon="14.495883118361235">
<ele>1193</ele>
</trkpt>
<trkpt lat="40.651682121679187" lon="14.495617495849729">
<ele>1191</ele>
</trkpt>
<trkpt lat="40.651705926284194" lon="14.495523450896144">
<ele>1189</ele>
</trkpt>
<trkpt lat="40.6516382843256" lon="14.495262857526541">
<ele>1187</ele>
</trkpt>
<trkpt lat="40.651567876338959" lon="14.494946524500847">
<ele>1185</ele>
</trkpt>
<trkpt lat="40.651653371751308" lon="14.494737479835749">
<ele>1183</ele>
</trkpt>
<trkpt lat="40.651679439470172" lon="14.494563974440098">
<ele>1181</ele>
</trkpt>
<trkpt lat="40.651675835251808" lon="14.494371442124248">
<ele>1179</ele>
</trkpt>
<trkpt lat="40.651658987626433" lon="14.494270607829094">
<ele>1177</ele>
</trkpt>
<trkpt lat="40.65156502649188" lon="14.493976486846805">
<ele>1175</ele>
</trkpt>
<trkpt lat="40.651558572426438" lon="14.493948323652148">
<ele>1173</ele>
</trkpt>
<trkpt lat="40.651569636538625" lon="14.49372997507453">
<ele>1171</ele>
</trkpt>
<trkpt lat="40.65158941783011" lon="14.493694351986051">
<ele>1169</ele>
</trkpt>
<trkpt lat="40.651680445298553" lon="14.493505759164691">
<ele>1167</ele>
</trkpt>
<trkpt lat="40.651721432805061" lon="14.493335103616118">
<ele>1165</ele>
</trkpt>
<trkpt lat="40.651728641241789" lon="14.493208369240165">
<ele>1163</ele>
</trkpt>
<trkpt lat="40.65173652023077" lon="14.493014076724648">
<ele>1161</ele>
</trkpt>
<trkpt lat="40.651766946539283" lon="14.492876529693604">
<ele>1159</ele>
</trkpt>
<trkpt lat="40.651893597096205" lon="14.492773013189435">
<ele>1157</ele>
</trkpt>
<trkpt lat="40.651991749182343" lon="14.492660528048873">
<ele>1155</ele>
</trkpt>
<trkpt lat="40.652118651196361" lon="14.492487357929349">
<ele>1153</ele>
</trkpt>
<trkpt lat="40.652184952050447" lon="14.492378560826182">
<ele>1151</ele>
</trkpt>
<trkpt lat="40.652315458282828" lon="14.492198936641216">
<ele>1151</ele>
</trkpt>
<trkpt lat="40.65245233476162" lon="14.491999782621861">
<ele>1151</ele>
</trkpt>
<trkpt lat="40.652543194591999" lon="14.491843543946743">
<ele>1152</ele>
</trkpt>
<trkpt lat="40.652620056644082" lon="14.49169585481286">
<ele>1152</ele>
</trkpt>
<trkpt lat="40.652693146839738" lon="14.491674983873963">
<ele>1152</ele>
</trkpt>
<trkpt lat="40.652790209278464" lon="14.491749498993158">
<ele>1152</ele>
</trkpt>
<trkpt lat="40.652874112129211" lon="14.491807417944074">
<ele>1152</ele>
</trkpt>
<trkpt lat="40.652907136827707" lon="14.491839185357094">
<ele>1153</ele>
</trkpt>
<trkpt lat="40.652948962524533" lon="14.492031969130039">
<ele>1153</ele>
</trkpt>
<trkpt lat="40.653058094903827" lon="14.492389038205147">
<ele>1153</ele>
</trkpt>
<trkpt lat="40.653130766004324" lon="14.49264133349061">
<ele>1153</ele>
</trkpt>
<trkpt lat="40.653145434334874" lon="14.492680141702294">
<ele>1154</ele>
</trkpt>
<trkpt lat="40.653246100991964" lon="14.492991948500276">
<ele>1154</ele>
</trkpt>
<trkpt lat="40.653348611667752" lon="14.493023129180074">
<ele>1154</ele>
</trkpt>
<trkpt lat="40.653319610282779" lon="14.493176685646176">
<ele>1154</ele>
</trkpt>
<trkpt lat="40.653399406000972" lon="14.493331918492913">
<ele>1155</ele>
</trkpt>
<trkpt lat="40.653469394892454" lon="14.493560492992401">
<ele>1155</ele>
</trkpt>
<trkpt lat="40.653455229476094" lon="14.493670798838139">
<ele>1155</ele>
</trkpt>
<trkpt lat="40.653446093201637" lon="14.493726706132293">
<ele>1156</ele>
</trkpt>
<trkpt lat="40.653522117063403" lon="14.493768448010087">
<ele>1156</ele>
</trkpt>
<trkpt lat="40.653722696006298" lon="14.493608186021447">
<ele>1156</ele>
</trkpt>
<trkpt lat="40.653756223618984" lon="14.493591254577041">
<ele>1156</ele>
</trkpt>
<trkpt lat="40.653910869732499" lon="14.493491426110268">
<ele>1155</ele>
</trkpt>
<trkpt lat="40.65403500571847" lon="14.493469465523958">
<ele>1155</ele>
</trkpt>
<trkpt lat="40.65408144146204" lon="14.493443733081222">
<ele>1155</ele>
</trkpt>
<trkpt lat="40.654240781441331" lon="14.493394028395414">
<ele>1155</ele>
</trkpt>
<trkpt lat="40.654273135587573" lon="14.493387155234814">
<ele>1155</ele>
</trkpt>
<trkpt lat="40.654408922418952" lon="14.493373995646834">
<ele>1154</ele>
</trkpt>
<trkpt lat="40.654719891026616" lon="14.493238376453519">
<ele>1154</ele>
</trkpt>
<trkpt lat="40.654977802187204" lon="14.493161765858531">
<ele>1154</ele>
</trkpt>
<trkpt lat="40.654997499659657" lon="14.493152461946011">
<ele>1154</ele>
</trkpt>
<trkpt lat="40.655106715857983" lon="14.493084317073226">
<ele>1154</ele>
</trkpt>
<trkpt lat="40.655356831848621" lon="14.492916176095605">
<ele>1155</ele>
</trkpt>
<trkpt lat="40.655487673357129" lon="14.492744598537683">
<ele>1155</ele>
</trkpt>
<trkpt lat="40.65550871193409" lon="14.49273806065321">
<ele>1155</ele>
</trkpt>
<trkpt lat="40.655609043315053" lon="14.492671843618155">
<ele>1155</ele>
</trkpt>
<trkpt lat="40.655725803226233" lon="14.492621636018157">
<ele>1155</ele>
</trkpt>
<trkpt lat="40.655897045508027" lon="14.492504205554724">
<ele>1156</ele>
</trkpt>
<trkpt lat="40.656073819845915" lon="14.492415860295296">
<ele>1156</ele>
</trkpt>
<trkpt lat="40.656095528975129" lon="14.492413010448217">
<ele>1156</ele>
</trkpt>
<trkpt lat="40.656372467055917" lon="14.492317959666252">
<ele>1156</ele>
</trkpt>
<trkpt lat="40.656445892527699" lon="14.492483250796795">
<ele>1156</ele>
</trkpt>
<trkpt lat="40.656534908339381" lon="14.492854736745358">
<ele>1156</ele>
</trkpt>
<trkpt lat="40.656591653823853" lon="14.493145672604442">
<ele>1156</ele>
</trkpt>
<trkpt lat="40.656586540862918" lon="14.493310628458858">
<ele>1156</ele>
</trkpt>
<trkpt lat="40.656645549461246" lon="14.49332001619041">
<ele>1155</ele>
</trkpt>
<trkpt lat="40.656760465353727" lon="14.493255475535989">
<ele>1155</ele>
</trkpt>
<trkpt lat="40.656856689602137" lon="14.49318322353065">
<ele>1155</ele>
</trkpt>
<trkpt lat="40.656916536390781" lon="14.493191773071885">
<ele>1155</ele>
</trkpt>
<trkpt lat="40.657014101743698" lon="14.493230832740664">
<ele>1155</ele>
</trkpt>
<trkpt lat="40.657285926863551" lon="14.493546495214105">
<ele>1155</ele>
</trkpt>
<trkpt lat="40.657355161383748" lon="14.493657387793064">
<ele>1155</ele>
</trkpt>
<trkpt lat="40.657363291829824" lon="14.493680354207754">
<ele>1156</ele>
</trkpt>
<trkpt lat="40.657501425594091" lon="14.493579352274537">
<ele>1156</ele>
</trkpt>
<trkpt lat="40.657555740326643" lon="14.493446750566363">
<ele>1156</ele>
</trkpt>
<trkpt lat="40.657694796100259" lon="14.493239130824804">
<ele>1156</ele>
</trkpt>
<trkpt lat="40.65777400508523" lon="14.493241645395756">
<ele>1156</ele>
</trkpt>
<trkpt lat="40.657870480790734" lon="14.493283135816455">
<ele>1157</ele>
</trkpt>
<trkpt lat="40.657995119690895" lon="14.493314484134316">
<ele>1157</ele>
</trkpt>
<trkpt lat="40.658138114959002" lon="14.493374163284898">
<ele>1157</ele>
</trkpt>
<trkpt lat="40.658251773566008" lon="14.493485977873206">
<ele>1157</ele>
</trkpt>
<trkpt lat="40.658320337533951" lon="14.493544148281217">
<ele>1157</ele>
</trkpt>
<trkpt lat="40.658197710290551" lon="14.493544148281217">
<ele>1157</ele>
</trkpt>
<trkpt lat="40.65822503529489" lon="14.493647580966353">
<ele>1158</ele>
</trkpt>
<trkpt lat="40.658135013654828" lon="14.493742380291224">
<ele>1158</ele>
</trkpt>
<trkpt lat="40.658095618709922" lon="14.493750594556332">
<ele>1158</ele>
</trkpt>
<trkpt lat="40.658044405281544" lon="14.493701225146651">
<ele>1158</ele>
</trkpt>
<trkpt lat="40.65805597230792" lon="14.493609024211764">
<ele>1158</ele>
</trkpt>
<trkpt lat="40.65798849798739" lon="14.493624279275537">
<ele>1159</ele>
</trkpt>
<trkpt lat="40.657968800514936" lon="14.49364154599607">
<ele>1160</ele>
</trkpt>
<trkpt lat="40.657918425276875" lon="14.493702901527286">
<ele>1161</ele>
</trkpt>
<trkpt lat="40.657851286232471" lon="14.493785463273525">
<ele>1162</ele>
</trkpt>
<trkpt lat="40.65783460624516" lon="14.493834413588047">
<ele>1163</ele>
</trkpt>
<trkpt lat="40.657712733373046" lon="14.494164409115911">
<ele>1164</ele>
</trkpt>
<trkpt lat="40.657723043113947" lon="14.494288377463818">
<ele>1165</ele>
</trkpt>
<trkpt lat="40.65772270783782" lon="14.494357695803046">
<ele>1166</ele>
</trkpt>
<trkpt lat="40.657772999256849" lon="14.494345122948289">
<ele>1167</ele>
</trkpt>
<trkpt lat="40.657792361453176" lon="14.494303883984685">
<ele>1168</ele>
</trkpt>
<trkpt lat="40.657877689227462" lon="14.494208581745625">
<ele>1169</ele>
</trkpt>
<trkpt lat="40.658016912639141" lon="14.494162229821086">
<ele>1170</ele>
</trkpt>
<trkpt lat="40.65813752822578" lon="14.494155691936612">
<ele>1171</ele>
</trkpt>
<trkpt lat="40.658338442444801" lon="14.494145968928933">
<ele>1172</ele>
</trkpt>
<trkpt lat="40.658320337533951" lon="14.494286952540278">
<ele>1173</ele>
</trkpt>
<trkpt lat="40.658225622028112" lon="14.494275134056807">
<ele>1174</ele>
</trkpt>
<trkpt lat="40.658210702240467" lon="14.494270775467157">
<ele>1175</ele>
</trkpt>
<trkpt lat="40.658046081662178" lon="14.494322994723916">
<ele>1176</ele>
</trkpt>
<trkpt lat="40.657896380871534" lon="14.49449859559536">
<ele>1177</ele>
</trkpt>
<trkpt lat="40.657735699787736" lon="14.494787938892841">
<ele>1178</ele>
</trkpt>
<trkpt lat="40.657566385343671" lon="14.495052304118872">
<ele>1179</ele>
</trkpt>
<trkpt lat="40.657475190237164" lon="14.49519052170217">
<ele>1180</ele>
</trkpt>
<trkpt lat="40.657419618219137" lon="14.495248775929213">
<ele>1181</ele>
</trkpt>
<trkpt lat="40.657240832224488" lon="14.495454300194979">
<ele>1182</ele>
</trkpt>
<trkpt lat="40.657059028744698" lon="14.495631409808993">
<ele>1184</ele>
</trkpt>
<trkpt lat="40.657041845843196" lon="14.495703158900142">
<ele>1185</ele>
</trkpt>
<trkpt lat="40.657196827232838" lon="14.495754120871425">
<ele>1186</ele>
</trkpt>
<trkpt lat="40.657514585182071" lon="14.495575837790966">
<ele>1187</ele>
</trkpt>
<trkpt lat="40.657729580998421" lon="14.495438123121858">
<ele>1188</ele>
</trkpt>
<trkpt lat="40.657916413620114" lon="14.495171997696161">
<ele>1189</ele>
</trkpt>
<trkpt lat="40.658139456063509" lon="14.495031516999006">
<ele>1190</ele>
</trkpt>
<trkpt lat="40.658260490745306" lon="14.494959181174636">
<ele>1192</ele>
</trkpt>
<trkpt lat="40.658300472423434" lon="14.494947697967291">
<ele>1193</ele>
</trkpt>
<trkpt lat="40.658262586221099" lon="14.495013831183314">
<ele>1194</ele>
</trkpt>
<trkpt lat="40.658190082758665" lon="14.4950698222965">
<ele>1196</ele>
</trkpt>
<trkpt lat="40.65804909914732" lon="14.495318010449409">
<ele>1197</ele>
</trkpt>
<trkpt lat="40.658041639253497" lon="14.495424041524529">
<ele>1198</ele>
</trkpt>
<trkpt lat="40.657970476895571" lon="14.495728639885783">
<ele>1199</ele>
</trkpt>
<trkpt lat="40.657956311479211" lon="14.495784044265747">
<ele>1201</ele>
</trkpt>
<trkpt lat="40.657848101109266" lon="14.49597230181098">
<ele>1202</ele>
</trkpt>
<trkpt lat="40.657693454995751" lon="14.49621420353651">
<ele>1203</ele>
</trkpt>
<trkpt lat="40.657777525484562" lon="14.496313948184252">
<ele>1204</ele>
</trkpt>
<trkpt lat="40.657806023955345" lon="14.49637639336288">
<ele>1205</ele>
</trkpt>
<trkpt lat="40.657502431422472" lon="14.496608823537827">
<ele>1206</ele>
</trkpt>
<trkpt lat="40.657220128923655" lon="14.49670571833849">
<ele>1206</ele>
</trkpt>
<trkpt lat="40.657039415091276" lon="14.496936304494739">
<ele>1207</ele>
</trkpt>
<trkpt lat="40.6568309571594" lon="14.497162029147148">
<ele>1208</ele>
</trkpt>
<trkpt lat="40.656665917485952" lon="14.497287422418594">
<ele>1209</ele>
</trkpt>
<trkpt lat="40.656496100127697" lon="14.497465286403894">
<ele>1210</ele>
</trkpt>
<trkpt lat="40.656235842034221" lon="14.497567629441619">
<ele>1211</ele>
</trkpt>
<trkpt lat="40.656138192862272" lon="14.497577017173171">
<ele>1212</ele>
</trkpt>
<trkpt lat="40.656032329425216" lon="14.497651616111398">
<ele>1214</ele>
</trkpt>
<trkpt lat="40.656030653044581" lon="14.497681958600879">
<ele>1215</ele>
</trkpt>
<trkpt lat="40.656060995534062" lon="14.497797461226583">
<ele>1216</ele>
</trkpt>
<trkpt lat="40.656070802360773" lon="14.497795617207885">
<ele>1218</ele>
</trkpt>
<trkpt lat="40.656154537573457" lon="14.497734513133764">
<ele>1219</ele>
</trkpt>
<trkpt lat="40.656290659680963" lon="14.497807687148452">
<ele>1220</ele>
</trkpt>
<trkpt lat="40.656410520896316" lon="14.497956968843937">
<ele>1221</ele>
</trkpt>
<trkpt lat="40.65654362551868" lon="14.49800843372941">
<ele>1223</ele>
</trkpt>
<trkpt lat="40.656604897230864" lon="14.497975828126073">
<ele>1224</ele>
</trkpt>
<trkpt lat="40.656712017953396" lon="14.498007008805871">
<ele>1226</ele>
</trkpt>
<trkpt lat="40.65679038874805" lon="14.498033495619893">
<ele>1227</ele>
</trkpt>
<trkpt lat="40.656990380957723" lon="14.498090241104364">
<ele>1229</ele>
</trkpt>
<trkpt lat="40.656992644071579" lon="14.498080518096685">
<ele>1230</ele>
</trkpt>
<trkpt lat="40.657155755907297" lon="14.497868455946445">
<ele>1232</ele>
</trkpt>
<trkpt lat="40.657168915495276" lon="14.497861750423908">
<ele>1234</ele>
</trkpt>
<trkpt lat="40.657334709540009" lon="14.497838197275996">
<ele>1235</ele>
</trkpt>
<trkpt lat="40.657434621825814" lon="14.497846998274326">
<ele>1237</ele>
</trkpt>
<trkpt lat="40.657469239085913" lon="14.497849680483341">
<ele>1238</ele>
</trkpt>
<trkpt lat="40.6575942132622" lon="14.497882621362805">
<ele>1240</ele>
</trkpt>
<trkpt lat="40.65765623934567" lon="14.497858230024576">
<ele>1241</ele>
</trkpt>
<trkpt lat="40.657689347863197" lon="14.497869377955794">
<ele>1242</ele>
</trkpt>
<trkpt lat="40.657652886584401" lon="14.497925788164139">
<ele>1244</ele>
</trkpt>
<trkpt lat="40.657614916563034" lon="14.498067693784833">
<ele>1245</ele>
</trkpt>
<trkpt lat="40.657738968729973" lon="14.498049085959792">
<ele>1246</ele>
</trkpt>
<trkpt lat="40.657884730026126" lon="14.497904246672988">
<ele>1247</ele>
</trkpt>
<trkpt lat="40.658013727515936" lon="14.497842052951455">
<ele>1248</ele>
</trkpt>
<trkpt lat="40.658139539882541" lon="14.497718922793865">
<ele>1250</ele>
</trkpt>
<trkpt lat="40.658147921785712" lon="14.497711462900043">
<ele>1251</ele>
</trkpt>
<trkpt lat="40.658285887911916" lon="14.497593529522419">
<ele>1252</ele>
</trkpt>
<trkpt lat="40.658439695835114" lon="14.497399320825934">
<ele>1254</ele>
</trkpt>
<trkpt lat="40.658488059416413" lon="14.497255822643638">
<ele>1257</ele>
</trkpt>
<trkpt lat="40.658610938116908" lon="14.497361853718758">
<ele>1259</ele>
</trkpt>
<trkpt lat="40.65862032584846" lon="14.497404936701059">
<ele>1261</ele>
</trkpt>
<trkpt lat="40.658572800457478" lon="14.497586656361818">
<ele>1264</ele>
</trkpt>
<trkpt lat="40.658495938405395" lon="14.4977792724967">
<ele>1266</ele>
</trkpt>
<trkpt lat="40.65843022428453" lon="14.49794833548367">
<ele>1269</ele>
</trkpt>
<trkpt lat="40.658421507105231" lon="14.497970631346107">
<ele>1271</ele>
</trkpt>
<trkpt lat="40.65833693370223" lon="14.498225022107363">
<ele>1273</ele>
</trkpt>
<trkpt lat="40.658253952860832" lon="14.498428786173463">
<ele>1276</ele>
</trkpt>
<trkpt lat="40.658424021676183" lon="14.498454015702009">
<ele>1278</ele>
</trkpt>
<trkpt lat="40.658360822126269" lon="14.498404646292329">
<ele>1276</ele>
</trkpt>
<trkpt lat="40.658322181552649" lon="14.498391738161445">
<ele>1274</ele>
</trkpt>
<trkpt lat="40.658296784386039" lon="14.498367933556437">
<ele>1273</ele>
</trkpt>
<trkpt lat="40.658329809084535" lon="14.498185459524393">
<ele>1271</ele>
</trkpt>
<trkpt lat="40.65839409828186" lon="14.498133156448603">
<ele>1269</ele>
</trkpt>
<trkpt lat="40.658479845151305" lon="14.498076578602195">
<ele>1267</ele>
</trkpt>
<trkpt lat="40.658515468239784" lon="14.497830988839269">
<ele>1265</ele>
</trkpt>
<trkpt lat="40.658578919246793" lon="14.497646586969495">
<ele>1264</ele>
</trkpt>
<trkpt lat="40.658628372475505" lon="14.497445253655314">
<ele>1262</ele>
</trkpt>
<trkpt lat="40.658653853461146" lon="14.497284153476357">
<ele>1260</ele>
</trkpt>
<trkpt lat="40.65868821926415" lon="14.497072258964181">
<ele>1258</ele>
</trkpt>
<trkpt lat="40.658793579787016" lon="14.496902776882052">
<ele>1257</ele>
</trkpt>
<trkpt lat="40.658944956958294" lon="14.496728349477053">
<ele>1255</ele>
</trkpt>
<trkpt lat="40.659005641937256" lon="14.496598597615957">
<ele>1253</ele>
</trkpt>
<trkpt lat="40.659079737961292" lon="14.496519472450018">
<ele>1252</ele>
</trkpt>
<trkpt lat="40.659149643033743" lon="14.496326353400946">
<ele>1250</ele>
</trkpt>
<trkpt lat="40.659197168424726" lon="14.496220489963889">
<ele>1248</ele>
</trkpt>
<trkpt lat="40.659244442358613" lon="14.496189979836345">
<ele>1246</ele>
</trkpt>
<trkpt lat="40.659347539767623" lon="14.496055701747537">
<ele>1245</ele>
</trkpt>
<trkpt lat="40.659435633569956" lon="14.495926285162568">
<ele>1243</ele>
</trkpt>
<trkpt lat="40.659487852826715" lon="14.495870126411319">
<ele>1240</ele>
</trkpt>
<trkpt lat="40.659524146467447" lon="14.495763843879104">
<ele>1238</ele>
</trkpt>
<trkpt lat="40.659513585269451" lon="14.495739536359906">
<ele>1235</ele>
</trkpt>
<trkpt lat="40.659518949687481" lon="14.495699303224683">
<ele>1233</ele>
</trkpt>
<trkpt lat="40.659639984369278" lon="14.495540130883455">
<ele>1230</ele>
</trkpt>
<trkpt lat="40.659726653248072" lon="14.495529485866427">
<ele>1227</ele>
</trkpt>
<trkpt lat="40.659816423431039" lon="14.495552787557244">
<ele>1225</ele>
</trkpt>
<trkpt lat="40.659949444234371" lon="14.495517080649734">
<ele>1222</ele>
</trkpt>
<trkpt lat="40.660014403983951" lon="14.495455976575613">
<ele>1220</ele>
</trkpt>
<trkpt lat="40.660135522484779" lon="14.495407612994313">
<ele>1217</ele>
</trkpt>
<trkpt lat="40.660262508317828" lon="14.495363775640726">
<ele>1216</ele>
</trkpt>
<trkpt lat="40.660350183025002" lon="14.495326476171613">
<ele>1215</ele>
</trkpt>
<trkpt lat="40.660519162192941" lon="14.495231090113521">
<ele>1214</ele>
</trkpt>
<trkpt lat="40.66066425293684" lon="14.495106199756265">
<ele>1213</ele>
</trkpt>
<trkpt lat="40.660883774980903" lon="14.494917690753937">
<ele>1212</ele>
</trkpt>
<trkpt lat="40.661011515185237" lon="14.494795566424727">
<ele>1212</ele>
</trkpt>
<trkpt lat="40.661165155470371" lon="14.494682410731912">
<ele>1211</ele>
</trkpt>
<trkpt lat="40.661331033334136" lon="14.494602447375655">
<ele>1210</ele>
</trkpt>
<trkpt lat="40.661499928683043" lon="14.494482418522239">
<ele>1209</ele>
</trkpt>
<trkpt lat="40.661738896742463" lon="14.494278822094202">
<ele>1208</ele>
</trkpt>
<trkpt lat="40.661935200914741" lon="14.493987802416086">
<ele>1208</ele>
</trkpt>
<trkpt lat="40.662007369101048" lon="14.493894763290882">
<ele>1207</ele>
</trkpt>
<trkpt lat="40.662112645804882" lon="14.493702482432127">
<ele>1207</ele>
</trkpt>
<trkpt lat="40.66218439489603" lon="14.493525456637144">
<ele>1206</ele>
</trkpt>
<trkpt lat="40.662262262776494" lon="14.493296714499593">
<ele>1206</ele>
</trkpt>
<trkpt lat="40.662299143150449" lon="14.493164615705609">
<ele>1206</ele>
</trkpt>
<trkpt lat="40.662320433184505" lon="14.492970909923315">
<ele>1205</ele>
</trkpt>
<trkpt lat="40.662364354357123" lon="14.492979375645518">
<ele>1205</ele>
</trkpt>
<trkpt lat="40.66237055696547" lon="14.493115330114961">
<ele>1204</ele>
</trkpt>
<trkpt lat="40.662431325763464" lon="14.493057494983077">
<ele>1204</ele>
</trkpt>
<trkpt lat="40.662472816184163" lon="14.492926569655538">
<ele>1203</ele>
</trkpt>
<trkpt lat="40.662563089281321" lon="14.492720207199454">
<ele>1202</ele>
</trkpt>
<trkpt lat="40.662639448419213" lon="14.492649212479591">
<ele>1202</ele>
</trkpt>
<trkpt lat="40.662745730951428" lon="14.492386607453227">
<ele>1201</ele>
</trkpt>
<trkpt lat="40.662835333496332" lon="14.492290299385786">
<ele>1200</ele>
</trkpt>
<trkpt lat="40.662915632128716" lon="14.492164570838213">
<ele>1199</ele>
</trkpt>
<trkpt lat="40.662973383441567" lon="14.492070358246565">
<ele>1198</ele>
</trkpt>
<trkpt lat="40.663032727316022" lon="14.49189517647028">
<ele>1198</ele>
</trkpt>
<trkpt lat="40.663077151402831" lon="14.491783948615193">
<ele>1197</ele>
</trkpt>
<trkpt lat="40.663101794198155" lon="14.491742793470621">
<ele>1196</ele>
</trkpt>
<trkpt lat="40.663150828331709" lon="14.491620417684317">
<ele>1195</ele>
</trkpt>
<trkpt lat="40.663206065073609" lon="14.491559565067291">
<ele>1194</ele>
</trkpt>
<trkpt lat="40.663277981802821" lon="14.491343144327402">
<ele>1193</ele>
</trkpt>
<trkpt lat="40.663356017321348" lon="14.491272484883666">
<ele>1192</ele>
</trkpt>
<trkpt lat="40.663369847461581" lon="14.491253038868308">
<ele>1192</ele>
</trkpt>
<trkpt lat="40.663526002317667" lon="14.491073498502374">
<ele>1191</ele>
</trkpt>
<trkpt lat="40.663586352020502" lon="14.490998731926084">
<ele>1190</ele>
</trkpt>
<trkpt lat="40.663712499663234" lon="14.490896724164486">
<ele>1189</ele>
</trkpt>
<trkpt lat="40.663860104978085" lon="14.490801505744457">
<ele>1188</ele>
</trkpt>
<trkpt lat="40.663871923461556" lon="14.490789351984859">
<ele>1187</ele>
</trkpt>
<trkpt lat="40.664022462442517" lon="14.490708215162158">
<ele>1188</ele>
</trkpt>
<trkpt lat="40.664114495739341" lon="14.4906663056463">
<ele>1189</ele>
</trkpt>
<trkpt lat="40.664229998365045" lon="14.490569913759828">
<ele>1189</ele>
</trkpt>
<trkpt lat="40.664383890107274" lon="14.490444185212255">
<ele>1190</ele>
</trkpt>
<trkpt lat="40.664561586454511" lon="14.490283336490393">
<ele>1191</ele>
</trkpt>
<trkpt lat="40.664636017754674" lon="14.490156685933471">
<ele>1192</ele>
</trkpt>
<trkpt lat="40.664712879806757" lon="14.489963902160525">
<ele>1193</ele>
</trkpt>
<trkpt lat="40.664763003587723" lon="14.489883854985237">
<ele>1193</ele>
</trkpt>
<trkpt lat="40.664881942793727" lon="14.489699536934495">
<ele>1194</ele>
</trkpt>
<trkpt lat="40.664947740733624" lon="14.489634409546852">
<ele>1195</ele>
</trkpt>
<trkpt lat="40.664988476783037" lon="14.489512704312801">
<ele>1193</ele>
</trkpt>
<trkpt lat="40.665059136226773" lon="14.489390160888433">
<ele>1191</ele>
</trkpt>
<trkpt lat="40.665079839527607" lon="14.48928639292717">
<ele>1189</ele>
</trkpt>
<trkpt lat="40.665131555870175" lon="14.489154797047377">
<ele>1187</ele>
</trkpt>
<trkpt lat="40.665195593610406" lon="14.488930748775601">
<ele>1184</ele>
</trkpt>
<trkpt lat="40.66531696356833" lon="14.4887166749686">
<ele>1182</ele>
</trkpt>
<trkpt lat="40.665352586656809" lon="14.488512491807342">
<ele>1180</ele>
</trkpt>
<trkpt lat="40.665402291342616" lon="14.488420374691486">
<ele>1178</ele>
</trkpt>
<trkpt lat="40.665461048483849" lon="14.488232955336571">
<ele>1176</ele>
</trkpt>
<trkpt lat="40.665607396513224" lon="14.48799398727715">
<ele>1174</ele>
</trkpt>
<trkpt lat="40.665644276887178" lon="14.487831294536591">
<ele>1172</ele>
</trkpt>
<trkpt lat="40.665717618539929" lon="14.4875976908952">
<ele>1171</ele>
</trkpt>
<trkpt lat="40.665767742320895" lon="14.487454360350966">
<ele>1169</ele>
</trkpt>
<trkpt lat="40.665809316560626" lon="14.487290913239121">
<ele>1167</ele>
</trkpt>
<trkpt lat="40.665861703455448" lon="14.487209692597389">
<ele>1166</ele>
</trkpt>
<trkpt lat="40.665902690961957" lon="14.487020596861839">
<ele>1164</ele>
</trkpt>
<trkpt lat="40.665989527478814" lon="14.486763523891568">
<ele>1162</ele>
</trkpt>
<trkpt lat="40.666052978485823" lon="14.486565878614783">
<ele>1160</ele>
</trkpt>
<trkpt lat="40.666097067296505" lon="14.48633654974401">
<ele>1159</ele>
</trkpt>
<trkpt lat="40.666150795295835" lon="14.486180562525988">
<ele>1157</ele>
</trkpt>
<trkpt lat="40.666175857186317" lon="14.486017534509301">
<ele>1157</ele>
</trkpt>
<trkpt lat="40.666199410334229" lon="14.485953077673912">
<ele>1157</ele>
</trkpt>
<trkpt lat="40.666284319013357" lon="14.485723162069917">
<ele>1156</ele>
</trkpt>
<trkpt lat="40.666301250457764" lon="14.485677732154727">
<ele>1156</ele>
</trkpt>
<trkpt lat="40.666370484977961" lon="14.485486540943384">
<ele>1156</ele>
</trkpt>
<trkpt lat="40.666389344260097" lon="14.485457958653569">
<ele>1156</ele>
</trkpt>
<trkpt lat="40.666468217968941" lon="14.48528747074306">
<ele>1156</ele>
</trkpt>
<trkpt lat="40.666611464694142" lon="14.485134752467275">
<ele>1155</ele>
</trkpt>
<trkpt lat="40.666685979813337" lon="14.484951356425881">
<ele>1155</ele>
</trkpt>
<trkpt lat="40.666815731674433" lon="14.484711550176144">
<ele>1155</ele>
</trkpt>
<trkpt lat="40.666916482150555" lon="14.484516000375152">
<ele>1153</ele>
</trkpt>
<trkpt lat="40.666991835460067" lon="14.484465625137091">
<ele>1151</ele>
</trkpt>
<trkpt lat="40.667034834623337" lon="14.484159518033266">
<ele>1149</ele>
</trkpt>
<trkpt lat="40.667084623128176" lon="14.483883082866669">
<ele>1147</ele>
</trkpt>
<trkpt lat="40.667150840163231" lon="14.483592314645648">
<ele>1144</ele>
</trkpt>
<trkpt lat="40.667172381654382" lon="14.483491564169526">
<ele>1142</ele>
</trkpt>
<trkpt lat="40.667243879288435" lon="14.483290063217282">
<ele>1140</ele>
</trkpt>
<trkpt lat="40.667309928685427" lon="14.483107840642333">
<ele>1138</ele>
</trkpt>
<trkpt lat="40.667337086051702" lon="14.482935927808285">
<ele>1136</ele>
</trkpt>
<trkpt lat="40.667332476004958" lon="14.482765858992934">
<ele>1134</ele>
</trkpt>
<trkpt lat="40.667359130457044" lon="14.482451034709811">
<ele>1133</ele>
</trkpt>
<trkpt lat="40.667445883154869" lon="14.482207791879773">
<ele>1132</ele>
</trkpt>
<trkpt lat="40.667450744658709" lon="14.482023557648063">
<ele>1131</ele>
</trkpt>
<trkpt lat="40.66747086122632" lon="14.481962705031037">
<ele>1130</ele>
</trkpt>
<trkpt lat="40.66754805855453" lon="14.481787104159594">
<ele>1129</ele>
</trkpt>
<trkpt lat="40.667564822360873" lon="14.481777381151915">
<ele>1128</ele>
</trkpt>
<trkpt lat="40.66764822229743" lon="14.481726670637727">
<ele>1127</ele>
</trkpt>
<trkpt lat="40.667683174833655" lon="14.481673026457429">
<ele>1126</ele>
</trkpt>
<trkpt lat="40.667806137353182" lon="14.481464065611362">
<ele>1125</ele>
</trkpt>
<trkpt lat="40.667952988296747" lon="14.481247561052442">
<ele>1124</ele>
</trkpt>
<trkpt lat="40.66804158501327" lon="14.481045054271817">
<ele>1123</ele>
</trkpt>
<trkpt lat="40.668120961636305" lon="14.480906501412392">
<ele>1122</ele>
</trkpt>
<trkpt lat="40.66819790750742" lon="14.480695528909564">
<ele>1122</ele>
</trkpt>
<trkpt lat="40.668246857821941" lon="14.480581283569336">
<ele>1121</ele>
</trkpt>
<trkpt lat="40.668400330469012" lon="14.480294538661838">
<ele>1120</ele>
</trkpt>
<trkpt lat="40.668475851416588" lon="14.480205355212092">
<ele>1119</ele>
</trkpt>
<trkpt lat="40.668590432032943" lon="14.480158919468522">
<ele>1118</ele>
</trkpt>
<trkpt lat="40.668842559680343" lon="14.479998238384724">
<ele>1118</ele>
</trkpt>
<trkpt lat="40.669013382866979" lon="14.479890363290906">
<ele>1117</ele>
</trkpt>
<trkpt lat="40.669185295701027" lon="14.479741081595421">
<ele>1116</ele>
</trkpt>
<trkpt lat="40.669282861053944" lon="14.479597499594092">
<ele>1116</ele>
</trkpt>
<trkpt lat="40.669285207986832" lon="14.479591716080904">
<ele>1115</ele>
</trkpt>
<trkpt lat="40.669365925714374" lon="14.479453666135669">
<ele>1115</ele>
</trkpt>
<trkpt lat="40.669479919597507" lon="14.479244370013475">
<ele>1115</ele>
</trkpt>
<trkpt lat="40.669528786092997" lon="14.479193910956383">
<ele>1114</ele>
</trkpt>
<trkpt lat="40.669675720855594" lon="14.479017220437527">
<ele>1114</ele>
</trkpt>
<trkpt lat="40.669722072780132" lon="14.478916805237532">
<ele>1114</ele>
</trkpt>
<trkpt lat="40.669861296191812" lon="14.478772468864918">
<ele>1114</ele>
</trkpt>
<trkpt lat="40.669864732772112" lon="14.478760734200478">
<ele>1113</ele>
</trkpt>
<trkpt lat="40.670014852657914" lon="14.478542720898986">
<ele>1113</ele>
</trkpt>
<trkpt lat="40.670149466022849" lon="14.478175761178136">
<ele>1112</ele>
</trkpt>
<trkpt lat="40.670206379145384" lon="14.47794827632606">
<ele>1111</ele>
</trkpt>
<trkpt lat="40.670266645029187" lon="14.477628171443939">
<ele>1110</ele>
</trkpt>
<trkpt lat="40.67033956758678" lon="14.477304881438613">
<ele>1109</ele>
</trkpt>
<trkpt lat="40.670443754643202" lon="14.477020399644971">
<ele>1108</ele>
</trkpt>
<trkpt lat="40.670496812090278" lon="14.476810684427619">
<ele>1107</ele>
</trkpt>
<trkpt lat="40.67056093364954" lon="14.476784532889724">
<ele>1106</ele>
</trkpt>
<trkpt lat="40.670739216729999" lon="14.476621421054006">
<ele>1105</ele>
</trkpt>
<trkpt lat="40.670812977477908" lon="14.476662492379546">
<ele>1104</ele>
</trkpt>
<trkpt lat="40.670916577801108" lon="14.476376669481397">
<ele>1103</ele>
</trkpt>
<trkpt lat="40.670951027423143" lon="14.476225040853024">
<ele>1102</ele>
</trkpt>
</trkseg>
</trk>
</gpx>
