<?xml version="1.0" encoding="UTF-8"?>
<gpx version="1.1"
creator="Smartprofil-Office - http://www.rother.de"
xmlns:xsi="http://www.w3.org/2001/XMLSchema-instance"
xmlns="http://www.topografix.com/GPX/1/1"
xsi:schemaLocation="http://www.topografix.com/GPX/1/1 http://www.topografix.com/GPX/1/1/gpx.xsd">
<metadata>

<bounds minlat="40.647663837298751" minlon="14.640776049345732" maxlat="40.682118991389871" maxlon="14.695505183190107"/>
</metadata>
<wpt lat="40.647956198081374" lon="14.640776049345732">
<ele>10</ele>
<name>02_Maiori (1)</name>
<cmt></cmt>
<desc></desc>
<sym>Crossing</sym>
</wpt>

<wpt lat="40.648265993222594" lon="14.650128995999694">
<ele>226</ele>
<name>02_Capella S. Vito (2)</name>
<cmt></cmt>
<desc></desc>
<sym>Crossing</sym>
</wpt>

<wpt lat="40.653192959725857" lon="14.669129010289907">
<ele>866</ele>
<name>02_Santuario dell’Avvocata (3)</name>
<cmt></cmt>
<desc></desc>
<sym>Crossing</sym>
</wpt>

<wpt lat="40.656202984973788" lon="14.671484995633364">
<ele>966</ele>
<name>02_Vene S. Pietro (4)</name>
<cmt></cmt>
<desc></desc>
<sym>Crossing</sym>
</wpt>

<wpt lat="40.667295008897781" lon="14.692524997517467">
<ele>690</ele>
<name>02_Capella Vecchia (5)</name>
<cmt></cmt>
<desc></desc>
<sym>Crossing</sym>
</wpt>

<wpt lat="40.682115973904729" lon="14.691195040941238">
<ele>348</ele>
<name>02_Corpo di Cava (6)</name>
<cmt></cmt>
<desc></desc>
<sym>Crossing</sym>
</wpt>

<trk>
<name>Neapel_02_Santuario dell'Avvocata</name>
<trkseg>
<trkpt lat="40.647956198081374" lon="14.640776049345732">
<ele>10</ele>
</trkpt>
<trkpt lat="40.647960305213928" lon="14.640777893364429">
<ele>11</ele>
</trkpt>
<trkpt lat="40.647962903603911" lon="14.640777306631207">
<ele>11</ele>
</trkpt>
<trkpt lat="40.647962987422943" lon="14.64077839627862">
<ele>12</ele>
</trkpt>
<trkpt lat="40.647969525307417" lon="14.640787532553077">
<ele>12</ele>
</trkpt>
<trkpt lat="40.648030461743474" lon="14.641017029061913">
<ele>13</ele>
</trkpt>
<trkpt lat="40.648004813119769" lon="14.641110319644213">
<ele>14</ele>
</trkpt>
<trkpt lat="40.647940607741475" lon="14.641250967979431">
<ele>14</ele>
</trkpt>
<trkpt lat="40.647812029346824" lon="14.641539556905627">
<ele>15</ele>
</trkpt>
<trkpt lat="40.647752350196242" lon="14.641742063686252">
<ele>15</ele>
</trkpt>
<trkpt lat="40.647718906402588" lon="14.641935853287578">
<ele>16</ele>
</trkpt>
<trkpt lat="40.647663837298751" lon="14.642158811911941">
<ele>16</ele>
</trkpt>
<trkpt lat="40.647802222520113" lon="14.642323264852166">
<ele>16</ele>
</trkpt>
<trkpt lat="40.647935913875699" lon="14.642406580969691">
<ele>16</ele>
</trkpt>
<trkpt lat="40.648028282448649" lon="14.642453100532293">
<ele>16</ele>
</trkpt>
<trkpt lat="40.648071616888046" lon="14.642492914572358">
<ele>16</ele>
</trkpt>
<trkpt lat="40.648169266059995" lon="14.642550749704242">
<ele>15</ele>
</trkpt>
<trkpt lat="40.648228945210576" lon="14.64255703613162">
<ele>15</ele>
</trkpt>
<trkpt lat="40.648360121995211" lon="14.642616463825107">
<ele>15</ele>
</trkpt>
<trkpt lat="40.648403037339449" lon="14.642639849334955">
<ele>15</ele>
</trkpt>
<trkpt lat="40.648535136133432" lon="14.642719812691212">
<ele>15</ele>
</trkpt>
<trkpt lat="40.648671509698033" lon="14.642832716926932">
<ele>16</ele>
</trkpt>
<trkpt lat="40.648681567981839" lon="14.642834393307567">
<ele>17</ele>
</trkpt>
<trkpt lat="40.649012317880988" lon="14.642994236201048">
<ele>18</ele>
</trkpt>
<trkpt lat="40.649201245978475" lon="14.643239825963974">
<ele>19</ele>
</trkpt>
<trkpt lat="40.649331333115697" lon="14.643275532871485">
<ele>20</ele>
</trkpt>
<trkpt lat="40.649428479373455" lon="14.643483823165298">
<ele>21</ele>
</trkpt>
<trkpt lat="40.649454379454255" lon="14.64350595138967">
<ele>22</ele>
</trkpt>
<trkpt lat="40.649584801867604" lon="14.643548280000687">
<ele>23</ele>
</trkpt>
<trkpt lat="40.649775993078947" lon="14.643728826195002">
<ele>24</ele>
</trkpt>
<trkpt lat="40.649888981133699" lon="14.643873916938901">
<ele>25</ele>
</trkpt>
<trkpt lat="40.649915719404817" lon="14.64388657361269">
<ele>26</ele>
</trkpt>
<trkpt lat="40.649739196524024" lon="14.644117243587971">
<ele>28</ele>
</trkpt>
<trkpt lat="40.649720672518015" lon="14.644231908023357">
<ele>30</ele>
</trkpt>
<trkpt lat="40.649746740236878" lon="14.644358307123184">
<ele>31</ele>
</trkpt>
<trkpt lat="40.649761576205492" lon="14.644592497497797">
<ele>32</ele>
</trkpt>
<trkpt lat="40.649803401902318" lon="14.644588055089116">
<ele>34</ele>
</trkpt>
<trkpt lat="40.649866266176105" lon="14.64447682723403">
<ele>36</ele>
</trkpt>
<trkpt lat="40.649880180135369" lon="14.644516808912158">
<ele>37</ele>
</trkpt>
<trkpt lat="40.649895435199142" lon="14.644535081461072">
<ele>38</ele>
</trkpt>
<trkpt lat="40.650122836232185" lon="14.644714118912816">
<ele>40</ele>
</trkpt>
<trkpt lat="40.650187293067575" lon="14.644684363156557">
<ele>42</ele>
</trkpt>
<trkpt lat="40.650241021066904" lon="14.644620073959231">
<ele>43</ele>
</trkpt>
<trkpt lat="40.65033121034503" lon="14.644448664039373">
<ele>45</ele>
</trkpt>
<trkpt lat="40.65043481066823" lon="14.644338190555573">
<ele>47</ele>
</trkpt>
<trkpt lat="40.650455933064222" lon="14.644367694854736">
<ele>48</ele>
</trkpt>
<trkpt lat="40.650569424033165" lon="14.644393092021346">
<ele>50</ele>
</trkpt>
<trkpt lat="40.650625582784414" lon="14.644395690411329">
<ele>52</ele>
</trkpt>
<trkpt lat="40.650638742372394" lon="14.644394349306822">
<ele>54</ele>
</trkpt>
<trkpt lat="40.65081057138741" lon="14.644385296851397">
<ele>55</ele>
</trkpt>
<trkpt lat="40.650846697390079" lon="14.64442603290081">
<ele>57</ele>
</trkpt>
<trkpt lat="40.650954907760024" lon="14.644507588818669">
<ele>59</ele>
</trkpt>
<trkpt lat="40.650891708210111" lon="14.644674137234688">
<ele>61</ele>
</trkpt>
<trkpt lat="40.650814594700933" lon="14.644766254350543">
<ele>64</ele>
</trkpt>
<trkpt lat="40.650805709883571" lon="14.644793411716819">
<ele>66</ele>
</trkpt>
<trkpt lat="40.650812750682235" lon="14.644915200769901">
<ele>68</ele>
</trkpt>
<trkpt lat="40.650760782882571" lon="14.645054088905454">
<ele>70</ele>
</trkpt>
<trkpt lat="40.650744773447514" lon="14.645091220736504">
<ele>72</ele>
</trkpt>
<trkpt lat="40.650734212249517" lon="14.645240670070052">
<ele>75</ele>
</trkpt>
<trkpt lat="40.650691380724311" lon="14.645494222640991">
<ele>77</ele>
</trkpt>
<trkpt lat="40.650675622746348" lon="14.645590111613274">
<ele>79</ele>
</trkpt>
<trkpt lat="40.65071040764451" lon="14.645698238164186">
<ele>82</ele>
</trkpt>
<trkpt lat="40.65074804238975" lon="14.645801251754165">
<ele>84</ele>
</trkpt>
<trkpt lat="40.650737816467881" lon="14.64592756703496">
<ele>87</ele>
</trkpt>
<trkpt lat="40.65080126747489" lon="14.646007446572185">
<ele>90</ele>
</trkpt>
<trkpt lat="40.650756843388081" lon="14.646018594503403">
<ele>92</ele>
</trkpt>
<trkpt lat="40.650661624968052" lon="14.645871827378869">
<ele>95</ele>
</trkpt>
<trkpt lat="40.650592390447855" lon="14.645765377208591">
<ele>98</ele>
</trkpt>
<trkpt lat="40.650461800396442" lon="14.645670326426625">
<ele>101</ele>
</trkpt>
<trkpt lat="40.650397846475244" lon="14.64570770971477">
<ele>103</ele>
</trkpt>
<trkpt lat="40.650328695774078" lon="14.645751714706421">
<ele>106</ele>
</trkpt>
<trkpt lat="40.650214198976755" lon="14.645776357501745">
<ele>109</ele>
</trkpt>
<trkpt lat="40.650196261703968" lon="14.645797982811928">
<ele>111</ele>
</trkpt>
<trkpt lat="40.650145802646875" lon="14.645943660289049">
<ele>114</ele>
</trkpt>
<trkpt lat="40.650085117667913" lon="14.64603116735816">
<ele>117</ele>
</trkpt>
<trkpt lat="40.650068521499634" lon="14.646064946427941">
<ele>120</ele>
</trkpt>
<trkpt lat="40.649924352765083" lon="14.646130576729774">
<ele>122</ele>
</trkpt>
<trkpt lat="40.649850759655237" lon="14.646175922825933">
<ele>125</ele>
</trkpt>
<trkpt lat="40.649775406345725" lon="14.646256137639284">
<ele>128</ele>
</trkpt>
<trkpt lat="40.649658143520355" lon="14.646161086857319">
<ele>130</ele>
</trkpt>
<trkpt lat="40.649594608694315" lon="14.646181119605899">
<ele>133</ele>
</trkpt>
<trkpt lat="40.649542640894651" lon="14.646263346076012">
<ele>135</ele>
</trkpt>
<trkpt lat="40.649605756625533" lon="14.646431403234601">
<ele>138</ele>
</trkpt>
<trkpt lat="40.649537527933717" lon="14.646375747397542">
<ele>140</ele>
</trkpt>
<trkpt lat="40.649488074705005" lon="14.6464435569942">
<ele>142</ele>
</trkpt>
<trkpt lat="40.649496037513018" lon="14.646545732393861">
<ele>144</ele>
</trkpt>
<trkpt lat="40.64942236058414" lon="14.646534165367484">
<ele>147</ele>
</trkpt>
<trkpt lat="40.649376846849918" lon="14.646608093753457">
<ele>149</ele>
</trkpt>
<trkpt lat="40.649358322843909" lon="14.646658804267645">
<ele>151</ele>
</trkpt>
<trkpt lat="40.649402914568782" lon="14.647039761766791">
<ele>154</ele>
</trkpt>
<trkpt lat="40.649392269551754" lon="14.647120730951428">
<ele>156</ele>
</trkpt>
<trkpt lat="40.649300320073962" lon="14.647471010684967">
<ele>156</ele>
</trkpt>
<trkpt lat="40.649286573752761" lon="14.647489115595818">
<ele>157</ele>
</trkpt>
<trkpt lat="40.649282718077302" lon="14.647612581029534">
<ele>157</ele>
</trkpt>
<trkpt lat="40.649219267070293" lon="14.647632613778114">
<ele>158</ele>
</trkpt>
<trkpt lat="40.649125892668962" lon="14.647746523842216">
<ele>158</ele>
</trkpt>
<trkpt lat="40.649016676470637" lon="14.647881556302309">
<ele>158</ele>
</trkpt>
<trkpt lat="40.649002930149436" lon="14.648014158010483">
<ele>159</ele>
</trkpt>
<trkpt lat="40.649013658985496" lon="14.648060090839863">
<ele>159</ele>
</trkpt>
<trkpt lat="40.649008043110371" lon="14.648112477734685">
<ele>160</ele>
</trkpt>
<trkpt lat="40.649029584601521" lon="14.648328898474574">
<ele>160</ele>
</trkpt>
<trkpt lat="40.648999074473977" lon="14.648628300055861">
<ele>162</ele>
</trkpt>
<trkpt lat="40.64894593320787" lon="14.648790908977389">
<ele>164</ele>
</trkpt>
<trkpt lat="40.648898910731077" lon="14.648909261450171">
<ele>167</ele>
</trkpt>
<trkpt lat="40.648733451962471" lon="14.64892040938139">
<ele>169</ele>
</trkpt>
<trkpt lat="40.648724483326077" lon="14.648920577019453">
<ele>171</ele>
</trkpt>
<trkpt lat="40.64854234457016" lon="14.648893754929304">
<ele>173</ele>
</trkpt>
<trkpt lat="40.648443605750799" lon="14.648851007223129">
<ele>175</ele>
</trkpt>
<trkpt lat="40.648418879136443" lon="14.648821754381061">
<ele>178</ele>
</trkpt>
<trkpt lat="40.648320056498051" lon="14.648825861513615">
<ele>180</ele>
</trkpt>
<trkpt lat="40.648317374289036" lon="14.648823011666536">
<ele>182</ele>
</trkpt>
<trkpt lat="40.648225592449307" lon="14.64886860921979">
<ele>185</ele>
</trkpt>
<trkpt lat="40.648161638528109" lon="14.648852767422795">
<ele>187</ele>
</trkpt>
<trkpt lat="40.648042699322104" lon="14.648802392184734">
<ele>190</ele>
</trkpt>
<trkpt lat="40.648010931909084" lon="14.648811193183064">
<ele>192</ele>
</trkpt>
<trkpt lat="40.647925185039639" lon="14.648828459903598">
<ele>195</ele>
</trkpt>
<trkpt lat="40.647831978276372" lon="14.648896101862192">
<ele>198</ele>
</trkpt>
<trkpt lat="40.647768778726459" lon="14.648933485150337">
<ele>200</ele>
</trkpt>
<trkpt lat="40.647785877808928" lon="14.649084191769361">
<ele>203</ele>
</trkpt>
<trkpt lat="40.647799372673035" lon="14.649102799594402">
<ele>205</ele>
</trkpt>
<trkpt lat="40.647877156734467" lon="14.649349395185709">
<ele>208</ele>
</trkpt>
<trkpt lat="40.647953096777201" lon="14.649458359926939">
<ele>210</ele>
</trkpt>
<trkpt lat="40.647993246093392" lon="14.649625746533275">
<ele>212</ele>
</trkpt>
<trkpt lat="40.648017218336463" lon="14.649650389328599">
<ele>215</ele>
</trkpt>
<trkpt lat="40.648113358765841" lon="14.649831606075168">
<ele>217</ele>
</trkpt>
<trkpt lat="40.64814168959856" lon="14.649843592196703">
<ele>219</ele>
</trkpt>
<trkpt lat="40.648251827806234" lon="14.650023719295859">
<ele>222</ele>
</trkpt>
<trkpt lat="40.648239171132445" lon="14.650086667388678">
<ele>224</ele>
</trkpt>
<trkpt lat="40.648265993222594" lon="14.650128995999694">
<ele>226</ele>
</trkpt>
<trkpt lat="40.648264903575182" lon="14.65014198794961">
<ele>228</ele>
</trkpt>
<trkpt lat="40.648305891081691" lon="14.650160009041429">
<ele>231</ele>
</trkpt>
<trkpt lat="40.648377388715744" lon="14.650244498625398">
<ele>234</ele>
</trkpt>
<trkpt lat="40.648450646549463" lon="14.650309039279819">
<ele>236</ele>
</trkpt>
<trkpt lat="40.648516612127423" lon="14.650356648489833">
<ele>238</ele>
</trkpt>
<trkpt lat="40.648595066741109" lon="14.650408029556274">
<ele>241</ele>
</trkpt>
<trkpt lat="40.648616356775165" lon="14.650417165830731">
<ele>244</ele>
</trkpt>
<trkpt lat="40.648706294596195" lon="14.650500565767288">
<ele>246</ele>
</trkpt>
<trkpt lat="40.648779133334756" lon="14.650548845529556">
<ele>248</ele>
</trkpt>
<trkpt lat="40.648859264329076" lon="14.650617325678468">
<ele>251</ele>
</trkpt>
<trkpt lat="40.648911148309708" lon="14.650668120011687">
<ele>254</ele>
</trkpt>
<trkpt lat="40.64901047386229" lon="14.650712544098496">
<ele>257</ele>
</trkpt>
<trkpt lat="40.649090521037579" lon="14.650758057832718">
<ele>260</ele>
</trkpt>
<trkpt lat="40.649224128574133" lon="14.650842882692814">
<ele>263</ele>
</trkpt>
<trkpt lat="40.649305181577802" lon="14.650906333699822">
<ele>266</ele>
</trkpt>
<trkpt lat="40.64937156625092" lon="14.650970119982958">
<ele>268</ele>
</trkpt>
<trkpt lat="40.64953233115375" lon="14.6510767377913">
<ele>271</ele>
</trkpt>
<trkpt lat="40.649663005024195" lon="14.651179164648056">
<ele>274</ele>
</trkpt>
<trkpt lat="40.649792002514005" lon="14.651242112740874">
<ele>277</ele>
</trkpt>
<trkpt lat="40.649915467947721" lon="14.651322159916162">
<ele>280</ele>
</trkpt>
<trkpt lat="40.650061229243875" lon="14.651419222354889">
<ele>281</ele>
</trkpt>
<trkpt lat="40.65018461085856" lon="14.651553248986602">
<ele>282</ele>
</trkpt>
<trkpt lat="40.650221155956388" lon="14.651620304211974">
<ele>283</ele>
</trkpt>
<trkpt lat="40.650391140952706" lon="14.65187419205904">
<ele>284</ele>
</trkpt>
<trkpt lat="40.650452580302954" lon="14.652052475139499">
<ele>284</ele>
</trkpt>
<trkpt lat="40.650506475940347" lon="14.652196979150176">
<ele>285</ele>
</trkpt>
<trkpt lat="40.650512762367725" lon="14.652218939736485">
<ele>286</ele>
</trkpt>
<trkpt lat="40.650529777631164" lon="14.652390517294407">
<ele>287</ele>
</trkpt>
<trkpt lat="40.650562718510628" lon="14.652537703514099">
<ele>288</ele>
</trkpt>
<trkpt lat="40.650634802877903" lon="14.652696456760168">
<ele>289</ele>
</trkpt>
<trkpt lat="40.650681322440505" lon="14.65291840955615">
<ele>291</ele>
</trkpt>
<trkpt lat="40.650698924437165" lon="14.653042210265994">
<ele>292</ele>
</trkpt>
<trkpt lat="40.650705965235829" lon="14.653127957135439">
<ele>294</ele>
</trkpt>
<trkpt lat="40.650712084025145" lon="14.653336079791188">
<ele>295</ele>
</trkpt>
<trkpt lat="40.650714095681906" lon="14.653346389532089">
<ele>297</ele>
</trkpt>
<trkpt lat="40.650735637173057" lon="14.653521655127406">
<ele>299</ele>
</trkpt>
<trkpt lat="40.650739073753357" lon="14.653530539944768">
<ele>300</ele>
</trkpt>
<trkpt lat="40.650812666863203" lon="14.653634643182158">
<ele>302</ele>
</trkpt>
<trkpt lat="40.650819959118962" lon="14.653688706457615">
<ele>303</ele>
</trkpt>
<trkpt lat="40.650859270244837" lon="14.653802113607526">
<ele>305</ele>
</trkpt>
<trkpt lat="40.650880308821797" lon="14.653873108327389">
<ele>307</ele>
</trkpt>
<trkpt lat="40.650928840041161" lon="14.653930021449924">
<ele>310</ele>
</trkpt>
<trkpt lat="40.65096010453999" lon="14.654013253748417">
<ele>312</ele>
</trkpt>
<trkpt lat="40.650995057076216" lon="14.654222298413515">
<ele>314</ele>
</trkpt>
<trkpt lat="40.651063118129969" lon="14.654309470206499">
<ele>316</ele>
</trkpt>
<trkpt lat="40.651137046515942" lon="14.654287174344063">
<ele>319</ele>
</trkpt>
<trkpt lat="40.65119412727654" lon="14.654252389445901">
<ele>321</ele>
</trkpt>
<trkpt lat="40.65130895934999" lon="14.654294801875949">
<ele>323</ele>
</trkpt>
<trkpt lat="40.651344666257501" lon="14.654344087466598">
<ele>326</ele>
</trkpt>
<trkpt lat="40.651394370943308" lon="14.654437378048897">
<ele>328</ele>
</trkpt>
<trkpt lat="40.651447009295225" lon="14.654526980593801">
<ele>330</ele>
</trkpt>
<trkpt lat="40.651436364278197" lon="14.654739378020167">
<ele>333</ele>
</trkpt>
<trkpt lat="40.65143896266818" lon="14.654904920607805">
<ele>336</ele>
</trkpt>
<trkpt lat="40.651419684290886" lon="14.655043724924326">
<ele>338</ele>
</trkpt>
<trkpt lat="40.651362771168351" lon="14.6552090998739">
<ele>340</ele>
</trkpt>
<trkpt lat="40.651378026232123" lon="14.655290488153696">
<ele>343</ele>
</trkpt>
<trkpt lat="40.651397556066513" lon="14.655361985787749">
<ele>346</ele>
</trkpt>
<trkpt lat="40.65141306258738" lon="14.655494336038828">
<ele>348</ele>
</trkpt>
<trkpt lat="40.651436615735292" lon="14.655568683519959">
<ele>350</ele>
</trkpt>
<trkpt lat="40.651450948789716" lon="14.655708074569702">
<ele>353</ele>
</trkpt>
<trkpt lat="40.651450781151652" lon="14.655836904421449">
<ele>356</ele>
</trkpt>
<trkpt lat="40.651534684002399" lon="14.655935307964683">
<ele>359</ele>
</trkpt>
<trkpt lat="40.651591932401061" lon="14.656016696244478">
<ele>362</ele>
</trkpt>
<trkpt lat="40.651647336781025" lon="14.656293466687202">
<ele>365</ele>
</trkpt>
<trkpt lat="40.651665860787034" lon="14.656410729512572">
<ele>368</ele>
</trkpt>
<trkpt lat="40.651650689542294" lon="14.656596137210727">
<ele>371</ele>
</trkpt>
<trkpt lat="40.651663346216083" lon="14.656682135537267">
<ele>374</ele>
</trkpt>
<trkpt lat="40.651705171912909" lon="14.65673603117466">
<ele>377</ele>
</trkpt>
<trkpt lat="40.651698298752308" lon="14.656906686723232">
<ele>380</ele>
</trkpt>
<trkpt lat="40.651745907962322" lon="14.656993858516216">
<ele>383</ele>
</trkpt>
<trkpt lat="40.651779351755977" lon="14.657076839357615">
<ele>386</ele>
</trkpt>
<trkpt lat="40.65178144723177" lon="14.657191671431065">
<ele>389</ele>
</trkpt>
<trkpt lat="40.651910025626421" lon="14.657321842387319">
<ele>392</ele>
</trkpt>
<trkpt lat="40.652017733082175" lon="14.6574039850384">
<ele>395</ele>
</trkpt>
<trkpt lat="40.652083111926913" lon="14.657488474622369">
<ele>398</ele>
</trkpt>
<trkpt lat="40.652131475508213" lon="14.657601211220026">
<ele>402</ele>
</trkpt>
<trkpt lat="40.652170618996024" lon="14.657732304185629">
<ele>405</ele>
</trkpt>
<trkpt lat="40.652248654514551" lon="14.657805813476443">
<ele>408</ele>
</trkpt>
<trkpt lat="40.652342531830072" lon="14.65786918066442">
<ele>411</ele>
</trkpt>
<trkpt lat="40.652417466044426" lon="14.657865576446056">
<ele>414</ele>
</trkpt>
<trkpt lat="40.652502542361617" lon="14.657927602529526">
<ele>416</ele>
</trkpt>
<trkpt lat="40.652556354179978" lon="14.657929027453065">
<ele>418</ele>
</trkpt>
<trkpt lat="40.65266883932054" lon="14.65799574740231">
<ele>421</ele>
</trkpt>
<trkpt lat="40.652700355276465" lon="14.658133797347546">
<ele>423</ele>
</trkpt>
<trkpt lat="40.6527503952384" lon="14.65824100188911">
<ele>425</ele>
</trkpt>
<trkpt lat="40.652710078284144" lon="14.658316606655717">
<ele>427</ele>
</trkpt>
<trkpt lat="40.652682082727551" lon="14.658426409587264">
<ele>429</ele>
</trkpt>
<trkpt lat="40.652687279507518" lon="14.658640651032329">
<ele>432</ele>
</trkpt>
<trkpt lat="40.652673114091158" lon="14.658825304359198">
<ele>434</ele>
</trkpt>
<trkpt lat="40.652569010853767" lon="14.659036109223962">
<ele>436</ele>
</trkpt>
<trkpt lat="40.652527855709195" lon="14.65915379114449">
<ele>438</ele>
</trkpt>
<trkpt lat="40.652488796040416" lon="14.659340372309089">
<ele>440</ele>
</trkpt>
<trkpt lat="40.652454681694508" lon="14.659412037581205">
<ele>442</ele>
</trkpt>
<trkpt lat="40.652452753856778" lon="14.659552434459329">
<ele>444</ele>
</trkpt>
<trkpt lat="40.652456106618047" lon="14.659687550738454">
<ele>446</ele>
</trkpt>
<trkpt lat="40.652461973950267" lon="14.659730046987534">
<ele>448</ele>
</trkpt>
<trkpt lat="40.65255400724709" lon="14.659934733062983">
<ele>450</ele>
</trkpt>
<trkpt lat="40.652595665305853" lon="14.660069765523076">
<ele>452</ele>
</trkpt>
<trkpt lat="40.652573956176639" lon="14.660200523212552">
<ele>454</ele>
</trkpt>
<trkpt lat="40.652594575658441" lon="14.660347709432244">
<ele>456</ele>
</trkpt>
<trkpt lat="40.652589881792665" lon="14.660350894555449">
<ele>458</ele>
</trkpt>
<trkpt lat="40.652587031945586" lon="14.660604614764452">
<ele>460</ele>
</trkpt>
<trkpt lat="40.652594240382314" lon="14.660639148205519">
<ele>462</ele>
</trkpt>
<trkpt lat="40.652602706104517" lon="14.660677202045918">
<ele>464</ele>
</trkpt>
<trkpt lat="40.6526571046561" lon="14.660799242556095">
<ele>466</ele>
</trkpt>
<trkpt lat="40.652729356661439" lon="14.660951625555754">
<ele>468</ele>
</trkpt>
<trkpt lat="40.652810325846076" lon="14.66099051758647">
<ele>470</ele>
</trkpt>
<trkpt lat="40.652830693870783" lon="14.661015495657921">
<ele>472</ele>
</trkpt>
<trkpt lat="40.652880230918527" lon="14.661134267225862">
<ele>474</ele>
</trkpt>
<trkpt lat="40.652948208153248" lon="14.661220768466592">
<ele>476</ele>
</trkpt>
<trkpt lat="40.653028171509504" lon="14.661420760676265">
<ele>479</ele>
</trkpt>
<trkpt lat="40.653079887852073" lon="14.661565432325006">
<ele>481</ele>
</trkpt>
<trkpt lat="40.65307293087244" lon="14.661678588017821">
<ele>484</ele>
</trkpt>
<trkpt lat="40.653081564232707" lon="14.661749331280589">
<ele>487</ele>
</trkpt>
<trkpt lat="40.653051557019353" lon="14.661758216097951">
<ele>490</ele>
</trkpt>
<trkpt lat="40.652910573408008" lon="14.661793503910303">
<ele>492</ele>
</trkpt>
<trkpt lat="40.652844859287143" lon="14.661768525838852">
<ele>495</ele>
</trkpt>
<trkpt lat="40.65274603664875" lon="14.661759557202458">
<ele>498</ele>
</trkpt>
<trkpt lat="40.652755424380302" lon="14.661856619641185">
<ele>500</ele>
</trkpt>
<trkpt lat="40.652781408280134" lon="14.661896768957376">
<ele>503</ele>
</trkpt>
<trkpt lat="40.652865311130881" lon="14.662003554403782">
<ele>506</ele>
</trkpt>
<trkpt lat="40.652864221483469" lon="14.662194158881903">
<ele>508</ele>
</trkpt>
<trkpt lat="40.65284569747746" lon="14.662211677059531">
<ele>511</ele>
</trkpt>
<trkpt lat="40.652819545939565" lon="14.662334974855185">
<ele>513</ele>
</trkpt>
<trkpt lat="40.652860114350915" lon="14.662463804706931">
<ele>516</ele>
</trkpt>
<trkpt lat="40.652903281152248" lon="14.662511749193072">
<ele>519</ele>
</trkpt>
<trkpt lat="40.652903951704502" lon="14.662654073908925">
<ele>521</ele>
</trkpt>
<trkpt lat="40.652918787673116" lon="14.662800254300237">
<ele>524</ele>
</trkpt>
<trkpt lat="40.652928929775953" lon="14.662920031696558">
<ele>526</ele>
</trkpt>
<trkpt lat="40.652829352766275" lon="14.663021452724934">
<ele>529</ele>
</trkpt>
<trkpt lat="40.652808398008347" lon="14.663019776344299">
<ele>532</ele>
</trkpt>
<trkpt lat="40.652723237872124" lon="14.663107870146632">
<ele>534</ele>
</trkpt>
<trkpt lat="40.652761878445745" lon="14.663152545690536">
<ele>537</ele>
</trkpt>
<trkpt lat="40.652763638645411" lon="14.663164783269167">
<ele>539</ele>
</trkpt>
<trkpt lat="40.652800016105175" lon="14.663280621170998">
<ele>542</ele>
</trkpt>
<trkpt lat="40.652761543169618" lon="14.663397883996367">
<ele>545</ele>
</trkpt>
<trkpt lat="40.652787610888481" lon="14.663513554260135">
<ele>547</ele>
</trkpt>
<trkpt lat="40.652767913416028" lon="14.663528893142939">
<ele>550</ele>
</trkpt>
<trkpt lat="40.652752574533224" lon="14.663736009970307">
<ele>552</ele>
</trkpt>
<trkpt lat="40.652741175144911" lon="14.66379426419735">
<ele>555</ele>
</trkpt>
<trkpt lat="40.652661798521876" lon="14.664013618603349">
<ele>557</ele>
</trkpt>
<trkpt lat="40.652601700276136" lon="14.663927117362618">
<ele>559</ele>
</trkpt>
<trkpt lat="40.652600442990661" lon="14.663919992744923">
<ele>560</ele>
</trkpt>
<trkpt lat="40.652557946741581" lon="14.663941701874137">
<ele>562</ele>
</trkpt>
<trkpt lat="40.652566077187657" lon="14.664059802889824">
<ele>564</ele>
</trkpt>
<trkpt lat="40.652551157400012" lon="14.664161056280136">
<ele>566</ele>
</trkpt>
<trkpt lat="40.652560796588659" lon="14.664268596097827">
<ele>568</ele>
</trkpt>
<trkpt lat="40.652589462697506" lon="14.66436549089849">
<ele>569</ele>
</trkpt>
<trkpt lat="40.652598347514868" lon="14.664382757619023">
<ele>571</ele>
</trkpt>
<trkpt lat="40.652557946741581" lon="14.664556849747896">
<ele>573</ele>
</trkpt>
<trkpt lat="40.652590049430728" lon="14.664668496698141">
<ele>576</ele>
</trkpt>
<trkpt lat="40.652603628113866" lon="14.664675705134869">
<ele>579</ele>
</trkpt>
<trkpt lat="40.652677556499839" lon="14.664826160296798">
<ele>582</ele>
</trkpt>
<trkpt lat="40.652677305042744" lon="14.664893634617329">
<ele>585</ele>
</trkpt>
<trkpt lat="40.652676718309522" lon="14.664926240220666">
<ele>588</ele>
</trkpt>
<trkpt lat="40.652672192081809" lon="14.665225390344858">
<ele>590</ele>
</trkpt>
<trkpt lat="40.652675377205014" lon="14.665257157757878">
<ele>593</ele>
</trkpt>
<trkpt lat="40.652679735794663" lon="14.665258415043354">
<ele>596</ele>
</trkpt>
<trkpt lat="40.652679735794663" lon="14.665362937375903">
<ele>599</ele>
</trkpt>
<trkpt lat="40.652684262022376" lon="14.665399733930826">
<ele>602</ele>
</trkpt>
<trkpt lat="40.652730613946915" lon="14.665565863251686">
<ele>604</ele>
</trkpt>
<trkpt lat="40.652715358883142" lon="14.665680695325136">
<ele>606</ele>
</trkpt>
<trkpt lat="40.652633048593998" lon="14.665631074458361">
<ele>609</ele>
</trkpt>
<trkpt lat="40.652576722204685" lon="14.665653873234987">
<ele>611</ele>
</trkpt>
<trkpt lat="40.652571273967624" lon="14.665671559050679">
<ele>613</ele>
</trkpt>
<trkpt lat="40.65240103751421" lon="14.665807597339153">
<ele>615</ele>
</trkpt>
<trkpt lat="40.652321241796017" lon="14.66587046161294">
<ele>617</ele>
</trkpt>
<trkpt lat="40.652255192399025" lon="14.665919914841652">
<ele>620</ele>
</trkpt>
<trkpt lat="40.652221580967307" lon="14.666038351133466">
<ele>622</ele>
</trkpt>
<trkpt lat="40.652149161323905" lon="14.666113033890724">
<ele>624</ele>
</trkpt>
<trkpt lat="40.652135079726577" lon="14.66612652875483">
<ele>627</ele>
</trkpt>
<trkpt lat="40.65205461345613" lon="14.666179837659001">
<ele>630</ele>
</trkpt>
<trkpt lat="40.652009351179004" lon="14.666202049702406">
<ele>632</ele>
</trkpt>
<trkpt lat="40.651921844109893" lon="14.666172042489052">
<ele>635</ele>
</trkpt>
<trkpt lat="40.651904996484518" lon="14.666142370551825">
<ele>638</ele>
</trkpt>
<trkpt lat="40.651696287095547" lon="14.666155278682709">
<ele>641</ele>
</trkpt>
<trkpt lat="40.651560751721263" lon="14.666218226775527">
<ele>644</ele>
</trkpt>
<trkpt lat="40.651505598798394" lon="14.666262315586209">
<ele>646</ele>
</trkpt>
<trkpt lat="40.651466622948647" lon="14.666317636147141">
<ele>649</ele>
</trkpt>
<trkpt lat="40.651406943798065" lon="14.666275894269347">
<ele>652</ele>
</trkpt>
<trkpt lat="40.651312647387385" lon="14.666299866512418">
<ele>655</ele>
</trkpt>
<trkpt lat="40.651302002370358" lon="14.666268853470683">
<ele>658</ele>
</trkpt>
<trkpt lat="40.651290100067854" lon="14.666247814893723">
<ele>661</ele>
</trkpt>
<trkpt lat="40.651107123121619" lon="14.66618268750608">
<ele>664</ele>
</trkpt>
<trkpt lat="40.651090024039149" lon="14.666198864579201">
<ele>668</ele>
</trkpt>
<trkpt lat="40.651077199727297" lon="14.666262567043304">
<ele>671</ele>
</trkpt>
<trkpt lat="40.651004277169704" lon="14.666324676945806">
<ele>674</ele>
</trkpt>
<trkpt lat="40.650794142857194" lon="14.666281845420599">
<ele>677</ele>
</trkpt>
<trkpt lat="40.650771595537663" lon="14.666359461843967">
<ele>680</ele>
</trkpt>
<trkpt lat="40.650793975219131" lon="14.666491644456983">
<ele>683</ele>
</trkpt>
<trkpt lat="40.650856588035822" lon="14.666522908955812">
<ele>686</ele>
</trkpt>
<trkpt lat="40.65090143121779" lon="14.66647052206099">
<ele>689</ele>
</trkpt>
<trkpt lat="40.650950046256185" lon="14.666552413254976">
<ele>691</ele>
</trkpt>
<trkpt lat="40.651002684608102" lon="14.666605722159147">
<ele>694</ele>
</trkpt>
<trkpt lat="40.651066303253174" lon="14.666702784597874">
<ele>697</ele>
</trkpt>
<trkpt lat="40.65112816169858" lon="14.666804121807218">
<ele>700</ele>
</trkpt>
<trkpt lat="40.651210555806756" lon="14.666862040758133">
<ele>703</ele>
</trkpt>
<trkpt lat="40.651303762570024" lon="14.666987266391516">
<ele>705</ele>
</trkpt>
<trkpt lat="40.651309294626117" lon="14.667073599994183">
<ele>708</ele>
</trkpt>
<trkpt lat="40.651413984596729" lon="14.667263198643923">
<ele>711</ele>
</trkpt>
<trkpt lat="40.651414152234793" lon="14.667275436222553">
<ele>714</ele>
</trkpt>
<trkpt lat="40.651473077014089" lon="14.667360512539744">
<ele>716</ele>
</trkpt>
<trkpt lat="40.651486907154322" lon="14.667442068457603">
<ele>718</ele>
</trkpt>
<trkpt lat="40.651567289605737" lon="14.667532006278634">
<ele>721</ele>
</trkpt>
<trkpt lat="40.651601236313581" lon="14.667620519176126">
<ele>724</ele>
</trkpt>
<trkpt lat="40.651664016768336" lon="14.667736021801829">
<ele>726</ele>
</trkpt>
<trkpt lat="40.651734592393041" lon="14.667826965451241">
<ele>728</ele>
</trkpt>
<trkpt lat="40.651800893247128" lon="14.667903743684292">
<ele>731</ele>
</trkpt>
<trkpt lat="40.651913629844785" lon="14.668047660961747">
<ele>734</ele>
</trkpt>
<trkpt lat="40.651967525482178" lon="14.668087055906653">
<ele>736</ele>
</trkpt>
<trkpt lat="40.652081519365311" lon="14.668110022321343">
<ele>737</ele>
</trkpt>
<trkpt lat="40.652147652581334" lon="14.668205324560404">
<ele>739</ele>
</trkpt>
<trkpt lat="40.652170367538929" lon="14.668212700635195">
<ele>740</ele>
</trkpt>
<trkpt lat="40.652343202382326" lon="14.668240612372756">
<ele>741</ele>
</trkpt>
<trkpt lat="40.652361558750272" lon="14.668243378400803">
<ele>742</ele>
</trkpt>
<trkpt lat="40.652457615360618" lon="14.668290400877595">
<ele>744</ele>
</trkpt>
<trkpt lat="40.652553923428059" lon="14.66827305033803">
<ele>745</ele>
</trkpt>
<trkpt lat="40.652567921206355" lon="14.668300794437528">
<ele>746</ele>
</trkpt>
<trkpt lat="40.652598598971963" lon="14.668239187449217">
<ele>748</ele>
</trkpt>
<trkpt lat="40.652633970603347" lon="14.668156709522009">
<ele>749</ele>
</trkpt>
<trkpt lat="40.652746288105845" lon="14.668050929903984">
<ele>752</ele>
</trkpt>
<trkpt lat="40.652892217040062" lon="14.668096695095301">
<ele>756</ele>
</trkpt>
<trkpt lat="40.653022471815348" lon="14.668137766420841">
<ele>759</ele>
</trkpt>
<trkpt lat="40.653068823739886" lon="14.668059311807156">
<ele>762</ele>
</trkpt>
<trkpt lat="40.653215758502483" lon="14.667905671522021">
<ele>766</ele>
</trkpt>
<trkpt lat="40.653317179530859" lon="14.667813805863261">
<ele>769</ele>
</trkpt>
<trkpt lat="40.653345426544547" lon="14.667768208310008">
<ele>772</ele>
</trkpt>
<trkpt lat="40.653476184234023" lon="14.667573748156428">
<ele>775</ele>
</trkpt>
<trkpt lat="40.653550447896123" lon="14.667572490870953">
<ele>779</ele>
</trkpt>
<trkpt lat="40.653653545305133" lon="14.667751612141728">
<ele>782</ele>
</trkpt>
<trkpt lat="40.653653042390943" lon="14.667757395654917">
<ele>785</ele>
</trkpt>
<trkpt lat="40.653711799532175" lon="14.667874239385128">
<ele>788</ele>
</trkpt>
<trkpt lat="40.653744656592607" lon="14.667951269075274">
<ele>791</ele>
</trkpt>
<trkpt lat="40.6538141425699" lon="14.668010445311666">
<ele>794</ele>
</trkpt>
<trkpt lat="40.653839288279414" lon="14.668083703145385">
<ele>798</ele>
</trkpt>
<trkpt lat="40.653916234150529" lon="14.668187303468585">
<ele>801</ele>
</trkpt>
<trkpt lat="40.653882874175906" lon="14.668247485533357">
<ele>804</ele>
</trkpt>
<trkpt lat="40.653819255530834" lon="14.668271206319332">
<ele>807</ele>
</trkpt>
<trkpt lat="40.653758654370904" lon="14.668341865763068">
<ele>810</ele>
</trkpt>
<trkpt lat="40.653718169778585" lon="14.668446388095617">
<ele>813</ele>
</trkpt>
<trkpt lat="40.653669470921159" lon="14.668512688949704">
<ele>815</ele>
</trkpt>
<trkpt lat="40.653517004102468" lon="14.668460385873914">
<ele>817</ele>
</trkpt>
<trkpt lat="40.653453972190619" lon="14.668457536026835">
<ele>818</ele>
</trkpt>
<trkpt lat="40.653362022712827" lon="14.668438257649541">
<ele>820</ele>
</trkpt>
<trkpt lat="40.653252052143216" lon="14.668494584038854">
<ele>822</ele>
</trkpt>
<trkpt lat="40.653127497062087" lon="14.668485363945365">
<ele>824</ele>
</trkpt>
<trkpt lat="40.652945274487138" lon="14.668528866022825">
<ele>826</ele>
</trkpt>
<trkpt lat="40.652940832078457" lon="14.668527776375413">
<ele>827</ele>
</trkpt>
<trkpt lat="40.652929432690144" lon="14.66851738281548">
<ele>829</ele>
</trkpt>
<trkpt lat="40.652847206220031" lon="14.668624503538013">
<ele>831</ele>
</trkpt>
<trkpt lat="40.652818288654089" lon="14.668665826320648">
<ele>834</ele>
</trkpt>
<trkpt lat="40.652787359431386" lon="14.668712010607123">
<ele>836</ele>
</trkpt>
<trkpt lat="40.652776127681136" lon="14.668721063062549">
<ele>839</ele>
</trkpt>
<trkpt lat="40.652687279507518" lon="14.668820472434163">
<ele>842</ele>
</trkpt>
<trkpt lat="40.652798255905509" lon="14.668856263160706">
<ele>844</ele>
</trkpt>
<trkpt lat="40.65286522731185" lon="14.668858693912625">
<ele>847</ele>
</trkpt>
<trkpt lat="40.65288970246911" lon="14.668885767459869">
<ele>850</ele>
</trkpt>
<trkpt lat="40.652975952252746" lon="14.668898675590754">
<ele>853</ele>
</trkpt>
<trkpt lat="40.653034122660756" lon="14.668984171003103">
<ele>855</ele>
</trkpt>
<trkpt lat="40.653086761012673" lon="14.669102523475885">
<ele>858</ele>
</trkpt>
<trkpt lat="40.653188852593303" lon="14.669107804074883">
<ele>861</ele>
</trkpt>
<trkpt lat="40.653208717703819" lon="14.669118784368038">
<ele>863</ele>
</trkpt>
<trkpt lat="40.653192959725857" lon="14.669129010289907">
<ele>866</ele>
</trkpt>
<trkpt lat="40.653246939182281" lon="14.669137811288238">
<ele>867</ele>
</trkpt>
<trkpt lat="40.653267223387957" lon="14.669145187363029">
<ele>869</ele>
</trkpt>
<trkpt lat="40.653410805389285" lon="14.669193299487233">
<ele>870</ele>
</trkpt>
<trkpt lat="40.653532259166241" lon="14.669219367206097">
<ele>871</ele>
</trkpt>
<trkpt lat="40.653565870597959" lon="14.669254403561354">
<ele>872</ele>
</trkpt>
<trkpt lat="40.653698975220323" lon="14.669324979186058">
<ele>874</ele>
</trkpt>
<trkpt lat="40.653842054307461" lon="14.669387592002749">
<ele>875</ele>
</trkpt>
<trkpt lat="40.653842557221651" lon="14.669400081038475">
<ele>876</ele>
</trkpt>
<trkpt lat="40.653960993513465" lon="14.669483145698905">
<ele>878</ele>
</trkpt>
<trkpt lat="40.654023187234998" lon="14.669514829292893">
<ele>879</ele>
</trkpt>
<trkpt lat="40.654108263552189" lon="14.669568305835128">
<ele>880</ele>
</trkpt>
<trkpt lat="40.654138522222638" lon="14.669548776000738">
<ele>882</ele>
</trkpt>
<trkpt lat="40.654220161959529" lon="14.669652208685875">
<ele>883</ele>
</trkpt>
<trkpt lat="40.654298951849341" lon="14.66974139213562">
<ele>884</ele>
</trkpt>
<trkpt lat="40.654322169721127" lon="14.669765280559659">
<ele>886</ele>
</trkpt>
<trkpt lat="40.654326779767871" lon="14.669678779318929">
<ele>887</ele>
</trkpt>
<trkpt lat="40.654327450320125" lon="14.669679282233119">
<ele>888</ele>
</trkpt>
<trkpt lat="40.654328875243664" lon="14.669681042432785">
<ele>889</ele>
</trkpt>
<trkpt lat="40.654330300167203" lon="14.669674756005406">
<ele>891</ele>
</trkpt>
<trkpt lat="40.654362738132477" lon="14.669610969722271">
<ele>892</ele>
</trkpt>
<trkpt lat="40.654405821114779" lon="14.6695610973984">
<ele>896</ele>
</trkpt>
<trkpt lat="40.654540602117777" lon="14.669777769595385">
<ele>899</ele>
</trkpt>
<trkpt lat="40.654552336782217" lon="14.669948760420084">
<ele>903</ele>
</trkpt>
<trkpt lat="40.654582343995571" lon="14.670042721554637">
<ele>906</ele>
</trkpt>
<trkpt lat="40.654747383669019" lon="14.669986311346292">
<ele>910</ele>
</trkpt>
<trkpt lat="40.654873112216592" lon="14.669974744319916">
<ele>914</ele>
</trkpt>
<trkpt lat="40.655042259022593" lon="14.670025035738945">
<ele>917</ele>
</trkpt>
<trkpt lat="40.655158013105392" lon="14.670093515887856">
<ele>921</ele>
</trkpt>
<trkpt lat="40.65522188320756" lon="14.670140538364649">
<ele>924</ele>
</trkpt>
<trkpt lat="40.655212746933103" lon="14.670235421508551">
<ele>928</ele>
</trkpt>
<trkpt lat="40.655192295089364" lon="14.67030524276197">
<ele>931</ele>
</trkpt>
<trkpt lat="40.655262367799878" lon="14.670396437868476">
<ele>933</ele>
</trkpt>
<trkpt lat="40.655296063050628" lon="14.67046407982707">
<ele>936</ele>
</trkpt>
<trkpt lat="40.655398489907384" lon="14.670514538884163">
<ele>939</ele>
</trkpt>
<trkpt lat="40.655525559559464" lon="14.670518059283495">
<ele>942</ele>
</trkpt>
<trkpt lat="40.65566168166697" lon="14.670623252168298">
<ele>944</ele>
</trkpt>
<trkpt lat="40.655783219262958" lon="14.670742945745587">
<ele>947</ele>
</trkpt>
<trkpt lat="40.655916910618544" lon="14.67084520496428">
<ele>950</ele>
</trkpt>
<trkpt lat="40.655992012470961" lon="14.67092483304441">
<ele>952</ele>
</trkpt>
<trkpt lat="40.656033754348755" lon="14.671087358146906">
<ele>955</ele>
</trkpt>
<trkpt lat="40.656108688563108" lon="14.671331522986293">
<ele>958</ele>
</trkpt>
<trkpt lat="40.656137522310019" lon="14.671373935416341">
<ele>961</ele>
</trkpt>
<trkpt lat="40.656225280836225" lon="14.671452976763248">
<ele>963</ele>
</trkpt>
<trkpt lat="40.656202984973788" lon="14.671484995633364">
<ele>966</ele>
</trkpt>
<trkpt lat="40.656181694939733" lon="14.671564372256398">
<ele>965</ele>
</trkpt>
<trkpt lat="40.656210612505674" lon="14.671586584299803">
<ele>964</ele>
</trkpt>
<trkpt lat="40.656235590577126" lon="14.6715849917382">
<ele>964</ele>
</trkpt>
<trkpt lat="40.656302478164434" lon="14.671617681160569">
<ele>963</ele>
</trkpt>
<trkpt lat="40.656418232247233" lon="14.671657998114824">
<ele>962</ele>
</trkpt>
<trkpt lat="40.65648746676743" lon="14.671666631475091">
<ele>961</ele>
</trkpt>
<trkpt lat="40.65652216784656" lon="14.67169001698494">
<ele>960</ele>
</trkpt>
<trkpt lat="40.656686620786786" lon="14.671672331169248">
<ele>960</ele>
</trkpt>
<trkpt lat="40.65676205791533" lon="14.67163628898561">
<ele>959</ele>
</trkpt>
<trkpt lat="40.657001612707973" lon="14.671660512685776">
<ele>958</ele>
</trkpt>
<trkpt lat="40.657013263553381" lon="14.671662608161569">
<ele>957</ele>
</trkpt>
<trkpt lat="40.657072439789772" lon="14.671695549041033">
<ele>956</ele>
</trkpt>
<trkpt lat="40.657171010971069" lon="14.671790516003966">
<ele>955</ele>
</trkpt>
<trkpt lat="40.657234126701951" lon="14.671831168234348">
<ele>954</ele>
</trkpt>
<trkpt lat="40.657495725899935" lon="14.671844160184264">
<ele>954</ele>
</trkpt>
<trkpt lat="40.657528331503272" lon="14.671831084415317">
<ele>953</ele>
</trkpt>
<trkpt lat="40.657692113891244" lon="14.671886321157217">
<ele>952</ele>
</trkpt>
<trkpt lat="40.657748440280557" lon="14.671920770779252">
<ele>951</ele>
</trkpt>
<trkpt lat="40.657877270132303" lon="14.672148926183581">
<ele>950</ele>
</trkpt>
<trkpt lat="40.657893111929297" lon="14.672191925346851">
<ele>949</ele>
</trkpt>
<trkpt lat="40.657952288165689" lon="14.672371549531817">
<ele>947</ele>
</trkpt>
<trkpt lat="40.657970728352666" lon="14.672384457662702">
<ele>946</ele>
</trkpt>
<trkpt lat="40.658067874610424" lon="14.67245914041996">
<ele>944</ele>
</trkpt>
<trkpt lat="40.658201398327947" lon="14.672413375228643">
<ele>942</ele>
</trkpt>
<trkpt lat="40.658277254551649" lon="14.672379260882735">
<ele>940</ele>
</trkpt>
<trkpt lat="40.658364510163665" lon="14.672503229230642">
<ele>939</ele>
</trkpt>
<trkpt lat="40.658405916765332" lon="14.672496020793915">
<ele>937</ele>
</trkpt>
<trkpt lat="40.658441372215748" lon="14.6724967751652">
<ele>935</ele>
</trkpt>
<trkpt lat="40.658575817942619" lon="14.672509767115116">
<ele>934</ele>
</trkpt>
<trkpt lat="40.658637341111898" lon="14.672533823177218">
<ele>932</ele>
</trkpt>
<trkpt lat="40.65875225700438" lon="14.67263943515718">
<ele>931</ele>
</trkpt>
<trkpt lat="40.658886786550283" lon="14.672786118462682">
<ele>930</ele>
</trkpt>
<trkpt lat="40.658976305276155" lon="14.67282073572278">
<ele>928</ele>
</trkpt>
<trkpt lat="40.659154253080487" lon="14.672884605824947">
<ele>927</ele>
</trkpt>
<trkpt lat="40.659301523119211" lon="14.672937830910087">
<ele>926</ele>
</trkpt>
<trkpt lat="40.659419540315866" lon="14.672969933599234">
<ele>925</ele>
</trkpt>
<trkpt lat="40.659590195864439" lon="14.673055009916425">
<ele>924</ele>
</trkpt>
<trkpt lat="40.659670243039727" lon="14.673059368506074">
<ele>922</ele>
</trkpt>
<trkpt lat="40.659731263294816" lon="14.673070097342134">
<ele>921</ele>
</trkpt>
<trkpt lat="40.659810220822692" lon="14.673120137304068">
<ele>920</ele>
</trkpt>
<trkpt lat="40.660042567178607" lon="14.673510231077671">
<ele>919</ele>
</trkpt>
<trkpt lat="40.660056145861745" lon="14.673537723720074">
<ele>917</ele>
</trkpt>
<trkpt lat="40.660192267969251" lon="14.673592038452625">
<ele>916</ele>
</trkpt>
<trkpt lat="40.660292515531182" lon="14.673648700118065">
<ele>915</ele>
</trkpt>
<trkpt lat="40.660353116691113" lon="14.673747355118394">
<ele>914</ele>
</trkpt>
<trkpt lat="40.660365605726838" lon="14.67377501539886">
<ele>912</ele>
</trkpt>
<trkpt lat="40.660514635965228" lon="14.673953885212541">
<ele>911</ele>
</trkpt>
<trkpt lat="40.660535925999284" lon="14.67399294488132">
<ele>910</ele>
</trkpt>
<trkpt lat="40.660578506067395" lon="14.674192434176803">
<ele>908</ele>
</trkpt>
<trkpt lat="40.660578841343522" lon="14.674227386713028">
<ele>907</ele>
</trkpt>
<trkpt lat="40.660621002316475" lon="14.674603901803493">
<ele>904</ele>
</trkpt>
<trkpt lat="40.660632736980915" lon="14.674727786332369">
<ele>901</ele>
</trkpt>
<trkpt lat="40.660624019801617" lon="14.67476743273437">
<ele>898</ele>
</trkpt>
<trkpt lat="40.660631731152534" lon="14.674827195703983">
<ele>895</ele>
</trkpt>
<trkpt lat="40.66061882302165" lon="14.674869105219841">
<ele>892</ele>
</trkpt>
<trkpt lat="40.660687386989594" lon="14.674960551783442">
<ele>890</ele>
</trkpt>
<trkpt lat="40.660747736692429" lon="14.67501712962985">
<ele>887</ele>
</trkpt>
<trkpt lat="40.660769194364548" lon="14.675073707476258">
<ele>884</ele>
</trkpt>
<trkpt lat="40.660699792206287" lon="14.675209326669574">
<ele>881</ele>
</trkpt>
<trkpt lat="40.660658720880747" lon="14.675241177901626">
<ele>878</ele>
</trkpt>
<trkpt lat="40.660584289580584" lon="14.675276214256883">
<ele>875</ele>
</trkpt>
<trkpt lat="40.660511367022991" lon="14.675474110990763">
<ele>873</ele>
</trkpt>
<trkpt lat="40.660472977906466" lon="14.675607718527317">
<ele>870</ele>
</trkpt>
<trkpt lat="40.660469206050038" lon="14.675621716305614">
<ele>867</ele>
</trkpt>
<trkpt lat="40.660465434193611" lon="14.67579061165452">
<ele>864</ele>
</trkpt>
<trkpt lat="40.66045705229044" lon="14.675934445112944">
<ele>862</ele>
</trkpt>
<trkpt lat="40.660395277664065" lon="14.676110967993736">
<ele>859</ele>
</trkpt>
<trkpt lat="40.660333754494786" lon="14.676306769251823">
<ele>856</ele>
</trkpt>
<trkpt lat="40.660302406176925" lon="14.676557723432779">
<ele>854</ele>
</trkpt>
<trkpt lat="40.660322606563568" lon="14.676611954346299">
<ele>851</ele>
</trkpt>
<trkpt lat="40.660362169146538" lon="14.676724523305893">
<ele>850</ele>
</trkpt>
<trkpt lat="40.660363174974918" lon="14.676735587418079">
<ele>848</ele>
</trkpt>
<trkpt lat="40.66047415137291" lon="14.676795182749629">
<ele>847</ele>
</trkpt>
<trkpt lat="40.660524778068066" lon="14.676768109202385">
<ele>845</ele>
</trkpt>
<trkpt lat="40.660568531602621" lon="14.676771126687527">
<ele>844</ele>
</trkpt>
<trkpt lat="40.660628881305456" lon="14.676769869402051">
<ele>843</ele>
</trkpt>
<trkpt lat="40.660775229334831" lon="14.676829129457474">
<ele>841</ele>
</trkpt>
<trkpt lat="40.660867765545845" lon="14.676717985421419">
<ele>840</ele>
</trkpt>
<trkpt lat="40.660866340622306" lon="14.676715638488531">
<ele>838</ele>
</trkpt>
<trkpt lat="40.660863993689418" lon="14.676669286563993">
<ele>837</ele>
</trkpt>
<trkpt lat="40.661051832139492" lon="14.676564512774348">
<ele>835</ele>
</trkpt>
<trkpt lat="40.661052670329809" lon="14.676561327651143">
<ele>833</ele>
</trkpt>
<trkpt lat="40.661053592339158" lon="14.676564261317253">
<ele>832</ele>
</trkpt>
<trkpt lat="40.661060884594917" lon="14.676612792536616">
<ele>830</ele>
</trkpt>
<trkpt lat="40.661159036681056" lon="14.676641626283526">
<ele>828</ele>
</trkpt>
<trkpt lat="40.661218464374542" lon="14.676655540242791">
<ele>826</ele>
</trkpt>
<trkpt lat="40.661332542076707" lon="14.676703652366996">
<ele>824</ele>
</trkpt>
<trkpt lat="40.661459192633629" lon="14.676837846636772">
<ele>823</ele>
</trkpt>
<trkpt lat="40.661466736346483" lon="14.676846982911229">
<ele>821</ele>
</trkpt>
<trkpt lat="40.661580059677362" lon="14.677058374509215">
<ele>819</ele>
</trkpt>
<trkpt lat="40.661681313067675" lon="14.677316788583994">
<ele>817</ele>
</trkpt>
<trkpt lat="40.661772675812244" lon="14.677457604557276">
<ele>814</ele>
</trkpt>
<trkpt lat="40.661802850663662" lon="14.677620716392994">
<ele>812</ele>
</trkpt>
<trkpt lat="40.66179983317852" lon="14.677634378895164">
<ele>810</ele>
</trkpt>
<trkpt lat="40.661842413246632" lon="14.677712246775627">
<ele>808</ele>
</trkpt>
<trkpt lat="40.661970740184188" lon="14.677735632285476">
<ele>805</ele>
</trkpt>
<trkpt lat="40.662071909755468" lon="14.677685843780637">
<ele>803</ele>
</trkpt>
<trkpt lat="40.66218632273376" lon="14.677699422463775">
<ele>801</ele>
</trkpt>
<trkpt lat="40.662274248898029" lon="14.677756503224373">
<ele>798</ele>
</trkpt>
<trkpt lat="40.662332670763135" lon="14.677727250382304">
<ele>796</ele>
</trkpt>
<trkpt lat="40.662428811192513" lon="14.677686765789986">
<ele>794</ele>
</trkpt>
<trkpt lat="40.662525286898017" lon="14.677734039723873">
<ele>792</ele>
</trkpt>
<trkpt lat="40.662575578317046" lon="14.677781816571951">
<ele>790</ele>
</trkpt>
<trkpt lat="40.662613799795508" lon="14.677985832095146">
<ele>788</ele>
</trkpt>
<trkpt lat="40.662668868899345" lon="14.678206024691463">
<ele>786</ele>
</trkpt>
<trkpt lat="40.662771463394165" lon="14.678173251450062">
<ele>785</ele>
</trkpt>
<trkpt lat="40.662782611325383" lon="14.678188003599644">
<ele>783</ele>
</trkpt>
<trkpt lat="40.662902807816863" lon="14.678224297240376">
<ele>781</ele>
</trkpt>
<trkpt lat="40.662949327379465" lon="14.67840182594955">
<ele>779</ele>
</trkpt>
<trkpt lat="40.662933820858598" lon="14.678446836769581">
<ele>777</ele>
</trkpt>
<trkpt lat="40.662946561351418" lon="14.678772808983922">
<ele>776</ele>
</trkpt>
<trkpt lat="40.662953518331051" lon="14.678847827017307">
<ele>774</ele>
</trkpt>
<trkpt lat="40.662904651835561" lon="14.67898721806705">
<ele>773</ele>
</trkpt>
<trkpt lat="40.662895934656262" lon="14.679092243313789">
<ele>771</ele>
</trkpt>
<trkpt lat="40.662844050675631" lon="14.67930480837822">
<ele>770</ele>
</trkpt>
<trkpt lat="40.662830136716366" lon="14.679328864440322">
<ele>769</ele>
</trkpt>
<trkpt lat="40.66283424384892" lon="14.67932241037488">
<ele>767</ele>
</trkpt>
<trkpt lat="40.662822760641575" lon="14.679326768964529">
<ele>766</ele>
</trkpt>
<trkpt lat="40.662901634350419" lon="14.679456185549498">
<ele>764</ele>
</trkpt>
<trkpt lat="40.662739863619208" lon="14.67943481169641">
<ele>763</ele>
</trkpt>
<trkpt lat="40.662632323801517" lon="14.679436488077044">
<ele>760</ele>
</trkpt>
<trkpt lat="40.662626624107361" lon="14.679438415914774">
<ele>758</ele>
</trkpt>
<trkpt lat="40.662760986015201" lon="14.679618878290057">
<ele>755</ele>
</trkpt>
<trkpt lat="40.662820413708687" lon="14.679715353995562">
<ele>752</ele>
</trkpt>
<trkpt lat="40.662872213870287" lon="14.679889949038625">
<ele>750</ele>
</trkpt>
<trkpt lat="40.662904232740402" lon="14.679934456944466">
<ele>747</ele>
</trkpt>
<trkpt lat="40.66291244700551" lon="14.680115338414907">
<ele>744</ele>
</trkpt>
<trkpt lat="40.662927115336061" lon="14.680225560441613">
<ele>741</ele>
</trkpt>
<trkpt lat="40.662970449775457" lon="14.680334022268653">
<ele>739</ele>
</trkpt>
<trkpt lat="40.663048150017858" lon="14.680438712239265">
<ele>736</ele>
</trkpt>
<trkpt lat="40.663072038441896" lon="14.680460672825575">
<ele>734</ele>
</trkpt>
<trkpt lat="40.663223080337048" lon="14.680442987009883">
<ele>732</ele>
</trkpt>
<trkpt lat="40.663241604343057" lon="14.680463271215558">
<ele>729</ele>
</trkpt>
<trkpt lat="40.663270857185125" lon="14.6804921887815">
<ele>727</ele>
</trkpt>
<trkpt lat="40.663319304585457" lon="14.680516831576824">
<ele>725</ele>
</trkpt>
<trkpt lat="40.663374960422516" lon="14.680587910115719">
<ele>723</ele>
</trkpt>
<trkpt lat="40.663435813039541" lon="14.680576343089342">
<ele>721</ele>
</trkpt>
<trkpt lat="40.663600349798799" lon="14.680579779669642">
<ele>718</ele>
</trkpt>
<trkpt lat="40.663766814395785" lon="14.680608697235584">
<ele>716</ele>
</trkpt>
<trkpt lat="40.663807298988104" lon="14.680712884292006">
<ele>714</ele>
</trkpt>
<trkpt lat="40.663914168253541" lon="14.6806666161865">
<ele>713</ele>
</trkpt>
<trkpt lat="40.663942331448197" lon="14.680614899843931">
<ele>712</ele>
</trkpt>
<trkpt lat="40.664017265662551" lon="14.680411973968148">
<ele>711</ele>
</trkpt>
<trkpt lat="40.664021288976073" lon="14.680405938997865">
<ele>710</ele>
</trkpt>
<trkpt lat="40.664138719439507" lon="14.680253555998206">
<ele>708</ele>
</trkpt>
<trkpt lat="40.664195297285914" lon="14.680115757510066">
<ele>707</ele>
</trkpt>
<trkpt lat="40.664291186258197" lon="14.680089689791203">
<ele>706</ele>
</trkpt>
<trkpt lat="40.66435388289392" lon="14.680060520768166">
<ele>705</ele>
</trkpt>
<trkpt lat="40.664645237848163" lon="14.680092791095376">
<ele>704</ele>
</trkpt>
<trkpt lat="40.664716651663184" lon="14.68009103089571">
<ele>703</ele>
</trkpt>
<trkpt lat="40.664854701608419" lon="14.680169066414237">
<ele>702</ele>
</trkpt>
<trkpt lat="40.6650111079216" lon="14.680259926244617">
<ele>702</ele>
</trkpt>
<trkpt lat="40.665157958865166" lon="14.680306110531092">
<ele>701</ele>
</trkpt>
<trkpt lat="40.665190061554313" lon="14.680449441075325">
<ele>700</ele>
</trkpt>
<trkpt lat="40.665219901129603" lon="14.680721433833241">
<ele>700</ele>
</trkpt>
<trkpt lat="40.665258038789034" lon="14.681015973910689">
<ele>699</ele>
</trkpt>
<trkpt lat="40.665282346308231" lon="14.681175565347075">
<ele>698</ele>
</trkpt>
<trkpt lat="40.665304558351636" lon="14.68130623921752">
<ele>697</ele>
</trkpt>
<trkpt lat="40.665401956066489" lon="14.681440684944391">
<ele>697</ele>
</trkpt>
<trkpt lat="40.665488122031093" lon="14.681534059345722">
<ele>696</ele>
</trkpt>
<trkpt lat="40.665605468675494" lon="14.68158426694572">
<ele>697</ele>
</trkpt>
<trkpt lat="40.665629776194692" lon="14.681601952761412">
<ele>698</ele>
</trkpt>
<trkpt lat="40.665785176679492" lon="14.681689627468586">
<ele>699</ele>
</trkpt>
<trkpt lat="40.665794648230076" lon="14.681692393496633">
<ele>700</ele>
</trkpt>
<trkpt lat="40.665992209687829" lon="14.68187796883285">
<ele>702</ele>
</trkpt>
<trkpt lat="40.666009057313204" lon="14.68211492523551">
<ele>703</ele>
</trkpt>
<trkpt lat="40.66609782166779" lon="14.68244475312531">
<ele>704</ele>
</trkpt>
<trkpt lat="40.666205864399672" lon="14.682504432275891">
<ele>705</ele>
</trkpt>
<trkpt lat="40.666276356205344" lon="14.682461265474558">
<ele>706</ele>
</trkpt>
<trkpt lat="40.666387500241399" lon="14.682383481413126">
<ele>707</ele>
</trkpt>
<trkpt lat="40.666562765836716" lon="14.682285664603114">
<ele>705</ele>
</trkpt>
<trkpt lat="40.666609285399318" lon="14.682343164458871">
<ele>703</ele>
</trkpt>
<trkpt lat="40.666686063632369" lon="14.68263334594667">
<ele>702</ele>
</trkpt>
<trkpt lat="40.666746497154236" lon="14.682882539927959">
<ele>700</ele>
</trkpt>
<trkpt lat="40.666732331737876" lon="14.6829270478338">
<ele>698</ele>
</trkpt>
<trkpt lat="40.666653038933873" lon="14.683142378926277">
<ele>696</ele>
</trkpt>
<trkpt lat="40.666620517149568" lon="14.683211864903569">
<ele>694</ele>
</trkpt>
<trkpt lat="40.666595455259085" lon="14.683357710018754">
<ele>693</ele>
</trkpt>
<trkpt lat="40.666544493287802" lon="14.683540854603052">
<ele>691</ele>
</trkpt>
<trkpt lat="40.666490430012345" lon="14.683728273957968">
<ele>689</ele>
</trkpt>
<trkpt lat="40.666432427242398" lon="14.683885686099529">
<ele>690</ele>
</trkpt>
<trkpt lat="40.666384231299162" lon="14.683980820700526">
<ele>691</ele>
</trkpt>
<trkpt lat="40.666449945420027" lon="14.684160109609365">
<ele>692</ele>
</trkpt>
<trkpt lat="40.666485903784633" lon="14.684311151504517">
<ele>693</ele>
</trkpt>
<trkpt lat="40.666553378105164" lon="14.684600494801998">
<ele>694</ele>
</trkpt>
<trkpt lat="40.666581708937883" lon="14.684823621064425">
<ele>695</ele>
</trkpt>
<trkpt lat="40.666587660089135" lon="14.684836529195309">
<ele>696</ele>
</trkpt>
<trkpt lat="40.666614901274443" lon="14.684980278834701">
<ele>697</ele>
</trkpt>
<trkpt lat="40.666646081954241" lon="14.685146072879434">
<ele>698</ele>
</trkpt>
<trkpt lat="40.666654212400317" lon="14.685170631855726">
<ele>699</ele>
</trkpt>
<trkpt lat="40.666801566258073" lon="14.685258809477091">
<ele>700</ele>
</trkpt>
<trkpt lat="40.666830064728856" lon="14.685460394248366">
<ele>701</ele>
</trkpt>
<trkpt lat="40.666829058900476" lon="14.68547816388309">
<ele>701</ele>
</trkpt>
<trkpt lat="40.666838865727186" lon="14.68556902371347">
<ele>702</ele>
</trkpt>
<trkpt lat="40.666862251237035" lon="14.685687627643347">
<ele>703</ele>
</trkpt>
<trkpt lat="40.66690843552351" lon="14.685831964015961">
<ele>704</ele>
</trkpt>
<trkpt lat="40.666950009763241" lon="14.686065064743161">
<ele>705</ele>
</trkpt>
<trkpt lat="40.666970377787948" lon="14.68615785241127">
<ele>705</ele>
</trkpt>
<trkpt lat="40.667007928714156" lon="14.686346780508757">
<ele>706</ele>
</trkpt>
<trkpt lat="40.666918745264411" lon="14.686480304226279">
<ele>707</ele>
</trkpt>
<trkpt lat="40.666907429695129" lon="14.68648424372077">
<ele>708</ele>
</trkpt>
<trkpt lat="40.66674280911684" lon="14.686545683071017">
<ele>709</ele>
</trkpt>
<trkpt lat="40.666693523526192" lon="14.68661131337285">
<ele>709</ele>
</trkpt>
<trkpt lat="40.666622864082456" lon="14.686775850132108">
<ele>710</ele>
</trkpt>
<trkpt lat="40.666619427502155" lon="14.686917085200548">
<ele>711</ele>
</trkpt>
<trkpt lat="40.666530495509505" lon="14.687064690515399">
<ele>712</ele>
</trkpt>
<trkpt lat="40.666527980938554" lon="14.687106683850288">
<ele>713</ele>
</trkpt>
<trkpt lat="40.666571231558919" lon="14.687337521463633">
<ele>713</ele>
</trkpt>
<trkpt lat="40.666582966223359" lon="14.687360068783164">
<ele>714</ele>
</trkpt>
<trkpt lat="40.666599227115512" lon="14.687478840351105">
<ele>715</ele>
</trkpt>
<trkpt lat="40.666610961779952" lon="14.687618482857943">
<ele>715</ele>
</trkpt>
<trkpt lat="40.666649602353573" lon="14.68789198435843">
<ele>715</ele>
</trkpt>
<trkpt lat="40.666651781648397" lon="14.687937665730715">
<ele>715</ele>
</trkpt>
<trkpt lat="40.666659409180284" lon="14.688093150034547">
<ele>715</ele>
</trkpt>
<trkpt lat="40.666637364774942" lon="14.688247293233871">
<ele>715</ele>
</trkpt>
<trkpt lat="40.666601322591305" lon="14.688463378697634">
<ele>715</ele>
</trkpt>
<trkpt lat="40.666616074740887" lon="14.688634537160397">
<ele>715</ele>
</trkpt>
<trkpt lat="40.666636358946562" lon="14.688811646774411">
<ele>715</ele>
</trkpt>
<trkpt lat="40.666652116924524" lon="14.688864201307297">
<ele>715</ele>
</trkpt>
<trkpt lat="40.666623283177614" lon="14.689127309247851">
<ele>715</ele>
</trkpt>
<trkpt lat="40.666620852425694" lon="14.689215235412121">
<ele>714</ele>
</trkpt>
<trkpt lat="40.666628563776612" lon="14.689314980059862">
<ele>712</ele>
</trkpt>
<trkpt lat="40.666629485785961" lon="14.689360912889242">
<ele>711</ele>
</trkpt>
<trkpt lat="40.666772397235036" lon="14.689604071900249">
<ele>710</ele>
</trkpt>
<trkpt lat="40.666813552379608" lon="14.68974195420742">
<ele>708</ele>
</trkpt>
<trkpt lat="40.666840625926852" lon="14.689793922007084">
<ele>707</ele>
</trkpt>
<trkpt lat="40.66688890568912" lon="14.689909256994724">
<ele>706</ele>
</trkpt>
<trkpt lat="40.667016981169581" lon="14.689929960295558">
<ele>705</ele>
</trkpt>
<trkpt lat="40.667049419134855" lon="14.690017802640796">
<ele>703</ele>
</trkpt>
<trkpt lat="40.667097866535187" lon="14.690270265564322">
<ele>702</ele>
</trkpt>
<trkpt lat="40.667112870141864" lon="14.690324664115906">
<ele>701</ele>
</trkpt>
<trkpt lat="40.667228456586599" lon="14.690653905272484">
<ele>700</ele>
</trkpt>
<trkpt lat="40.667301043868065" lon="14.690908547490835">
<ele>699</ele>
</trkpt>
<trkpt lat="40.667339097708464" lon="14.69102798961103">
<ele>698</ele>
</trkpt>
<trkpt lat="40.667366338893771" lon="14.691252456977963">
<ele>696</ele>
</trkpt>
<trkpt lat="40.667369104921818" lon="14.691431494429708">
<ele>695</ele>
</trkpt>
<trkpt lat="40.667379666119814" lon="14.691549427807331">
<ele>694</ele>
</trkpt>
<trkpt lat="40.667378911748528" lon="14.691560240462422">
<ele>693</ele>
</trkpt>
<trkpt lat="40.667383605614305" lon="14.691592762246728">
<ele>692</ele>
</trkpt>
<trkpt lat="40.667389556765556" lon="14.691636264324188">
<ele>691</ele>
</trkpt>
<trkpt lat="40.667372960597277" lon="14.691761657595634">
<ele>691</ele>
</trkpt>
<trkpt lat="40.667378241196275" lon="14.691798621788621">
<ele>691</ele>
</trkpt>
<trkpt lat="40.667397687211633" lon="14.691998362541199">
<ele>691</ele>
</trkpt>
<trkpt lat="40.66739802248776" lon="14.692093748599291">
<ele>690</ele>
</trkpt>
<trkpt lat="40.66737555898726" lon="14.692209418863058">
<ele>690</ele>
</trkpt>
<trkpt lat="40.667348401620984" lon="14.692256944254041">
<ele>690</ele>
</trkpt>
<trkpt lat="40.667280005291104" lon="14.692529607564211">
<ele>690</ele>
</trkpt>
<trkpt lat="40.667295008897781" lon="14.692524997517467">
<ele>690</ele>
</trkpt>
<trkpt lat="40.667290985584259" lon="14.692532625049353">
<ele>690</ele>
</trkpt>
<trkpt lat="40.667284531518817" lon="14.692511670291424">
<ele>690</ele>
</trkpt>
<trkpt lat="40.667280424386263" lon="14.692431287840009">
<ele>689</ele>
</trkpt>
<trkpt lat="40.667327111586928" lon="14.692298518493772">
<ele>689</ele>
</trkpt>
<trkpt lat="40.667403638362885" lon="14.692253172397614">
<ele>689</ele>
</trkpt>
<trkpt lat="40.667464658617973" lon="14.692276138812304">
<ele>689</ele>
</trkpt>
<trkpt lat="40.667483182623982" lon="14.692278150469065">
<ele>689</ele>
</trkpt>
<trkpt lat="40.667712343856692" lon="14.692395916208625">
<ele>688</ele>
</trkpt>
<trkpt lat="40.667758779600263" lon="14.692436652258039">
<ele>688</ele>
</trkpt>
<trkpt lat="40.667852237820625" lon="14.692520638927817">
<ele>688</ele>
</trkpt>
<trkpt lat="40.667951479554176" lon="14.69255886040628">
<ele>688</ele>
</trkpt>
<trkpt lat="40.667977463454008" lon="14.692552406340837">
<ele>687</ele>
</trkpt>
<trkpt lat="40.668042087927461" lon="14.692655839025974">
<ele>687</ele>
</trkpt>
<trkpt lat="40.668166894465685" lon="14.692706968635321">
<ele>687</ele>
</trkpt>
<trkpt lat="40.66820427775383" lon="14.692697329446673">
<ele>686</ele>
</trkpt>
<trkpt lat="40.668331012129784" lon="14.692783076316118">
<ele>686</ele>
</trkpt>
<trkpt lat="40.668341405689716" lon="14.692786177620292">
<ele>686</ele>
</trkpt>
<trkpt lat="40.668440060690045" lon="14.69278316013515">
<ele>686</ele>
</trkpt>
<trkpt lat="40.668477276340127" lon="14.692783076316118">
<ele>685</ele>
</trkpt>
<trkpt lat="40.668579787015915" lon="14.692722307518125">
<ele>685</ele>
</trkpt>
<trkpt lat="40.668591940775514" lon="14.69272063113749">
<ele>683</ele>
</trkpt>
<trkpt lat="40.66874130629003" lon="14.692684505134821">
<ele>681</ele>
</trkpt>
<trkpt lat="40.668748263269663" lon="14.692709902301431">
<ele>679</ele>
</trkpt>
<trkpt lat="40.668809534981847" lon="14.692703783512115">
<ele>677</ele>
</trkpt>
<trkpt lat="40.668827220797539" lon="14.692823560908437">
<ele>675</ele>
</trkpt>
<trkpt lat="40.668880948796868" lon="14.69288868829608">
<ele>673</ele>
</trkpt>
<trkpt lat="40.669010952115059" lon="14.692971920594573">
<ele>671</ele>
</trkpt>
<trkpt lat="40.669140955433249" lon="14.693002765998244">
<ele>669</ele>
</trkpt>
<trkpt lat="40.669323513284326" lon="14.692922802641988">
<ele>667</ele>
</trkpt>
<trkpt lat="40.669338516891003" lon="14.692928502336144">
<ele>665</ele>
</trkpt>
<trkpt lat="40.669439015910029" lon="14.692923473194242">
<ele>663</ele>
</trkpt>
<trkpt lat="40.669470950961113" lon="14.692920288071036">
<ele>662</ele>
</trkpt>
<trkpt lat="40.669549321755767" lon="14.692850382998586">
<ele>660</ele>
</trkpt>
<trkpt lat="40.6696701887995" lon="14.692751644179225">
<ele>658</ele>
</trkpt>
<trkpt lat="40.669678905978799" lon="14.69274845905602">
<ele>656</ele>
</trkpt>
<trkpt lat="40.669805807992816" lon="14.692635051906109">
<ele>655</ele>
</trkpt>
<trkpt lat="40.669882837682962" lon="14.692642847076058">
<ele>653</ele>
</trkpt>
<trkpt lat="40.670131947845221" lon="14.692912828177214">
<ele>651</ele>
</trkpt>
<trkpt lat="40.670337053015828" lon="14.693156071007252">
<ele>650</ele>
</trkpt>
<trkpt lat="40.670356079936028" lon="14.693188173696399">
<ele>648</ele>
</trkpt>
<trkpt lat="40.670471666380763" lon="14.693191945552826">
<ele>646</ele>
</trkpt>
<trkpt lat="40.670544505119324" lon="14.693060852587223">
<ele>643</ele>
</trkpt>
<trkpt lat="40.670560263097286" lon="14.692826913669705">
<ele>641</ele>
</trkpt>
<trkpt lat="40.670605525374413" lon="14.692712835967541">
<ele>638</ele>
</trkpt>
<trkpt lat="40.670667719095945" lon="14.692550813779235">
<ele>636</ele>
</trkpt>
<trkpt lat="40.670723877847195" lon="14.692376721650362">
<ele>634</ele>
</trkpt>
<trkpt lat="40.670739635825157" lon="14.692190308123827">
<ele>631</ele>
</trkpt>
<trkpt lat="40.670727733522654" lon="14.692087462171912">
<ele>629</ele>
</trkpt>
<trkpt lat="40.670673418790102" lon="14.69181764870882">
<ele>626</ele>
</trkpt>
<trkpt lat="40.670648859813809" lon="14.691778337582946">
<ele>624</ele>
</trkpt>
<trkpt lat="40.670674843713641" lon="14.691589409485459">
<ele>622</ele>
</trkpt>
<trkpt lat="40.670794956386089" lon="14.69130601733923">
<ele>619</ele>
</trkpt>
<trkpt lat="40.670846421271563" lon="14.691173583269119">
<ele>617</ele>
</trkpt>
<trkpt lat="40.67084432579577" lon="14.691187161952257">
<ele>615</ele>
</trkpt>
<trkpt lat="40.670801242813468" lon="14.691095212474465">
<ele>612</ele>
</trkpt>
<trkpt lat="40.670780958607793" lon="14.690980380401015">
<ele>610</ele>
</trkpt>
<trkpt lat="40.670734690502286" lon="14.690808970481157">
<ele>608</ele>
</trkpt>
<trkpt lat="40.670734606683254" lon="14.690745687112212">
<ele>606</ele>
</trkpt>
<trkpt lat="40.670674089342356" lon="14.690527422353625">
<ele>603</ele>
</trkpt>
<trkpt lat="40.670703677460551" lon="14.690576456487179">
<ele>601</ele>
</trkpt>
<trkpt lat="40.670770816504955" lon="14.690599674358964">
<ele>599</ele>
</trkpt>
<trkpt lat="40.670878691598773" lon="14.690662790089846">
<ele>596</ele>
</trkpt>
<trkpt lat="40.67093912512064" lon="14.690554579719901">
<ele>594</ele>
</trkpt>
<trkpt lat="40.671056220307946" lon="14.69045776873827">
<ele>591</ele>
</trkpt>
<trkpt lat="40.671069631353021" lon="14.690459193661809">
<ele>589</ele>
</trkpt>
<trkpt lat="40.671172644942999" lon="14.690439244732261">
<ele>587</ele>
</trkpt>
<trkpt lat="40.671296026557684" lon="14.690438657999039">
<ele>584</ele>
</trkpt>
<trkpt lat="40.671358807012439" lon="14.690536307170987">
<ele>582</ele>
</trkpt>
<trkpt lat="40.671433908864856" lon="14.690717691555619">
<ele>579</ele>
</trkpt>
<trkpt lat="40.671441284939647" lon="14.690727163106203">
<ele>577</ele>
</trkpt>
<trkpt lat="40.671544885262847" lon="14.690942410379648">
<ele>576</ele>
</trkpt>
<trkpt lat="40.671654269099236" lon="14.691081633791327">
<ele>575</ele>
</trkpt>
<trkpt lat="40.671660136431456" lon="14.691082388162613">
<ele>573</ele>
</trkpt>
<trkpt lat="40.67170724272728" lon="14.691234603524208">
<ele>572</ele>
</trkpt>
<trkpt lat="40.67171411588788" lon="14.691279530525208">
<ele>571</ele>
</trkpt>
<trkpt lat="40.671732220798731" lon="14.691465441137552">
<ele>570</ele>
</trkpt>
<trkpt lat="40.671738674864173" lon="14.691564766690135">
<ele>569</ele>
</trkpt>
<trkpt lat="40.671740937978029" lon="14.691621093079448">
<ele>567</ele>
</trkpt>
<trkpt lat="40.671701459214091" lon="14.691898282617331">
<ele>566</ele>
</trkpt>
<trkpt lat="40.671689556911588" lon="14.691930888220668">
<ele>565</ele>
</trkpt>
<trkpt lat="40.671683521941304" lon="14.692046139389277">
<ele>562</ele>
</trkpt>
<trkpt lat="40.671710511669517" lon="14.692165330052376">
<ele>560</ele>
</trkpt>
<trkpt lat="40.671749571338296" lon="14.692341769114137">
<ele>557</ele>
</trkpt>
<trkpt lat="40.671808999031782" lon="14.692480573430657">
<ele>555</ele>
</trkpt>
<trkpt lat="40.671805813908577" lon="14.692495996132493">
<ele>552</ele>
</trkpt>
<trkpt lat="40.67183188162744" lon="14.692578725516796">
<ele>549</ele>
</trkpt>
<trkpt lat="40.671923160552979" lon="14.69266640022397">
<ele>547</ele>
</trkpt>
<trkpt lat="40.67202634178102" lon="14.692668663337827">
<ele>544</ele>
</trkpt>
<trkpt lat="40.67218710668385" lon="14.692536061629653">
<ele>542</ele>
</trkpt>
<trkpt lat="40.672333454713225" lon="14.692555842921138">
<ele>539</ele>
</trkpt>
<trkpt lat="40.672550881281495" lon="14.692635135725141">
<ele>537</ele>
</trkpt>
<trkpt lat="40.672640819102526" lon="14.692649636417627">
<ele>535</ele>
</trkpt>
<trkpt lat="40.672783646732569" lon="14.692616779357195">
<ele>532</ele>
</trkpt>
<trkpt lat="40.672870986163616" lon="14.692649468779564">
<ele>530</ele>
</trkpt>
<trkpt lat="40.672907028347254" lon="14.69268249347806">
<ele>528</ele>
</trkpt>
<trkpt lat="40.67312722094357" lon="14.692822303622961">
<ele>526</ele>
</trkpt>
<trkpt lat="40.673269378021359" lon="14.692863123491406">
<ele>524</ele>
</trkpt>
<trkpt lat="40.673399046063423" lon="14.692864548414946">
<ele>521</ele>
</trkpt>
<trkpt lat="40.673414720222354" lon="14.692870080471039">
<ele>519</ele>
</trkpt>
<trkpt lat="40.673615969717503" lon="14.692913414910436">
<ele>517</ele>
</trkpt>
<trkpt lat="40.673741111531854" lon="14.692906541749835">
<ele>516</ele>
</trkpt>
<trkpt lat="40.67389877513051" lon="14.692773520946503">
<ele>514</ele>
</trkpt>
<trkpt lat="40.673923082649708" lon="14.692742507904768">
<ele>513</ele>
</trkpt>
<trkpt lat="40.673963148146868" lon="14.69251586124301">
<ele>511</ele>
</trkpt>
<trkpt lat="40.6739701051265" lon="14.692469509318471">
<ele>510</ele>
</trkpt>
<trkpt lat="40.673991395160556" lon="14.692281670868397">
<ele>509</ele>
</trkpt>
<trkpt lat="40.674074459820986" lon="14.692245041951537">
<ele>507</ele>
</trkpt>
<trkpt lat="40.674133133143187" lon="14.692248143255711">
<ele>506</ele>
</trkpt>
<trkpt lat="40.674149645492435" lon="14.692223081365228">
<ele>504</ele>
</trkpt>
<trkpt lat="40.674200104549527" lon="14.69247336499393">
<ele>503</ele>
</trkpt>
<trkpt lat="40.674217371270061" lon="14.692557100206614">
<ele>503</ele>
</trkpt>
<trkpt lat="40.674276798963547" lon="14.692709483206272">
<ele>503</ele>
</trkpt>
<trkpt lat="40.674286941066384" lon="14.692716272547841">
<ele>502</ele>
</trkpt>
<trkpt lat="40.674406634643674" lon="14.693039311096072">
<ele>502</ele>
</trkpt>
<trkpt lat="40.674416860565543" lon="14.693099744617939">
<ele>502</ele>
</trkpt>
<trkpt lat="40.674430690705776" lon="14.693231927230954">
<ele>502</ele>
</trkpt>
<trkpt lat="40.674453070387244" lon="14.69336855225265">
<ele>502</ele>
</trkpt>
<trkpt lat="40.67452079616487" lon="14.693512888625264">
<ele>501</ele>
</trkpt>
<trkpt lat="40.674576116725802" lon="14.693693351000547">
<ele>501</ele>
</trkpt>
<trkpt lat="40.674686506390572" lon="14.693936510011554">
<ele>501</ele>
</trkpt>
<trkpt lat="40.674751382321119" lon="14.694160223007202">
<ele>499</ele>
</trkpt>
<trkpt lat="40.674844924360514" lon="14.694525422528386">
<ele>496</ele>
</trkpt>
<trkpt lat="40.67494978196919" lon="14.694663137197495">
<ele>494</ele>
</trkpt>
<trkpt lat="40.675079114735126" lon="14.694762043654919">
<ele>492</ele>
</trkpt>
<trkpt lat="40.675153126940131" lon="14.694892046973109">
<ele>490</ele>
</trkpt>
<trkpt lat="40.67517458461225" lon="14.694902691990137">
<ele>487</ele>
</trkpt>
<trkpt lat="40.675311796367168" lon="14.695008052513003">
<ele>485</ele>
</trkpt>
<trkpt lat="40.675432495772839" lon="14.695037975907326">
<ele>483</ele>
</trkpt>
<trkpt lat="40.675616478547454" lon="14.695069659501314">
<ele>480</ele>
</trkpt>
<trkpt lat="40.675788642838597" lon="14.695132188498974">
<ele>478</ele>
</trkpt>
<trkpt lat="40.675980504602194" lon="14.695184575393796">
<ele>475</ele>
</trkpt>
<trkpt lat="40.676173120737076" lon="14.695205865427852">
<ele>473</ele>
</trkpt>
<trkpt lat="40.676209414377809" lon="14.695208631455898">
<ele>470</ele>
</trkpt>
<trkpt lat="40.676470091566443" lon="14.695252301171422">
<ele>468</ele>
</trkpt>
<trkpt lat="40.676666395738721" lon="14.695366295054555">
<ele>465</ele>
</trkpt>
<trkpt lat="40.676836464554071" lon="14.695402840152383">
<ele>462</ele>
</trkpt>
<trkpt lat="40.676961354911327" lon="14.695445336401463">
<ele>460</ele>
</trkpt>
<trkpt lat="40.677093118429184" lon="14.695494454354048">
<ele>457</ele>
</trkpt>
<trkpt lat="40.677271233871579" lon="14.695505183190107">
<ele>455</ele>
</trkpt>
<trkpt lat="40.677484553307295" lon="14.695458747446537">
<ele>452</ele>
</trkpt>
<trkpt lat="40.677703740075231" lon="14.695343244820833">
<ele>450</ele>
</trkpt>
<trkpt lat="40.6778469029814" lon="14.695258168503642">
<ele>449</ele>
</trkpt>
<trkpt lat="40.678071705624461" lon="14.695143587887287">
<ele>448</ele>
</trkpt>
<trkpt lat="40.678102467209101" lon="14.695119028910995">
<ele>446</ele>
</trkpt>
<trkpt lat="40.678261891007423" lon="14.695004280656576">
<ele>444</ele>
</trkpt>
<trkpt lat="40.678453501313925" lon="14.694806970655918">
<ele>443</ele>
</trkpt>
<trkpt lat="40.678514605388045" lon="14.694587448611856">
<ele>442</ele>
</trkpt>
<trkpt lat="40.678468504920602" lon="14.694436741992831">
<ele>440</ele>
</trkpt>
<trkpt lat="40.678440257906914" lon="14.694264410063624">
<ele>438</ele>
</trkpt>
<trkpt lat="40.678434055298567" lon="14.69425736926496">
<ele>437</ele>
</trkpt>
<trkpt lat="40.678403964266181" lon="14.694109428673983">
<ele>436</ele>
</trkpt>
<trkpt lat="40.678375046700239" lon="14.693892085924745">
<ele>435</ele>
</trkpt>
<trkpt lat="40.678319726139307" lon="14.693730399012566">
<ele>434</ele>
</trkpt>
<trkpt lat="40.678153680637479" lon="14.693509032949805">
<ele>433</ele>
</trkpt>
<trkpt lat="40.678146807476878" lon="14.693481624126434">
<ele>432</ele>
</trkpt>
<trkpt lat="40.678311176598072" lon="14.69339931383729">
<ele>432</ele>
</trkpt>
<trkpt lat="40.678460793569684" lon="14.693336365744472">
<ele>431</ele>
</trkpt>
<trkpt lat="40.67873421125114" lon="14.693336198106408">
<ele>430</ele>
</trkpt>
<trkpt lat="40.678845858201385" lon="14.693335946649313">
<ele>429</ele>
</trkpt>
<trkpt lat="40.678948871791363" lon="14.693344831466675">
<ele>428</ele>
</trkpt>
<trkpt lat="40.67907284013927" lon="14.693325804546475">
<ele>426</ele>
</trkpt>
<trkpt lat="40.679265623912215" lon="14.693332677707076">
<ele>424</ele>
</trkpt>
<trkpt lat="40.679496210068464" lon="14.693245086818933">
<ele>422</ele>
</trkpt>
<trkpt lat="40.679599810391665" lon="14.693115167319775">
<ele>420</ele>
</trkpt>
<trkpt lat="40.67973006516695" lon="14.692877121269703">
<ele>418</ele>
</trkpt>
<trkpt lat="40.679861074313521" lon="14.692599093541503">
<ele>415</ele>
</trkpt>
<trkpt lat="40.67997875623405" lon="14.692292483523488">
<ele>413</ele>
</trkpt>
<trkpt lat="40.680088391527534" lon="14.69214647077024">
<ele>411</ele>
</trkpt>
<trkpt lat="40.680184448137879" lon="14.691882105544209">
<ele>409</ele>
</trkpt>
<trkpt lat="40.680206408724189" lon="14.691708348691463">
<ele>407</ele>
</trkpt>
<trkpt lat="40.680165588855743" lon="14.691523192450404">
<ele>406</ele>
</trkpt>
<trkpt lat="40.680117728188634" lon="14.691468793898821">
<ele>404</ele>
</trkpt>
<trkpt lat="40.680021671578288" lon="14.691363601014018">
<ele>402</ele>
</trkpt>
<trkpt lat="40.679868031293154" lon="14.691312471404672">
<ele>401</ele>
</trkpt>
<trkpt lat="40.679823774844408" lon="14.691249942407012">
<ele>400</ele>
</trkpt>
<trkpt lat="40.679912539198995" lon="14.691181797534227">
<ele>398</ele>
</trkpt>
<trkpt lat="40.6799450609833" lon="14.691145252436399">
<ele>396</ele>
</trkpt>
<trkpt lat="40.679985964670777" lon="14.691141396760941">
<ele>395</ele>
</trkpt>
<trkpt lat="40.680076237767935" lon="14.691091272979975">
<ele>394</ele>
</trkpt>
<trkpt lat="40.680206576362252" lon="14.691073419526219">
<ele>392</ele>
</trkpt>
<trkpt lat="40.680340686812997" lon="14.691081382334232">
<ele>390</ele>
</trkpt>
<trkpt lat="40.680475048720837" lon="14.691061684861779">
<ele>387</ele>
</trkpt>
<trkpt lat="40.680586779490113" lon="14.691031007096171">
<ele>385</ele>
</trkpt>
<trkpt lat="40.680713010951877" lon="14.690960934385657">
<ele>383</ele>
</trkpt>
<trkpt lat="40.680903699249029" lon="14.690933777019382">
<ele>380</ele>
</trkpt>
<trkpt lat="40.681029260158539" lon="14.691029414534569">
<ele>378</ele>
</trkpt>
<trkpt lat="40.681140990927815" lon="14.690914331004024">
<ele>376</ele>
</trkpt>
<trkpt lat="40.681203436106443" lon="14.690744513645768">
<ele>374</ele>
</trkpt>
<trkpt lat="40.681214584037662" lon="14.690731521695852">
<ele>371</ele>
</trkpt>
<trkpt lat="40.681307204067707" lon="14.690545862540603">
<ele>369</ele>
</trkpt>
<trkpt lat="40.681372666731477" lon="14.690303709357977">
<ele>367</ele>
</trkpt>
<trkpt lat="40.681393202394247" lon="14.690244030207396">
<ele>365</ele>
</trkpt>
<trkpt lat="40.681620854884386" lon="14.690125761553645">
<ele>363</ele>
</trkpt>
<trkpt lat="40.681704757735133" lon="14.689984191209078">
<ele>361</ele>
</trkpt>
<trkpt lat="40.681718252599239" lon="14.68985234387219">
<ele>358</ele>
</trkpt>
<trkpt lat="40.681746751070023" lon="14.689700966700912">
<ele>356</ele>
</trkpt>
<trkpt lat="40.681755300611258" lon="14.689624775201082">
<ele>354</ele>
</trkpt>
<trkpt lat="40.681837610900402" lon="14.68959778547287">
<ele>352</ele>
</trkpt>
<trkpt lat="40.681985886767507" lon="14.689718401059508">
<ele>350</ele>
</trkpt>
<trkpt lat="40.681980522349477" lon="14.689803225919604">
<ele>348</ele>
</trkpt>
<trkpt lat="40.681938612833619" lon="14.689995590597391">
<ele>346</ele>
</trkpt>
<trkpt lat="40.681925704702735" lon="14.690058203414083">
<ele>345</ele>
</trkpt>
<trkpt lat="40.681843645870686" lon="14.690271858125925">
<ele>343</ele>
</trkpt>
<trkpt lat="40.681761587038636" lon="14.690324077382684">
<ele>342</ele>
</trkpt>
<trkpt lat="40.681650023907423" lon="14.690380403771996">
<ele>340</ele>
</trkpt>
<trkpt lat="40.681643234565854" lon="14.690406220033765">
<ele>338</ele>
</trkpt>
<trkpt lat="40.681615993380547" lon="14.690585257485509">
<ele>337</ele>
</trkpt>
<trkpt lat="40.681621357798576" lon="14.690654659643769">
<ele>335</ele>
</trkpt>
<trkpt lat="40.681620938703418" lon="14.690709142014384">
<ele>334</ele>
</trkpt>
<trkpt lat="40.681583220139146" lon="14.690820537507534">
<ele>332</ele>
</trkpt>
<trkpt lat="40.681610545143485" lon="14.690966885536909">
<ele>333</ele>
</trkpt>
<trkpt lat="40.681597301736474" lon="14.691110886633396">
<ele>333</ele>
</trkpt>
<trkpt lat="40.681583471596241" lon="14.691189425066113">
<ele>334</ele>
</trkpt>
<trkpt lat="40.681644910946488" lon="14.691410874947906">
<ele>335</ele>
</trkpt>
<trkpt lat="40.681705344468355" lon="14.691408025100827">
<ele>336</ele>
</trkpt>
<trkpt lat="40.681854207068682" lon="14.691398218274117">
<ele>336</ele>
</trkpt>
<trkpt lat="40.681875161826611" lon="14.691414143890142">
<ele>337</ele>
</trkpt>
<trkpt lat="40.681876000016928" lon="14.691454041749239">
<ele>338</ele>
</trkpt>
<trkpt lat="40.681943474337459" lon="14.691557558253407">
<ele>338</ele>
</trkpt>
<trkpt lat="40.68188295699656" lon="14.691341891884804">
<ele>339</ele>
</trkpt>
<trkpt lat="40.681973984465003" lon="14.691405091434717">
<ele>340</ele>
</trkpt>
<trkpt lat="40.681978343054652" lon="14.691417496651411">
<ele>341</ele>
</trkpt>
<trkpt lat="40.681986976414919" lon="14.691706504672766">
<ele>342</ele>
</trkpt>
<trkpt lat="40.68205201998353" lon="14.691726202145219">
<ele>344</ele>
</trkpt>
<trkpt lat="40.682087726891041" lon="14.691599886864424">
<ele>345</ele>
</trkpt>
<trkpt lat="40.682115135714412" lon="14.691525036469102">
<ele>346</ele>
</trkpt>
<trkpt lat="40.682118991389871" lon="14.691290678456426">
<ele>347</ele>
</trkpt>
<trkpt lat="40.682115973904729" lon="14.691195040941238">
<ele>348</ele>
</trkpt>
</trkseg>
</trk>
</gpx>
