<?xml version="1.0" encoding="UTF-8"?>
<gpx version="1.1"
creator="Smartprofil-Office - http://www.rother.de"
xmlns:xsi="http://www.w3.org/2001/XMLSchema-instance"
xmlns="http://www.topografix.com/GPX/1/1"
xsi:schemaLocation="http://www.topografix.com/GPX/1/1 http://www.topografix.com/GPX/1/1/gpx.xsd">
<metadata>

<bounds minlat="40.598815530538559" minlon="14.341652579605579" maxlat="40.61175936833024" maxlon="14.374392544850707"/>
</metadata>
<wpt lat="40.611736988648772" lon="14.343860959634185">
<ele>137</ele>
<name>39_Massa Lubrense (1)</name>
<cmt></cmt>
<desc></desc>
<sym>Crossing</sym>
</wpt>

<wpt lat="40.610476015135646" lon="14.352437993511558">
<ele>224</ele>
<name>39_S. Francesco (2)</name>
<cmt></cmt>
<desc></desc>
<sym>Crossing</sym>
</wpt>

<wpt lat="40.60131199657917" lon="14.357131021097302">
<ele>300</ele>
<name>39_Monticchio (3)</name>
<cmt></cmt>
<desc></desc>
<sym>Crossing</sym>
</wpt>

<wpt lat="40.599348032847047" lon="14.365426003932953">
<ele>424</ele>
<name>39_S. Maria della Neve (4)</name>
<cmt></cmt>
<desc></desc>
<sym>Crossing</sym>
</wpt>

<wpt lat="40.6081488635391" lon="14.373213043436408">
<ele>394</ele>
<name>39_S. Agata (5)</name>
<cmt></cmt>
<desc></desc>
<sym>Crossing</sym>
</wpt>

<wpt lat="40.611000973731279" lon="14.364799959585071">
<ele>457</ele>
<name>39_Monastero del Deserto (6)</name>
<cmt></cmt>
<desc></desc>
<sym>Crossing</sym>
</wpt>

<trk>
<name>Neapel_39_Massa Lubrense - Sant'Agata</name>
<trkseg>
<trkpt lat="40.611736988648772" lon="14.343860959634185">
<ele>137</ele>
</trkpt>
<trkpt lat="40.611739670857787" lon="14.34385484084487">
<ele>136</ele>
</trkpt>
<trkpt lat="40.61175936833024" lon="14.343724669888616">
<ele>135</ele>
</trkpt>
<trkpt lat="40.611714776605368" lon="14.34365794993937">
<ele>134</ele>
</trkpt>
<trkpt lat="40.611661300063133" lon="14.343600030988455">
<ele>133</ele>
</trkpt>
<trkpt lat="40.611515371128917" lon="14.343517972156405">
<ele>132</ele>
</trkpt>
<trkpt lat="40.611487710848451" lon="14.343512691557407">
<ele>131</ele>
</trkpt>
<trkpt lat="40.611315714195371" lon="14.343463992699981">
<ele>130</ele>
</trkpt>
<trkpt lat="40.611274726688862" lon="14.343449072912335">
<ele>129</ele>
</trkpt>
<trkpt lat="40.610710540786386" lon="14.343303143978119">
<ele>128</ele>
</trkpt>
<trkpt lat="40.61068338342011" lon="14.342574421316385">
<ele>127</ele>
</trkpt>
<trkpt lat="40.610649101436138" lon="14.342451374977827">
<ele>126</ele>
</trkpt>
<trkpt lat="40.610632672905922" lon="14.342424720525742">
<ele>125</ele>
</trkpt>
<trkpt lat="40.610515912994742" lon="14.34230980463326">
<ele>124</ele>
</trkpt>
<trkpt lat="40.610275771468878" lon="14.342168821021914">
<ele>123</ele>
</trkpt>
<trkpt lat="40.610163202509284" lon="14.342128504067659">
<ele>122</ele>
</trkpt>
<trkpt lat="40.609978130087256" lon="14.342070585116744">
<ele>122</ele>
</trkpt>
<trkpt lat="40.609910320490599" lon="14.342045858502388">
<ele>121</ele>
</trkpt>
<trkpt lat="40.609569093212485" lon="14.341902192682028">
<ele>120</ele>
</trkpt>
<trkpt lat="40.609460631385446" lon="14.341848129406571">
<ele>119</ele>
</trkpt>
<trkpt lat="40.609288131818175" lon="14.341764561831951">
<ele>118</ele>
</trkpt>
<trkpt lat="40.609103143215179" lon="14.341706559062004">
<ele>119</ele>
</trkpt>
<trkpt lat="40.608945311978459" lon="14.341652579605579">
<ele>121</ele>
</trkpt>
<trkpt lat="40.609507989138365" lon="14.341738997027278">
<ele>122</ele>
</trkpt>
<trkpt lat="40.61020159162581" lon="14.342063292860985">
<ele>124</ele>
</trkpt>
<trkpt lat="40.61027342453599" lon="14.342097574844956">
<ele>125</ele>
</trkpt>
<trkpt lat="40.61038238927722" lon="14.342206623405218">
<ele>126</ele>
</trkpt>
<trkpt lat="40.610529575496912" lon="14.342330424115062">
<ele>128</ele>
</trkpt>
<trkpt lat="40.610672822222114" lon="14.342691516503692">
<ele>129</ele>
</trkpt>
<trkpt lat="40.610695956274867" lon="14.343380928039551">
<ele>131</ele>
</trkpt>
<trkpt lat="40.610725963488221" lon="14.343607826158404">
<ele>132</ele>
</trkpt>
<trkpt lat="40.610731495544314" lon="14.344616336748004">
<ele>134</ele>
</trkpt>
<trkpt lat="40.610669050365686" lon="14.345049513503909">
<ele>136</ele>
</trkpt>
<trkpt lat="40.610658405348659" lon="14.345129057765007">
<ele>138</ele>
</trkpt>
<trkpt lat="40.610615657642484" lon="14.345287559553981">
<ele>140</ele>
</trkpt>
<trkpt lat="40.610499065369368" lon="14.345249757170677">
<ele>142</ele>
</trkpt>
<trkpt lat="40.610453467816114" lon="14.345229053869843">
<ele>144</ele>
</trkpt>
<trkpt lat="40.610358584672213" lon="14.345261324197054">
<ele>146</ele>
</trkpt>
<trkpt lat="40.610258420929313" lon="14.345356542617083">
<ele>148</ele>
</trkpt>
<trkpt lat="40.610060608014464" lon="14.345508171245456">
<ele>150</ele>
</trkpt>
<trkpt lat="40.609918534755707" lon="14.345640353858471">
<ele>152</ele>
</trkpt>
<trkpt lat="40.609827004373074" lon="14.345726603642106">
<ele>154</ele>
</trkpt>
<trkpt lat="40.609804540872574" lon="14.34574487619102">
<ele>155</ele>
</trkpt>
<trkpt lat="40.609720470383763" lon="14.345821738243103">
<ele>156</ele>
</trkpt>
<trkpt lat="40.60965727083385" lon="14.345899187028408">
<ele>158</ele>
</trkpt>
<trkpt lat="40.609487621113658" lon="14.34606003575027">
<ele>160</ele>
</trkpt>
<trkpt lat="40.609339931979775" lon="14.346214514225721">
<ele>161</ele>
</trkpt>
<trkpt lat="40.609073303639889" lon="14.346440406516194">
<ele>162</ele>
</trkpt>
<trkpt lat="40.608964674174786" lon="14.346532607451081">
<ele>164</ele>
</trkpt>
<trkpt lat="40.608878759667277" lon="14.346596142277122">
<ele>166</ele>
</trkpt>
<trkpt lat="40.608792509883642" lon="14.346677782014012">
<ele>167</ele>
</trkpt>
<trkpt lat="40.608852105215192" lon="14.346822705119848">
<ele>169</ele>
</trkpt>
<trkpt lat="40.608770297840238" lon="14.34694885276258">
<ele>171</ele>
</trkpt>
<trkpt lat="40.608707014471292" lon="14.347084304317832">
<ele>173</ele>
</trkpt>
<trkpt lat="40.608640294522047" lon="14.347099140286446">
<ele>175</ele>
</trkpt>
<trkpt lat="40.608384311199188" lon="14.34722788631916">
<ele>176</ele>
</trkpt>
<trkpt lat="40.608302000910044" lon="14.347213720902801">
<ele>178</ele>
</trkpt>
<trkpt lat="40.608247937634587" lon="14.347253702580929">
<ele>180</ele>
</trkpt>
<trkpt lat="40.608276017010212" lon="14.347410360351205">
<ele>182</ele>
</trkpt>
<trkpt lat="40.608278615400195" lon="14.347506416961551">
<ele>184</ele>
</trkpt>
<trkpt lat="40.608313735574484" lon="14.347676066681743">
<ele>186</ele>
</trkpt>
<trkpt lat="40.608459580689669" lon="14.347804645076394">
<ele>188</ele>
</trkpt>
<trkpt lat="40.608492186293006" lon="14.347819145768881">
<ele>190</ele>
</trkpt>
<trkpt lat="40.608620094135404" lon="14.347911179065704">
<ele>192</ele>
</trkpt>
<trkpt lat="40.608651442453265" lon="14.348026933148503">
<ele>194</ele>
</trkpt>
<trkpt lat="40.608656974509358" lon="14.348109075799584">
<ele>196</ele>
</trkpt>
<trkpt lat="40.60865068808198" lon="14.348289202898741">
<ele>197</ele>
</trkpt>
<trkpt lat="40.608688239008188" lon="14.348372519016266">
<ele>199</ele>
</trkpt>
<trkpt lat="40.608679689466953" lon="14.348444603383541">
<ele>201</ele>
</trkpt>
<trkpt lat="40.608679689466953" lon="14.348538480699062">
<ele>203</ele>
</trkpt>
<trkpt lat="40.608655214309692" lon="14.348641913384199">
<ele>205</ele>
</trkpt>
<trkpt lat="40.60865756124258" lon="14.348764708265662">
<ele>206</ele>
</trkpt>
<trkpt lat="40.608667451888323" lon="14.34879194945097">
<ele>207</ele>
</trkpt>
<trkpt lat="40.608742134645581" lon="14.349015578627586">
<ele>208</ele>
</trkpt>
<trkpt lat="40.60879779048264" lon="14.349109707400203">
<ele>209</ele>
</trkpt>
<trkpt lat="40.6088896561414" lon="14.349315902218223">
<ele>210</ele>
</trkpt>
<trkpt lat="40.608878592029214" lon="14.349396368488669">
<ele>211</ele>
</trkpt>
<trkpt lat="40.608853027224541" lon="14.349439367651939">
<ele>212</ele>
</trkpt>
<trkpt lat="40.608760826289654" lon="14.349606754258275">
<ele>213</ele>
</trkpt>
<trkpt lat="40.60866485349834" lon="14.349799454212189">
<ele>214</ele>
</trkpt>
<trkpt lat="40.608650939539075" lon="14.350070944055915">
<ele>215</ele>
</trkpt>
<trkpt lat="40.608716905117035" lon="14.350193487480283">
<ele>215</ele>
</trkpt>
<trkpt lat="40.608744062483311" lon="14.35028669424355">
<ele>216</ele>
</trkpt>
<trkpt lat="40.608779769390821" lon="14.350497499108315">
<ele>216</ele>
</trkpt>
<trkpt lat="40.608779098838568" lon="14.350690115243196">
<ele>216</ele>
</trkpt>
<trkpt lat="40.608786810189486" lon="14.350721798837185">
<ele>216</ele>
</trkpt>
<trkpt lat="40.60889845713973" lon="14.350715763866901">
<ele>217</ele>
</trkpt>
<trkpt lat="40.608919747173786" lon="14.350774856284261">
<ele>217</ele>
</trkpt>
<trkpt lat="40.609000297263265" lon="14.350824393332005">
<ele>217</ele>
</trkpt>
<trkpt lat="40.609143376350403" lon="14.351078951731324">
<ele>218</ele>
</trkpt>
<trkpt lat="40.60923608019948" lon="14.351265532895923">
<ele>218</ele>
</trkpt>
<trkpt lat="40.609318222850561" lon="14.351318003609776">
<ele>219</ele>
</trkpt>
<trkpt lat="40.60935384593904" lon="14.351394446566701">
<ele>219</ele>
</trkpt>
<trkpt lat="40.609469348564744" lon="14.351564766839147">
<ele>220</ele>
</trkpt>
<trkpt lat="40.609589880332351" lon="14.351674821227789">
<ele>220</ele>
</trkpt>
<trkpt lat="40.609725499525666" lon="14.351840279996395">
<ele>221</ele>
</trkpt>
<trkpt lat="40.609733210876584" lon="14.351849583908916">
<ele>221</ele>
</trkpt>
<trkpt lat="40.609892634674907" lon="14.352019149810076">
<ele>222</ele>
</trkpt>
<trkpt lat="40.610040742903948" lon="14.352153176441789">
<ele>222</ele>
</trkpt>
<trkpt lat="40.610207039862871" lon="14.352248981595039">
<ele>223</ele>
</trkpt>
<trkpt lat="40.610325057059526" lon="14.352346463128924">
<ele>223</ele>
</trkpt>
<trkpt lat="40.610476015135646" lon="14.352437993511558">
<ele>224</ele>
</trkpt>
<trkpt lat="40.610453635454178" lon="14.352427516132593">
<ele>224</ele>
</trkpt>
<trkpt lat="40.610162448137999" lon="14.352221908047795">
<ele>224</ele>
</trkpt>
<trkpt lat="40.61007066629827" lon="14.35215225443244">
<ele>224</ele>
</trkpt>
<trkpt lat="40.609958432614803" lon="14.352078074589372">
<ele>224</ele>
</trkpt>
<trkpt lat="40.60987863689661" lon="14.351991824805737">
<ele>224</ele>
</trkpt>
<trkpt lat="40.609760535880923" lon="14.351883362978697">
<ele>225</ele>
</trkpt>
<trkpt lat="40.609688786789775" lon="14.351849667727947">
<ele>225</ele>
</trkpt>
<trkpt lat="40.609541181474924" lon="14.351802142336965">
<ele>225</ele>
</trkpt>
<trkpt lat="40.609404472634196" lon="14.351733410730958">
<ele>225</ele>
</trkpt>
<trkpt lat="40.609393324702978" lon="14.351729555055499">
<ele>225</ele>
</trkpt>
<trkpt lat="40.609229793772101" lon="14.351610280573368">
<ele>226</ele>
</trkpt>
<trkpt lat="40.609175562858582" lon="14.351517492905259">
<ele>227</ele>
</trkpt>
<trkpt lat="40.60913247987628" lon="14.351544314995408">
<ele>228</ele>
</trkpt>
<trkpt lat="40.609121918678284" lon="14.351567616686225">
<ele>229</ele>
</trkpt>
<trkpt lat="40.608989652246237" lon="14.351753275841475">
<ele>230</ele>
</trkpt>
<trkpt lat="40.608921591192484" lon="14.351890152320266">
<ele>232</ele>
</trkpt>
<trkpt lat="40.608827294781804" lon="14.351970870047808">
<ele>233</ele>
</trkpt>
<trkpt lat="40.60881732031703" lon="14.352043373510242">
<ele>234</ele>
</trkpt>
<trkpt lat="40.608807010576129" lon="14.352180249989033">
<ele>235</ele>
</trkpt>
<trkpt lat="40.608787899836898" lon="14.352299105376005">
<ele>236</ele>
</trkpt>
<trkpt lat="40.608817487955093" lon="14.352352079004049">
<ele>238</ele>
</trkpt>
<trkpt lat="40.608816230669618" lon="14.352542934939265">
<ele>241</ele>
</trkpt>
<trkpt lat="40.608757305890322" lon="14.352556178346276">
<ele>244</ele>
</trkpt>
<trkpt lat="40.60872788541019" lon="14.35263697989285">
<ele>246</ele>
</trkpt>
<trkpt lat="40.608608024194837" lon="14.352768659591675">
<ele>248</ele>
</trkpt>
<trkpt lat="40.608462681993842" lon="14.352736053988338">
<ele>251</ele>
</trkpt>
<trkpt lat="40.608372492715716" lon="14.352673524990678">
<ele>254</ele>
</trkpt>
<trkpt lat="40.608323961496353" lon="14.352775700390339">
<ele>256</ele>
</trkpt>
<trkpt lat="40.608303174376488" lon="14.352785004302859">
<ele>258</ele>
</trkpt>
<trkpt lat="40.608182474970818" lon="14.352880725637078">
<ele>261</ele>
</trkpt>
<trkpt lat="40.608101086691022" lon="14.352942667901516">
<ele>263</ele>
</trkpt>
<trkpt lat="40.608063787221909" lon="14.353017350658774">
<ele>265</ele>
</trkpt>
<trkpt lat="40.608057836070657" lon="14.353269897401333">
<ele>267</ele>
</trkpt>
<trkpt lat="40.608090190216899" lon="14.353380873799324">
<ele>269</ele>
</trkpt>
<trkpt lat="40.608100751414895" lon="14.353526718914509">
<ele>271</ele>
</trkpt>
<trkpt lat="40.608102427795529" lon="14.353611208498478">
<ele>273</ele>
</trkpt>
<trkpt lat="40.608175182715058" lon="14.353695446625352">
<ele>275</ele>
</trkpt>
<trkpt lat="40.608245925977826" lon="14.353760406374931">
<ele>277</ele>
</trkpt>
<trkpt lat="40.60828766785562" lon="14.353893510997295">
<ele>279</ele>
</trkpt>
<trkpt lat="40.608299821615219" lon="14.354011612012982">
<ele>281</ele>
</trkpt>
<trkpt lat="40.608233017846942" lon="14.354101466014981">
<ele>283</ele>
</trkpt>
<trkpt lat="40.608160933479667" lon="14.354209927842021">
<ele>286</ele>
</trkpt>
<trkpt lat="40.608093794435263" lon="14.354283856227994">
<ele>288</ele>
</trkpt>
<trkpt lat="40.608077868819237" lon="14.354376224800944">
<ele>291</ele>
</trkpt>
<trkpt lat="40.608035791665316" lon="14.354539001360536">
<ele>293</ele>
</trkpt>
<trkpt lat="40.607950547710061" lon="14.354693396016955">
<ele>295</ele>
</trkpt>
<trkpt lat="40.607869159430265" lon="14.35475860722363">
<ele>298</ele>
</trkpt>
<trkpt lat="40.607778048142791" lon="14.35482507571578">
<ele>300</ele>
</trkpt>
<trkpt lat="40.607697749510407" lon="14.354895651340485">
<ele>303</ele>
</trkpt>
<trkpt lat="40.607648296281695" lon="14.355012495070696">
<ele>305</ele>
</trkpt>
<trkpt lat="40.607624910771847" lon="14.355123555287719">
<ele>307</ele>
</trkpt>
<trkpt lat="40.60762164182961" lon="14.355324385687709">
<ele>310</ele>
</trkpt>
<trkpt lat="40.607687272131443" lon="14.355498980730772">
<ele>312</ele>
</trkpt>
<trkpt lat="40.607643686234951" lon="14.355649100616574">
<ele>314</ele>
</trkpt>
<trkpt lat="40.607586354017258" lon="14.355734512209892">
<ele>316</ele>
</trkpt>
<trkpt lat="40.607602531090379" lon="14.355821181088686">
<ele>319</ele>
</trkpt>
<trkpt lat="40.607580067589879" lon="14.355980018153787">
<ele>321</ele>
</trkpt>
<trkpt lat="40.607586354017258" lon="14.356018155813217">
<ele>323</ele>
</trkpt>
<trkpt lat="40.607565147802234" lon="14.356087138876319">
<ele>326</ele>
</trkpt>
<trkpt lat="40.607495997101068" lon="14.356227200478315">
<ele>328</ele>
</trkpt>
<trkpt lat="40.607480071485043" lon="14.356261398643255">
<ele>328</ele>
</trkpt>
<trkpt lat="40.607303297147155" lon="14.356301380321383">
<ele>327</ele>
</trkpt>
<trkpt lat="40.60659209266305" lon="14.356210855767131">
<ele>326</ele>
</trkpt>
<trkpt lat="40.606378940865397" lon="14.356138771399856">
<ele>326</ele>
</trkpt>
<trkpt lat="40.606180457398295" lon="14.35611505061388">
<ele>326</ele>
</trkpt>
<trkpt lat="40.60598423704505" lon="14.356104321777821">
<ele>325</ele>
</trkpt>
<trkpt lat="40.605822969228029" lon="14.356083199381828">
<ele>324</ele>
</trkpt>
<trkpt lat="40.605619205161929" lon="14.356125360354781">
<ele>324</ele>
</trkpt>
<trkpt lat="40.605417871847749" lon="14.356144135817885">
<ele>324</ele>
</trkpt>
<trkpt lat="40.605249647051096" lon="14.356102561578155">
<ele>323</ele>
</trkpt>
<trkpt lat="40.605046888813376" lon="14.356072470545769">
<ele>320</ele>
</trkpt>
<trkpt lat="40.604667188599706" lon="14.356069033965468">
<ele>318</ele>
</trkpt>
<trkpt lat="40.604558559134603" lon="14.356141034513712">
<ele>316</ele>
</trkpt>
<trkpt lat="40.604397039860487" lon="14.35620934702456">
<ele>313</ele>
</trkpt>
<trkpt lat="40.604258738458157" lon="14.35615167953074">
<ele>310</ele>
</trkpt>
<trkpt lat="40.604137033224106" lon="14.356065010651946">
<ele>308</ele>
</trkpt>
<trkpt lat="40.604071235284209" lon="14.356007175520062">
<ele>306</ele>
</trkpt>
<trkpt lat="40.603822208940983" lon="14.355961242690682">
<ele>303</ele>
</trkpt>
<trkpt lat="40.60372481122613" lon="14.355949424207211">
<ele>300</ele>
</trkpt>
<trkpt lat="40.603554155677557" lon="14.355927212163806">
<ele>298</ele>
</trkpt>
<trkpt lat="40.603554155677557" lon="14.356084372848272">
<ele>297</ele>
</trkpt>
<trkpt lat="40.603540828451514" lon="14.356184452772141">
<ele>297</ele>
</trkpt>
<trkpt lat="40.603511743247509" lon="14.356336332857609">
<ele>296</ele>
</trkpt>
<trkpt lat="40.60350252315402" lon="14.356478825211525">
<ele>296</ele>
</trkpt>
<trkpt lat="40.603586845099926" lon="14.356587622314692">
<ele>295</ele>
</trkpt>
<trkpt lat="40.603687176480889" lon="14.356762049719691">
<ele>294</ele>
</trkpt>
<trkpt lat="40.603691535070539" lon="14.356798846274614">
<ele>294</ele>
</trkpt>
<trkpt lat="40.603796141222119" lon="14.357041670009494">
<ele>293</ele>
</trkpt>
<trkpt lat="40.603777198120952" lon="14.357102857902646">
<ele>293</ele>
</trkpt>
<trkpt lat="40.603766050189734" lon="14.357139905914664">
<ele>292</ele>
</trkpt>
<trkpt lat="40.603723721578717" lon="14.35737912543118">
<ele>292</ele>
</trkpt>
<trkpt lat="40.603721207007766" lon="14.357392704114318">
<ele>292</ele>
</trkpt>
<trkpt lat="40.603677788749337" lon="14.357647346332669">
<ele>293</ele>
</trkpt>
<trkpt lat="40.60363152064383" lon="14.357796963304281">
<ele>293</ele>
</trkpt>
<trkpt lat="40.603539235889912" lon="14.358021514490247">
<ele>293</ele>
</trkpt>
<trkpt lat="40.603463966399431" lon="14.358279258012772">
<ele>293</ele>
</trkpt>
<trkpt lat="40.603382997214794" lon="14.358549742028117">
<ele>293</ele>
</trkpt>
<trkpt lat="40.603322815150023" lon="14.358805976808071">
<ele>294</ele>
</trkpt>
<trkpt lat="40.603328431025147" lon="14.359031952917576">
<ele>294</ele>
</trkpt>
<trkpt lat="40.603345194831491" lon="14.359282068908215">
<ele>294</ele>
</trkpt>
<trkpt lat="40.603310829028487" lon="14.359325570985675">
<ele>294</ele>
</trkpt>
<trkpt lat="40.603092480450869" lon="14.359320290386677">
<ele>294</ele>
</trkpt>
<trkpt lat="40.603043865412474" lon="14.359318362548947">
<ele>294</ele>
</trkpt>
<trkpt lat="40.602854518219829" lon="14.359230855479836">
<ele>294</ele>
</trkpt>
<trkpt lat="40.602732393890619" lon="14.35908542945981">
<ele>294</ele>
</trkpt>
<trkpt lat="40.602592583745718" lon="14.358956767246127">
<ele>295</ele>
</trkpt>
<trkpt lat="40.602479847148061" lon="14.358846377581358">
<ele>295</ele>
</trkpt>
<trkpt lat="40.602326709777117" lon="14.358658120036125">
<ele>295</ele>
</trkpt>
<trkpt lat="40.602318746969104" lon="14.358654683455825">
<ele>295</ele>
</trkpt>
<trkpt lat="40.602150438353419" lon="14.358581341803074">
<ele>295</ele>
</trkpt>
<trkpt lat="40.60196871869266" lon="14.358550244942307">
<ele>296</ele>
</trkpt>
<trkpt lat="40.601955223828554" lon="14.358545299619436">
<ele>297</ele>
</trkpt>
<trkpt lat="40.601653223857284" lon="14.358016820624471">
<ele>298</ele>
</trkpt>
<trkpt lat="40.601577367633581" lon="14.357811966910958">
<ele>298</ele>
</trkpt>
<trkpt lat="40.601329514756799" lon="14.357216097414494">
<ele>299</ele>
</trkpt>
<trkpt lat="40.60131199657917" lon="14.357131021097302">
<ele>300</ele>
</trkpt>
<trkpt lat="40.601260531693697" lon="14.357089530676603">
<ele>302</ele>
</trkpt>
<trkpt lat="40.601143185049295" lon="14.357016608119011">
<ele>304</ele>
</trkpt>
<trkpt lat="40.601027682423592" lon="14.357321290299296">
<ele>306</ele>
</trkpt>
<trkpt lat="40.600971104577184" lon="14.357438972219825">
<ele>308</ele>
</trkpt>
<trkpt lat="40.600818889215589" lon="14.357773410156369">
<ele>310</ele>
</trkpt>
<trkpt lat="40.600833725184202" lon="14.357992010191083">
<ele>313</ele>
</trkpt>
<trkpt lat="40.600850153714418" lon="14.358131149783731">
<ele>315</ele>
</trkpt>
<trkpt lat="40.600827187299728" lon="14.358149254694581">
<ele>317</ele>
</trkpt>
<trkpt lat="40.600649993866682" lon="14.358260734006763">
<ele>319</ele>
</trkpt>
<trkpt lat="40.600594589486718" lon="14.35832024551928">
<ele>321</ele>
</trkpt>
<trkpt lat="40.600556619465351" lon="14.358393251895905">
<ele>323</ele>
</trkpt>
<trkpt lat="40.600569192320108" lon="14.358474388718605">
<ele>325</ele>
</trkpt>
<trkpt lat="40.600558128207922" lon="14.358460642397404">
<ele>327</ele>
</trkpt>
<trkpt lat="40.600528120994568" lon="14.358544796705246">
<ele>329</ele>
</trkpt>
<trkpt lat="40.600488977506757" lon="14.358683433383703">
<ele>330</ele>
</trkpt>
<trkpt lat="40.600467687472701" lon="14.358810000121593">
<ele>332</ele>
</trkpt>
<trkpt lat="40.600484283640981" lon="14.35895056463778">
<ele>334</ele>
</trkpt>
<trkpt lat="40.600440446287394" lon="14.359093476086855">
<ele>336</ele>
</trkpt>
<trkpt lat="40.600398788228631" lon="14.359221383929253">
<ele>338</ele>
</trkpt>
<trkpt lat="40.600376911461353" lon="14.359380640089512">
<ele>340</ele>
</trkpt>
<trkpt lat="40.600353023037314" lon="14.35953201726079">
<ele>343</ele>
</trkpt>
<trkpt lat="40.600279932841659" lon="14.359611812978983">
<ele>346</ele>
</trkpt>
<trkpt lat="40.600343970581889" lon="14.360072901472449">
<ele>348</ele>
</trkpt>
<trkpt lat="40.600329469889402" lon="14.360103830695152">
<ele>351</ele>
</trkpt>
<trkpt lat="40.600308096036315" lon="14.360110955312848">
<ele>354</ele>
</trkpt>
<trkpt lat="40.600222013890743" lon="14.360281527042389">
<ele>357</ele>
</trkpt>
<trkpt lat="40.600189408287406" lon="14.36033290810883">
<ele>360</ele>
</trkpt>
<trkpt lat="40.600145654752851" lon="14.360462240874767">
<ele>362</ele>
</trkpt>
<trkpt lat="40.600040797144175" lon="14.360568020492792">
<ele>365</ele>
</trkpt>
<trkpt lat="40.600010119378567" lon="14.360697604715824">
<ele>368</ele>
</trkpt>
<trkpt lat="40.599939627572894" lon="14.360843282192945">
<ele>370</ele>
</trkpt>
<trkpt lat="40.599891934543848" lon="14.360935399308801">
<ele>371</ele>
</trkpt>
<trkpt lat="40.599816916510463" lon="14.361039251089096">
<ele>372</ele>
</trkpt>
<trkpt lat="40.599832087755203" lon="14.361076634377241">
<ele>374</ele>
</trkpt>
<trkpt lat="40.599768636748195" lon="14.361181072890759">
<ele>376</ele>
</trkpt>
<trkpt lat="40.599701832979918" lon="14.361300179734826">
<ele>377</ele>
</trkpt>
<trkpt lat="40.599618097767234" lon="14.361470500007272">
<ele>378</ele>
</trkpt>
<trkpt lat="40.599533440545201" lon="14.361625397577882">
<ele>380</ele>
</trkpt>
<trkpt lat="40.599498907104135" lon="14.361671162769198">
<ele>382</ele>
</trkpt>
<trkpt lat="40.599408885464072" lon="14.361803764477372">
<ele>383</ele>
</trkpt>
<trkpt lat="40.59933353215456" lon="14.3619404733181">
<ele>386</ele>
</trkpt>
<trkpt lat="40.599078051745892" lon="14.362379182130098">
<ele>389</ele>
</trkpt>
<trkpt lat="40.599032370373607" lon="14.362424612045288">
<ele>392</ele>
</trkpt>
<trkpt lat="40.599022982642055" lon="14.362669447436929">
<ele>395</ele>
</trkpt>
<trkpt lat="40.598992221057415" lon="14.362843288108706">
<ele>398</ele>
</trkpt>
<trkpt lat="40.598953077569604" lon="14.363042274489999">
<ele>401</ele>
</trkpt>
<trkpt lat="40.59890890493989" lon="14.363267915323377">
<ele>404</ele>
</trkpt>
<trkpt lat="40.598855596035719" lon="14.363517612218857">
<ele>407</ele>
</trkpt>
<trkpt lat="40.598815530538559" lon="14.363721376284957">
<ele>410</ele>
</trkpt>
<trkpt lat="40.598820811137557" lon="14.363812319934368">
<ele>413</ele>
</trkpt>
<trkpt lat="40.598869090899825" lon="14.364057742059231">
<ele>414</ele>
</trkpt>
<trkpt lat="40.598945030942559" lon="14.364289836958051">
<ele>416</ele>
</trkpt>
<trkpt lat="40.599003117531538" lon="14.364523692056537">
<ele>417</ele>
</trkpt>
<trkpt lat="40.599067742004991" lon="14.364666687324643">
<ele>418</ele>
</trkpt>
<trkpt lat="40.599153656512499" lon="14.364852514117956">
<ele>420</ele>
</trkpt>
<trkpt lat="40.599228087812662" lon="14.365032222121954">
<ele>421</ele>
</trkpt>
<trkpt lat="40.599284246563911" lon="14.365278901532292">
<ele>423</ele>
</trkpt>
<trkpt lat="40.599348032847047" lon="14.365426003932953">
<ele>424</ele>
</trkpt>
<trkpt lat="40.599279971793294" lon="14.365541003644466">
<ele>425</ele>
</trkpt>
<trkpt lat="40.599383488297462" lon="14.365674695000052">
<ele>426</ele>
</trkpt>
<trkpt lat="40.599390864372253" lon="14.36568240635097">
<ele>427</ele>
</trkpt>
<trkpt lat="40.599507037550211" lon="14.365797154605389">
<ele>428</ele>
</trkpt>
<trkpt lat="40.599580127745867" lon="14.365848787128925">
<ele>428</ele>
</trkpt>
<trkpt lat="40.59970342554152" lon="14.365942245349288">
<ele>429</ele>
</trkpt>
<trkpt lat="40.599848516285419" lon="14.36602589674294">
<ele>430</ele>
</trkpt>
<trkpt lat="40.600012969225645" lon="14.366171825677156">
<ele>431</ele>
</trkpt>
<trkpt lat="40.600146073848009" lon="14.366280371323228">
<ele>432</ele>
</trkpt>
<trkpt lat="40.600282782688737" lon="14.366468880325556">
<ele>433</ele>
</trkpt>
<trkpt lat="40.600413205102086" lon="14.366667196154594">
<ele>433</ele>
</trkpt>
<trkpt lat="40.60053214430809" lon="14.366871798411012">
<ele>432</ele>
</trkpt>
<trkpt lat="40.600573383271694" lon="14.367006495594978">
<ele>432</ele>
</trkpt>
<trkpt lat="40.600635074079037" lon="14.367166003212333">
<ele>432</ele>
</trkpt>
<trkpt lat="40.600745882838964" lon="14.367434810847044">
<ele>432</ele>
</trkpt>
<trkpt lat="40.600873874500394" lon="14.367651734501123">
<ele>431</ele>
</trkpt>
<trkpt lat="40.600895332172513" lon="14.367721807211637">
<ele>431</ele>
</trkpt>
<trkpt lat="40.601036986336112" lon="14.367882655933499">
<ele>431</ele>
</trkpt>
<trkpt lat="40.601170845329762" lon="14.368042163550854">
<ele>430</ele>
</trkpt>
<trkpt lat="40.601200936362147" lon="14.368074182420969">
<ele>430</ele>
</trkpt>
<trkpt lat="40.601344434544444" lon="14.368206365033984">
<ele>429</ele>
</trkpt>
<trkpt lat="40.601364299654961" lon="14.368203934282064">
<ele>428</ele>
</trkpt>
<trkpt lat="40.601450549438596" lon="14.368342906236649">
<ele>427</ele>
</trkpt>
<trkpt lat="40.6015211250633" lon="14.368452290073037">
<ele>426</ele>
</trkpt>
<trkpt lat="40.601594382897019" lon="14.36855454929173">
<ele>426</ele>
</trkpt>
<trkpt lat="40.601721704006195" lon="14.368667956441641">
<ele>425</ele>
</trkpt>
<trkpt lat="40.601866543292999" lon="14.368747500702739">
<ele>424</ele>
</trkpt>
<trkpt lat="40.601929659023881" lon="14.368813131004572">
<ele>423</ele>
</trkpt>
<trkpt lat="40.602090507745743" lon="14.368998622521758">
<ele>422</ele>
</trkpt>
<trkpt lat="40.602266527712345" lon="14.369129631668329">
<ele>421</ele>
</trkpt>
<trkpt lat="40.602323105558753" lon="14.369163829833269">
<ele>420</ele>
</trkpt>
<trkpt lat="40.602442212402821" lon="14.369295677170157">
<ele>419</ele>
</trkpt>
<trkpt lat="40.602566013112664" lon="14.369453592225909">
<ele>418</ele>
</trkpt>
<trkpt lat="40.602574897930026" lon="14.369462393224239">
<ele>417</ele>
</trkpt>
<trkpt lat="40.60270800255239" lon="14.369616284966469">
<ele>416</ele>
</trkpt>
<trkpt lat="40.602776566520333" lon="14.369779732078314">
<ele>416</ele>
</trkpt>
<trkpt lat="40.602859547361732" lon="14.369888361543417">
<ele>415</ele>
</trkpt>
<trkpt lat="40.602982677519321" lon="14.370052143931389">
<ele>414</ele>
</trkpt>
<trkpt lat="40.603085188195109" lon="14.370275270193815">
<ele>413</ele>
</trkpt>
<trkpt lat="40.60327772051096" lon="14.370493870228529">
<ele>412</ele>
</trkpt>
<trkpt lat="40.603422308340669" lon="14.370657568797469">
<ele>410</ele>
</trkpt>
<trkpt lat="40.603509563952684" lon="14.370777094736695">
<ele>408</ele>
</trkpt>
<trkpt lat="40.603668484836817" lon="14.370840545743704">
<ele>406</ele>
</trkpt>
<trkpt lat="40.60377711430192" lon="14.370924616232514">
<ele>404</ele>
</trkpt>
<trkpt lat="40.603847438469529" lon="14.371024947613478">
<ele>402</ele>
</trkpt>
<trkpt lat="40.603982554748654" lon="14.371111616492271">
<ele>400</ele>
</trkpt>
<trkpt lat="40.604290422052145" lon="14.371507074683905">
<ele>398</ele>
</trkpt>
<trkpt lat="40.604399805888534" lon="14.371701367199421">
<ele>396</ele>
</trkpt>
<trkpt lat="40.604501897469163" lon="14.371929690241814">
<ele>394</ele>
</trkpt>
<trkpt lat="40.604644725099206" lon="14.372426904737949">
<ele>392</ele>
</trkpt>
<trkpt lat="40.60472896322608" lon="14.37369885854423">
<ele>392</ele>
</trkpt>
<trkpt lat="40.604782104492188" lon="14.373914860188961">
<ele>392</ele>
</trkpt>
<trkpt lat="40.604910515248775" lon="14.373998763039708">
<ele>392</ele>
</trkpt>
<trkpt lat="40.605060299858451" lon="14.374009827151895">
<ele>392</ele>
</trkpt>
<trkpt lat="40.605091564357281" lon="14.373994739726186">
<ele>392</ele>
</trkpt>
<trkpt lat="40.60520195402205" lon="14.374015107750893">
<ele>392</ele>
</trkpt>
<trkpt lat="40.605361713096499" lon="14.374040672555566">
<ele>392</ele>
</trkpt>
<trkpt lat="40.605507222935557" lon="14.374172436073422">
<ele>392</ele>
</trkpt>
<trkpt lat="40.60568424873054" lon="14.374331524595618">
<ele>392</ele>
</trkpt>
<trkpt lat="40.605701683089137" lon="14.374361364170909">
<ele>392</ele>
</trkpt>
<trkpt lat="40.605865381658077" lon="14.374392544850707">
<ele>392</ele>
</trkpt>
<trkpt lat="40.606796192005277" lon="14.37406774610281">
<ele>393</ele>
</trkpt>
<trkpt lat="40.607550647109747" lon="14.373729284852743">
<ele>393</ele>
</trkpt>
<trkpt lat="40.607729768380523" lon="14.373654602095485">
<ele>393</ele>
</trkpt>
<trkpt lat="40.60788064263761" lon="14.37360305339098">
<ele>393</ele>
</trkpt>
<trkpt lat="40.608019614592195" lon="14.373491574078798">
<ele>394</ele>
</trkpt>
<trkpt lat="40.6081488635391" lon="14.373213043436408">
<ele>394</ele>
</trkpt>
<trkpt lat="40.608093207702041" lon="14.373327288776636">
<ele>396</ele>
</trkpt>
<trkpt lat="40.608414988964796" lon="14.372689006850123">
<ele>397</ele>
</trkpt>
<trkpt lat="40.608538622036576" lon="14.37260527163744">
<ele>398</ele>
</trkpt>
<trkpt lat="40.608708523213863" lon="14.372493792325258">
<ele>400</ele>
</trkpt>
<trkpt lat="40.608784044161439" lon="14.372325567528605">
<ele>402</ele>
</trkpt>
<trkpt lat="40.608774237334728" lon="14.371714107692242">
<ele>403</ele>
</trkpt>
<trkpt lat="40.608829390257597" lon="14.3715107627213">
<ele>404</ele>
</trkpt>
<trkpt lat="40.608964171260595" lon="14.37093710526824">
<ele>406</ele>
</trkpt>
<trkpt lat="40.60910758562386" lon="14.370351042598486">
<ele>408</ele>
</trkpt>
<trkpt lat="40.609209174290299" lon="14.370336206629872">
<ele>409</ele>
</trkpt>
<trkpt lat="40.609419392421842" lon="14.370315168052912">
<ele>410</ele>
</trkpt>
<trkpt lat="40.609486615285277" lon="14.370316425338387">
<ele>411</ele>
</trkpt>
<trkpt lat="40.609683590009809" lon="14.370367638766766">
<ele>413</ele>
</trkpt>
<trkpt lat="40.609736479818821" lon="14.370378367602825">
<ele>414</ele>
</trkpt>
<trkpt lat="40.609897244721651" lon="14.370438633486629">
<ele>415</ele>
</trkpt>
<trkpt lat="40.609997576102614" lon="14.370389683172107">
<ele>416</ele>
</trkpt>
<trkpt lat="40.610027667135" lon="14.370351377874613">
<ele>417</ele>
</trkpt>
<trkpt lat="40.61009656637907" lon="14.370244843885303">
<ele>419</ele>
</trkpt>
<trkpt lat="40.610171165317297" lon="14.370082402601838">
<ele>420</ele>
</trkpt>
<trkpt lat="40.610245177522302" lon="14.369967319071293">
<ele>421</ele>
</trkpt>
<trkpt lat="40.610351962968707" lon="14.369790880009532">
<ele>422</ele>
</trkpt>
<trkpt lat="40.610370822250843" lon="14.369766572490335">
<ele>423</ele>
</trkpt>
<trkpt lat="40.610808106139302" lon="14.369247229769826">
<ele>425</ele>
</trkpt>
<trkpt lat="40.610846914350986" lon="14.369143294170499">
<ele>426</ele>
</trkpt>
<trkpt lat="40.610928637906909" lon="14.368775496259332">
<ele>427</ele>
</trkpt>
<trkpt lat="40.610944144427776" lon="14.368525967001915">
<ele>428</ele>
</trkpt>
<trkpt lat="40.610927129164338" lon="14.368314072489738">
<ele>429</ele>
</trkpt>
<trkpt lat="40.610954621806741" lon="14.368052138015628">
<ele>431</ele>
</trkpt>
<trkpt lat="40.610960740596056" lon="14.367901599034667">
<ele>432</ele>
</trkpt>
<trkpt lat="40.610921597108245" lon="14.367725914344192">
<ele>433</ele>
</trkpt>
<trkpt lat="40.610886393114924" lon="14.367571100592613">
<ele>435</ele>
</trkpt>
<trkpt lat="40.610831156373024" lon="14.367395332083106">
<ele>438</ele>
</trkpt>
<trkpt lat="40.610781703144312" lon="14.367217551916838">
<ele>440</ele>
</trkpt>
<trkpt lat="40.61074155382812" lon="14.367044381797314">
<ele>442</ele>
</trkpt>
<trkpt lat="40.610684808343649" lon="14.366871630772948">
<ele>444</ele>
</trkpt>
<trkpt lat="40.610656226053834" lon="14.366680691018701">
<ele>447</ele>
</trkpt>
<trkpt lat="40.610620267689228" lon="14.366521015763283">
<ele>449</ele>
</trkpt>
<trkpt lat="40.610561175271869" lon="14.366350024938583">
<ele>451</ele>
</trkpt>
<trkpt lat="40.610497808083892" lon="14.366166042163968">
<ele>454</ele>
</trkpt>
<trkpt lat="40.610455982387066" lon="14.365933276712894">
<ele>456</ele>
</trkpt>
<trkpt lat="40.610536448657513" lon="14.365683244541287">
<ele>456</ele>
</trkpt>
<trkpt lat="40.610583554953337" lon="14.365557683631778">
<ele>456</ele>
</trkpt>
<trkpt lat="40.610677935183048" lon="14.365381328389049">
<ele>457</ele>
</trkpt>
<trkpt lat="40.610826630145311" lon="14.365172451362014">
<ele>457</ele>
</trkpt>
<trkpt lat="40.611000973731279" lon="14.364799959585071">
<ele>457</ele>
</trkpt>
<trkpt lat="40.610997201874852" lon="14.364798367023468">
<ele>456</ele>
</trkpt>
<trkpt lat="40.610826630145311" lon="14.365172451362014">
<ele>455</ele>
</trkpt>
<trkpt lat="40.610677935183048" lon="14.365381328389049">
<ele>454</ele>
</trkpt>
<trkpt lat="40.610583554953337" lon="14.365557683631778">
<ele>453</ele>
</trkpt>
<trkpt lat="40.610536448657513" lon="14.365683244541287">
<ele>452</ele>
</trkpt>
<trkpt lat="40.610455982387066" lon="14.365933276712894">
<ele>451</ele>
</trkpt>
<trkpt lat="40.610497808083892" lon="14.366166042163968">
<ele>450</ele>
</trkpt>
<trkpt lat="40.610561175271869" lon="14.366350024938583">
<ele>449</ele>
</trkpt>
<trkpt lat="40.610620267689228" lon="14.366521015763283">
<ele>448</ele>
</trkpt>
<trkpt lat="40.610656226053834" lon="14.366680691018701">
<ele>447</ele>
</trkpt>
<trkpt lat="40.610684808343649" lon="14.366871630772948">
<ele>445</ele>
</trkpt>
<trkpt lat="40.61074155382812" lon="14.367044381797314">
<ele>444</ele>
</trkpt>
<trkpt lat="40.610781703144312" lon="14.367217551916838">
<ele>442</ele>
</trkpt>
<trkpt lat="40.610831156373024" lon="14.367395332083106">
<ele>440</ele>
</trkpt>
<trkpt lat="40.610886393114924" lon="14.367571100592613">
<ele>438</ele>
</trkpt>
<trkpt lat="40.610921597108245" lon="14.367725914344192">
<ele>437</ele>
</trkpt>
<trkpt lat="40.610960740596056" lon="14.367901599034667">
<ele>435</ele>
</trkpt>
<trkpt lat="40.610954621806741" lon="14.368052138015628">
<ele>433</ele>
</trkpt>
<trkpt lat="40.610927129164338" lon="14.368314072489738">
<ele>432</ele>
</trkpt>
<trkpt lat="40.610944144427776" lon="14.368525967001915">
<ele>430</ele>
</trkpt>
<trkpt lat="40.610928637906909" lon="14.368775496259332">
<ele>429</ele>
</trkpt>
<trkpt lat="40.610846914350986" lon="14.369143294170499">
<ele>427</ele>
</trkpt>
<trkpt lat="40.610808106139302" lon="14.369247229769826">
<ele>426</ele>
</trkpt>
<trkpt lat="40.610370822250843" lon="14.369766572490335">
<ele>425</ele>
</trkpt>
<trkpt lat="40.610351962968707" lon="14.369790880009532">
<ele>424</ele>
</trkpt>
<trkpt lat="40.610245177522302" lon="14.369967319071293">
<ele>422</ele>
</trkpt>
<trkpt lat="40.610171165317297" lon="14.370082402601838">
<ele>421</ele>
</trkpt>
<trkpt lat="40.61009656637907" lon="14.370244843885303">
<ele>420</ele>
</trkpt>
<trkpt lat="40.610027667135" lon="14.370351377874613">
<ele>418</ele>
</trkpt>
<trkpt lat="40.609997576102614" lon="14.370389683172107">
<ele>417</ele>
</trkpt>
<trkpt lat="40.609897244721651" lon="14.370438633486629">
<ele>416</ele>
</trkpt>
<trkpt lat="40.609750645235181" lon="14.37037761323154">
<ele>415</ele>
</trkpt>
<trkpt lat="40.609741006046534" lon="14.370380798354745">
<ele>413</ele>
</trkpt>
<trkpt lat="40.609736479818821" lon="14.370378367602825">
<ele>412</ele>
</trkpt>
<trkpt lat="40.609683590009809" lon="14.370367638766766">
<ele>411</ele>
</trkpt>
<trkpt lat="40.609486615285277" lon="14.370316425338387">
<ele>410</ele>
</trkpt>
<trkpt lat="40.609419392421842" lon="14.370315168052912">
<ele>409</ele>
</trkpt>
<trkpt lat="40.609209174290299" lon="14.370336206629872">
<ele>407</ele>
</trkpt>
<trkpt lat="40.60910758562386" lon="14.370351042598486">
<ele>406</ele>
</trkpt>
<trkpt lat="40.608964171260595" lon="14.37093710526824">
<ele>405</ele>
</trkpt>
<trkpt lat="40.608829390257597" lon="14.3715107627213">
<ele>403</ele>
</trkpt>
<trkpt lat="40.608774237334728" lon="14.371714107692242">
<ele>402</ele>
</trkpt>
<trkpt lat="40.608784044161439" lon="14.372325567528605">
<ele>400</ele>
</trkpt>
<trkpt lat="40.608708523213863" lon="14.372493792325258">
<ele>399</ele>
</trkpt>
<trkpt lat="40.608538622036576" lon="14.37260527163744">
<ele>397</ele>
</trkpt>
<trkpt lat="40.608414988964796" lon="14.372689006850123">
<ele>396</ele>
</trkpt>
<trkpt lat="40.6081488635391" lon="14.373213043436408">
<ele>394</ele>
</trkpt>
</trkseg>
</trk>
</gpx>
