<?xml version="1.0" encoding="UTF-8"?>
<gpx version="1.1"
creator="Smartprofil-Office - http://www.rother.de"
xmlns:xsi="http://www.w3.org/2001/XMLSchema-instance"
xmlns="http://www.topografix.com/GPX/1/1"
xsi:schemaLocation="http://www.topografix.com/GPX/1/1 http://www.topografix.com/GPX/1/1/gpx.xsd">
<metadata>

<bounds minlat="40.57411783374846" minlon="14.339564982801676" maxlat="40.611864980310202" maxlon="14.348341170698404"/>
</metadata>
<wpt lat="40.611864980310202" lon="14.343776972964406">
<ele>137</ele>
<name>38_Massa Lubrense (1)</name>
<cmt></cmt>
<desc></desc>
<sym>Crossing</sym>
</wpt>

<wpt lat="40.603281995281577" lon="14.340815981850028">
<ele>201</ele>
<name>38_S. Maria (2)</name>
<cmt></cmt>
<desc></desc>
<sym>Crossing</sym>
</wpt>

<wpt lat="40.590625992044806" lon="14.339564982801676">
<ele>323</ele>
<name>38_Termini (3)</name>
<cmt></cmt>
<desc></desc>
<sym>Crossing</sym>
</wpt>

<wpt lat="40.586230019107461" lon="14.34721908532083">
<ele>169</ele>
<name>38_Nerano (4)</name>
<cmt></cmt>
<desc></desc>
<sym>Crossing</sym>
</wpt>

<wpt lat="40.574211962521076" lon="14.340743981301785">
<ele>10</ele>
<name>38_Marina di Ieranto (5)</name>
<cmt></cmt>
<desc></desc>
<sym>Crossing</sym>
</wpt>

<trk>
<name>Neapel_38_Massa Lubrense - Marina di leranto</name>
<trkseg>
<trkpt lat="40.611864980310202" lon="14.343776972964406">
<ele>137</ele>
</trkpt>
<trkpt lat="40.611723577603698" lon="14.343873281031847">
<ele>138</ele>
</trkpt>
<trkpt lat="40.61166943050921" lon="14.343969170004129">
<ele>138</ele>
</trkpt>
<trkpt lat="40.61165283434093" lon="14.344016360118985">
<ele>139</ele>
</trkpt>
<trkpt lat="40.611503552645445" lon="14.344228254631162">
<ele>140</ele>
</trkpt>
<trkpt lat="40.611485196277499" lon="14.344254322350025">
<ele>140</ele>
</trkpt>
<trkpt lat="40.611443286761642" lon="14.344412069767714">
<ele>141</ele>
</trkpt>
<trkpt lat="40.611272379755974" lon="14.344576103612781">
<ele>142</ele>
</trkpt>
<trkpt lat="40.611161738634109" lon="14.344694623723626">
<ele>143</ele>
</trkpt>
<trkpt lat="40.610960237681866" lon="14.344909619539976">
<ele>143</ele>
</trkpt>
<trkpt lat="40.610831659287214" lon="14.345007184892893">
<ele>144</ele>
</trkpt>
<trkpt lat="40.610786648467183" lon="14.345027469098568">
<ele>145</ele>
</trkpt>
<trkpt lat="40.610676761716604" lon="14.345045071095228">
<ele>146</ele>
</trkpt>
<trkpt lat="40.610636696219444" lon="14.345250511541963">
<ele>147</ele>
</trkpt>
<trkpt lat="40.610561007633805" lon="14.345291247591376">
<ele>148</ele>
</trkpt>
<trkpt lat="40.610426645725965" lon="14.345234418287873">
<ele>149</ele>
</trkpt>
<trkpt lat="40.610392279922962" lon="14.345221761614084">
<ele>150</ele>
</trkpt>
<trkpt lat="40.610181139782071" lon="14.345406163483858">
<ele>151</ele>
</trkpt>
<trkpt lat="40.610101344063878" lon="14.345445223152637">
<ele>152</ele>
</trkpt>
<trkpt lat="40.610047532245517" lon="14.345476236194372">
<ele>153</ele>
</trkpt>
<trkpt lat="40.609942004084587" lon="14.345547985285521">
<ele>154</ele>
</trkpt>
<trkpt lat="40.609847037121654" lon="14.345655860379338">
<ele>155</ele>
</trkpt>
<trkpt lat="40.609782412648201" lon="14.345754263922572">
<ele>157</ele>
</trkpt>
<trkpt lat="40.609681243076921" lon="14.345820816233754">
<ele>158</ele>
</trkpt>
<trkpt lat="40.609575631096959" lon="14.345919219776988">
<ele>160</ele>
</trkpt>
<trkpt lat="40.609475802630186" lon="14.34602927416563">
<ele>161</ele>
</trkpt>
<trkpt lat="40.609360132366419" lon="14.346164222806692">
<ele>162</ele>
</trkpt>
<trkpt lat="40.609296597540379" lon="14.346222225576639">
<ele>164</ele>
</trkpt>
<trkpt lat="40.609190482646227" lon="14.346295818686485">
<ele>165</ele>
</trkpt>
<trkpt lat="40.608972301706672" lon="14.34633806347847">
<ele>167</ele>
</trkpt>
<trkpt lat="40.608935672789812" lon="14.346355330199003">
<ele>168</ele>
</trkpt>
<trkpt lat="40.60872788541019" lon="14.346327586099505">
<ele>168</ele>
</trkpt>
<trkpt lat="40.608494197949767" lon="14.34632339514792">
<ele>169</ele>
</trkpt>
<trkpt lat="40.608380455523729" lon="14.346393886953592">
<ele>169</ele>
</trkpt>
<trkpt lat="40.608291774988174" lon="14.346373770385981">
<ele>169</ele>
</trkpt>
<trkpt lat="40.608221115544438" lon="14.346349546685815">
<ele>170</ele>
</trkpt>
<trkpt lat="40.60801207087934" lon="14.346220213919878">
<ele>170</ele>
</trkpt>
<trkpt lat="40.607852144166827" lon="14.346161121502519">
<ele>170</ele>
</trkpt>
<trkpt lat="40.607724906876683" lon="14.346115356311202">
<ele>170</ele>
</trkpt>
<trkpt lat="40.607641590759158" lon="14.346121391281486">
<ele>171</ele>
</trkpt>
<trkpt lat="40.607589120045304" lon="14.346096497029066">
<ele>171</ele>
</trkpt>
<trkpt lat="40.607553916051984" lon="14.346058862283826">
<ele>172</ele>
</trkpt>
<trkpt lat="40.607436988502741" lon="14.346011755988002">
<ele>174</ele>
</trkpt>
<trkpt lat="40.607264153659344" lon="14.346098592504859">
<ele>175</ele>
</trkpt>
<trkpt lat="40.607142448425293" lon="14.346163971349597">
<ele>176</ele>
</trkpt>
<trkpt lat="40.60706558637321" lon="14.346074368804693">
<ele>178</ele>
</trkpt>
<trkpt lat="40.607006074860692" lon="14.345937995240092">
<ele>179</ele>
</trkpt>
<trkpt lat="40.606961399316788" lon="14.345866916701198">
<ele>180</ele>
</trkpt>
<trkpt lat="40.606898199766874" lon="14.34574730694294">
<ele>181</ele>
</trkpt>
<trkpt lat="40.606854697689414" lon="14.345671785995364">
<ele>183</ele>
</trkpt>
<trkpt lat="40.606801388785243" lon="14.345577573403716">
<ele>184</ele>
</trkpt>
<trkpt lat="40.606720587238669" lon="14.34549325145781">
<ele>184</ele>
</trkpt>
<trkpt lat="40.60666392557323" lon="14.345359643921256">
<ele>184</ele>
</trkpt>
<trkpt lat="40.606571305543184" lon="14.34524841606617">
<ele>184</ele>
</trkpt>
<trkpt lat="40.606485558673739" lon="14.34507449157536">
<ele>184</ele>
</trkpt>
<trkpt lat="40.606428142637014" lon="14.344908194616437">
<ele>184</ele>
</trkpt>
<trkpt lat="40.606450019404292" lon="14.344980949535966">
<ele>183</ele>
</trkpt>
<trkpt lat="40.606447504833341" lon="14.344963598996401">
<ele>183</ele>
</trkpt>
<trkpt lat="40.606370978057384" lon="14.344782549887896">
<ele>183</ele>
</trkpt>
<trkpt lat="40.606329990550876" lon="14.344658916816115">
<ele>183</ele>
</trkpt>
<trkpt lat="40.606195544824004" lon="14.344454649835825">
<ele>183</ele>
</trkpt>
<trkpt lat="40.606094123795629" lon="14.344277624040842">
<ele>182</ele>
</trkpt>
<trkpt lat="40.606042491272092" lon="14.344122223556042">
<ele>182</ele>
</trkpt>
<trkpt lat="40.606031259521842" lon="14.344067322090268">
<ele>181</ele>
</trkpt>
<trkpt lat="40.606038216501474" lon="14.343921979889274">
<ele>181</ele>
</trkpt>
<trkpt lat="40.605991277843714" lon="14.34371704235673">
<ele>180</ele>
</trkpt>
<trkpt lat="40.605942746624351" lon="14.34357681311667">
<ele>179</ele>
</trkpt>
<trkpt lat="40.605855491012335" lon="14.343468686565757">
<ele>179</ele>
</trkpt>
<trkpt lat="40.605696905404329" lon="14.343338012695312">
<ele>178</ele>
</trkpt>
<trkpt lat="40.605596574023366" lon="14.343214463442564">
<ele>178</ele>
</trkpt>
<trkpt lat="40.605486771091819" lon="14.343123938888311">
<ele>177</ele>
</trkpt>
<trkpt lat="40.605341512709856" lon="14.343014638870955">
<ele>177</ele>
</trkpt>
<trkpt lat="40.605300441384315" lon="14.342971472069621">
<ele>177</ele>
</trkpt>
<trkpt lat="40.605175467208028" lon="14.342933250591159">
<ele>177</ele>
</trkpt>
<trkpt lat="40.605132468044758" lon="14.342936687171459">
<ele>177</ele>
</trkpt>
<trkpt lat="40.605110256001353" lon="14.342934507876635">
<ele>177</ele>
</trkpt>
<trkpt lat="40.604955274611712" lon="14.342812551185489">
<ele>177</ele>
</trkpt>
<trkpt lat="40.604928871616721" lon="14.342787154018879">
<ele>177</ele>
</trkpt>
<trkpt lat="40.604852177202702" lon="14.342673495411873">
<ele>177</ele>
</trkpt>
<trkpt lat="40.604739775881171" lon="14.342511473223567">
<ele>177</ele>
</trkpt>
<trkpt lat="40.604632319882512" lon="14.342366047203541">
<ele>177</ele>
</trkpt>
<trkpt lat="40.604555038735271" lon="14.34223311021924">
<ele>179</ele>
</trkpt>
<trkpt lat="40.60443920083344" lon="14.342147950083017">
<ele>180</ele>
</trkpt>
<trkpt lat="40.604278268292546" lon="14.341947790235281">
<ele>182</ele>
</trkpt>
<trkpt lat="40.604209871962667" lon="14.341869670897722">
<ele>183</ele>
</trkpt>
<trkpt lat="40.604125801473856" lon="14.341826923191547">
<ele>185</ele>
</trkpt>
<trkpt lat="40.604035947471857" lon="14.341798005625606">
<ele>187</ele>
</trkpt>
<trkpt lat="40.603953385725617" lon="14.341755677014589">
<ele>188</ele>
</trkpt>
<trkpt lat="40.603889599442482" lon="14.341677473857999">
<ele>190</ele>
</trkpt>
<trkpt lat="40.60379077680409" lon="14.341552834957838">
<ele>191</ele>
</trkpt>
<trkpt lat="40.603738725185394" lon="14.341391148045659">
<ele>193</ele>
</trkpt>
<trkpt lat="40.603696815669537" lon="14.3412802554667">
<ele>194</ele>
</trkpt>
<trkpt lat="40.603625820949674" lon="14.3412612285465">
<ele>196</ele>
</trkpt>
<trkpt lat="40.603507636114955" lon="14.34115125797689">
<ele>197</ele>
</trkpt>
<trkpt lat="40.603505205363035" lon="14.341144049540162">
<ele>198</ele>
</trkpt>
<trkpt lat="40.603381153196096" lon="14.340916061773896">
<ele>200</ele>
</trkpt>
<trkpt lat="40.603281995281577" lon="14.340815981850028">
<ele>201</ele>
</trkpt>
<trkpt lat="40.603234972804785" lon="14.340979093685746">
<ele>201</ele>
</trkpt>
<trkpt lat="40.603121733292937" lon="14.341200375929475">
<ele>201</ele>
</trkpt>
<trkpt lat="40.603066496551037" lon="14.341227281838655">
<ele>201</ele>
</trkpt>
<trkpt lat="40.602912185713649" lon="14.341264413669705">
<ele>201</ele>
</trkpt>
<trkpt lat="40.602905815467238" lon="14.341264078393579">
<ele>201</ele>
</trkpt>
<trkpt lat="40.602833479642868" lon="14.341281009837985">
<ele>201</ele>
</trkpt>
<trkpt lat="40.602675648406148" lon="14.341365164145827">
<ele>201</ele>
</trkpt>
<trkpt lat="40.602668523788452" lon="14.341376563534141">
<ele>201</ele>
</trkpt>
<trkpt lat="40.602562157437205" lon="14.341552583500743">
<ele>201</ele>
</trkpt>
<trkpt lat="40.602498538792133" lon="14.341630032286048">
<ele>201</ele>
</trkpt>
<trkpt lat="40.602418575435877" lon="14.341725837439299">
<ele>200</ele>
</trkpt>
<trkpt lat="40.602367529645562" lon="14.34175374917686">
<ele>198</ele>
</trkpt>
<trkpt lat="40.602247165516019" lon="14.342026999220252">
<ele>196</ele>
</trkpt>
<trkpt lat="40.602229312062263" lon="14.342141496017575">
<ele>195</ele>
</trkpt>
<trkpt lat="40.602152366191149" lon="14.342384152114391">
<ele>194</ele>
</trkpt>
<trkpt lat="40.602153204381466" lon="14.342435281723738">
<ele>192</ele>
</trkpt>
<trkpt lat="40.602207854390144" lon="14.342661425471306">
<ele>190</ele>
</trkpt>
<trkpt lat="40.602218331769109" lon="14.342822777107358">
<ele>189</ele>
</trkpt>
<trkpt lat="40.602204082533717" lon="14.342927467077971">
<ele>188</ele>
</trkpt>
<trkpt lat="40.602182792499661" lon="14.342976752668619">
<ele>186</ele>
</trkpt>
<trkpt lat="40.602088328450918" lon="14.342982620000839">
<ele>187</ele>
</trkpt>
<trkpt lat="40.602029068395495" lon="14.34301346540451">
<ele>187</ele>
</trkpt>
<trkpt lat="40.601874506101012" lon="14.342903243377805">
<ele>188</ele>
</trkpt>
<trkpt lat="40.601761685684323" lon="14.342945320531726">
<ele>189</ele>
</trkpt>
<trkpt lat="40.60157585889101" lon="14.343051686882973">
<ele>190</ele>
</trkpt>
<trkpt lat="40.601468486711383" lon="14.343101475387812">
<ele>190</ele>
</trkpt>
<trkpt lat="40.601427750661969" lon="14.343118574470282">
<ele>191</ele>
</trkpt>
<trkpt lat="40.601281318813562" lon="14.343155287206173">
<ele>192</ele>
</trkpt>
<trkpt lat="40.601275702938437" lon="14.342983961105347">
<ele>192</ele>
</trkpt>
<trkpt lat="40.601339321583509" lon="14.342890754342079">
<ele>193</ele>
</trkpt>
<trkpt lat="40.601337729021907" lon="14.342889413237572">
<ele>195</ele>
</trkpt>
<trkpt lat="40.601299172267318" lon="14.342852951958776">
<ele>197</ele>
</trkpt>
<trkpt lat="40.601209234446287" lon="14.342940794304013">
<ele>199</ele>
</trkpt>
<trkpt lat="40.601131031289697" lon="14.342970130965114">
<ele>201</ele>
</trkpt>
<trkpt lat="40.600942187011242" lon="14.342977507039905">
<ele>203</ele>
</trkpt>
<trkpt lat="40.600927351042628" lon="14.3429846316576">
<ele>205</ele>
</trkpt>
<trkpt lat="40.600738674402237" lon="14.343019081279635">
<ele>207</ele>
</trkpt>
<trkpt lat="40.600662147626281" lon="14.343078006058931">
<ele>209</ele>
</trkpt>
<trkpt lat="40.600624848157167" lon="14.343095608055592">
<ele>211</ele>
</trkpt>
<trkpt lat="40.600505489856005" lon="14.343176828697324">
<ele>213</ele>
</trkpt>
<trkpt lat="40.60039434581995" lon="14.343200214207172">
<ele>215</ele>
</trkpt>
<trkpt lat="40.600346066057682" lon="14.343197615817189">
<ele>217</ele>
</trkpt>
<trkpt lat="40.600243136286736" lon="14.343210775405169">
<ele>219</ele>
</trkpt>
<trkpt lat="40.600160909816623" lon="14.343186048790812">
<ele>221</ele>
</trkpt>
<trkpt lat="40.600076671689749" lon="14.343179930001497">
<ele>222</ele>
</trkpt>
<trkpt lat="40.600006263703108" lon="14.343095105141401">
<ele>224</ele>
</trkpt>
<trkpt lat="40.600084802135825" lon="14.342997036874294">
<ele>226</ele>
</trkpt>
<trkpt lat="40.600109612569213" lon="14.342986810952425">
<ele>228</ele>
</trkpt>
<trkpt lat="40.600163172930479" lon="14.3428810313344">
<ele>230</ele>
</trkpt>
<trkpt lat="40.600082539021969" lon="14.342899806797504">
<ele>232</ele>
</trkpt>
<trkpt lat="40.599968712776899" lon="14.342869045212865">
<ele>232</ele>
</trkpt>
<trkpt lat="40.599937867373228" lon="14.342916151508689">
<ele>232</ele>
</trkpt>
<trkpt lat="40.599853293970227" lon="14.343025451526046">
<ele>232</ele>
</trkpt>
<trkpt lat="40.599784310907125" lon="14.343116143718362">
<ele>232</ele>
</trkpt>
<trkpt lat="40.599723709747195" lon="14.343175906687975">
<ele>232</ele>
</trkpt>
<trkpt lat="40.599670819938183" lon="14.343229467049241">
<ele>232</ele>
</trkpt>
<trkpt lat="40.599559843540192" lon="14.343352513387799">
<ele>232</ele>
</trkpt>
<trkpt lat="40.599381811916828" lon="14.343479834496975">
<ele>232</ele>
</trkpt>
<trkpt lat="40.599260944873095" lon="14.343556696549058">
<ele>232</ele>
</trkpt>
<trkpt lat="40.599112249910831" lon="14.343732632696629">
<ele>232</ele>
</trkpt>
<trkpt lat="40.599045781418681" lon="14.343969589099288">
<ele>233</ele>
</trkpt>
<trkpt lat="40.598996244370937" lon="14.344200678169727">
<ele>233</ele>
</trkpt>
<trkpt lat="40.599020216614008" lon="14.344378709793091">
<ele>234</ele>
</trkpt>
<trkpt lat="40.599046954885125" lon="14.344407040625811">
<ele>235</ele>
</trkpt>
<trkpt lat="40.599130857735872" lon="14.344545425847173">
<ele>236</ele>
</trkpt>
<trkpt lat="40.5991449393332" lon="14.344673082232475">
<ele>236</ele>
</trkpt>
<trkpt lat="40.599188692867756" lon="14.344709794968367">
<ele>237</ele>
</trkpt>
<trkpt lat="40.599193973466754" lon="14.344838289543986">
<ele>238</ele>
</trkpt>
<trkpt lat="40.599193135276437" lon="14.345002742484212">
<ele>238</ele>
</trkpt>
<trkpt lat="40.599249126389623" lon="14.345107935369015">
<ele>239</ele>
</trkpt>
<trkpt lat="40.59934426099062" lon="14.345133500173688">
<ele>241</ele>
</trkpt>
<trkpt lat="40.599473509937525" lon="14.345227293670177">
<ele>243</ele>
</trkpt>
<trkpt lat="40.599509384483099" lon="14.345324523746967">
<ele>245</ele>
</trkpt>
<trkpt lat="40.599527070298791" lon="14.345471542328596">
<ele>247</ele>
</trkpt>
<trkpt lat="40.599550204351544" lon="14.345635659992695">
<ele>248</ele>
</trkpt>
<trkpt lat="40.599592868238688" lon="14.345753258094192">
<ele>250</ele>
</trkpt>
<trkpt lat="40.599641902372241" lon="14.345946377143264">
<ele>252</ele>
</trkpt>
<trkpt lat="40.599737958982587" lon="14.346062717959285">
<ele>254</ele>
</trkpt>
<trkpt lat="40.599813144654036" lon="14.346191128715873">
<ele>256</ele>
</trkpt>
<trkpt lat="40.599867543205619" lon="14.346154415979981">
<ele>258</ele>
</trkpt>
<trkpt lat="40.599957816302776" lon="14.346084930002689">
<ele>259</ele>
</trkpt>
<trkpt lat="40.600032499060035" lon="14.345981329679489">
<ele>260</ele>
</trkpt>
<trkpt lat="40.600076336413622" lon="14.34593204408884">
<ele>261</ele>
</trkpt>
<trkpt lat="40.600133249536157" lon="14.346114099025726">
<ele>262</ele>
</trkpt>
<trkpt lat="40.600107349455357" lon="14.346251226961613">
<ele>262</ele>
</trkpt>
<trkpt lat="40.600066026672721" lon="14.34625793248415">
<ele>263</ele>
</trkpt>
<trkpt lat="40.600034845992923" lon="14.346307888627052">
<ele>264</ele>
</trkpt>
<trkpt lat="40.599974915385246" lon="14.346416518092155">
<ele>265</ele>
</trkpt>
<trkpt lat="40.599930658936501" lon="14.34653696604073">
<ele>266</ele>
</trkpt>
<trkpt lat="40.599819850176573" lon="14.346641069278121">
<ele>267</ele>
</trkpt>
<trkpt lat="40.599817335605621" lon="14.346706783398986">
<ele>269</ele>
</trkpt>
<trkpt lat="40.599674759432673" lon="14.346771156415343">
<ele>271</ele>
</trkpt>
<trkpt lat="40.59948449023068" lon="14.346694545820355">
<ele>273</ele>
</trkpt>
<trkpt lat="40.599414668977261" lon="14.346708292141557">
<ele>275</ele>
</trkpt>
<trkpt lat="40.599309559911489" lon="14.346651965752244">
<ele>278</ele>
</trkpt>
<trkpt lat="40.599260861054063" lon="14.346589352935553">
<ele>280</ele>
</trkpt>
<trkpt lat="40.599068999290466" lon="14.346692450344563">
<ele>282</ele>
</trkpt>
<trkpt lat="40.598927931860089" lon="14.346625059843063">
<ele>284</ele>
</trkpt>
<trkpt lat="40.598922818899155" lon="14.346633525565267">
<ele>286</ele>
</trkpt>
<trkpt lat="40.598821481689811" lon="14.346738047897816">
<ele>288</ele>
</trkpt>
<trkpt lat="40.598717210814357" lon="14.346825554966927">
<ele>290</ele>
</trkpt>
<trkpt lat="40.598660130053759" lon="14.3468320928514">
<ele>291</ele>
</trkpt>
<trkpt lat="40.598523840308189" lon="14.346768390387297">
<ele>292</ele>
</trkpt>
<trkpt lat="40.598456114530563" lon="14.346770904958248">
<ele>294</ele>
</trkpt>
<trkpt lat="40.598417641595006" lon="14.346866207197309">
<ele>296</ele>
</trkpt>
<trkpt lat="40.598351005464792" lon="14.346950696781278">
<ele>297</ele>
</trkpt>
<trkpt lat="40.598241705447435" lon="14.347040466964245">
<ele>298</ele>
</trkpt>
<trkpt lat="40.598118240013719" lon="14.34709838591516">
<ele>300</ele>
</trkpt>
<trkpt lat="40.597985219210386" lon="14.347125962376595">
<ele>302</ele>
</trkpt>
<trkpt lat="40.597856640815735" lon="14.347087321802974">
<ele>303</ele>
</trkpt>
<trkpt lat="40.59776309877634" lon="14.347091931849718">
<ele>304</ele>
</trkpt>
<trkpt lat="40.597634939476848" lon="14.347095284610987">
<ele>306</ele>
</trkpt>
<trkpt lat="40.597540140151978" lon="14.347079358994961">
<ele>308</ele>
</trkpt>
<trkpt lat="40.597504181787372" lon="14.347082879394293">
<ele>309</ele>
</trkpt>
<trkpt lat="40.597395384684205" lon="14.347048429772258">
<ele>310</ele>
</trkpt>
<trkpt lat="40.597299579530954" lon="14.346969975158572">
<ele>312</ele>
</trkpt>
<trkpt lat="40.597294215112925" lon="14.346964610740542">
<ele>314</ele>
</trkpt>
<trkpt lat="40.59712590649724" lon="14.346801163628697">
<ele>315</ele>
</trkpt>
<trkpt lat="40.597055163234472" lon="14.346730755642056">
<ele>316</ele>
</trkpt>
<trkpt lat="40.596908731386065" lon="14.346597315743566">
<ele>318</ele>
</trkpt>
<trkpt lat="40.596808400005102" lon="14.346506539732218">
<ele>320</ele>
</trkpt>
<trkpt lat="40.596645623445511" lon="14.346480723470449">
<ele>322</ele>
</trkpt>
<trkpt lat="40.596560379490256" lon="14.346514083445072">
<ele>324</ele>
</trkpt>
<trkpt lat="40.596541184931993" lon="14.346531182527542">
<ele>326</ele>
</trkpt>
<trkpt lat="40.596440182998776" lon="14.346584575250745">
<ele>328</ele>
</trkpt>
<trkpt lat="40.596359632909298" lon="14.346620868891478">
<ele>330</ele>
</trkpt>
<trkpt lat="40.596273299306631" lon="14.34648466296494">
<ele>332</ele>
</trkpt>
<trkpt lat="40.596225187182426" lon="14.346390198916197">
<ele>334</ele>
</trkpt>
<trkpt lat="40.596176069229841" lon="14.346354743465781">
<ele>336</ele>
</trkpt>
<trkpt lat="40.5960538610816" lon="14.346484998241067">
<ele>338</ele>
</trkpt>
<trkpt lat="40.595987979322672" lon="14.346484914422035">
<ele>340</ele>
</trkpt>
<trkpt lat="40.59589896351099" lon="14.346492541953921">
<ele>341</ele>
</trkpt>
<trkpt lat="40.595812378451228" lon="14.34652422554791">
<ele>343</ele>
</trkpt>
<trkpt lat="40.59573870152235" lon="14.346539732068777">
<ele>344</ele>
</trkpt>
<trkpt lat="40.595620097592473" lon="14.346488853916526">
<ele>346</ele>
</trkpt>
<trkpt lat="40.595592018216848" lon="14.346434706822038">
<ele>348</ele>
</trkpt>
<trkpt lat="40.595472073182464" lon="14.346199762076139">
<ele>349</ele>
</trkpt>
<trkpt lat="40.595352714881301" lon="14.346078727394342">
<ele>351</ele>
</trkpt>
<trkpt lat="40.59523293748498" lon="14.345875298604369">
<ele>352</ele>
</trkpt>
<trkpt lat="40.59518801048398" lon="14.345814697444439">
<ele>354</ele>
</trkpt>
<trkpt lat="40.595119446516037" lon="14.345708917826414">
<ele>355</ele>
</trkpt>
<trkpt lat="40.595026575028896" lon="14.345586122944951">
<ele>357</ele>
</trkpt>
<trkpt lat="40.594919202849269" lon="14.345435332506895">
<ele>358</ele>
</trkpt>
<trkpt lat="40.594836473464966" lon="14.345339024439454">
<ele>359</ele>
</trkpt>
<trkpt lat="40.594772100448608" lon="14.345236010849476">
<ele>360</ele>
</trkpt>
<trkpt lat="40.594711666926742" lon="14.345150347799063">
<ele>362</ele>
</trkpt>
<trkpt lat="40.594593733549118" lon="14.344922443851829">
<ele>363</ele>
</trkpt>
<trkpt lat="40.594576802104712" lon="14.344864189624786">
<ele>364</ele>
</trkpt>
<trkpt lat="40.594508405774832" lon="14.344694372266531">
<ele>366</ele>
</trkpt>
<trkpt lat="40.594449900090694" lon="14.344569398090243">
<ele>367</ele>
</trkpt>
<trkpt lat="40.594394411891699" lon="14.344418523833156">
<ele>367</ele>
</trkpt>
<trkpt lat="40.594354430213571" lon="14.344302183017135">
<ele>367</ele>
</trkpt>
<trkpt lat="40.594306401908398" lon="14.344189027324319">
<ele>367</ele>
</trkpt>
<trkpt lat="40.594211602583528" lon="14.343929355964065">
<ele>367</ele>
</trkpt>
<trkpt lat="40.594153013080359" lon="14.343774877488613">
<ele>368</ele>
</trkpt>
<trkpt lat="40.594093669205904" lon="14.343605730682611">
<ele>368</ele>
</trkpt>
<trkpt lat="40.594098782166839" lon="14.343603048473597">
<ele>368</ele>
</trkpt>
<trkpt lat="40.594018902629614" lon="14.343410180881619">
<ele>368</ele>
</trkpt>
<trkpt lat="40.59398059733212" lon="14.343294510617852">
<ele>368</ele>
</trkpt>
<trkpt lat="40.593918738886714" lon="14.343128129839897">
<ele>368</ele>
</trkpt>
<trkpt lat="40.593904489651322" lon="14.343090495094657">
<ele>368</ele>
</trkpt>
<trkpt lat="40.593847911804914" lon="14.342852113768458">
<ele>369</ele>
</trkpt>
<trkpt lat="40.593882445245981" lon="14.342680452391505">
<ele>370</ele>
</trkpt>
<trkpt lat="40.593855120241642" lon="14.342503594234586">
<ele>370</ele>
</trkpt>
<trkpt lat="40.593847995623946" lon="14.342389097437263">
<ele>370</ele>
</trkpt>
<trkpt lat="40.593824777752161" lon="14.342353641986847">
<ele>371</ele>
</trkpt>
<trkpt lat="40.593719920143485" lon="14.342125821858644">
<ele>372</ele>
</trkpt>
<trkpt lat="40.593634760007262" lon="14.341939743608236">
<ele>372</ele>
</trkpt>
<trkpt lat="40.593638196587563" lon="14.341836646199226">
<ele>372</ele>
</trkpt>
<trkpt lat="40.593572231009603" lon="14.341752575710416">
<ele>373</ele>
</trkpt>
<trkpt lat="40.59350224211812" lon="14.341672863811255">
<ele>372</ele>
</trkpt>
<trkpt lat="40.593465697020292" lon="14.341613603755832">
<ele>370</ele>
</trkpt>
<trkpt lat="40.593448765575886" lon="14.341541016474366">
<ele>369</ele>
</trkpt>
<trkpt lat="40.593416327610612" lon="14.341417718678713">
<ele>368</ele>
</trkpt>
<trkpt lat="40.593347009271383" lon="14.341201800853014">
<ele>366</ele>
</trkpt>
<trkpt lat="40.593335777521133" lon="14.341177912428975">
<ele>365</ele>
</trkpt>
<trkpt lat="40.593267297372222" lon="14.34103106148541">
<ele>364</ele>
</trkpt>
<trkpt lat="40.593250030651689" lon="14.341009519994259">
<ele>363</ele>
</trkpt>
<trkpt lat="40.593194793909788" lon="14.340808689594269">
<ele>361</ele>
</trkpt>
<trkpt lat="40.593131091445684" lon="14.340659407898784">
<ele>360</ele>
</trkpt>
<trkpt lat="40.593027658760548" lon="14.340512976050377">
<ele>359</ele>
</trkpt>
<trkpt lat="40.592980636283755" lon="14.340418092906475">
<ele>359</ele>
</trkpt>
<trkpt lat="40.5928919557482" lon="14.340276271104813">
<ele>358</ele>
</trkpt>
<trkpt lat="40.592753738164902" lon="14.340157248079777">
<ele>357</ele>
</trkpt>
<trkpt lat="40.592710403725505" lon="14.340131599456072">
<ele>356</ele>
</trkpt>
<trkpt lat="40.592568917199969" lon="14.340101592242718">
<ele>356</ele>
</trkpt>
<trkpt lat="40.592512171715498" lon="14.340098910033703">
<ele>355</ele>
</trkpt>
<trkpt lat="40.592443607747555" lon="14.340109806507826">
<ele>354</ele>
</trkpt>
<trkpt lat="40.592402284964919" lon="14.340081056579947">
<ele>354</ele>
</trkpt>
<trkpt lat="40.592310419306159" lon="14.339972510933876">
<ele>353</ele>
</trkpt>
<trkpt lat="40.592207154259086" lon="14.339916771277785">
<ele>351</ele>
</trkpt>
<trkpt lat="40.592083102092147" lon="14.339907048270106">
<ele>349</ele>
</trkpt>
<trkpt lat="40.592033481225371" lon="14.339907635003328">
<ele>348</ele>
</trkpt>
<trkpt lat="40.592023925855756" lon="14.339907970279455">
<ele>346</ele>
</trkpt>
<trkpt lat="40.591919738799334" lon="14.339947616681457">
<ele>344</ele>
</trkpt>
<trkpt lat="40.591886295005679" lon="14.339950131252408">
<ele>342</ele>
</trkpt>
<trkpt lat="40.591792836785316" lon="14.339911658316851">
<ele>340</ele>
</trkpt>
<trkpt lat="40.59174170717597" lon="14.339789785444736">
<ele>339</ele>
</trkpt>
<trkpt lat="40.591721339151263" lon="14.339726082980633">
<ele>337</ele>
</trkpt>
<trkpt lat="40.591614134609699" lon="14.339672354981303">
<ele>335</ele>
</trkpt>
<trkpt lat="40.591238122433424" lon="14.340142998844385">
<ele>333</ele>
</trkpt>
<trkpt lat="40.590989599004388" lon="14.339862037450075">
<ele>330</ele>
</trkpt>
<trkpt lat="40.590817015618086" lon="14.339633462950587">
<ele>328</ele>
</trkpt>
<trkpt lat="40.590805700048804" lon="14.339632038027048">
<ele>325</ele>
</trkpt>
<trkpt lat="40.590625992044806" lon="14.339564982801676">
<ele>323</ele>
</trkpt>
<trkpt lat="40.590631691738963" lon="14.339961279183626">
<ele>321</ele>
</trkpt>
<trkpt lat="40.59056019410491" lon="14.340103855356574">
<ele>318</ele>
</trkpt>
<trkpt lat="40.590550135821104" lon="14.340117517858744">
<ele>316</ele>
</trkpt>
<trkpt lat="40.590507639572024" lon="14.340434689074755">
<ele>314</ele>
</trkpt>
<trkpt lat="40.590512501075864" lon="14.340582713484764">
<ele>312</ele>
</trkpt>
<trkpt lat="40.590502861887217" lon="14.340661587193608">
<ele>309</ele>
</trkpt>
<trkpt lat="40.590483332052827" lon="14.340756554156542">
<ele>307</ele>
</trkpt>
<trkpt lat="40.590463299304247" lon="14.340880271047354">
<ele>305</ele>
</trkpt>
<trkpt lat="40.590445613488555" lon="14.340965012088418">
<ele>302</ele>
</trkpt>
<trkpt lat="40.590413343161345" lon="14.34117523021996">
<ele>300</ele>
</trkpt>
<trkpt lat="40.590198850259185" lon="14.341321494430304">
<ele>297</ele>
</trkpt>
<trkpt lat="40.590077312663198" lon="14.341433057561517">
<ele>293</ele>
</trkpt>
<trkpt lat="40.590058704838157" lon="14.341444205492735">
<ele>290</ele>
</trkpt>
<trkpt lat="40.58984630741179" lon="14.341585524380207">
<ele>287</ele>
</trkpt>
<trkpt lat="40.589707754552364" lon="14.342233696952462">
<ele>284</ele>
</trkpt>
<trkpt lat="40.589620918035507" lon="14.34248766861856">
<ele>280</ele>
</trkpt>
<trkpt lat="40.589565765112638" lon="14.342592861503363">
<ele>277</ele>
</trkpt>
<trkpt lat="40.589464008808136" lon="14.342747423797846">
<ele>274</ele>
</trkpt>
<trkpt lat="40.589329395443201" lon="14.342867704108357">
<ele>270</ele>
</trkpt>
<trkpt lat="40.589193189516664" lon="14.342909697443247">
<ele>267</ele>
</trkpt>
<trkpt lat="40.589157650247216" lon="14.343048166483641">
<ele>265</ele>
</trkpt>
<trkpt lat="40.589132588356733" lon="14.343108683824539">
<ele>263</ele>
</trkpt>
<trkpt lat="40.589122530072927" lon="14.343266179785132">
<ele>261</ele>
</trkpt>
<trkpt lat="40.589122613891959" lon="14.343399871140718">
<ele>259</ele>
</trkpt>
<trkpt lat="40.589106436818838" lon="14.343522749841213">
<ele>258</ele>
</trkpt>
<trkpt lat="40.58898095972836" lon="14.343612687662244">
<ele>256</ele>
</trkpt>
<trkpt lat="40.588912144303322" lon="14.343671780079603">
<ele>254</ele>
</trkpt>
<trkpt lat="40.588875934481621" lon="14.343725508078933">
<ele>252</ele>
</trkpt>
<trkpt lat="40.588805275037885" lon="14.343871520832181">
<ele>250</ele>
</trkpt>
<trkpt lat="40.588764790445566" lon="14.343996746465564">
<ele>248</ele>
</trkpt>
<trkpt lat="40.588674014434218" lon="14.344080397859216">
<ele>245</ele>
</trkpt>
<trkpt lat="40.588630177080631" lon="14.344177627936006">
<ele>243</ele>
</trkpt>
<trkpt lat="40.58858709409833" lon="14.344247281551361">
<ele>240</ele>
</trkpt>
<trkpt lat="40.588537557050586" lon="14.344350211322308">
<ele>238</ele>
</trkpt>
<trkpt lat="40.588449295610189" lon="14.344457751139998">
<ele>235</ele>
</trkpt>
<trkpt lat="40.588387856259942" lon="14.344542659819126">
<ele>232</ele>
</trkpt>
<trkpt lat="40.588336056098342" lon="14.344722200185061">
<ele>230</ele>
</trkpt>
<trkpt lat="40.588194234296679" lon="14.344837535172701">
<ele>227</ele>
</trkpt>
<trkpt lat="40.588090885430574" lon="14.345092931762338">
<ele>225</ele>
</trkpt>
<trkpt lat="40.588003881275654" lon="14.345227796584368">
<ele>222</ele>
</trkpt>
<trkpt lat="40.587907070294023" lon="14.34523668140173">
<ele>220</ele>
</trkpt>
<trkpt lat="40.587912686169147" lon="14.345228970050812">
<ele>218</ele>
</trkpt>
<trkpt lat="40.587781760841608" lon="14.345251685008407">
<ele>217</ele>
</trkpt>
<trkpt lat="40.587749658152461" lon="14.345287475734949">
<ele>215</ele>
</trkpt>
<trkpt lat="40.587646476924419" lon="14.345316812396049">
<ele>213</ele>
</trkpt>
<trkpt lat="40.587593084201217" lon="14.345328295603395">
<ele>211</ele>
</trkpt>
<trkpt lat="40.587477413937449" lon="14.345432482659817">
<ele>209</ele>
</trkpt>
<trkpt lat="40.58742075227201" lon="14.34547271579504">
<ele>208</ele>
</trkpt>
<trkpt lat="40.587339447811246" lon="14.345618728548288">
<ele>206</ele>
</trkpt>
<trkpt lat="40.587343303486705" lon="14.345723921433091">
<ele>204</ele>
</trkpt>
<trkpt lat="40.587335592135787" lon="14.345842609182">
<ele>202</ele>
</trkpt>
<trkpt lat="40.587260406464338" lon="14.345987616106868">
<ele>199</ele>
</trkpt>
<trkpt lat="40.587238278239965" lon="14.346142010763288">
<ele>197</ele>
</trkpt>
<trkpt lat="40.587140964344144" lon="14.346279725432396">
<ele>195</ele>
</trkpt>
<trkpt lat="40.587073741480708" lon="14.346389779821038">
<ele>192</ele>
</trkpt>
<trkpt lat="40.587006686255336" lon="14.346562866121531">
<ele>190</ele>
</trkpt>
<trkpt lat="40.586973242461681" lon="14.346592705696821">
<ele>188</ele>
</trkpt>
<trkpt lat="40.586972655728459" lon="14.34679982252419">
<ele>186</ele>
</trkpt>
<trkpt lat="40.58698195964098" lon="14.346814658492804">
<ele>183</ele>
</trkpt>
<trkpt lat="40.586854470893741" lon="14.346948601305485">
<ele>181</ele>
</trkpt>
<trkpt lat="40.586753636598587" lon="14.347140127792954">
<ele>179</ele>
</trkpt>
<trkpt lat="40.586677612736821" lon="14.347156221047044">
<ele>177</ele>
</trkpt>
<trkpt lat="40.586496563628316" lon="14.34711204841733">
<ele>175</ele>
</trkpt>
<trkpt lat="40.586377289146185" lon="14.347072402015328">
<ele>173</ele>
</trkpt>
<trkpt lat="40.586253572255373" lon="14.347076592966914">
<ele>171</ele>
</trkpt>
<trkpt lat="40.586230019107461" lon="14.34721908532083">
<ele>169</ele>
</trkpt>
<trkpt lat="40.586101692169905" lon="14.347172062844038">
<ele>171</ele>
</trkpt>
<trkpt lat="40.585535243153572" lon="14.34707441367209">
<ele>172</ele>
</trkpt>
<trkpt lat="40.585415633395314" lon="14.347114227712154">
<ele>174</ele>
</trkpt>
<trkpt lat="40.585323181003332" lon="14.347170637920499">
<ele>176</ele>
</trkpt>
<trkpt lat="40.585240116342902" lon="14.347220845520496">
<ele>178</ele>
</trkpt>
<trkpt lat="40.585238942876458" lon="14.347233334556222">
<ele>179</ele>
</trkpt>
<trkpt lat="40.585094774141908" lon="14.347357889637351">
<ele>181</ele>
</trkpt>
<trkpt lat="40.585034340620041" lon="14.347420250996947">
<ele>183</ele>
</trkpt>
<trkpt lat="40.584888327866793" lon="14.347577746957541">
<ele>184</ele>
</trkpt>
<trkpt lat="40.584844658151269" lon="14.347691321745515">
<ele>186</ele>
</trkpt>
<trkpt lat="40.584805263206363" lon="14.347754856571555">
<ele>186</ele>
</trkpt>
<trkpt lat="40.584675511345267" lon="14.347909670323133">
<ele>186</ele>
</trkpt>
<trkpt lat="40.58461650274694" lon="14.347961638122797">
<ele>186</ele>
</trkpt>
<trkpt lat="40.584513237699866" lon="14.348042272031307">
<ele>186</ele>
</trkpt>
<trkpt lat="40.58435364626348" lon="14.348062053322792">
<ele>186</ele>
</trkpt>
<trkpt lat="40.584202520549297" lon="14.348044535145164">
<ele>186</ele>
</trkpt>
<trkpt lat="40.584062375128269" lon="14.348047468811274">
<ele>186</ele>
</trkpt>
<trkpt lat="40.583958271890879" lon="14.348075212910771">
<ele>186</ele>
</trkpt>
<trkpt lat="40.583885684609413" lon="14.348124163225293">
<ele>186</ele>
</trkpt>
<trkpt lat="40.583771103993058" lon="14.348169509321451">
<ele>186</ele>
</trkpt>
<trkpt lat="40.583611093461514" lon="14.348206138238311">
<ele>186</ele>
</trkpt>
<trkpt lat="40.583415208384395" lon="14.348227428272367">
<ele>185</ele>
</trkpt>
<trkpt lat="40.583229130133986" lon="14.348248634487391">
<ele>184</ele>
</trkpt>
<trkpt lat="40.583146903663874" lon="14.348243689164519">
<ele>184</ele>
</trkpt>
<trkpt lat="40.583137013018131" lon="14.348245281726122">
<ele>184</ele>
</trkpt>
<trkpt lat="40.582982199266553" lon="14.348255172371864">
<ele>183</ele>
</trkpt>
<trkpt lat="40.582854794338346" lon="14.348227176815271">
<ele>182</ele>
</trkpt>
<trkpt lat="40.58281690813601" lon="14.348239665850997">
<ele>182</ele>
</trkpt>
<trkpt lat="40.582805508747697" lon="14.34824762865901">
<ele>182</ele>
</trkpt>
<trkpt lat="40.58258674107492" lon="14.348206138238311">
<ele>181</ele>
</trkpt>
<trkpt lat="40.582549693062901" lon="14.348208820447326">
<ele>181</ele>
</trkpt>
<trkpt lat="40.582360848784447" lon="14.348155846819282">
<ele>180</ele>
</trkpt>
<trkpt lat="40.582192037254572" lon="14.348084600642323">
<ele>180</ele>
</trkpt>
<trkpt lat="40.582189103588462" lon="14.348085019737482">
<ele>180</ele>
</trkpt>
<trkpt lat="40.582028003409505" lon="14.348005140200257">
<ele>180</ele>
</trkpt>
<trkpt lat="40.581932365894318" lon="14.34795199893415">
<ele>179</ele>
</trkpt>
<trkpt lat="40.58193638920784" lon="14.347972869873047">
<ele>179</ele>
</trkpt>
<trkpt lat="40.581869082525373" lon="14.347932385280728">
<ele>179</ele>
</trkpt>
<trkpt lat="40.581687027588487" lon="14.3478147033602">
<ele>178</ele>
</trkpt>
<trkpt lat="40.581560963764787" lon="14.347650501877069">
<ele>178</ele>
</trkpt>
<trkpt lat="40.581442276015878" lon="14.347446067258716">
<ele>178</ele>
</trkpt>
<trkpt lat="40.581356529146433" lon="14.347261413931847">
<ele>179</ele>
</trkpt>
<trkpt lat="40.581211522221565" lon="14.347186144441366">
<ele>179</ele>
</trkpt>
<trkpt lat="40.581103395670652" lon="14.347047256305814">
<ele>179</ele>
</trkpt>
<trkpt lat="40.581085123121738" lon="14.34700844809413">
<ele>180</ele>
</trkpt>
<trkpt lat="40.581028880551457" lon="14.346877271309495">
<ele>180</ele>
</trkpt>
<trkpt lat="40.580978589132428" lon="14.346811389550567">
<ele>180</ele>
</trkpt>
<trkpt lat="40.580942630767822" lon="14.346678536385298">
<ele>180</ele>
</trkpt>
<trkpt lat="40.580940032377839" lon="14.346670070663095">
<ele>181</ele>
</trkpt>
<trkpt lat="40.580869624391198" lon="14.346521375700831">
<ele>181</ele>
</trkpt>
<trkpt lat="40.580866439267993" lon="14.346506036818027">
<ele>182</ele>
</trkpt>
<trkpt lat="40.580839281901717" lon="14.346391875296831">
<ele>182</ele>
</trkpt>
<trkpt lat="40.58070994913578" lon="14.346202444285154">
<ele>183</ele>
</trkpt>
<trkpt lat="40.580672398209572" lon="14.346170509234071">
<ele>184</ele>
</trkpt>
<trkpt lat="40.580530660226941" lon="14.345971774309874">
<ele>184</ele>
</trkpt>
<trkpt lat="40.580441141501069" lon="14.345814865082502">
<ele>185</ele>
</trkpt>
<trkpt lat="40.580399734899402" lon="14.34576247818768">
<ele>186</ele>
</trkpt>
<trkpt lat="40.580276772379875" lon="14.345742193982005">
<ele>187</ele>
</trkpt>
<trkpt lat="40.579987009987235" lon="14.345447989180684">
<ele>187</ele>
</trkpt>
<trkpt lat="40.5799300968647" lon="14.34535201638937">
<ele>188</ele>
</trkpt>
<trkpt lat="40.579905873164535" lon="14.345310945063829">
<ele>188</ele>
</trkpt>
<trkpt lat="40.579690961167216" lon="14.345061415806413">
<ele>188</ele>
</trkpt>
<trkpt lat="40.579619212076068" lon="14.344926886260509">
<ele>188</ele>
</trkpt>
<trkpt lat="40.579480659216642" lon="14.344927808269858">
<ele>188</ele>
</trkpt>
<trkpt lat="40.579405054450035" lon="14.3449342623353">
<ele>188</ele>
</trkpt>
<trkpt lat="40.5793188046664" lon="14.344822866842151">
<ele>188</ele>
</trkpt>
<trkpt lat="40.579302711412311" lon="14.344620695337653">
<ele>188</ele>
</trkpt>
<trkpt lat="40.579257030040026" lon="14.344351217150688">
<ele>188</ele>
</trkpt>
<trkpt lat="40.578992078080773" lon="14.3439672421664">
<ele>188</ele>
</trkpt>
<trkpt lat="40.578898619860411" lon="14.344018707051873">
<ele>188</ele>
</trkpt>
<trkpt lat="40.578892920166254" lon="14.344023652374744">
<ele>186</ele>
</trkpt>
<trkpt lat="40.578721761703491" lon="14.344018204137683">
<ele>185</ele>
</trkpt>
<trkpt lat="40.578622268512845" lon="14.343902869150043">
<ele>184</ele>
</trkpt>
<trkpt lat="40.578505424782634" lon="14.343815529718995">
<ele>182</ele>
</trkpt>
<trkpt lat="40.578450607135892" lon="14.343771189451218">
<ele>180</ele>
</trkpt>
<trkpt lat="40.578304342925549" lon="14.343772446736693">
<ele>179</ele>
</trkpt>
<trkpt lat="40.578229911625385" lon="14.343776302412152">
<ele>178</ele>
</trkpt>
<trkpt lat="40.57804936543107" lon="14.343820558860898">
<ele>176</ele>
</trkpt>
<trkpt lat="40.577916176989675" lon="14.343742858618498">
<ele>174</ele>
</trkpt>
<trkpt lat="40.57777033187449" lon="14.343651663511992">
<ele>173</ele>
</trkpt>
<trkpt lat="40.577690368518233" lon="14.343548314645886">
<ele>171</ele>
</trkpt>
<trkpt lat="40.577609399333596" lon="14.343441026285291">
<ele>169</ele>
</trkpt>
<trkpt lat="40.577534716576338" lon="14.343359973281622">
<ele>166</ele>
</trkpt>
<trkpt lat="40.577474785968661" lon="14.343276573345065">
<ele>164</ele>
</trkpt>
<trkpt lat="40.577430613338947" lon="14.343168027698994">
<ele>162</ele>
</trkpt>
<trkpt lat="40.577416867017746" lon="14.343149252235889">
<ele>160</ele>
</trkpt>
<trkpt lat="40.577264232560992" lon="14.342991504818201">
<ele>158</ele>
</trkpt>
<trkpt lat="40.577246379107237" lon="14.342933585867286">
<ele>155</ele>
</trkpt>
<trkpt lat="40.57719717733562" lon="14.342843480408192">
<ele>153</ele>
</trkpt>
<trkpt lat="40.577106820419431" lon="14.342770222574472">
<ele>151</ele>
</trkpt>
<trkpt lat="40.577025851234794" lon="14.34269386343658">
<ele>148</ele>
</trkpt>
<trkpt lat="40.576971285045147" lon="14.342642985284328">
<ele>146</ele>
</trkpt>
<trkpt lat="40.576885370537639" lon="14.342567464336753">
<ele>143</ele>
</trkpt>
<trkpt lat="40.576806832104921" lon="14.342471826821566">
<ele>140</ele>
</trkpt>
<trkpt lat="40.576794259250164" lon="14.342460427433252">
<ele>138</ele>
</trkpt>
<trkpt lat="40.576718486845493" lon="14.342396976426244">
<ele>135</ele>
</trkpt>
<trkpt lat="40.576656460762024" lon="14.342321120202541">
<ele>132</ele>
</trkpt>
<trkpt lat="40.5766093544662" lon="14.342266554012895">
<ele>129</ele>
</trkpt>
<trkpt lat="40.576550764963031" lon="14.342311481013894">
<ele>127</ele>
</trkpt>
<trkpt lat="40.576466275379062" lon="14.342297147959471">
<ele>124</ele>
</trkpt>
<trkpt lat="40.576385222375393" lon="14.3422438390553">
<ele>120</ele>
</trkpt>
<trkpt lat="40.57628195732832" lon="14.342217771336436">
<ele>117</ele>
</trkpt>
<trkpt lat="40.576198305934668" lon="14.342054408043623">
<ele>113</ele>
</trkpt>
<trkpt lat="40.576145499944687" lon="14.341979390010238">
<ele>110</ele>
</trkpt>
<trkpt lat="40.576042151078582" lon="14.34192968532443">
<ele>106</ele>
</trkpt>
<trkpt lat="40.575951794162393" lon="14.341909736394882">
<ele>102</ele>
</trkpt>
<trkpt lat="40.575868394225836" lon="14.341869838535786">
<ele>99</ele>
</trkpt>
<trkpt lat="40.575823048129678" lon="14.34186078608036">
<ele>95</ele>
</trkpt>
<trkpt lat="40.575732523575425" lon="14.341826336458325">
<ele>92</ele>
</trkpt>
<trkpt lat="40.575667228549719" lon="14.341773949563503">
<ele>88</ele>
</trkpt>
<trkpt lat="40.57558961212635" lon="14.341696165502071">
<ele>84</ele>
</trkpt>
<trkpt lat="40.575520126149058" lon="14.341627852991223">
<ele>81</ele>
</trkpt>
<trkpt lat="40.575422309339046" lon="14.341453509405255">
<ele>78</ele>
</trkpt>
<trkpt lat="40.575403198599815" lon="14.34139215387404">
<ele>74</ele>
</trkpt>
<trkpt lat="40.575323067605495" lon="14.341358374804258">
<ele>70</ele>
</trkpt>
<trkpt lat="40.57528811506927" lon="14.341391902416945">
<ele>67</ele>
</trkpt>
<trkpt lat="40.575213264673948" lon="14.341339096426964">
<ele>64</ele>
</trkpt>
<trkpt lat="40.575167667120695" lon="14.3413061555475">
<ele>60</ele>
</trkpt>
<trkpt lat="40.575056103989482" lon="14.341269945725799">
<ele>56</ele>
</trkpt>
<trkpt lat="40.575012350454926" lon="14.341265084221959">
<ele>53</ele>
</trkpt>
<trkpt lat="40.574950240552425" lon="14.341293750330806">
<ele>50</ele>
</trkpt>
<trkpt lat="40.574898775666952" lon="14.341280590742826">
<ele>46</ele>
</trkpt>
<trkpt lat="40.574865415692329" lon="14.341270700097084">
<ele>43</ele>
</trkpt>
<trkpt lat="40.574778327718377" lon="14.341253768652678">
<ele>40</ele>
</trkpt>
<trkpt lat="40.574718145653605" lon="14.341292241588235">
<ele>36</ele>
</trkpt>
<trkpt lat="40.574608510360122" lon="14.341315375640988">
<ele>33</ele>
</trkpt>
<trkpt lat="40.574562158435583" lon="14.34132912196219">
<ele>30</ele>
</trkpt>
<trkpt lat="40.574464173987508" lon="14.341227868571877">
<ele>27</ele>
</trkpt>
<trkpt lat="40.574425030499697" lon="14.341064924374223">
<ele>23</ele>
</trkpt>
<trkpt lat="40.574394101276994" lon="14.341024104505777">
<ele>20</ele>
</trkpt>
<trkpt lat="40.574399130418897" lon="14.340846324339509">
<ele>18</ele>
</trkpt>
<trkpt lat="40.574415223672986" lon="14.340793015435338">
<ele>16</ele>
</trkpt>
<trkpt lat="40.574375409632921" lon="14.340652450919151">
<ele>14</ele>
</trkpt>
<trkpt lat="40.574324950575829" lon="14.340521525591612">
<ele>12</ele>
</trkpt>
<trkpt lat="40.574211962521076" lon="14.340743981301785">
<ele>10</ele>
</trkpt>
<trkpt lat="40.574212884530425" lon="14.340736605226994">
<ele>12</ele>
</trkpt>
<trkpt lat="40.574324950575829" lon="14.340521525591612">
<ele>13</ele>
</trkpt>
<trkpt lat="40.574375409632921" lon="14.340652450919151">
<ele>15</ele>
</trkpt>
<trkpt lat="40.574400639161468" lon="14.340707520022988">
<ele>16</ele>
</trkpt>
<trkpt lat="40.574399130418897" lon="14.340846324339509">
<ele>18</ele>
</trkpt>
<trkpt lat="40.574370212852955" lon="14.340918995440006">
<ele>20</ele>
</trkpt>
<trkpt lat="40.574375493451953" lon="14.340977752581239">
<ele>21</ele>
</trkpt>
<trkpt lat="40.574336349964142" lon="14.341064756736159">
<ele>23</ele>
</trkpt>
<trkpt lat="40.574375158175826" lon="14.341268856078386">
<ele>24</ele>
</trkpt>
<trkpt lat="40.574430814012885" lon="14.34134479612112">
<ele>26</ele>
</trkpt>
<trkpt lat="40.574503066018224" lon="14.341383939608932">
<ele>28</ele>
</trkpt>
<trkpt lat="40.574555788189173" lon="14.341450072824955">
<ele>30</ele>
</trkpt>
<trkpt lat="40.574609013274312" lon="14.341551996767521">
<ele>32</ele>
</trkpt>
<trkpt lat="40.574579006060958" lon="14.341568509116769">
<ele>34</ele>
</trkpt>
<trkpt lat="40.574484877288342" lon="14.341630535200238">
<ele>36</ele>
</trkpt>
<trkpt lat="40.574528463184834" lon="14.341732459142804">
<ele>38</ele>
</trkpt>
<trkpt lat="40.574671123176813" lon="14.341845028102398">
<ele>40</ele>
</trkpt>
<trkpt lat="40.574737843126059" lon="14.341879226267338">
<ele>42</ele>
</trkpt>
<trkpt lat="40.574774807319045" lon="14.341941000893712">
<ele>44</ele>
</trkpt>
<trkpt lat="40.574842030182481" lon="14.342069579288363">
<ele>46</ele>
</trkpt>
<trkpt lat="40.574895590543747" lon="14.34217493981123">
<ele>48</ele>
</trkpt>
<trkpt lat="40.574919227510691" lon="14.342287089675665">
<ele>51</ele>
</trkpt>
<trkpt lat="40.574924424290657" lon="14.342346517369151">
<ele>54</ele>
</trkpt>
<trkpt lat="40.574891399592161" lon="14.342516837641597">
<ele>56</ele>
</trkpt>
<trkpt lat="40.574854435399175" lon="14.342619264498353">
<ele>58</ele>
</trkpt>
<trkpt lat="40.574777657166123" lon="14.342694114893675">
<ele>61</ele>
</trkpt>
<trkpt lat="40.574738597497344" lon="14.342776760458946">
<ele>64</ele>
</trkpt>
<trkpt lat="40.574707919731736" lon="14.342924784868956">
<ele>66</ele>
</trkpt>
<trkpt lat="40.574712865054607" lon="14.343080772086978">
<ele>68</ele>
</trkpt>
<trkpt lat="40.574730047956109" lon="14.34319376014173">
<ele>71</ele>
</trkpt>
<trkpt lat="40.574802299961448" lon="14.343176241964102">
<ele>72</ele>
</trkpt>
<trkpt lat="40.574841611087322" lon="14.343227287754416">
<ele>73</ele>
</trkpt>
<trkpt lat="40.574825685471296" lon="14.343262575566769">
<ele>74</ele>
</trkpt>
<trkpt lat="40.574820404872298" lon="14.343274310231209">
<ele>75</ele>
</trkpt>
<trkpt lat="40.574847226962447" lon="14.343462064862251">
<ele>76</ele>
</trkpt>
<trkpt lat="40.574817890301347" lon="14.343549069017172">
<ele>76</ele>
</trkpt>
<trkpt lat="40.574776148423553" lon="14.343631463125348">
<ele>77</ele>
</trkpt>
<trkpt lat="40.574675733223557" lon="14.343716874718666">
<ele>78</ele>
</trkpt>
<trkpt lat="40.574604487046599" lon="14.343789294362068">
<ele>79</ele>
</trkpt>
<trkpt lat="40.574596105143428" lon="14.343786025419831">
<ele>80</ele>
</trkpt>
<trkpt lat="40.574469538405538" lon="14.343704050406814">
<ele>82</ele>
</trkpt>
<trkpt lat="40.574412792921066" lon="14.343731459230185">
<ele>84</ele>
</trkpt>
<trkpt lat="40.574283208698034" lon="14.343665912747383">
<ele>85</ele>
</trkpt>
<trkpt lat="40.57434163056314" lon="14.343860037624836">
<ele>87</ele>
</trkpt>
<trkpt lat="40.574345821514726" lon="14.343869760632515">
<ele>89</ele>
</trkpt>
<trkpt lat="40.574405416846275" lon="14.344068160280585">
<ele>91</ele>
</trkpt>
<trkpt lat="40.574397454038262" lon="14.344087019562721">
<ele>93</ele>
</trkpt>
<trkpt lat="40.57437683455646" lon="14.344141082838178">
<ele>94</ele>
</trkpt>
<trkpt lat="40.574297709390521" lon="14.344234708696604">
<ele>96</ele>
</trkpt>
<trkpt lat="40.574225792661309" lon="14.344316264614463">
<ele>98</ele>
</trkpt>
<trkpt lat="40.574189582839608" lon="14.344471162185073">
<ele>97</ele>
</trkpt>
<trkpt lat="40.57411783374846" lon="14.34459806419909">
<ele>96</ele>
</trkpt>
<trkpt lat="40.574137279763818" lon="14.344677189365029">
<ele>94</ele>
</trkpt>
<trkpt lat="40.574137279763818" lon="14.344677189365029">
<ele>93</ele>
</trkpt>
<trkpt lat="40.574189582839608" lon="14.344471162185073">
<ele>92</ele>
</trkpt>
<trkpt lat="40.574195701628923" lon="14.344403184950352">
<ele>91</ele>
</trkpt>
<trkpt lat="40.574253872036934" lon="14.344267649576068">
<ele>90</ele>
</trkpt>
<trkpt lat="40.574353700503707" lon="14.344176538288593">
<ele>88</ele>
</trkpt>
<trkpt lat="40.574397454038262" lon="14.344087019562721">
<ele>87</ele>
</trkpt>
<trkpt lat="40.574426287785172" lon="14.344029268249869">
<ele>86</ele>
</trkpt>
<trkpt lat="40.574507340788841" lon="14.344022227451205">
<ele>86</ele>
</trkpt>
<trkpt lat="40.574663830921054" lon="14.344002278521657">
<ele>87</ele>
</trkpt>
<trkpt lat="40.574731221422553" lon="14.34397017583251">
<ele>88</ele>
</trkpt>
<trkpt lat="40.574806574732065" lon="14.343920890241861">
<ele>88</ele>
</trkpt>
<trkpt lat="40.574900452047586" lon="14.343821732327342">
<ele>88</ele>
</trkpt>
<trkpt lat="40.57498175650835" lon="14.343749145045877">
<ele>89</ele>
</trkpt>
<trkpt lat="40.575062474235892" lon="14.343687789514661">
<ele>90</ele>
</trkpt>
<trkpt lat="40.575143359601498" lon="14.343647137284279">
<ele>90</ele>
</trkpt>
<trkpt lat="40.57530521415174" lon="14.343596007674932">
<ele>90</ele>
</trkpt>
<trkpt lat="40.575349135324359" lon="14.343604641035199">
<ele>91</ele>
</trkpt>
<trkpt lat="40.575450723990798" lon="14.343642946332693">
<ele>93</ele>
</trkpt>
<trkpt lat="40.575521383434534" lon="14.343669097870588">
<ele>95</ele>
</trkpt>
<trkpt lat="40.575700756162405" lon="14.343694243580103">
<ele>97</ele>
</trkpt>
<trkpt lat="40.57581483386457" lon="14.343715198338032">
<ele>99</ele>
</trkpt>
<trkpt lat="40.575964534655213" lon="14.343650657683611">
<ele>100</ele>
</trkpt>
<trkpt lat="40.576041480526328" lon="14.343634815886617">
<ele>102</ele>
</trkpt>
<trkpt lat="40.576103171333671" lon="14.343559294939041">
<ele>104</ele>
</trkpt>
<trkpt lat="40.576141895726323" lon="14.343414958566427">
<ele>106</ele>
</trkpt>
<trkpt lat="40.57619746774435" lon="14.343351256102324">
<ele>108</ele>
</trkpt>
<trkpt lat="40.57623996399343" lon="14.343216391280293">
<ele>110</ele>
</trkpt>
<trkpt lat="40.576299726963043" lon="14.343087309971452">
<ele>113</ele>
</trkpt>
<trkpt lat="40.576376924291253" lon="14.343039281666279">
<ele>116</ele>
</trkpt>
<trkpt lat="40.57644959539175" lon="14.342884719371796">
<ele>120</ele>
</trkpt>
<trkpt lat="40.576505670323968" lon="14.342814814299345">
<ele>123</ele>
</trkpt>
<trkpt lat="40.576562583446503" lon="14.342706436291337">
<ele>126</ele>
</trkpt>
<trkpt lat="40.576656712219119" lon="14.342612475156784">
<ele>129</ele>
</trkpt>
<trkpt lat="40.576693844050169" lon="14.342527650296688">
<ele>132</ele>
</trkpt>
<trkpt lat="40.576742123812437" lon="14.342464366927743">
<ele>136</ele>
</trkpt>
<trkpt lat="40.576864499598742" lon="14.342491440474987">
<ele>139</ele>
</trkpt>
<trkpt lat="40.576950665563345" lon="14.342564530670643">
<ele>142</ele>
</trkpt>
<trkpt lat="40.577014535665512" lon="14.342595711350441">
<ele>145</ele>
</trkpt>
<trkpt lat="40.577102042734623" lon="14.342695958912373">
<ele>147</ele>
</trkpt>
<trkpt lat="40.577211678028107" lon="14.342761756852269">
<ele>150</ele>
</trkpt>
<trkpt lat="40.577274290844798" lon="14.342896956950426">
<ele>153</ele>
</trkpt>
<trkpt lat="40.577329359948635" lon="14.343031570315361">
<ele>156</ele>
</trkpt>
<trkpt lat="40.577441342175007" lon="14.343105163425207">
<ele>158</ele>
</trkpt>
<trkpt lat="40.577507726848125" lon="14.343211278319359">
<ele>161</ele>
</trkpt>
<trkpt lat="40.577554162591696" lon="14.343286044895649">
<ele>164</ele>
</trkpt>
<trkpt lat="40.577649045735598" lon="14.343424430117011">
<ele>166</ele>
</trkpt>
<trkpt lat="40.577797573059797" lon="14.343606401234865">
<ele>169</ele>
</trkpt>
<trkpt lat="40.577883571386337" lon="14.343654932454228">
<ele>170</ele>
</trkpt>
<trkpt lat="40.577979376539588" lon="14.343684269115329">
<ele>172</ele>
</trkpt>
<trkpt lat="40.578082054853439" lon="14.343740427866578">
<ele>174</ele>
</trkpt>
<trkpt lat="40.578148271888494" lon="14.343721233308315">
<ele>175</ele>
</trkpt>
<trkpt lat="40.578233767300844" lon="14.343714024871588">
<ele>176</ele>
</trkpt>
<trkpt lat="40.578379612416029" lon="14.343696422874928">
<ele>178</ele>
</trkpt>
<trkpt lat="40.578567199409008" lon="14.343744534999132">
<ele>180</ele>
</trkpt>
<trkpt lat="40.57865328155458" lon="14.343828437849879">
<ele>181</ele>
</trkpt>
<trkpt lat="40.578741291537881" lon="14.343968247994781">
<ele>182</ele>
</trkpt>
<trkpt lat="40.578838521614671" lon="14.344016779214144">
<ele>184</ele>
</trkpt>
<trkpt lat="40.578937344253063" lon="14.343945868313313">
<ele>184</ele>
</trkpt>
<trkpt lat="40.57895427569747" lon="14.34394427575171">
<ele>184</ele>
</trkpt>
<trkpt lat="40.579083357006311" lon="14.344127085059881">
<ele>184</ele>
</trkpt>
<trkpt lat="40.579162649810314" lon="14.344255160540342">
<ele>184</ele>
</trkpt>
<trkpt lat="40.579237667843699" lon="14.344351384788752">
<ele>184</ele>
</trkpt>
<trkpt lat="40.579260969534516" lon="14.344416260719299">
<ele>183</ele>
</trkpt>
<trkpt lat="40.579350152984262" lon="14.344595549628139">
<ele>183</ele>
</trkpt>
<trkpt lat="40.579374460503459" lon="14.344783471897244">
<ele>183</ele>
</trkpt>
<trkpt lat="40.579422069713473" lon="14.344846000894904">
<ele>183</ele>
</trkpt>
<trkpt lat="40.579594736918807" lon="14.344840887933969">
<ele>183</ele>
</trkpt>
<trkpt lat="40.579672018066049" lon="14.344939542934299">
<ele>183</ele>
</trkpt>
<trkpt lat="40.579737732186913" lon="14.345090668648481">
<ele>183</ele>
</trkpt>
<trkpt lat="40.579817527905107" lon="14.345228718593717">
<ele>182</ele>
</trkpt>
<trkpt lat="40.57993789203465" lon="14.345326283946633">
<ele>182</ele>
</trkpt>
<trkpt lat="40.580005198717117" lon="14.345444636419415">
<ele>182</ele>
</trkpt>
<trkpt lat="40.580059513449669" lon="14.345505321398377">
<ele>182</ele>
</trkpt>
<trkpt lat="40.580119527876377" lon="14.345625685527921">
<ele>182</ele>
</trkpt>
<trkpt lat="40.58016118593514" lon="14.345663990825415">
<ele>181</ele>
</trkpt>
<trkpt lat="40.580336200073361" lon="14.345760215073824">
<ele>181</ele>
</trkpt>
<trkpt lat="40.580475004389882" lon="14.345914777368307">
<ele>181</ele>
</trkpt>
<trkpt lat="40.58058874681592" lon="14.346098424866796">
<ele>181</ele>
</trkpt>
<trkpt lat="40.58069821447134" lon="14.346253573894501">
<ele>180</ele>
</trkpt>
<trkpt lat="40.580779351294041" lon="14.34638642705977">
<ele>180</ele>
</trkpt>
<trkpt lat="40.580852525308728" lon="14.346498493105173">
<ele>180</ele>
</trkpt>
<trkpt lat="40.580917233601213" lon="14.346633357927203">
<ele>180</ele>
</trkpt>
<trkpt lat="40.580971883609891" lon="14.346863776445389">
<ele>179</ele>
</trkpt>
<trkpt lat="40.581112531945109" lon="14.3470065202564">
<ele>179</ele>
</trkpt>
<trkpt lat="40.581124182790518" lon="14.347062762826681">
<ele>179</ele>
</trkpt>
<trkpt lat="40.581213869154453" lon="14.347195951268077">
<ele>178</ele>
</trkpt>
<trkpt lat="40.581255862489343" lon="14.347226545214653">
<ele>178</ele>
</trkpt>
<trkpt lat="40.581353008747101" lon="14.347323775291443">
<ele>178</ele>
</trkpt>
<trkpt lat="40.581430541351438" lon="14.347508763894439">
<ele>179</ele>
</trkpt>
<trkpt lat="40.581567669287324" lon="14.347732644528151">
<ele>179</ele>
</trkpt>
<trkpt lat="40.581701947376132" lon="14.347904641181231">
<ele>179</ele>
</trkpt>
<trkpt lat="40.581857180222869" lon="14.348037829622626">
<ele>180</ele>
</trkpt>
<trkpt lat="40.58186799287796" lon="14.348043445497751">
<ele>180</ele>
</trkpt>
<trkpt lat="40.582044264301658" lon="14.348143106326461">
<ele>180</ele>
</trkpt>
<trkpt lat="40.582216596230865" lon="14.348241426050663">
<ele>180</ele>
</trkpt>
<trkpt lat="40.582361770793796" lon="14.348288113251328">
<ele>181</ele>
</trkpt>
<trkpt lat="40.582517674192786" lon="14.348341170698404">
<ele>181</ele>
</trkpt>
<trkpt lat="40.582669135183096" lon="14.348338656127453">
<ele>182</ele>
</trkpt>
<trkpt lat="40.582897206768394" lon="14.348244862630963">
<ele>183</ele>
</trkpt>
<trkpt lat="40.583045147359371" lon="14.34823832474649">
<ele>184</ele>
</trkpt>
<trkpt lat="40.58320440351963" lon="14.348230697214603">
<ele>185</ele>
</trkpt>
<trkpt lat="40.583402384072542" lon="14.348166659474373">
<ele>186</ele>
</trkpt>
<trkpt lat="40.583595419302583" lon="14.348137909546494">
<ele>186</ele>
</trkpt>
<trkpt lat="40.583785101771355" lon="14.348092982545495">
<ele>187</ele>
</trkpt>
<trkpt lat="40.583923738449812" lon="14.34801260009408">
<ele>188</ele>
</trkpt>
<trkpt lat="40.58406044729054" lon="14.347991729155183">
<ele>189</ele>
</trkpt>
<trkpt lat="40.58420461602509" lon="14.34798963367939">
<ele>190</ele>
</trkpt>
<trkpt lat="40.584374936297536" lon="14.348023412749171">
<ele>188</ele>
</trkpt>
<trkpt lat="40.58453444391489" lon="14.347968427464366">
<ele>186</ele>
</trkpt>
<trkpt lat="40.584650617092848" lon="14.347877651453018">
<ele>185</ele>
</trkpt>
<trkpt lat="40.584754217416048" lon="14.34773214161396">
<ele>183</ele>
</trkpt>
<trkpt lat="40.584855303168297" lon="14.347562408074737">
<ele>181</ele>
</trkpt>
<trkpt lat="40.584965609014034" lon="14.347466100007296">
<ele>179</ele>
</trkpt>
<trkpt lat="40.585098126903176" lon="14.347331151366234">
<ele>177</ele>
</trkpt>
<trkpt lat="40.585214802995324" lon="14.347187150269747">
<ele>176</ele>
</trkpt>
<trkpt lat="40.585354529321194" lon="14.347064523026347">
<ele>174</ele>
</trkpt>
<trkpt lat="40.585463745519519" lon="14.346974417567253">
<ele>172</ele>
</trkpt>
<trkpt lat="40.585629120469093" lon="14.34698548167944">
<ele>172</ele>
</trkpt>
<trkpt lat="40.585814695805311" lon="14.347029570490122">
<ele>171</ele>
</trkpt>
<trkpt lat="40.585890552029014" lon="14.34703292325139">
<ele>170</ele>
</trkpt>
<trkpt lat="40.586016029119492" lon="14.347045328468084">
<ele>170</ele>
</trkpt>
<trkpt lat="40.586209148168564" lon="14.347171057015657">
<ele>170</ele>
</trkpt>
<trkpt lat="40.586230019107461" lon="14.34721908532083">
<ele>169</ele>
</trkpt>
</trkseg>
</trk>
</gpx>
