<?xml version="1.0" encoding="UTF-8"?>
<gpx version="1.1"
creator="Smartprofil-Office - http://www.rother.de"
xmlns:xsi="http://www.w3.org/2001/XMLSchema-instance"
xmlns="http://www.topografix.com/GPX/1/1"
xsi:schemaLocation="http://www.topografix.com/GPX/1/1 http://www.topografix.com/GPX/1/1/gpx.xsd">
<metadata>

<bounds minlat="40.62081802636385" minlon="14.492836967110634" maxlat="40.634997524321079" maxlon="14.540133029222488"/>
</metadata>
<wpt lat="40.629840977489948" lon="14.540133029222488">
<ele>633</ele>
<name>23_Agerola Bomerano (1)</name>
<cmt></cmt>
<desc></desc>
<sym>Crossing</sym>
</wpt>

<wpt lat="40.62081802636385" lon="14.528184626251459">
<ele>580</ele>
<name>23_Colle la Serra (2)</name>
<cmt></cmt>
<desc></desc>
<sym>Crossing</sym>
</wpt>

<wpt lat="40.628957692533731" lon="14.503216026350856">
<ele>445</ele>
<name>23_Nocelle (3)</name>
<cmt></cmt>
<desc></desc>
<sym>Crossing</sym>
</wpt>

<wpt lat="40.633289040997624" lon="14.492836967110634">
<ele>352</ele>
<name>23_Montepertuso (4)</name>
<cmt></cmt>
<desc></desc>
<sym>Crossing</sym>
</wpt>

<trk>
<name>Neapel_23_Agerola Bomerano - Positano</name>
<trkseg>
<trkpt lat="40.629840977489948" lon="14.540133029222488">
<ele>633</ele>
</trkpt>
<trkpt lat="40.62989235855639" lon="14.539976958185434">
<ele>632</ele>
</trkpt>
<trkpt lat="40.629851622506976" lon="14.539937395602465">
<ele>631</ele>
</trkpt>
<trkpt lat="40.629804767668247" lon="14.539939742535353">
<ele>630</ele>
</trkpt>
<trkpt lat="40.629740143194795" lon="14.53998014330864">
<ele>629</ele>
</trkpt>
<trkpt lat="40.6296431645751" lon="14.539891630411148">
<ele>628</ele>
</trkpt>
<trkpt lat="40.629478208720684" lon="14.53982868231833">
<ele>628</ele>
</trkpt>
<trkpt lat="40.629292968660593" lon="14.539791718125343">
<ele>627</ele>
</trkpt>
<trkpt lat="40.62909641303122" lon="14.539696415886283">
<ele>626</ele>
</trkpt>
<trkpt lat="40.628919722512364" lon="14.539629360660911">
<ele>625</ele>
</trkpt>
<trkpt lat="40.628778990358114" lon="14.539523664861917">
<ele>624</ele>
</trkpt>
<trkpt lat="40.628632809966803" lon="14.539407743141055">
<ele>622</ele>
</trkpt>
<trkpt lat="40.628551505506039" lon="14.539328534156084">
<ele>621</ele>
</trkpt>
<trkpt lat="40.6285500805825" lon="14.539312608540058">
<ele>619</ele>
</trkpt>
<trkpt lat="40.628448324277997" lon="14.539253935217857">
<ele>617</ele>
</trkpt>
<trkpt lat="40.628305496647954" lon="14.539155447855592">
<ele>616</ele>
</trkpt>
<trkpt lat="40.628232154995203" lon="14.539104569703341">
<ele>614</ele>
</trkpt>
<trkpt lat="40.628170296549797" lon="14.538899380713701">
<ele>612</ele>
</trkpt>
<trkpt lat="40.628159400075674" lon="14.538873396813869">
<ele>610</ele>
</trkpt>
<trkpt lat="40.628074491396546" lon="14.538677511736751">
<ele>609</ele>
</trkpt>
<trkpt lat="40.628002658486366" lon="14.538538958877325">
<ele>607</ele>
</trkpt>
<trkpt lat="40.627907020971179" lon="14.538454134017229">
<ele>607</ele>
</trkpt>
<trkpt lat="40.627902746200562" lon="14.538354137912393">
<ele>608</ele>
</trkpt>
<trkpt lat="40.627961419522762" lon="14.538231259211898">
<ele>608</ele>
</trkpt>
<trkpt lat="40.627997210249305" lon="14.538142243400216">
<ele>608</ele>
</trkpt>
<trkpt lat="40.627963012084365" lon="14.537987429648638">
<ele>608</ele>
</trkpt>
<trkpt lat="40.627949768677354" lon="14.537920458242297">
<ele>609</ele>
</trkpt>
<trkpt lat="40.627907942980528" lon="14.537756675854325">
<ele>609</ele>
</trkpt>
<trkpt lat="40.627675512805581" lon="14.537747958675027">
<ele>609</ele>
</trkpt>
<trkpt lat="40.627484573051333" lon="14.537737146019936">
<ele>610</ele>
</trkpt>
<trkpt lat="40.627474430948496" lon="14.537736056372523">
<ele>610</ele>
</trkpt>
<trkpt lat="40.627264799550176" lon="14.537691799923778">
<ele>611</ele>
</trkpt>
<trkpt lat="40.627050474286079" lon="14.537626001983881">
<ele>612</ele>
</trkpt>
<trkpt lat="40.626980401575565" lon="14.537604711949825">
<ele>614</ele>
</trkpt>
<trkpt lat="40.626806560903788" lon="14.537465991452336">
<ele>615</ele>
</trkpt>
<trkpt lat="40.62667521648109" lon="14.53734403476119">
<ele>616</ele>
</trkpt>
<trkpt lat="40.626562815159559" lon="14.537245715036988">
<ele>617</ele>
</trkpt>
<trkpt lat="40.626447563990951" lon="14.537173546850681">
<ele>618</ele>
</trkpt>
<trkpt lat="40.626276740804315" lon="14.537060391157866">
<ele>620</ele>
</trkpt>
<trkpt lat="40.62611036002636" lon="14.536929717287421">
<ele>621</ele>
</trkpt>
<trkpt lat="40.625951774418354" lon="14.536803821101785">
<ele>622</ele>
</trkpt>
<trkpt lat="40.625921431928873" lon="14.536780770868063">
<ele>624</ele>
</trkpt>
<trkpt lat="40.625641727820039" lon="14.536464186385274">
<ele>626</ele>
</trkpt>
<trkpt lat="40.625526057556272" lon="14.536262936890125">
<ele>628</ele>
</trkpt>
<trkpt lat="40.625424049794674" lon="14.536039559170604">
<ele>630</ele>
</trkpt>
<trkpt lat="40.625380631536245" lon="14.53576136380434">
<ele>632</ele>
</trkpt>
<trkpt lat="40.625377614051104" lon="14.535743510350585">
<ele>633</ele>
</trkpt>
<trkpt lat="40.625318689271808" lon="14.535618871450424">
<ele>635</ele>
</trkpt>
<trkpt lat="40.625280551612377" lon="14.535528849810362">
<ele>637</ele>
</trkpt>
<trkpt lat="40.625077290460467" lon="14.535427009686828">
<ele>639</ele>
</trkpt>
<trkpt lat="40.625047199428082" lon="14.535306729376316">
<ele>641</ele>
</trkpt>
<trkpt lat="40.625066561624408" lon="14.53519650734961">
<ele>639</ele>
</trkpt>
<trkpt lat="40.625097909942269" lon="14.534940104931593">
<ele>637</ele>
</trkpt>
<trkpt lat="40.625108303502202" lon="14.534754194319248">
<ele>635</ele>
</trkpt>
<trkpt lat="40.625063376501203" lon="14.534695856273174">
<ele>633</ele>
</trkpt>
<trkpt lat="40.625053569674492" lon="14.534636680036783">
<ele>631</ele>
</trkpt>
<trkpt lat="40.625113919377327" lon="14.534408189356327">
<ele>629</ele>
</trkpt>
<trkpt lat="40.625177538022399" lon="14.534357897937298">
<ele>627</ele>
</trkpt>
<trkpt lat="40.625341823324561" lon="14.534420259296894">
<ele>625</ele>
</trkpt>
<trkpt lat="40.625502923503518" lon="14.534249855205417">
<ele>623</ele>
</trkpt>
<trkpt lat="40.625476688146591" lon="14.533824473619461">
<ele>621</ele>
</trkpt>
<trkpt lat="40.625478029251099" lon="14.533544015139341">
<ele>621</ele>
</trkpt>
<trkpt lat="40.625453889369965" lon="14.533430691808462">
<ele>621</ele>
</trkpt>
<trkpt lat="40.625302009284496" lon="14.533243188634515">
<ele>622</ele>
</trkpt>
<trkpt lat="40.625246353447437" lon="14.533007405698299">
<ele>622</ele>
</trkpt>
<trkpt lat="40.62522841617465" lon="14.532869355753064">
<ele>622</ele>
</trkpt>
<trkpt lat="40.625099167227745" lon="14.532823674380779">
<ele>622</ele>
</trkpt>
<trkpt lat="40.624976456165314" lon="14.532684115692973">
<ele>622</ele>
</trkpt>
<trkpt lat="40.6249616201967" lon="14.532665424048901">
<ele>623</ele>
</trkpt>
<trkpt lat="40.624841591343284" lon="14.532622760161757">
<ele>623</ele>
</trkpt>
<trkpt lat="40.624834885820746" lon="14.532608343288302">
<ele>623</ele>
</trkpt>
<trkpt lat="40.624840669333935" lon="14.532441040500998">
<ele>622</ele>
</trkpt>
<trkpt lat="40.624852320179343" lon="14.532428719103336">
<ele>620</ele>
</trkpt>
<trkpt lat="40.624884758144617" lon="14.53223442658782">
<ele>618</ele>
</trkpt>
<trkpt lat="40.624898336827755" lon="14.532139040529728">
<ele>617</ele>
</trkpt>
<trkpt lat="40.624938402324915" lon="14.531828407198191">
<ele>616</ele>
</trkpt>
<trkpt lat="40.624957345426083" lon="14.531645262613893">
<ele>614</ele>
</trkpt>
<trkpt lat="40.624982323497534" lon="14.531450970098376">
<ele>612</ele>
</trkpt>
<trkpt lat="40.625009983778" lon="14.531215606257319">
<ele>611</ele>
</trkpt>
<trkpt lat="40.624991459771991" lon="14.531097924336791">
<ele>610</ele>
</trkpt>
<trkpt lat="40.624882075935602" lon="14.531066576018929">
<ele>608</ele>
</trkpt>
<trkpt lat="40.624709660187364" lon="14.531000442802906">
<ele>606</ele>
</trkpt>
<trkpt lat="40.624676384031773" lon="14.530983427539468">
<ele>605</ele>
</trkpt>
<trkpt lat="40.624703960493207" lon="14.530810927972198">
<ele>604</ele>
</trkpt>
<trkpt lat="40.624778727069497" lon="14.530515130609274">
<ele>602</ele>
</trkpt>
<trkpt lat="40.624913005158305" lon="14.530406082049012">
<ele>600</ele>
</trkpt>
<trkpt lat="40.625031189993024" lon="14.53034732490778">
<ele>599</ele>
</trkpt>
<trkpt lat="40.62517317943275" lon="14.530238024890423">
<ele>598</ele>
</trkpt>
<trkpt lat="40.625290693715215" lon="14.530012384057045">
<ele>596</ele>
</trkpt>
<trkpt lat="40.625302763655782" lon="14.530006013810635">
<ele>594</ele>
</trkpt>
<trkpt lat="40.625345846638083" lon="14.52980887144804">
<ele>593</ele>
</trkpt>
<trkpt lat="40.625258423388004" lon="14.529595216736197">
<ele>593</ele>
</trkpt>
<trkpt lat="40.625193631276488" lon="14.529479462653399">
<ele>594</ele>
</trkpt>
<trkpt lat="40.62508718110621" lon="14.529521204531193">
<ele>594</ele>
</trkpt>
<trkpt lat="40.625044098123908" lon="14.529529754072428">
<ele>594</ele>
</trkpt>
<trkpt lat="40.624865479767323" lon="14.529520617797971">
<ele>594</ele>
</trkpt>
<trkpt lat="40.624744528904557" lon="14.529508631676435">
<ele>595</ele>
</trkpt>
<trkpt lat="40.624674707651138" lon="14.529456831514835">
<ele>595</ele>
</trkpt>
<trkpt lat="40.624523414298892" lon="14.529407043009996">
<ele>595</ele>
</trkpt>
<trkpt lat="40.624305233359337" lon="14.529397403821349">
<ele>596</ele>
</trkpt>
<trkpt lat="40.624230550602078" lon="14.529330851510167">
<ele>596</ele>
</trkpt>
<trkpt lat="40.624159891158342" lon="14.529202608391643">
<ele>594</ele>
</trkpt>
<trkpt lat="40.62411337159574" lon="14.529124908149242">
<ele>591</ele>
</trkpt>
<trkpt lat="40.624020081013441" lon="14.52896062284708">
<ele>589</ele>
</trkpt>
<trkpt lat="40.623934837058187" lon="14.528955845162272">
<ele>586</ele>
</trkpt>
<trkpt lat="40.623833080753684" lon="14.528964897617698">
<ele>584</ele>
</trkpt>
<trkpt lat="40.623806761577725" lon="14.528973866254091">
<ele>582</ele>
</trkpt>
<trkpt lat="40.623528985306621" lon="14.529133206233382">
<ele>579</ele>
</trkpt>
<trkpt lat="40.623384146019816" lon="14.529074868187308">
<ele>577</ele>
</trkpt>
<trkpt lat="40.623246682807803" lon="14.528970764949918">
<ele>574</ele>
</trkpt>
<trkpt lat="40.623093713074923" lon="14.528836738318205">
<ele>572</ele>
</trkpt>
<trkpt lat="40.622896067798138" lon="14.528732551261783">
<ele>573</ele>
</trkpt>
<trkpt lat="40.622683838009834" lon="14.528672033920884">
<ele>573</ele>
</trkpt>
<trkpt lat="40.62250236980617" lon="14.528696341440082">
<ele>574</ele>
</trkpt>
<trkpt lat="40.622315453365445" lon="14.528706232085824">
<ele>574</ele>
</trkpt>
<trkpt lat="40.622252421453595" lon="14.528789967298508">
<ele>575</ele>
</trkpt>
<trkpt lat="40.622164662927389" lon="14.528766833245754">
<ele>576</ele>
</trkpt>
<trkpt lat="40.622039269655943" lon="14.528565751388669">
<ele>576</ele>
</trkpt>
<trkpt lat="40.622015716508031" lon="14.528525937348604">
<ele>577</ele>
</trkpt>
<trkpt lat="40.621781861409545" lon="14.528432814404368">
<ele>577</ele>
</trkpt>
<trkpt lat="40.621750429272652" lon="14.528425689786673">
<ele>578</ele>
</trkpt>
<trkpt lat="40.621536020189524" lon="14.528374057263136">
<ele>578</ele>
</trkpt>
<trkpt lat="40.621346421539783" lon="14.528334746137261">
<ele>578</ele>
</trkpt>
<trkpt lat="40.621219351887703" lon="14.528316473588347">
<ele>579</ele>
</trkpt>
<trkpt lat="40.621118349954486" lon="14.528293088078499">
<ele>579</ele>
</trkpt>
<trkpt lat="40.621061353012919" lon="14.528315467759967">
<ele>579</ele>
</trkpt>
<trkpt lat="40.621032016351819" lon="14.528314126655459">
<ele>579</ele>
</trkpt>
<trkpt lat="40.620980635285378" lon="14.528310606256127">
<ele>580</ele>
</trkpt>
<trkpt lat="40.620832107961178" lon="14.528203485533595">
<ele>580</ele>
</trkpt>
<trkpt lat="40.62081802636385" lon="14.528184626251459">
<ele>580</ele>
</trkpt>
<trkpt lat="40.620837556198239" lon="14.528202060610056">
<ele>582</ele>
</trkpt>
<trkpt lat="40.62092112377286" lon="14.528265846893191">
<ele>583</ele>
</trkpt>
<trkpt lat="40.621066717430949" lon="14.528298787772655">
<ele>584</ele>
</trkpt>
<trkpt lat="40.621192781254649" lon="14.528237851336598">
<ele>586</ele>
</trkpt>
<trkpt lat="40.621253298595548" lon="14.528199881315231">
<ele>588</ele>
</trkpt>
<trkpt lat="40.621340554207563" lon="14.528169455006719">
<ele>589</ele>
</trkpt>
<trkpt lat="40.621455051004887" lon="14.528123773634434">
<ele>590</ele>
</trkpt>
<trkpt lat="40.621524788439274" lon="14.528100807219744">
<ele>592</ele>
</trkpt>
<trkpt lat="40.621613971889019" lon="14.528058143332601">
<ele>594</ele>
</trkpt>
<trkpt lat="40.62171614728868" lon="14.528007348999381">
<ele>595</ele>
</trkpt>
<trkpt lat="40.621740622445941" lon="14.527910705655813">
<ele>596</ele>
</trkpt>
<trkpt lat="40.621887389570475" lon="14.527802411466837">
<ele>597</ele>
</trkpt>
<trkpt lat="40.622018566355109" lon="14.527701158076525">
<ele>598</ele>
</trkpt>
<trkpt lat="40.622062738984823" lon="14.527619937434793">
<ele>599</ele>
</trkpt>
<trkpt lat="40.622028457000852" lon="14.527472918853164">
<ele>600</ele>
</trkpt>
<trkpt lat="40.622004736214876" lon="14.527328414842486">
<ele>602</ele>
</trkpt>
<trkpt lat="40.621984787285328" lon="14.527294635772705">
<ele>603</ele>
</trkpt>
<trkpt lat="40.621934495866299" lon="14.527118615806103">
<ele>604</ele>
</trkpt>
<trkpt lat="40.62193457968533" lon="14.527067318558693">
<ele>605</ele>
</trkpt>
<trkpt lat="40.621824273839593" lon="14.526923485100269">
<ele>606</ele>
</trkpt>
<trkpt lat="40.621818657964468" lon="14.526789793744683">
<ele>608</ele>
</trkpt>
<trkpt lat="40.621836511418223" lon="14.526675548404455">
<ele>609</ele>
</trkpt>
<trkpt lat="40.621878001838923" lon="14.526616707444191">
<ele>611</ele>
</trkpt>
<trkpt lat="40.621925694867969" lon="14.526432724669576">
<ele>612</ele>
</trkpt>
<trkpt lat="40.621951846405864" lon="14.526374721899629">
<ele>614</ele>
</trkpt>
<trkpt lat="40.622040443122387" lon="14.526267349720001">
<ele>616</ele>
</trkpt>
<trkpt lat="40.622091069817543" lon="14.526166431605816">
<ele>617</ele>
</trkpt>
<trkpt lat="40.622177068144083" lon="14.526043301448226">
<ele>619</ele>
</trkpt>
<trkpt lat="40.62225854024291" lon="14.525891924276948">
<ele>620</ele>
</trkpt>
<trkpt lat="40.622291062027216" lon="14.525768626481295">
<ele>622</ele>
</trkpt>
<trkpt lat="40.622278153896332" lon="14.525503171607852">
<ele>621</ele>
</trkpt>
<trkpt lat="40.622269939631224" lon="14.525368055328727">
<ele>620</ele>
</trkpt>
<trkpt lat="40.622264323756099" lon="14.525154903531075">
<ele>619</ele>
</trkpt>
<trkpt lat="40.622249655425549" lon="14.524966226890683">
<ele>618</ele>
</trkpt>
<trkpt lat="40.622289888560772" lon="14.524792302399874">
<ele>616</ele>
</trkpt>
<trkpt lat="40.622325176373124" lon="14.524734131991863">
<ele>615</ele>
</trkpt>
<trkpt lat="40.622421568259597" lon="14.524652911350131">
<ele>614</ele>
</trkpt>
<trkpt lat="40.622520977631211" lon="14.524607984349132">
<ele>613</ele>
</trkpt>
<trkpt lat="40.622590128332376" lon="14.524571523070335">
<ele>612</ele>
</trkpt>
<trkpt lat="40.622715018689632" lon="14.52439877204597">
<ele>611</ele>
</trkpt>
<trkpt lat="40.622730357572436" lon="14.524379828944802">
<ele>610</ele>
</trkpt>
<trkpt lat="40.622879220172763" lon="14.52421747148037">
<ele>608</ele>
</trkpt>
<trkpt lat="40.622967565432191" lon="14.524071710184216">
<ele>607</ele>
</trkpt>
<trkpt lat="40.623009139671922" lon="14.523928128182888">
<ele>606</ele>
</trkpt>
<trkpt lat="40.623030932620168" lon="14.523742469027638">
<ele>604</ele>
</trkpt>
<trkpt lat="40.623037135228515" lon="14.523594360798597">
<ele>603</ele>
</trkpt>
<trkpt lat="40.623068567365408" lon="14.523566113784909">
<ele>602</ele>
</trkpt>
<trkpt lat="40.62313755042851" lon="14.523464189842343">
<ele>601</ele>
</trkpt>
<trkpt lat="40.6232123170048" lon="14.523363439366221">
<ele>599</ele>
</trkpt>
<trkpt lat="40.623260177671909" lon="14.523138301447034">
<ele>598</ele>
</trkpt>
<trkpt lat="40.623220866546035" lon="14.523031851276755">
<ele>599</ele>
</trkpt>
<trkpt lat="40.623113410547376" lon="14.522883659228683">
<ele>599</ele>
</trkpt>
<trkpt lat="40.623039733618498" lon="14.522826662287116">
<ele>600</ele>
</trkpt>
<trkpt lat="40.622976031154394" lon="14.522664723917842">
<ele>601</ele>
</trkpt>
<trkpt lat="40.622912077233195" lon="14.522537318989635">
<ele>602</ele>
</trkpt>
<trkpt lat="40.622821049764752" lon="14.522388121113181">
<ele>602</ele>
</trkpt>
<trkpt lat="40.62269289046526" lon="14.522238839417696">
<ele>603</ele>
</trkpt>
<trkpt lat="40.62267579138279" lon="14.522224506363273">
<ele>604</ele>
</trkpt>
<trkpt lat="40.622563138604164" lon="14.522121911868453">
<ele>604</ele>
</trkpt>
<trkpt lat="40.622416790574789" lon="14.52210808172822">
<ele>605</ele>
</trkpt>
<trkpt lat="40.622280836105347" lon="14.52207681722939">
<ele>605</ele>
</trkpt>
<trkpt lat="40.622242530807853" lon="14.52205678448081">
<ele>605</ele>
</trkpt>
<trkpt lat="40.622147312387824" lon="14.522014036774635">
<ele>604</ele>
</trkpt>
<trkpt lat="40.622125351801515" lon="14.521953100338578">
<ele>604</ele>
</trkpt>
<trkpt lat="40.62214613892138" lon="14.521802309900522">
<ele>604</ele>
</trkpt>
<trkpt lat="40.622229455038905" lon="14.521559402346611">
<ele>604</ele>
</trkpt>
<trkpt lat="40.622359206900001" lon="14.521418334916234">
<ele>604</ele>
</trkpt>
<trkpt lat="40.6224265974015" lon="14.521378437057137">
<ele>603</ele>
</trkpt>
<trkpt lat="40.622564144432545" lon="14.521217672154307">
<ele>603</ele>
</trkpt>
<trkpt lat="40.622655674815178" lon="14.521112646907568">
<ele>603</ele>
</trkpt>
<trkpt lat="40.622677048668265" lon="14.520935788750648">
<ele>602</ele>
</trkpt>
<trkpt lat="40.622655842453241" lon="14.520752979442477">
<ele>600</ele>
</trkpt>
<trkpt lat="40.622649723663926" lon="14.520617444068193">
<ele>599</ele>
</trkpt>
<trkpt lat="40.622679144144058" lon="14.520492637529969">
<ele>598</ele>
</trkpt>
<trkpt lat="40.622666738927364" lon="14.520400688052177">
<ele>596</ele>
</trkpt>
<trkpt lat="40.62262549996376" lon="14.520259285345674">
<ele>595</ele>
</trkpt>
<trkpt lat="40.622635390609503" lon="14.520212095230818">
<ele>594</ele>
</trkpt>
<trkpt lat="40.622650142759085" lon="14.520099693909287">
<ele>593</ele>
</trkpt>
<trkpt lat="40.622592894360423" lon="14.519982514902949">
<ele>591</ele>
</trkpt>
<trkpt lat="40.62255023047328" lon="14.519910849630833">
<ele>590</ele>
</trkpt>
<trkpt lat="40.622532377019525" lon="14.519743965938687">
<ele>590</ele>
</trkpt>
<trkpt lat="40.622548805549741" lon="14.519557384774089">
<ele>590</ele>
</trkpt>
<trkpt lat="40.622485438361764" lon="14.519303496927023">
<ele>590</ele>
</trkpt>
<trkpt lat="40.622445875778794" lon="14.519243482500315">
<ele>590</ele>
</trkpt>
<trkpt lat="40.622372534126043" lon="14.519043574109674">
<ele>590</ele>
</trkpt>
<trkpt lat="40.622310843318701" lon="14.518895884975791">
<ele>590</ele>
</trkpt>
<trkpt lat="40.622231801971793" lon="14.518518699333072">
<ele>590</ele>
</trkpt>
<trkpt lat="40.622260216623545" lon="14.518390456214547">
<ele>590</ele>
</trkpt>
<trkpt lat="40.622331211343408" lon="14.51826942153275">
<ele>590</ele>
</trkpt>
<trkpt lat="40.622428944334388" lon="14.518107483163476">
<ele>590</ele>
</trkpt>
<trkpt lat="40.622572861611843" lon="14.518108405172825">
<ele>588</ele>
</trkpt>
<trkpt lat="40.622631283476949" lon="14.518103124573827">
<ele>587</ele>
</trkpt>
<trkpt lat="40.622820295393467" lon="14.518155008554459">
<ele>586</ele>
</trkpt>
<trkpt lat="40.622828844934702" lon="14.51818535104394">
<ele>584</ele>
</trkpt>
<trkpt lat="40.623009642586112" lon="14.518169593065977">
<ele>582</ele>
</trkpt>
<trkpt lat="40.623168312013149" lon="14.518121229484677">
<ele>581</ele>
</trkpt>
<trkpt lat="40.623166048899293" lon="14.518117289990187">
<ele>580</ele>
</trkpt>
<trkpt lat="40.623371070250869" lon="14.518034476786852">
<ele>578</ele>
</trkpt>
<trkpt lat="40.62349671497941" lon="14.517941437661648">
<ele>576</ele>
</trkpt>
<trkpt lat="40.623511802405119" lon="14.517843201756477">
<ele>575</ele>
</trkpt>
<trkpt lat="40.623529991135001" lon="14.517703475430608">
<ele>573</ele>
</trkpt>
<trkpt lat="40.623528230935335" lon="14.51764790341258">
<ele>571</ele>
</trkpt>
<trkpt lat="40.623523201793432" lon="14.517566934227943">
<ele>568</ele>
</trkpt>
<trkpt lat="40.623526638373733" lon="14.517424190416932">
<ele>566</ele>
</trkpt>
<trkpt lat="40.623519932851195" lon="14.517344562336802">
<ele>564</ele>
</trkpt>
<trkpt lat="40.623523201793432" lon="14.517256887629628">
<ele>562</ele>
</trkpt>
<trkpt lat="40.623546754941344" lon="14.517168290913105">
<ele>560</ele>
</trkpt>
<trkpt lat="40.623531248420477" lon="14.517098721116781">
<ele>557</ele>
</trkpt>
<trkpt lat="40.623529069125652" lon="14.517037868499756">
<ele>555</ele>
</trkpt>
<trkpt lat="40.623578354716301" lon="14.516967879608274">
<ele>553</ele>
</trkpt>
<trkpt lat="40.623647840693593" lon="14.516988499090075">
<ele>551</ele>
</trkpt>
<trkpt lat="40.623735515400767" lon="14.5169682148844">
<ele>550</ele>
</trkpt>
<trkpt lat="40.623880103230476" lon="14.51701557263732">
<ele>548</ele>
</trkpt>
<trkpt lat="40.623997785151005" lon="14.517099559307098">
<ele>546</ele>
</trkpt>
<trkpt lat="40.624095434322953" lon="14.517136858776212">
<ele>544</ele>
</trkpt>
<trkpt lat="40.624159807339311" lon="14.517119592055678">
<ele>543</ele>
</trkpt>
<trkpt lat="40.624292828142643" lon="14.517202069982886">
<ele>541</ele>
</trkpt>
<trkpt lat="40.624477230012417" lon="14.517153454944491">
<ele>539</ele>
</trkpt>
<trkpt lat="40.624506818130612" lon="14.517197711393237">
<ele>538</ele>
</trkpt>
<trkpt lat="40.624511428177357" lon="14.517271220684052">
<ele>536</ele>
</trkpt>
<trkpt lat="40.624560378491879" lon="14.517371384426951">
<ele>536</ele>
</trkpt>
<trkpt lat="40.624729692935944" lon="14.51740306802094">
<ele>536</ele>
</trkpt>
<trkpt lat="40.624853242188692" lon="14.517137696966529">
<ele>535</ele>
</trkpt>
<trkpt lat="40.62488685362041" lon="14.517035353928804">
<ele>535</ele>
</trkpt>
<trkpt lat="40.624982407316566" lon="14.516952708363533">
<ele>535</ele>
</trkpt>
<trkpt lat="40.625021634623408" lon="14.516810551285744">
<ele>535</ele>
</trkpt>
<trkpt lat="40.625052647665143" lon="14.516649032011628">
<ele>535</ele>
</trkpt>
<trkpt lat="40.625135209411383" lon="14.5165572501719">
<ele>534</ele>
</trkpt>
<trkpt lat="40.625205365940928" lon="14.516444094479084">
<ele>534</ele>
</trkpt>
<trkpt lat="40.625208634883165" lon="14.516268745064735">
<ele>534</ele>
</trkpt>
<trkpt lat="40.625189943239093" lon="14.516170509159565">
<ele>534</ele>
</trkpt>
<trkpt lat="40.62516781501472" lon="14.51609012670815">
<ele>534</ele>
</trkpt>
<trkpt lat="40.62511115334928" lon="14.515934810042381">
<ele>535</ele>
</trkpt>
<trkpt lat="40.625102939084172" lon="14.515905473381281">
<ele>535</ele>
</trkpt>
<trkpt lat="40.625102855265141" lon="14.515721993520856">
<ele>535</ele>
</trkpt>
<trkpt lat="40.625122301280499" lon="14.51565963216126">
<ele>535</ele>
</trkpt>
<trkpt lat="40.625200672075152" lon="14.515546057373285">
<ele>535</ele>
</trkpt>
<trkpt lat="40.625218022614717" lon="14.515426028519869">
<ele>536</ele>
</trkpt>
<trkpt lat="40.625172592699528" lon="14.515244979411364">
<ele>536</ele>
</trkpt>
<trkpt lat="40.625242833048105" lon="14.515128303319216">
<ele>536</ele>
</trkpt>
<trkpt lat="40.625321287661791" lon="14.515082286670804">
<ele>534</ele>
</trkpt>
<trkpt lat="40.625433269888163" lon="14.51495261862874">
<ele>531</ele>
</trkpt>
<trkpt lat="40.625480376183987" lon="14.514843318611383">
<ele>528</ele>
</trkpt>
<trkpt lat="40.625619683414698" lon="14.514837618917227">
<ele>526</ele>
</trkpt>
<trkpt lat="40.62569260597229" lon="14.514733096584678">
<ele>524</ele>
</trkpt>
<trkpt lat="40.625777095556259" lon="14.514608457684517">
<ele>521</ele>
</trkpt>
<trkpt lat="40.625885054469109" lon="14.514615749940276">
<ele>518</ele>
</trkpt>
<trkpt lat="40.625956133008003" lon="14.51465698890388">
<ele>516</ele>
</trkpt>
<trkpt lat="40.626066606491804" lon="14.514690935611725">
<ele>514</ele>
</trkpt>
<trkpt lat="40.626099212095141" lon="14.51466822065413">
<ele>511</ele>
</trkpt>
<trkpt lat="40.626415461301804" lon="14.514597225934267">
<ele>512</ele>
</trkpt>
<trkpt lat="40.626527611166239" lon="14.514585910364985">
<ele>512</ele>
</trkpt>
<trkpt lat="40.626647975295782" lon="14.514624886214733">
<ele>513</ele>
</trkpt>
<trkpt lat="40.626749144867063" lon="14.514617342501879">
<ele>513</ele>
</trkpt>
<trkpt lat="40.626787869259715" lon="14.514596974477172">
<ele>514</ele>
</trkpt>
<trkpt lat="40.627022059634328" lon="14.514598902314901">
<ele>515</ele>
</trkpt>
<trkpt lat="40.62711794860661" lon="14.514608876779675">
<ele>515</ele>
</trkpt>
<trkpt lat="40.627266895025969" lon="14.514637878164649">
<ele>516</ele>
</trkpt>
<trkpt lat="40.627301931381226" lon="14.514683475717902">
<ele>516</ele>
</trkpt>
<trkpt lat="40.627414165064692" lon="14.514684984460473">
<ele>517</ele>
</trkpt>
<trkpt lat="40.627569314092398" lon="14.514459259808064">
<ele>516</ele>
</trkpt>
<trkpt lat="40.627570571377873" lon="14.514253484085202">
<ele>514</ele>
</trkpt>
<trkpt lat="40.627607703208923" lon="14.514131024479866">
<ele>513</ele>
</trkpt>
<trkpt lat="40.62762706540525" lon="14.513951651751995">
<ele>511</ele>
</trkpt>
<trkpt lat="40.627664783969522" lon="14.51380186714232">
<ele>510</ele>
</trkpt>
<trkpt lat="40.627668052911758" lon="14.513660715892911">
<ele>509</ele>
</trkpt>
<trkpt lat="40.627701915800571" lon="14.513595839962363">
<ele>507</ele>
</trkpt>
<trkpt lat="40.627714404836297" lon="14.51350674033165">
<ele>506</ele>
</trkpt>
<trkpt lat="40.62771063297987" lon="14.513386208564043">
<ele>504</ele>
</trkpt>
<trkpt lat="40.627709710970521" lon="14.513335162773728">
<ele>503</ele>
</trkpt>
<trkpt lat="40.627771485596895" lon="14.513127291575074">
<ele>501</ele>
</trkpt>
<trkpt lat="40.627805097028613" lon="14.513022685423493">
<ele>498</ele>
</trkpt>
<trkpt lat="40.627958402037621" lon="14.512986894696951">
<ele>496</ele>
</trkpt>
<trkpt lat="40.628045741468668" lon="14.512921599671245">
<ele>493</ele>
</trkpt>
<trkpt lat="40.628138948231936" lon="14.512762175872922">
<ele>491</ele>
</trkpt>
<trkpt lat="40.628211786970496" lon="14.512642817571759">
<ele>489</ele>
</trkpt>
<trkpt lat="40.628274148330092" lon="14.512530332431197">
<ele>486</ele>
</trkpt>
<trkpt lat="40.628393506631255" lon="14.512391779571772">
<ele>484</ele>
</trkpt>
<trkpt lat="40.628518648445606" lon="14.512154823169112">
<ele>481</ele>
</trkpt>
<trkpt lat="40.628598779439926" lon="14.511971175670624">
<ele>479</ele>
</trkpt>
<trkpt lat="40.628686789423227" lon="14.511823235079646">
<ele>479</ele>
</trkpt>
<trkpt lat="40.628774631768465" lon="14.51157764531672">
<ele>479</ele>
</trkpt>
<trkpt lat="40.628840597346425" lon="14.51137731783092">
<ele>478</ele>
</trkpt>
<trkpt lat="40.628962637856603" lon="14.511274807155132">
<ele>478</ele>
</trkpt>
<trkpt lat="40.629111416637897" lon="14.511291403323412">
<ele>478</ele>
</trkpt>
<trkpt lat="40.629200348630548" lon="14.511267682537436">
<ele>478</ele>
</trkpt>
<trkpt lat="40.629238402470946" lon="14.511321242898703">
<ele>478</ele>
</trkpt>
<trkpt lat="40.6293133366853" lon="14.51111538335681">
<ele>477</ele>
</trkpt>
<trkpt lat="40.629355246201158" lon="14.510966688394547">
<ele>477</ele>
</trkpt>
<trkpt lat="40.629412829875946" lon="14.510932322591543">
<ele>477</ele>
</trkpt>
<trkpt lat="40.62953227199614" lon="14.511142373085022">
<ele>475</ele>
</trkpt>
<trkpt lat="40.629560267552733" lon="14.511154945939779">
<ele>473</ele>
</trkpt>
<trkpt lat="40.629667807370424" lon="14.511137679219246">
<ele>471</ele>
</trkpt>
<trkpt lat="40.629764785990119" lon="14.511106247082353">
<ele>469</ele>
</trkpt>
<trkpt lat="40.629924293607473" lon="14.51108512468636">
<ele>466</ele>
</trkpt>
<trkpt lat="40.630003251135349" lon="14.511103648692369">
<ele>464</ele>
</trkpt>
<trkpt lat="40.630089081823826" lon="14.511087806895375">
<ele>462</ele>
</trkpt>
<trkpt lat="40.630160076543689" lon="14.511083029210567">
<ele>460</ele>
</trkpt>
<trkpt lat="40.630331905558705" lon="14.511065511032939">
<ele>458</ele>
</trkpt>
<trkpt lat="40.630409605801105" lon="14.511068360880017">
<ele>456</ele>
</trkpt>
<trkpt lat="40.630450425669551" lon="14.51108755543828">
<ele>458</ele>
</trkpt>
<trkpt lat="40.630513625219464" lon="14.510940788313746">
<ele>460</ele>
</trkpt>
<trkpt lat="40.63043961301446" lon="14.510787902399898">
<ele>462</ele>
</trkpt>
<trkpt lat="40.630357135087252" lon="14.510606853291392">
<ele>464</ele>
</trkpt>
<trkpt lat="40.630359230563045" lon="14.510470647364855">
<ele>466</ele>
</trkpt>
<trkpt lat="40.63039175234735" lon="14.510380709543824">
<ele>467</ele>
</trkpt>
<trkpt lat="40.63048311509192" lon="14.510330837219954">
<ele>469</ele>
</trkpt>
<trkpt lat="40.630597863346338" lon="14.510261686518788">
<ele>471</ele>
</trkpt>
<trkpt lat="40.630627116188407" lon="14.510323628783226">
<ele>473</ele>
</trkpt>
<trkpt lat="40.630677742883563" lon="14.510351624339819">
<ele>475</ele>
</trkpt>
<trkpt lat="40.630750078707933" lon="14.510493027046323">
<ele>475</ele>
</trkpt>
<trkpt lat="40.630942275747657" lon="14.510410046204925">
<ele>475</ele>
</trkpt>
<trkpt lat="40.630988795310259" lon="14.510340141132474">
<ele>474</ele>
</trkpt>
<trkpt lat="40.630990890786052" lon="14.510127073153853">
<ele>474</ele>
</trkpt>
<trkpt lat="40.630980497226119" lon="14.510054485872388">
<ele>474</ele>
</trkpt>
<trkpt lat="40.630918387323618" lon="14.510015677660704">
<ele>474</ele>
</trkpt>
<trkpt lat="40.630795927718282" lon="14.509897409006953">
<ele>474</ele>
</trkpt>
<trkpt lat="40.630796765908599" lon="14.509844016283751">
<ele>473</ele>
</trkpt>
<trkpt lat="40.630850996822119" lon="14.509778302162886">
<ele>473</ele>
</trkpt>
<trkpt lat="40.630828868597746" lon="14.509659111499786">
<ele>473</ele>
</trkpt>
<trkpt lat="40.630829203873873" lon="14.509624242782593">
<ele>474</ele>
</trkpt>
<trkpt lat="40.630753012374043" lon="14.509600521996617">
<ele>476</ele>
</trkpt>
<trkpt lat="40.630698530003428" lon="14.509512428194284">
<ele>477</ele>
</trkpt>
<trkpt lat="40.630609430372715" lon="14.509389046579599">
<ele>478</ele>
</trkpt>
<trkpt lat="40.630520163103938" lon="14.509289301931858">
<ele>480</ele>
</trkpt>
<trkpt lat="40.630370294675231" lon="14.50926155783236">
<ele>481</ele>
</trkpt>
<trkpt lat="40.630294438451529" lon="14.509315453469753">
<ele>482</ele>
</trkpt>
<trkpt lat="40.630161836743355" lon="14.509239513427019">
<ele>483</ele>
</trkpt>
<trkpt lat="40.630069216713309" lon="14.509112862870097">
<ele>485</ele>
</trkpt>
<trkpt lat="40.629954803735018" lon="14.5090367551893">
<ele>486</ele>
</trkpt>
<trkpt lat="40.62990652397275" lon="14.508967436850071">
<ele>483</ele>
</trkpt>
<trkpt lat="40.629930412396789" lon="14.508694773539901">
<ele>481</ele>
</trkpt>
<trkpt lat="40.629925718531013" lon="14.508545240387321">
<ele>478</ele>
</trkpt>
<trkpt lat="40.629945248365402" lon="14.508405597880483">
<ele>475</ele>
</trkpt>
<trkpt lat="40.629962347447872" lon="14.508272409439087">
<ele>472</ele>
</trkpt>
<trkpt lat="40.629951786249876" lon="14.508170317858458">
<ele>470</ele>
</trkpt>
<trkpt lat="40.629945332184434" lon="14.508084319531918">
<ele>467</ele>
</trkpt>
<trkpt lat="40.62993292696774" lon="14.507967391982675">
<ele>464</ele>
</trkpt>
<trkpt lat="40.62987869605422" lon="14.507840657606721">
<ele>462</ele>
</trkpt>
<trkpt lat="40.629861513152719" lon="14.507652819156647">
<ele>459</ele>
</trkpt>
<trkpt lat="40.629766462370753" lon="14.507527844980359">
<ele>459</ele>
</trkpt>
<trkpt lat="40.629661520943046" lon="14.507488198578358">
<ele>460</ele>
</trkpt>
<trkpt lat="40.629492625594139" lon="14.50744922272861">
<ele>460</ele>
</trkpt>
<trkpt lat="40.629321048036218" lon="14.507398847490549">
<ele>460</ele>
</trkpt>
<trkpt lat="40.629249969497323" lon="14.507324583828449">
<ele>460</ele>
</trkpt>
<trkpt lat="40.629201605916023" lon="14.507266748696566">
<ele>461</ele>
</trkpt>
<trkpt lat="40.629139328375459" lon="14.507118305191398">
<ele>461</ele>
</trkpt>
<trkpt lat="40.629135221242905" lon="14.507063822820783">
<ele>461</ele>
</trkpt>
<trkpt lat="40.629138657823205" lon="14.507065080106258">
<ele>462</ele>
</trkpt>
<trkpt lat="40.629142094403505" lon="14.506877074018121">
<ele>462</ele>
</trkpt>
<trkpt lat="40.62914427369833" lon="14.50674463994801">
<ele>460</ele>
</trkpt>
<trkpt lat="40.629131700843573" lon="14.50661463662982">
<ele>459</ele>
</trkpt>
<trkpt lat="40.629130192101002" lon="14.506502654403448">
<ele>458</ele>
</trkpt>
<trkpt lat="40.629120552912354" lon="14.506411459296942">
<ele>456</ele>
</trkpt>
<trkpt lat="40.62911937944591" lon="14.506211886182427">
<ele>454</ele>
</trkpt>
<trkpt lat="40.629099179059267" lon="14.506042907014489">
<ele>453</ele>
</trkpt>
<trkpt lat="40.629161624237895" lon="14.505838640034199">
<ele>452</ele>
</trkpt>
<trkpt lat="40.629242425784469" lon="14.505704613402486">
<ele>450</ele>
</trkpt>
<trkpt lat="40.629309816285968" lon="14.505622638389468">
<ele>448</ele>
</trkpt>
<trkpt lat="40.629334207624197" lon="14.505386603996158">
<ele>447</ele>
</trkpt>
<trkpt lat="40.629324736073613" lon="14.50521083548665">
<ele>447</ele>
</trkpt>
<trkpt lat="40.629272432997823" lon="14.505043951794505">
<ele>447</ele>
</trkpt>
<trkpt lat="40.62920831143856" lon="14.504890227690339">
<ele>448</ele>
</trkpt>
<trkpt lat="40.629138741642237" lon="14.504643967375159">
<ele>448</ele>
</trkpt>
<trkpt lat="40.629089791327715" lon="14.504431402310729">
<ele>448</ele>
</trkpt>
<trkpt lat="40.629122564569116" lon="14.504148596897721">
<ele>448</ele>
</trkpt>
<trkpt lat="40.629029273986816" lon="14.503932176157832">
<ele>448</ele>
</trkpt>
<trkpt lat="40.629030112177134" lon="14.503877945244312">
<ele>449</ele>
</trkpt>
<trkpt lat="40.629016198217869" lon="14.503685245290399">
<ele>449</ele>
</trkpt>
<trkpt lat="40.628973450511694" lon="14.503538645803928">
<ele>449</ele>
</trkpt>
<trkpt lat="40.628936737775803" lon="14.503498747944832">
<ele>448</ele>
</trkpt>
<trkpt lat="40.628842441365123" lon="14.50341803021729">
<ele>447</ele>
</trkpt>
<trkpt lat="40.628825007006526" lon="14.50340872630477">
<ele>447</ele>
</trkpt>
<trkpt lat="40.628847554326057" lon="14.503279980272055">
<ele>446</ele>
</trkpt>
<trkpt lat="40.628957692533731" lon="14.503216026350856">
<ele>445</ele>
</trkpt>
<trkpt lat="40.629060035571456" lon="14.503180235624313">
<ele>445</ele>
</trkpt>
<trkpt lat="40.629102699458599" lon="14.502967586740851">
<ele>445</ele>
</trkpt>
<trkpt lat="40.629160115495324" lon="14.502903884276748">
<ele>446</ele>
</trkpt>
<trkpt lat="40.629258267581463" lon="14.502792991697788">
<ele>446</ele>
</trkpt>
<trkpt lat="40.629316940903664" lon="14.502711519598961">
<ele>446</ele>
</trkpt>
<trkpt lat="40.629505701363087" lon="14.502551089972258">
<ele>446</ele>
</trkpt>
<trkpt lat="40.629648193717003" lon="14.502395857125521">
<ele>446</ele>
</trkpt>
<trkpt lat="40.629687085747719" lon="14.502438688650727">
<ele>447</ele>
</trkpt>
<trkpt lat="40.629756655544043" lon="14.502613032236695">
<ele>447</ele>
</trkpt>
<trkpt lat="40.629819100722671" lon="14.502690397202969">
<ele>447</ele>
</trkpt>
<trkpt lat="40.629992103204131" lon="14.50278963893652">
<ele>446</ele>
</trkpt>
<trkpt lat="40.630080448463559" lon="14.502793913707137">
<ele>444</ele>
</trkpt>
<trkpt lat="40.630147671326995" lon="14.502733144909143">
<ele>443</ele>
</trkpt>
<trkpt lat="40.630202908068895" lon="14.502589982002974">
<ele>442</ele>
</trkpt>
<trkpt lat="40.630332576110959" lon="14.502412369474769">
<ele>440</ele>
</trkpt>
<trkpt lat="40.630419496446848" lon="14.502465762197971">
<ele>439</ele>
</trkpt>
<trkpt lat="40.63049141317606" lon="14.502602554857731">
<ele>438</ele>
</trkpt>
<trkpt lat="40.630520498380065" lon="14.502686038613319">
<ele>437</ele>
</trkpt>
<trkpt lat="40.630538435652852" lon="14.502850156277418">
<ele>435</ele>
</trkpt>
<trkpt lat="40.630705151706934" lon="14.502891730517149">
<ele>434</ele>
</trkpt>
<trkpt lat="40.630761561915278" lon="14.50300027616322">
<ele>433</ele>
</trkpt>
<trkpt lat="40.630718562752008" lon="14.503129189833999">
<ele>432</ele>
</trkpt>
<trkpt lat="40.630844961851835" lon="14.503250559791923">
<ele>432</ele>
</trkpt>
<trkpt lat="40.631023244932294" lon="14.503357512876391">
<ele>431</ele>
</trkpt>
<trkpt lat="40.63104210421443" lon="14.503375366330147">
<ele>430</ele>
</trkpt>
<trkpt lat="40.631147380918264" lon="14.503502603620291">
<ele>429</ele>
</trkpt>
<trkpt lat="40.631239581853151" lon="14.503440661355853">
<ele>428</ele>
</trkpt>
<trkpt lat="40.6312888674438" lon="14.503292301669717">
<ele>428</ele>
</trkpt>
<trkpt lat="40.631209826096892" lon="14.503111923113465">
<ele>427</ele>
</trkpt>
<trkpt lat="40.631309319287539" lon="14.502951828762889">
<ele>426</ele>
</trkpt>
<trkpt lat="40.631485674530268" lon="14.502873290330172">
<ele>427</ele>
</trkpt>
<trkpt lat="40.631604697555304" lon="14.502834565937519">
<ele>427</ele>
</trkpt>
<trkpt lat="40.631689690053463" lon="14.502783436328173">
<ele>428</ele>
</trkpt>
<trkpt lat="40.631765127182007" lon="14.502731468528509">
<ele>428</ele>
</trkpt>
<trkpt lat="40.631866129115224" lon="14.502772791311145">
<ele>429</ele>
</trkpt>
<trkpt lat="40.631946679204702" lon="14.502936992794275">
<ele>430</ele>
</trkpt>
<trkpt lat="40.632025888189673" lon="14.503012262284756">
<ele>430</ele>
</trkpt>
<trkpt lat="40.632237615063787" lon="14.5032396633178">
<ele>431</ele>
</trkpt>
<trkpt lat="40.632326463237405" lon="14.50335307046771">
<ele>431</ele>
</trkpt>
<trkpt lat="40.6324009783566" lon="14.503330690786242">
<ele>432</ele>
</trkpt>
<trkpt lat="40.632517067715526" lon="14.503264892846346">
<ele>433</ele>
</trkpt>
<trkpt lat="40.632577836513519" lon="14.503116030246019">
<ele>433</ele>
</trkpt>
<trkpt lat="40.632530814036727" lon="14.502946799620986">
<ele>434</ele>
</trkpt>
<trkpt lat="40.632690824568272" lon="14.502652678638697">
<ele>434</ele>
</trkpt>
<trkpt lat="40.632769363000989" lon="14.502484202384949">
<ele>435</ele>
</trkpt>
<trkpt lat="40.632862569764256" lon="14.502533404156566">
<ele>436</ele>
</trkpt>
<trkpt lat="40.63296927139163" lon="14.502522340044379">
<ele>436</ele>
</trkpt>
<trkpt lat="40.633003218099475" lon="14.502510018646717">
<ele>437</ele>
</trkpt>
<trkpt lat="40.633193822577596" lon="14.502274570986629">
<ele>437</ele>
</trkpt>
<trkpt lat="40.633293818682432" lon="14.502134341746569">
<ele>438</ele>
</trkpt>
<trkpt lat="40.633360538631678" lon="14.502079607918859">
<ele>439</ele>
</trkpt>
<trkpt lat="40.633400604128838" lon="14.50209042057395">
<ele>440</ele>
</trkpt>
<trkpt lat="40.633445614948869" lon="14.502119421958923">
<ele>442</ele>
</trkpt>
<trkpt lat="40.633543264120817" lon="14.502153787761927">
<ele>443</ele>
</trkpt>
<trkpt lat="40.633613504469395" lon="14.502138113602996">
<ele>444</ele>
</trkpt>
<trkpt lat="40.633705370128155" lon="14.502033423632383">
<ele>445</ele>
</trkpt>
<trkpt lat="40.633727665990591" lon="14.502024874091148">
<ele>446</ele>
</trkpt>
<trkpt lat="40.633866637945175" lon="14.501988077536225">
<ele>448</ele>
</trkpt>
<trkpt lat="40.63392992131412" lon="14.501969888806343">
<ele>449</ele>
</trkpt>
<trkpt lat="40.63410384580493" lon="14.502121433615685">
<ele>450</ele>
</trkpt>
<trkpt lat="40.634205937385559" lon="14.502134677022696">
<ele>450</ele>
</trkpt>
<trkpt lat="40.634285062551498" lon="14.502139119431376">
<ele>450</ele>
</trkpt>
<trkpt lat="40.634409030899405" lon="14.502152949571609">
<ele>450</ele>
</trkpt>
<trkpt lat="40.634586391970515" lon="14.501925464719534">
<ele>450</ele>
</trkpt>
<trkpt lat="40.634997524321079" lon="14.501773416996002">
<ele>450</ele>
</trkpt>
<trkpt lat="40.634864335879683" lon="14.501318614929914">
<ele>449</ele>
</trkpt>
<trkpt lat="40.634664846584201" lon="14.50129589997232">
<ele>449</ele>
</trkpt>
<trkpt lat="40.634581949561834" lon="14.501309059560299">
<ele>449</ele>
</trkpt>
<trkpt lat="40.634378604590893" lon="14.501281399279833">
<ele>449</ele>
</trkpt>
<trkpt lat="40.634350692853332" lon="14.501188192516565">
<ele>449</ele>
</trkpt>
<trkpt lat="40.634368797764182" lon="14.500982081517577">
<ele>449</ele>
</trkpt>
<trkpt lat="40.634384723380208" lon="14.500765996053815">
<ele>449</ele>
</trkpt>
<trkpt lat="40.63433057628572" lon="14.500589389353991">
<ele>449</ele>
</trkpt>
<trkpt lat="40.634230747818947" lon="14.500531386584044">
<ele>449</ele>
</trkpt>
<trkpt lat="40.634079705923796" lon="14.500454440712929">
<ele>449</ele>
</trkpt>
<trkpt lat="40.633964203298092" lon="14.500386798754334">
<ele>449</ele>
</trkpt>
<trkpt lat="40.633816011250019" lon="14.500410687178373">
<ele>449</ele>
</trkpt>
<trkpt lat="40.633783573284745" lon="14.50041982345283">
<ele>449</ele>
</trkpt>
<trkpt lat="40.633574947714806" lon="14.500242881476879">
<ele>449</ele>
</trkpt>
<trkpt lat="40.633415775373578" lon="14.500199714675546">
<ele>449</ele>
</trkpt>
<trkpt lat="40.633282670751214" lon="14.500071052461863">
<ele>446</ele>
</trkpt>
<trkpt lat="40.633221650496125" lon="14.499881621450186">
<ele>444</ele>
</trkpt>
<trkpt lat="40.633203545585275" lon="14.499822445213795">
<ele>442</ele>
</trkpt>
<trkpt lat="40.633119642734528" lon="14.499663524329662">
<ele>439</ele>
</trkpt>
<trkpt lat="40.633017048239708" lon="14.499509297311306">
<ele>436</ele>
</trkpt>
<trkpt lat="40.632893163710833" lon="14.499337887391448">
<ele>434</ele>
</trkpt>
<trkpt lat="40.632730638608336" lon="14.499151892960072">
<ele>432</ele>
</trkpt>
<trkpt lat="40.632544895634055" lon="14.498961875215173">
<ele>429</ele>
</trkpt>
<trkpt lat="40.632336270064116" lon="14.498974783346057">
<ele>426</ele>
</trkpt>
<trkpt lat="40.632217079401016" lon="14.498989284038544">
<ele>424</ele>
</trkpt>
<trkpt lat="40.631985738873482" lon="14.498963300138712">
<ele>423</ele>
</trkpt>
<trkpt lat="40.631759176030755" lon="14.498905129730701">
<ele>421</ele>
</trkpt>
<trkpt lat="40.631661359220743" lon="14.498838577419519">
<ele>420</ele>
</trkpt>
<trkpt lat="40.631517358124256" lon="14.498777724802494">
<ele>419</ele>
</trkpt>
<trkpt lat="40.631435802206397" lon="14.498586365953088">
<ele>418</ele>
</trkpt>
<trkpt lat="40.631295070052147" lon="14.498407328501344">
<ele>416</ele>
</trkpt>
<trkpt lat="40.631191218271852" lon="14.498287132009864">
<ele>415</ele>
</trkpt>
<trkpt lat="40.631169676780701" lon="14.498103568330407">
<ele>414</ele>
</trkpt>
<trkpt lat="40.631203204393387" lon="14.497947916388512">
<ele>412</ele>
</trkpt>
<trkpt lat="40.631286017596722" lon="14.497731328010559">
<ele>411</ele>
</trkpt>
<trkpt lat="40.631379811093211" lon="14.497541896998882">
<ele>409</ele>
</trkpt>
<trkpt lat="40.631476202979684" lon="14.497425891458988">
<ele>406</ele>
</trkpt>
<trkpt lat="40.631605787202716" lon="14.49718164280057">
<ele>404</ele>
</trkpt>
<trkpt lat="40.631685918197036" lon="14.49705557897687">
<ele>401</ele>
</trkpt>
<trkpt lat="40.631829835474491" lon="14.496886683627963">
<ele>399</ele>
</trkpt>
<trkpt lat="40.632006609812379" lon="14.496727595105767">
<ele>397</ele>
</trkpt>
<trkpt lat="40.632175924256444" lon="14.496550066396594">
<ele>394</ele>
</trkpt>
<trkpt lat="40.632350351661444" lon="14.496332472190261">
<ele>392</ele>
</trkpt>
<trkpt lat="40.632399721071124" lon="14.496275223791599">
<ele>389</ele>
</trkpt>
<trkpt lat="40.632537603378296" lon="14.496171372011304">
<ele>387</ele>
</trkpt>
<trkpt lat="40.632660314440727" lon="14.496056288480759">
<ele>386</ele>
</trkpt>
<trkpt lat="40.632749497890472" lon="14.495793767273426">
<ele>385</ele>
</trkpt>
<trkpt lat="40.632847063243389" lon="14.495551194995642">
<ele>385</ele>
</trkpt>
<trkpt lat="40.632971283048391" lon="14.49532974511385">
<ele>384</ele>
</trkpt>
<trkpt lat="40.633023669943213" lon="14.495246428996325">
<ele>383</ele>
</trkpt>
<trkpt lat="40.633202204480767" lon="14.495009137317538">
<ele>382</ele>
</trkpt>
<trkpt lat="40.633223662152886" lon="14.494963120669127">
<ele>381</ele>
</trkpt>
<trkpt lat="40.633314689621329" lon="14.494893383234739">
<ele>381</ele>
</trkpt>
<trkpt lat="40.633429102599621" lon="14.494728175923228">
<ele>380</ele>
</trkpt>
<trkpt lat="40.633455337956548" lon="14.494704119861126">
<ele>379</ele>
</trkpt>
<trkpt lat="40.633562626317143" lon="14.494639663025737">
<ele>378</ele>
</trkpt>
<trkpt lat="40.633696736767888" lon="14.49459875933826">
<ele>376</ele>
</trkpt>
<trkpt lat="40.633965712040663" lon="14.494543857872486">
<ele>374</ele>
</trkpt>
<trkpt lat="40.633997730910778" lon="14.49452206492424">
<ele>373</ele>
</trkpt>
<trkpt lat="40.63413217663765" lon="14.494424080476165">
<ele>372</ele>
</trkpt>
<trkpt lat="40.634283050894737" lon="14.494274212047458">
<ele>370</ele>
</trkpt>
<trkpt lat="40.634342562407255" lon="14.494072962552309">
<ele>368</ele>
</trkpt>
<trkpt lat="40.634166710078716" lon="14.494066005572677">
<ele>367</ele>
</trkpt>
<trkpt lat="40.633921204134822" lon="14.494105232879519">
<ele>366</ele>
</trkpt>
<trkpt lat="40.63381458632648" lon="14.493938768282533">
<ele>364</ele>
</trkpt>
<trkpt lat="40.633777035400271" lon="14.493852183222771">
<ele>363</ele>
</trkpt>
<trkpt lat="40.633691037073731" lon="14.49366451241076">
<ele>361</ele>
</trkpt>
<trkpt lat="40.633605876937509" lon="14.493527887389064">
<ele>360</ele>
</trkpt>
<trkpt lat="40.633598500862718" lon="14.493521265685558">
<ele>359</ele>
</trkpt>
<trkpt lat="40.633469922468066" lon="14.493273580446839">
<ele>357</ele>
</trkpt>
<trkpt lat="40.633366657420993" lon="14.493172829970717">
<ele>356</ele>
</trkpt>
<trkpt lat="40.633346037939191" lon="14.493159586563706">
<ele>355</ele>
</trkpt>
<trkpt lat="40.633315443992615" lon="14.492925396189094">
<ele>353</ele>
</trkpt>
<trkpt lat="40.633289040997624" lon="14.492836967110634">
<ele>352</ele>
</trkpt>
</trkseg>
</trk>
</gpx>
