<?xml version="1.0" encoding="UTF-8"?>
<gpx version="1.1"
creator="Smartprofil XE - http://www.rother.de"
xmlns:xsi="http://www.w3.org/2001/XMLSchema-instance"
xmlns="http://www.topografix.com/GPX/1/1"
xsi:schemaLocation="http://www.topografix.com/GPX/1/1 http://www.topografix.com/GPX/1/1/gpx.xsd">
<metadata>
<copyright author="Bergverlag Rother GmbH" />
<link href="https://www.rother.de/"><text>Bergverlag Rother</text></link>
<keywords>Rother, Bergverlag, GPS, GPX, Wandern, Wanderführer</keywords>
<bounds minlat="44.138180511072278" minlon="9.624602794647217" maxlat="44.165704250335693" maxlon="9.664492607116699"/>
</metadata>
<wpt lat="44.145678207278252" lon="9.649031180888414">
<ele>8</ele>
<name>16_Monterosso/ Stazione F.S. (1)</name>
<cmt></cmt>
<desc></desc>
<sym>Crossing</sym>
</wpt>

<wpt lat="44.138180511072278" lon="9.634929047897458">
<ele>319</ele>
<name>16_Sant’Antonio (2)</name>
<cmt></cmt>
<desc></desc>
<sym>Crossing</sym>
</wpt>

<wpt lat="44.154760837554932" lon="9.629173278808594">
<ele>360</ele>
<name>16_Colla dei Bagari (3)</name>
<cmt>Sella de Bagari (360m)</cmt>
<desc></desc>
<sym>Crossing</sym>
</wpt>

<wpt lat="44.163193702697754" lon="9.649579524993897">
<ele>336</ele>
<name>16_Colla di Gritta (4)</name>
<cmt></cmt>
<desc></desc>
<sym>Crossing</sym>
</wpt>

<wpt lat="44.159760475158691" lon="9.664041996002197">
<ele>465</ele>
<name>16_Santuario di Soviore (5)</name>
<cmt></cmt>
<desc></desc>
<sym>Crossing</sym>
</wpt>

<wpt lat="44.157893657684326" lon="9.663655757904053">
<ele>411</ele>
<name>16_Santa Maddalena (6)</name>
<cmt></cmt>
<desc></desc>
<sym>Crossing</sym>
</wpt>

<trk>
<name>CinTe_16_Rundtour Pilgerhospiz Soviore</name><trkseg>
<trkpt lat="44.145678207278252" lon="9.649031180888414">
<ele>8</ele>
</trkpt>
<trkpt lat="44.145641326904297" lon="9.648635387420654">
<ele>8</ele>
</trkpt>
<trkpt lat="44.145619869232178" lon="9.648528099060059">
<ele>9</ele>
</trkpt>
<trkpt lat="44.145491123199463" lon="9.648120403289795">
<ele>10</ele>
</trkpt>
<trkpt lat="44.145362377166748" lon="9.647541046142578">
<ele>10</ele>
</trkpt>
<trkpt lat="44.145233631134033" lon="9.646661281585693">
<ele>10</ele>
</trkpt>
<trkpt lat="44.145233631134033" lon="9.646596908569336">
<ele>11</ele>
</trkpt>
<trkpt lat="44.145190715789795" lon="9.646360874176025">
<ele>12</ele>
</trkpt>
<trkpt lat="44.145212173461914" lon="9.646124839782715">
<ele>12</ele>
</trkpt>
<trkpt lat="44.145147800445557" lon="9.646081924438477">
<ele>12</ele>
</trkpt>
<trkpt lat="44.145126342773438" lon="9.64599609375">
<ele>13</ele>
</trkpt>
<trkpt lat="44.145083427429199" lon="9.645717144012451">
<ele>15</ele>
</trkpt>
<trkpt lat="44.145104885101318" lon="9.645674228668213">
<ele>16</ele>
</trkpt>
<trkpt lat="44.144976139068604" lon="9.645051956176758">
<ele>18</ele>
</trkpt>
<trkpt lat="44.144911766052246" lon="9.644901752471924">
<ele>19</ele>
</trkpt>
<trkpt lat="44.145405292510986" lon="9.644322395324707">
<ele>21</ele>
</trkpt>
<trkpt lat="44.145512580871582" lon="9.644193649291992">
<ele>23</ele>
</trkpt>
<trkpt lat="44.145362377166748" lon="9.643721580505371">
<ele>24</ele>
</trkpt>
<trkpt lat="44.145362377166748" lon="9.643614292144775">
<ele>26</ele>
</trkpt>
<trkpt lat="44.145662784576416" lon="9.643399715423584">
<ele>27</ele>
</trkpt>
<trkpt lat="44.145705699920654" lon="9.643335342407227">
<ele>29</ele>
</trkpt>
<trkpt lat="44.145684242248535" lon="9.643185138702393">
<ele>31</ele>
</trkpt>
<trkpt lat="44.145619869232178" lon="9.642949104309082">
<ele>34</ele>
</trkpt>
<trkpt lat="44.145564632490277" lon="9.642691193148494">
<ele>36</ele>
</trkpt>
<trkpt lat="44.14555549621582" lon="9.642648696899414">
<ele>39</ele>
</trkpt>
<trkpt lat="44.145512580871582" lon="9.642519950866699">
<ele>41</ele>
</trkpt>
<trkpt lat="44.145469665527344" lon="9.642369747161865">
<ele>43</ele>
</trkpt>
<trkpt lat="44.145405292510986" lon="9.64224100112915">
<ele>46</ele>
</trkpt>
<trkpt lat="44.14531946182251" lon="9.642133712768555">
<ele>48</ele>
</trkpt>
<trkpt lat="44.145233631134033" lon="9.642090797424316">
<ele>51</ele>
</trkpt>
<trkpt lat="44.145169258117676" lon="9.642090797424316">
<ele>53</ele>
</trkpt>
<trkpt lat="44.145019054412842" lon="9.642176628112793">
<ele>55</ele>
</trkpt>
<trkpt lat="44.144761562347412" lon="9.642369747161865">
<ele>57</ele>
</trkpt>
<trkpt lat="44.144654273986816" lon="9.642519950866699">
<ele>60</ele>
</trkpt>
<trkpt lat="44.14456844329834" lon="9.642541408538818">
<ele>62</ele>
</trkpt>
<trkpt lat="44.144525527954102" lon="9.642434120178223">
<ele>64</ele>
</trkpt>
<trkpt lat="44.144546985626221" lon="9.642348289489746">
<ele>66</ele>
</trkpt>
<trkpt lat="44.145019054412842" lon="9.641532897949219">
<ele>68</ele>
</trkpt>
<trkpt lat="44.145169258117676" lon="9.641404151916504">
<ele>71</ele>
</trkpt>
<trkpt lat="44.145212173461914" lon="9.641339778900147">
<ele>73</ele>
</trkpt>
<trkpt lat="44.145147800445557" lon="9.641189575195313">
<ele>75</ele>
</trkpt>
<trkpt lat="44.14506196975708" lon="9.641211032867432">
<ele>77</ele>
</trkpt>
<trkpt lat="44.144632816314697" lon="9.641575813293457">
<ele>80</ele>
</trkpt>
<trkpt lat="44.144546985626221" lon="9.641640186309815">
<ele>82</ele>
</trkpt>
<trkpt lat="44.144461154937744" lon="9.641661643981934">
<ele>85</ele>
</trkpt>
<trkpt lat="44.144375324249268" lon="9.641554355621338">
<ele>87</ele>
</trkpt>
<trkpt lat="44.144396781921387" lon="9.641447067260742">
<ele>89</ele>
</trkpt>
<trkpt lat="44.144461154937744" lon="9.641318321228027">
<ele>92</ele>
</trkpt>
<trkpt lat="44.144546985626221" lon="9.641232490539551">
<ele>94</ele>
</trkpt>
<trkpt lat="44.144611358642578" lon="9.641103744506836">
<ele>97</ele>
</trkpt>
<trkpt lat="44.144740104675293" lon="9.640932083129883">
<ele>99</ele>
</trkpt>
<trkpt lat="44.144933223724365" lon="9.640717506408691">
<ele>102</ele>
</trkpt>
<trkpt lat="44.144976139068604" lon="9.640610218048096">
<ele>104</ele>
</trkpt>
<trkpt lat="44.144933223724365" lon="9.640545845031738">
<ele>106</ele>
</trkpt>
<trkpt lat="44.144868850708008" lon="9.640588760375977">
<ele>109</ele>
</trkpt>
<trkpt lat="44.144783020019531" lon="9.640696048736572">
<ele>112</ele>
</trkpt>
<trkpt lat="44.144675731658936" lon="9.64076042175293">
<ele>114</ele>
</trkpt>
<trkpt lat="44.144632816314697" lon="9.640781879425049">
<ele>116</ele>
</trkpt>
<trkpt lat="44.144632816314697" lon="9.640610218048096">
<ele>119</ele>
</trkpt>
<trkpt lat="44.144761562347412" lon="9.640138149261475">
<ele>122</ele>
</trkpt>
<trkpt lat="44.14482593536377" lon="9.64000940322876">
<ele>124</ele>
</trkpt>
<trkpt lat="44.145040512084961" lon="9.639451503753662">
<ele>126</ele>
</trkpt>
<trkpt lat="44.14506196975708" lon="9.639387130737305">
<ele>129</ele>
</trkpt>
<trkpt lat="44.144976139068604" lon="9.639151096343994">
<ele>131</ele>
</trkpt>
<trkpt lat="44.144954681396484" lon="9.638936519622803">
<ele>134</ele>
</trkpt>
<trkpt lat="44.144954681396484" lon="9.638679027557373">
<ele>136</ele>
</trkpt>
<trkpt lat="44.144933223724365" lon="9.63850736618042">
<ele>138</ele>
</trkpt>
<trkpt lat="44.144890308380127" lon="9.638400077819824">
<ele>141</ele>
</trkpt>
<trkpt lat="44.144847393035889" lon="9.638378620147705">
<ele>143</ele>
</trkpt>
<trkpt lat="44.14482593536377" lon="9.63824987411499">
<ele>146</ele>
</trkpt>
<trkpt lat="44.144761562347412" lon="9.638228416442871">
<ele>148</ele>
</trkpt>
<trkpt lat="44.144718647003174" lon="9.638271331787109">
<ele>151</ele>
</trkpt>
<trkpt lat="44.144697189331055" lon="9.638464450836182">
<ele>154</ele>
</trkpt>
<trkpt lat="44.14456844329834" lon="9.638400077819824">
<ele>157</ele>
</trkpt>
<trkpt lat="44.144353866577148" lon="9.638142585754395">
<ele>160</ele>
</trkpt>
<trkpt lat="44.144268035888672" lon="9.637992382049561">
<ele>164</ele>
</trkpt>
<trkpt lat="44.144225120544434" lon="9.63775634765625">
<ele>167</ele>
</trkpt>
<trkpt lat="44.144160747528076" lon="9.637691974639893">
<ele>170</ele>
</trkpt>
<trkpt lat="44.144139289855957" lon="9.637434482574463">
<ele>173</ele>
</trkpt>
<trkpt lat="44.14405345916748" lon="9.637413024902344">
<ele>176</ele>
</trkpt>
<trkpt lat="44.143946170806885" lon="9.637348651885986">
<ele>179</ele>
</trkpt>
<trkpt lat="44.143967628479004" lon="9.637155532836914">
<ele>184</ele>
</trkpt>
<trkpt lat="44.143946170806885" lon="9.637112617492676">
<ele>188</ele>
</trkpt>
<trkpt lat="44.143924713134766" lon="9.63700532913208">
<ele>193</ele>
</trkpt>
<trkpt lat="44.143881797790527" lon="9.636898040771484">
<ele>197</ele>
</trkpt>
<trkpt lat="44.14381742477417" lon="9.636833667755127">
<ele>202</ele>
</trkpt>
<trkpt lat="44.143688678741455" lon="9.636833667755127">
<ele>207</ele>
</trkpt>
<trkpt lat="44.143624305725098" lon="9.636812210083008">
<ele>211</ele>
</trkpt>
<trkpt lat="44.143538475036621" lon="9.636662006378174">
<ele>216</ele>
</trkpt>
<trkpt lat="44.143431186676025" lon="9.636490345001221">
<ele>220</ele>
</trkpt>
<trkpt lat="44.143345355987549" lon="9.636318683624268">
<ele>225</ele>
</trkpt>
<trkpt lat="44.143366813659668" lon="9.636189937591553">
<ele>228</ele>
</trkpt>
<trkpt lat="44.143366813659668" lon="9.636125564575195">
<ele>230</ele>
</trkpt>
<trkpt lat="44.143345355987549" lon="9.636061191558838">
<ele>233</ele>
</trkpt>
<trkpt lat="44.143409729003906" lon="9.635782241821289">
<ele>235</ele>
</trkpt>
<trkpt lat="44.143409729003906" lon="9.635610580444336">
<ele>238</ele>
</trkpt>
<trkpt lat="44.143388271331787" lon="9.635524749755859">
<ele>241</ele>
</trkpt>
<trkpt lat="44.143238067626953" lon="9.635460376739502">
<ele>243</ele>
</trkpt>
<trkpt lat="44.143109321594238" lon="9.635353088378906">
<ele>246</ele>
</trkpt>
<trkpt lat="44.143109321594238" lon="9.635224342346191">
<ele>248</ele>
</trkpt>
<trkpt lat="44.142980575561523" lon="9.635117053985596">
<ele>251</ele>
</trkpt>
<trkpt lat="44.142894744873047" lon="9.634945392608643">
<ele>255</ele>
</trkpt>
<trkpt lat="44.142658710479736" lon="9.634644985198975">
<ele>259</ele>
</trkpt>
<trkpt lat="44.142615795135498" lon="9.634623527526856">
<ele>263</ele>
</trkpt>
<trkpt lat="44.142379760742188" lon="9.634666442871094">
<ele>267</ele>
</trkpt>
<trkpt lat="44.142229557037354" lon="9.634623527526856">
<ele>271</ele>
</trkpt>
<trkpt lat="44.142143726348877" lon="9.634559154510498">
<ele>275</ele>
</trkpt>
<trkpt lat="44.14207935333252" lon="9.634430408477783">
<ele>279</ele>
</trkpt>
<trkpt lat="44.141800403594971" lon="9.63425874710083">
<ele>283</ele>
</trkpt>
<trkpt lat="44.141714572906494" lon="9.634194374084473">
<ele>287</ele>
</trkpt>
<trkpt lat="44.141650199890137" lon="9.634172916412354">
<ele>291</ele>
</trkpt>
<trkpt lat="44.141457080841064" lon="9.634194374084473">
<ele>294</ele>
</trkpt>
<trkpt lat="44.141285419464111" lon="9.634301662445068">
<ele>297</ele>
</trkpt>
<trkpt lat="44.141199588775635" lon="9.634323120117188">
<ele>299</ele>
</trkpt>
<trkpt lat="44.141092300415039" lon="9.634344577789307">
<ele>302</ele>
</trkpt>
<trkpt lat="44.140985012054443" lon="9.634344577789307">
<ele>305</ele>
</trkpt>
<trkpt lat="44.140856266021729" lon="9.634323120117188">
<ele>308</ele>
</trkpt>
<trkpt lat="44.140727519989014" lon="9.63425874710083">
<ele>311</ele>
</trkpt>
<trkpt lat="44.140641689300537" lon="9.634280204772949">
<ele>313</ele>
</trkpt>
<trkpt lat="44.140362739562988" lon="9.634280204772949">
<ele>316</ele>
</trkpt>
<trkpt lat="44.140146905556321" lon="9.634282467886806">
<ele>319</ele>
</trkpt>
<trkpt lat="44.1399753279984" lon="9.634448261931539">
<ele>319</ele>
</trkpt>
<trkpt lat="44.13962940685451" lon="9.634704748168588">
<ele>319</ele>
</trkpt>
<trkpt lat="44.139023059979081" lon="9.635122334584594">
<ele>319</ele>
</trkpt>
<trkpt lat="44.138753581792116" lon="9.63511043228209">
<ele>319</ele>
</trkpt>
<trkpt lat="44.138452671468258" lon="9.6350805927068">
<ele>319</ele>
</trkpt>
<trkpt lat="44.138180511072278" lon="9.634929047897458">
<ele>319</ele>
</trkpt>
<trkpt lat="44.138452671468258" lon="9.635074641555548">
<ele>320</ele>
</trkpt>
<trkpt lat="44.138753581792116" lon="9.635092495009303">
<ele>320</ele>
</trkpt>
<trkpt lat="44.139023059979081" lon="9.635134236887097">
<ele>321</ele>
</trkpt>
<trkpt lat="44.139642901718616" lon="9.634704748168588">
<ele>322</ele>
</trkpt>
<trkpt lat="44.139976250007749" lon="9.634449519217014">
<ele>322</ele>
</trkpt>
<trkpt lat="44.140148162841797" lon="9.634280204772949">
<ele>323</ele>
</trkpt>
<trkpt lat="44.140212535858154" lon="9.634151458740234">
<ele>324</ele>
</trkpt>
<trkpt lat="44.140448570251465" lon="9.633872509002686">
<ele>324</ele>
</trkpt>
<trkpt lat="44.140534400939941" lon="9.633829593658447">
<ele>325</ele>
</trkpt>
<trkpt lat="44.140641689300537" lon="9.633700847625732">
<ele>325</ele>
</trkpt>
<trkpt lat="44.140727519989014" lon="9.633636474609375">
<ele>326</ele>
</trkpt>
<trkpt lat="44.140770435333252" lon="9.633486270904541">
<ele>327</ele>
</trkpt>
<trkpt lat="44.140899181365967" lon="9.633378982543945">
<ele>327</ele>
</trkpt>
<trkpt lat="44.140942096710205" lon="9.633250236511231">
<ele>328</ele>
</trkpt>
<trkpt lat="44.141027927398682" lon="9.633121490478516">
<ele>329</ele>
</trkpt>
<trkpt lat="44.141135215759277" lon="9.633057117462158">
<ele>330</ele>
</trkpt>
<trkpt lat="44.14132833480835" lon="9.632971286773682">
<ele>331</ele>
</trkpt>
<trkpt lat="44.141478538513184" lon="9.632885456085205">
<ele>331</ele>
</trkpt>
<trkpt lat="44.141650199890137" lon="9.632670879364014">
<ele>332</ele>
</trkpt>
<trkpt lat="44.142465591430664" lon="9.632091522216797">
<ele>332</ele>
</trkpt>
<trkpt lat="44.142916202545166" lon="9.631834030151367">
<ele>333</ele>
</trkpt>
<trkpt lat="44.143130779266357" lon="9.631791114807129">
<ele>333</ele>
</trkpt>
<trkpt lat="44.143259525299072" lon="9.631726741790772">
<ele>333</ele>
</trkpt>
<trkpt lat="44.143366813659668" lon="9.631748199462891">
<ele>333</ele>
</trkpt>
<trkpt lat="44.143474102020264" lon="9.631640911102295">
<ele>333</ele>
</trkpt>
<trkpt lat="44.143602848052979" lon="9.631683826446533">
<ele>333</ele>
</trkpt>
<trkpt lat="44.143860340118408" lon="9.631576538085938">
<ele>333</ele>
</trkpt>
<trkpt lat="44.144010543823242" lon="9.631555080413818">
<ele>333</ele>
</trkpt>
<trkpt lat="44.144117832183838" lon="9.631533622741699">
<ele>333</ele>
</trkpt>
<trkpt lat="44.144182205200195" lon="9.631447792053223">
<ele>333</ele>
</trkpt>
<trkpt lat="44.144418239593506" lon="9.63127613067627">
<ele>333</ele>
</trkpt>
<trkpt lat="44.144632816314697" lon="9.631168842315674">
<ele>333</ele>
</trkpt>
<trkpt lat="44.144697189331055" lon="9.631190299987793">
<ele>333</ele>
</trkpt>
<trkpt lat="44.14480447769165" lon="9.63127613067627">
<ele>332</ele>
</trkpt>
<trkpt lat="44.144997596740723" lon="9.63127613067627">
<ele>332</ele>
</trkpt>
<trkpt lat="44.145405292510986" lon="9.631061553955078">
<ele>332</ele>
</trkpt>
<trkpt lat="44.145469665527344" lon="9.630975723266602">
<ele>331</ele>
</trkpt>
<trkpt lat="44.145576953887939" lon="9.631040096282959">
<ele>331</ele>
</trkpt>
<trkpt lat="44.145662784576416" lon="9.630975723266602">
<ele>331</ele>
</trkpt>
<trkpt lat="44.145748615264893" lon="9.630997180938721">
<ele>330</ele>
</trkpt>
<trkpt lat="44.146242141723633" lon="9.630868434906006">
<ele>332</ele>
</trkpt>
<trkpt lat="44.146778583526611" lon="9.630568027496338">
<ele>334</ele>
</trkpt>
<trkpt lat="44.146928787231445" lon="9.630417823791504">
<ele>336</ele>
</trkpt>
<trkpt lat="44.147250652313232" lon="9.630246162414551">
<ele>338</ele>
</trkpt>
<trkpt lat="44.1475510597229" lon="9.630181789398193">
<ele>339</ele>
</trkpt>
<trkpt lat="44.147722721099854" lon="9.630031585693359">
<ele>341</ele>
</trkpt>
<trkpt lat="44.147851467132568" lon="9.630053043365479">
<ele>343</ele>
</trkpt>
<trkpt lat="44.147958755493164" lon="9.629967212677002">
<ele>345</ele>
</trkpt>
<trkpt lat="44.148259162902832" lon="9.629817008972168">
<ele>347</ele>
</trkpt>
<trkpt lat="44.148387908935547" lon="9.629795551300049">
<ele>348</ele>
</trkpt>
<trkpt lat="44.148645401000977" lon="9.629645347595215">
<ele>351</ele>
</trkpt>
<trkpt lat="44.148838520050049" lon="9.629473686218262">
<ele>353</ele>
</trkpt>
<trkpt lat="44.149246215820313" lon="9.62925910949707">
<ele>355</ele>
</trkpt>
<trkpt lat="44.149482250213623" lon="9.629065990447998">
<ele>358</ele>
</trkpt>
<trkpt lat="44.149610996246338" lon="9.628915786743164">
<ele>361</ele>
</trkpt>
<trkpt lat="44.149718284606934" lon="9.628851413726807">
<ele>363</ele>
</trkpt>
<trkpt lat="44.149932861328125" lon="9.6285080909729">
<ele>365</ele>
</trkpt>
<trkpt lat="44.150211811065674" lon="9.627864360809326">
<ele>368</ele>
</trkpt>
<trkpt lat="44.150683879852295" lon="9.627220630645752">
<ele>371</ele>
</trkpt>
<trkpt lat="44.150984287261963" lon="9.62653398513794">
<ele>373</ele>
</trkpt>
<trkpt lat="44.151155948638916" lon="9.625976085662842">
<ele>376</ele>
</trkpt>
<trkpt lat="44.151391983032227" lon="9.625439643859863">
<ele>378</ele>
</trkpt>
<trkpt lat="44.151520729064941" lon="9.625182151794434">
<ele>381</ele>
</trkpt>
<trkpt lat="44.151713848114014" lon="9.625053405761719">
<ele>383</ele>
</trkpt>
<trkpt lat="44.151992797851563" lon="9.624752998352051">
<ele>386</ele>
</trkpt>
<trkpt lat="44.152250289916992" lon="9.624602794647217">
<ele>388</ele>
</trkpt>
<trkpt lat="44.152464866638184" lon="9.624602794647217">
<ele>391</ele>
</trkpt>
<trkpt lat="44.152657985687256" lon="9.62477445602417">
<ele>393</ele>
</trkpt>
<trkpt lat="44.153087139129639" lon="9.6250319480896">
<ele>396</ele>
</trkpt>
<trkpt lat="44.153087139129639" lon="9.625396728515625">
<ele>399</ele>
</trkpt>
<trkpt lat="44.153151512145996" lon="9.625868797302246">
<ele>395</ele>
</trkpt>
<trkpt lat="44.153108596801758" lon="9.62601900100708">
<ele>391</ele>
</trkpt>
<trkpt lat="44.153258800506592" lon="9.62653398513794">
<ele>387</ele>
</trkpt>
<trkpt lat="44.153516292572021" lon="9.627048969268799">
<ele>383</ele>
</trkpt>
<trkpt lat="44.154052734375" lon="9.62752103805542">
<ele>379</ele>
</trkpt>
<trkpt lat="44.15431022644043" lon="9.62801456451416">
<ele>375</ele>
</trkpt>
<trkpt lat="44.154524803161621" lon="9.628357887268066">
<ele>372</ele>
</trkpt>
<trkpt lat="44.154524803161621" lon="9.628872871398926">
<ele>368</ele>
</trkpt>
<trkpt lat="44.154589176177979" lon="9.629151821136475">
<ele>364</ele>
</trkpt>
<trkpt lat="44.154760837554932" lon="9.629173278808594">
<ele>360</ele>
</trkpt>
<trkpt lat="44.15480375289917" lon="9.629173278808594">
<ele>361</ele>
</trkpt>
<trkpt lat="44.154760837554932" lon="9.629323482513428">
<ele>362</ele>
</trkpt>
<trkpt lat="44.154739379882813" lon="9.629366397857666">
<ele>363</ele>
</trkpt>
<trkpt lat="44.154760837554932" lon="9.629752635955811">
<ele>364</ele>
</trkpt>
<trkpt lat="44.154868125915527" lon="9.629838466644287">
<ele>366</ele>
</trkpt>
<trkpt lat="44.154911041259766" lon="9.629924297332764">
<ele>367</ele>
</trkpt>
<trkpt lat="44.154846668243408" lon="9.630117416381836">
<ele>367</ele>
</trkpt>
<trkpt lat="44.154846668243408" lon="9.630246162414551">
<ele>368</ele>
</trkpt>
<trkpt lat="44.154932498931885" lon="9.630460739135742">
<ele>370</ele>
</trkpt>
<trkpt lat="44.154996871948242" lon="9.630503654479981">
<ele>371</ele>
</trkpt>
<trkpt lat="44.155104160308838" lon="9.630653858184815">
<ele>371</ele>
</trkpt>
<trkpt lat="44.155597686767578" lon="9.630868434906006">
<ele>372</ele>
</trkpt>
<trkpt lat="44.156005382537842" lon="9.631147384643555">
<ele>372</ele>
</trkpt>
<trkpt lat="44.156091213226318" lon="9.63127613067627">
<ele>373</ele>
</trkpt>
<trkpt lat="44.156219959259033" lon="9.631340503692627">
<ele>374</ele>
</trkpt>
<trkpt lat="44.156327247619629" lon="9.631340503692627">
<ele>374</ele>
</trkpt>
<trkpt lat="44.156520366668701" lon="9.631447792053223">
<ele>375</ele>
</trkpt>
<trkpt lat="44.156970977783203" lon="9.631834030151367">
<ele>375</ele>
</trkpt>
<trkpt lat="44.157142639160156" lon="9.632070064544678">
<ele>376</ele>
</trkpt>
<trkpt lat="44.157228469848633" lon="9.632349014282227">
<ele>377</ele>
</trkpt>
<trkpt lat="44.157228469848633" lon="9.632627964019775">
<ele>377</ele>
</trkpt>
<trkpt lat="44.157164096832275" lon="9.632778167724609">
<ele>378</ele>
</trkpt>
<trkpt lat="44.157142639160156" lon="9.632949829101563">
<ele>379</ele>
</trkpt>
<trkpt lat="44.157249927520752" lon="9.63327169418335">
<ele>379</ele>
</trkpt>
<trkpt lat="44.15729284286499" lon="9.63350772857666">
<ele>380</ele>
</trkpt>
<trkpt lat="44.157400131225586" lon="9.633700847625732">
<ele>381</ele>
</trkpt>
<trkpt lat="44.157421588897705" lon="9.633808135986328">
<ele>382</ele>
</trkpt>
<trkpt lat="44.157378673553467" lon="9.63402271270752">
<ele>382</ele>
</trkpt>
<trkpt lat="44.15755033493042" lon="9.634087085723877">
<ele>382</ele>
</trkpt>
<trkpt lat="44.157614707946777" lon="9.634451866149902">
<ele>383</ele>
</trkpt>
<trkpt lat="44.157571792602539" lon="9.63475227355957">
<ele>382</ele>
</trkpt>
<trkpt lat="44.157657623291016" lon="9.634966850280762">
<ele>380</ele>
</trkpt>
<trkpt lat="44.157743453979492" lon="9.635202884674072">
<ele>379</ele>
</trkpt>
<trkpt lat="44.158172607421875" lon="9.635288715362549">
<ele>377</ele>
</trkpt>
<trkpt lat="44.158279895782471" lon="9.63550329208374">
<ele>375</ele>
</trkpt>
<trkpt lat="44.158773422241211" lon="9.636039733886719">
<ele>374</ele>
</trkpt>
<trkpt lat="44.159009456634521" lon="9.63625431060791">
<ele>372</ele>
</trkpt>
<trkpt lat="44.159116744995117" lon="9.636704921722412">
<ele>371</ele>
</trkpt>
<trkpt lat="44.159181118011475" lon="9.636940956115723">
<ele>370</ele>
</trkpt>
<trkpt lat="44.159245491027832" lon="9.637198448181152">
<ele>368</ele>
</trkpt>
<trkpt lat="44.159610271453857" lon="9.638185501098633">
<ele>366</ele>
</trkpt>
<trkpt lat="44.159760475158691" lon="9.638636112213135">
<ele>364</ele>
</trkpt>
<trkpt lat="44.159910678863525" lon="9.639065265655518">
<ele>362</ele>
</trkpt>
<trkpt lat="44.159953594207764" lon="9.639215469360352">
<ele>360</ele>
</trkpt>
<trkpt lat="44.159953594207764" lon="9.639430046081543">
<ele>358</ele>
</trkpt>
<trkpt lat="44.159975051879883" lon="9.639966487884522">
<ele>356</ele>
</trkpt>
<trkpt lat="44.159932136535645" lon="9.640073776245117">
<ele>354</ele>
</trkpt>
<trkpt lat="44.159932136535645" lon="9.640352725982666">
<ele>352</ele>
</trkpt>
<trkpt lat="44.159953594207764" lon="9.640738964080811">
<ele>351</ele>
</trkpt>
<trkpt lat="44.159932136535645" lon="9.640910625457764">
<ele>348</ele>
</trkpt>
<trkpt lat="44.159996509552002" lon="9.641060829162598">
<ele>349</ele>
</trkpt>
<trkpt lat="44.160060882568359" lon="9.641404151916504">
<ele>350</ele>
</trkpt>
<trkpt lat="44.160103797912598" lon="9.641468524932861">
<ele>351</ele>
</trkpt>
<trkpt lat="44.160232543945313" lon="9.641683101654053">
<ele>352</ele>
</trkpt>
<trkpt lat="44.160232543945313" lon="9.641768932342529">
<ele>352</ele>
</trkpt>
<trkpt lat="44.160361289978027" lon="9.641919136047363">
<ele>353</ele>
</trkpt>
<trkpt lat="44.160511493682861" lon="9.641940593719482">
<ele>354</ele>
</trkpt>
<trkpt lat="44.160683155059814" lon="9.642047882080078">
<ele>355</ele>
</trkpt>
<trkpt lat="44.160768985748291" lon="9.642090797424316">
<ele>356</ele>
</trkpt>
<trkpt lat="44.160940647125244" lon="9.64224100112915">
<ele>356</ele>
</trkpt>
<trkpt lat="44.161069393157959" lon="9.642477035522461">
<ele>355</ele>
</trkpt>
<trkpt lat="44.161198139190674" lon="9.642734527587891">
<ele>355</ele>
</trkpt>
<trkpt lat="44.161455631256104" lon="9.643592834472656">
<ele>354</ele>
</trkpt>
<trkpt lat="44.161477088928223" lon="9.643807411193848">
<ele>353</ele>
</trkpt>
<trkpt lat="44.161562919616699" lon="9.644043445587158">
<ele>352</ele>
</trkpt>
<trkpt lat="44.161648750305176" lon="9.644408226013184">
<ele>351</ele>
</trkpt>
<trkpt lat="44.161713123321533" lon="9.644815921783447">
<ele>350</ele>
</trkpt>
<trkpt lat="44.161756038665771" lon="9.645030498504639">
<ele>349</ele>
</trkpt>
<trkpt lat="44.16179895401001" lon="9.645309448242188">
<ele>348</ele>
</trkpt>
<trkpt lat="44.16179895401001" lon="9.645588397979736">
<ele>347</ele>
</trkpt>
<trkpt lat="44.16203498840332" lon="9.645910263061523">
<ele>347</ele>
</trkpt>
<trkpt lat="44.162163734436035" lon="9.646232128143311">
<ele>347</ele>
</trkpt>
<trkpt lat="44.162142276763916" lon="9.646425247192383">
<ele>346</ele>
</trkpt>
<trkpt lat="44.162163734436035" lon="9.646639823913574">
<ele>346</ele>
</trkpt>
<trkpt lat="44.162335395812988" lon="9.646811485290527">
<ele>345</ele>
</trkpt>
<trkpt lat="44.162378311157227" lon="9.646961688995361">
<ele>345</ele>
</trkpt>
<trkpt lat="44.162528514862061" lon="9.647133350372315">
<ele>345</ele>
</trkpt>
<trkpt lat="44.162571430206299" lon="9.647648334503174">
<ele>344</ele>
</trkpt>
<trkpt lat="44.162807464599609" lon="9.648056030273438">
<ele>344</ele>
</trkpt>
<trkpt lat="44.162764549255371" lon="9.648313522338867">
<ele>344</ele>
</trkpt>
<trkpt lat="44.162635803222656" lon="9.64874267578125">
<ele>343</ele>
</trkpt>
<trkpt lat="44.162657260894775" lon="9.648978710174561">
<ele>342</ele>
</trkpt>
<trkpt lat="44.162614345550537" lon="9.649128913879395">
<ele>341</ele>
</trkpt>
<trkpt lat="44.162614345550537" lon="9.649193286895752">
<ele>340</ele>
</trkpt>
<trkpt lat="44.162700176239014" lon="9.649343490600586">
<ele>340</ele>
</trkpt>
<trkpt lat="44.162936210632324" lon="9.649257659912109">
<ele>339</ele>
</trkpt>
<trkpt lat="44.162936210632324" lon="9.649322032928467">
<ele>338</ele>
</trkpt>
<trkpt lat="44.163022041320801" lon="9.649300575256348">
<ele>337</ele>
</trkpt>
<trkpt lat="44.163064956665039" lon="9.649386405944824">
<ele>337</ele>
</trkpt>
<trkpt lat="44.163193702697754" lon="9.649579524993897">
<ele>336</ele>
</trkpt>
<trkpt lat="44.163172245025635" lon="9.649643898010254">
<ele>337</ele>
</trkpt>
<trkpt lat="44.163150787353516" lon="9.649729728698731">
<ele>339</ele>
</trkpt>
<trkpt lat="44.163172245025635" lon="9.649858474731445">
<ele>340</ele>
</trkpt>
<trkpt lat="44.163193702697754" lon="9.649922847747803">
<ele>341</ele>
</trkpt>
<trkpt lat="44.16330099105835" lon="9.650051593780518">
<ele>342</ele>
</trkpt>
<trkpt lat="44.163708686828613" lon="9.650287628173828">
<ele>344</ele>
</trkpt>
<trkpt lat="44.163751602172852" lon="9.650352001190186">
<ele>345</ele>
</trkpt>
<trkpt lat="44.163815975189209" lon="9.650566577911377">
<ele>346</ele>
</trkpt>
<trkpt lat="44.163773059844971" lon="9.650759696960449">
<ele>348</ele>
</trkpt>
<trkpt lat="44.163601398468018" lon="9.65125322341919">
<ele>349</ele>
</trkpt>
<trkpt lat="44.163579940795898" lon="9.651403427124023">
<ele>352</ele>
</trkpt>
<trkpt lat="44.163579940795898" lon="9.651532173156738">
<ele>354</ele>
</trkpt>
<trkpt lat="44.163601398468018" lon="9.651596546173096">
<ele>357</ele>
</trkpt>
<trkpt lat="44.163708686828613" lon="9.651789665222168">
<ele>360</ele>
</trkpt>
<trkpt lat="44.164137840270996" lon="9.652111530303955">
<ele>362</ele>
</trkpt>
<trkpt lat="44.164588451385498" lon="9.652369022369385">
<ele>365</ele>
</trkpt>
<trkpt lat="44.164695739746094" lon="9.652433395385742">
<ele>368</ele>
</trkpt>
<trkpt lat="44.164760112762451" lon="9.652519226074219">
<ele>371</ele>
</trkpt>
<trkpt lat="44.16478157043457" lon="9.652583599090576">
<ele>373</ele>
</trkpt>
<trkpt lat="44.164803028106689" lon="9.652755260467529">
<ele>376</ele>
</trkpt>
<trkpt lat="44.164717197418213" lon="9.65299129486084">
<ele>380</ele>
</trkpt>
<trkpt lat="44.164459705352783" lon="9.653441905975342">
<ele>383</ele>
</trkpt>
<trkpt lat="44.164416790008545" lon="9.653549194335938">
<ele>387</ele>
</trkpt>
<trkpt lat="44.164395332336426" lon="9.653613567352295">
<ele>390</ele>
</trkpt>
<trkpt lat="44.164416790008545" lon="9.653828144073486">
<ele>394</ele>
</trkpt>
<trkpt lat="44.165489673614502" lon="9.655094146728516">
<ele>398</ele>
</trkpt>
<trkpt lat="44.16553258895874" lon="9.655201435089111">
<ele>401</ele>
</trkpt>
<trkpt lat="44.165575504302979" lon="9.655373096466065">
<ele>405</ele>
</trkpt>
<trkpt lat="44.165704250335693" lon="9.65623140335083">
<ele>408</ele>
</trkpt>
<trkpt lat="44.165704250335693" lon="9.656317234039307">
<ele>412</ele>
</trkpt>
<trkpt lat="44.165661334991455" lon="9.656467437744141">
<ele>412</ele>
</trkpt>
<trkpt lat="44.165618419647217" lon="9.656553268432617">
<ele>411</ele>
</trkpt>
<trkpt lat="44.165511131286621" lon="9.656596183776856">
<ele>410</ele>
</trkpt>
<trkpt lat="44.165446758270264" lon="9.656574726104736">
<ele>410</ele>
</trkpt>
<trkpt lat="44.165146350860596" lon="9.656424522399902">
<ele>410</ele>
</trkpt>
<trkpt lat="44.164566993713379" lon="9.656252861022949">
<ele>409</ele>
</trkpt>
<trkpt lat="44.164481163024902" lon="9.65623140335083">
<ele>408</ele>
</trkpt>
<trkpt lat="44.164309501647949" lon="9.656252861022949">
<ele>408</ele>
</trkpt>
<trkpt lat="44.164245128631592" lon="9.656274318695068">
<ele>408</ele>
</trkpt>
<trkpt lat="44.164137840270996" lon="9.656338691711426">
<ele>407</ele>
</trkpt>
<trkpt lat="44.164094924926758" lon="9.656381607055664">
<ele>407</ele>
</trkpt>
<trkpt lat="44.16405200958252" lon="9.65648889541626">
<ele>407</ele>
</trkpt>
<trkpt lat="44.163966178894043" lon="9.65672492980957">
<ele>408</ele>
</trkpt>
<trkpt lat="44.163858890533447" lon="9.657132625579834">
<ele>408</ele>
</trkpt>
<trkpt lat="44.163837432861328" lon="9.657175540924072">
<ele>408</ele>
</trkpt>
<trkpt lat="44.163751602172852" lon="9.65723991394043">
<ele>408</ele>
</trkpt>
<trkpt lat="44.163408279418945" lon="9.657218456268311">
<ele>408</ele>
</trkpt>
<trkpt lat="44.163322448730469" lon="9.657218456268311">
<ele>409</ele>
</trkpt>
<trkpt lat="44.163258075714111" lon="9.65723991394043">
<ele>409</ele>
</trkpt>
<trkpt lat="44.163150787353516" lon="9.657347202301025">
<ele>409</ele>
</trkpt>
<trkpt lat="44.163107872009277" lon="9.657433032989502">
<ele>413</ele>
</trkpt>
<trkpt lat="44.163086414337158" lon="9.657583236694336">
<ele>418</ele>
</trkpt>
<trkpt lat="44.163086414337158" lon="9.657883644104004">
<ele>422</ele>
</trkpt>
<trkpt lat="44.163193702697754" lon="9.658463001251221">
<ele>427</ele>
</trkpt>
<trkpt lat="44.163343906402588" lon="9.659171104431152">
<ele>431</ele>
</trkpt>
<trkpt lat="44.163386821746826" lon="9.659450054168701">
<ele>435</ele>
</trkpt>
<trkpt lat="44.163343906402588" lon="9.659664630889893">
<ele>440</ele>
</trkpt>
<trkpt lat="44.16330099105835" lon="9.659771919250488">
<ele>444</ele>
</trkpt>
<trkpt lat="44.163258075714111" lon="9.659857749938965">
<ele>449</ele>
</trkpt>
<trkpt lat="44.163129329681396" lon="9.659943580627441">
<ele>453</ele>
</trkpt>
<trkpt lat="44.162914752960205" lon="9.660007953643799">
<ele>453</ele>
</trkpt>
<trkpt lat="44.162764549255371" lon="9.660029411315918">
<ele>452</ele>
</trkpt>
<trkpt lat="44.162678718566895" lon="9.660007953643799">
<ele>452</ele>
</trkpt>
<trkpt lat="44.162592887878418" lon="9.659965038299561">
<ele>452</ele>
</trkpt>
<trkpt lat="44.16254997253418" lon="9.659922122955322">
<ele>452</ele>
</trkpt>
<trkpt lat="44.162464141845703" lon="9.659814834594727">
<ele>451</ele>
</trkpt>
<trkpt lat="44.162356853485107" lon="9.659750461578369">
<ele>451</ele>
</trkpt>
<trkpt lat="44.161992073059082" lon="9.659600257873535">
<ele>451</ele>
</trkpt>
<trkpt lat="44.161820411682129" lon="9.659600257873535">
<ele>450</ele>
</trkpt>
<trkpt lat="44.161734580993652" lon="9.659621715545654">
<ele>450</ele>
</trkpt>
<trkpt lat="44.161670207977295" lon="9.659686088562012">
<ele>452</ele>
</trkpt>
<trkpt lat="44.161584377288818" lon="9.659900665283203">
<ele>453</ele>
</trkpt>
<trkpt lat="44.161241054534912" lon="9.660866260528565">
<ele>454</ele>
</trkpt>
<trkpt lat="44.161219596862793" lon="9.660995006561279">
<ele>456</ele>
</trkpt>
<trkpt lat="44.161219596862793" lon="9.66123104095459">
<ele>458</ele>
</trkpt>
<trkpt lat="44.161326885223389" lon="9.661660194396973">
<ele>459</ele>
</trkpt>
<trkpt lat="44.161348342895508" lon="9.661767482757568">
<ele>460</ele>
</trkpt>
<trkpt lat="44.16130542755127" lon="9.662003517150879">
<ele>462</ele>
</trkpt>
<trkpt lat="44.161112308502197" lon="9.662432670593262">
<ele>464</ele>
</trkpt>
<trkpt lat="44.160983562469482" lon="9.662754535675049">
<ele>465</ele>
</trkpt>
<trkpt lat="44.160876274108887" lon="9.662840366363525">
<ele>465</ele>
</trkpt>
<trkpt lat="44.16079044342041" lon="9.662926197052002">
<ele>465</ele>
</trkpt>
<trkpt lat="44.160575866699219" lon="9.663376808166504">
<ele>465</ele>
</trkpt>
<trkpt lat="44.16053295135498" lon="9.663419723510742">
<ele>465</ele>
</trkpt>
<trkpt lat="44.160339832305908" lon="9.663505554199219">
<ele>465</ele>
</trkpt>
<trkpt lat="44.159932136535645" lon="9.663913249969482">
<ele>465</ele>
</trkpt>
<trkpt lat="44.159760475158691" lon="9.664041996002197">
<ele>465</ele>
</trkpt>
<trkpt lat="44.159674644470215" lon="9.663999080657959">
<ele>462</ele>
</trkpt>
<trkpt lat="44.159502983093262" lon="9.664084911346436">
<ele>459</ele>
</trkpt>
<trkpt lat="44.159331321716309" lon="9.664256572723389">
<ele>455</ele>
</trkpt>
<trkpt lat="44.159159660339355" lon="9.664406776428223">
<ele>452</ele>
</trkpt>
<trkpt lat="44.158880710601807" lon="9.664492607116699">
<ele>449</ele>
</trkpt>
<trkpt lat="44.158837795257568" lon="9.66447114944458">
<ele>446</ele>
</trkpt>
<trkpt lat="44.158623218536377" lon="9.664299488067627">
<ele>443</ele>
</trkpt>
<trkpt lat="44.158322811126709" lon="9.664385318756104">
<ele>439</ele>
</trkpt>
<trkpt lat="44.158258438110352" lon="9.664320945739746">
<ele>436</ele>
</trkpt>
<trkpt lat="44.158172607421875" lon="9.664299488067627">
<ele>433</ele>
</trkpt>
<trkpt lat="44.15804386138916" lon="9.66421365737915">
<ele>431</ele>
</trkpt>
<trkpt lat="44.157958030700684" lon="9.664192199707031">
<ele>429</ele>
</trkpt>
<trkpt lat="44.15780782699585" lon="9.664170742034912">
<ele>426</ele>
</trkpt>
<trkpt lat="44.157764911651611" lon="9.663999080657959">
<ele>424</ele>
</trkpt>
<trkpt lat="44.157721996307373" lon="9.663934707641602">
<ele>422</ele>
</trkpt>
<trkpt lat="44.15755033493042" lon="9.663913249969482">
<ele>420</ele>
</trkpt>
<trkpt lat="44.15755033493042" lon="9.663848876953125">
<ele>418</ele>
</trkpt>
<trkpt lat="44.157721996307373" lon="9.663784503936768">
<ele>415</ele>
</trkpt>
<trkpt lat="44.157721996307373" lon="9.663591384887695">
<ele>413</ele>
</trkpt>
<trkpt lat="44.157893657684326" lon="9.663655757904053">
<ele>411</ele>
</trkpt>
<trkpt lat="44.157872200012207" lon="9.663441181182861">
<ele>407</ele>
</trkpt>
<trkpt lat="44.157893657684326" lon="9.663205146789551">
<ele>402</ele>
</trkpt>
<trkpt lat="44.15780782699585" lon="9.662990570068359">
<ele>398</ele>
</trkpt>
<trkpt lat="44.157679080963135" lon="9.662775993347168">
<ele>394</ele>
</trkpt>
<trkpt lat="44.157528877258301" lon="9.662604331970215">
<ele>390</ele>
</trkpt>
<trkpt lat="44.157357215881348" lon="9.662454128265381">
<ele>385</ele>
</trkpt>
<trkpt lat="44.157357215881348" lon="9.662389755249023">
<ele>381</ele>
</trkpt>
<trkpt lat="44.157464504241943" lon="9.662389755249023">
<ele>377</ele>
</trkpt>
<trkpt lat="44.157464504241943" lon="9.662325382232666">
<ele>372</ele>
</trkpt>
<trkpt lat="44.157335758209229" lon="9.66223955154419">
<ele>368</ele>
</trkpt>
<trkpt lat="44.157228469848633" lon="9.662196636199951">
<ele>364</ele>
</trkpt>
<trkpt lat="44.157078266143799" lon="9.662346839904785">
<ele>360</ele>
</trkpt>
<trkpt lat="44.156992435455322" lon="9.662411212921143">
<ele>356</ele>
</trkpt>
<trkpt lat="44.156863689422607" lon="9.662432670593262">
<ele>352</ele>
</trkpt>
<trkpt lat="44.15654182434082" lon="9.662261009216309">
<ele>348</ele>
</trkpt>
<trkpt lat="44.156434535980225" lon="9.662153720855713">
<ele>345</ele>
</trkpt>
<trkpt lat="44.156284332275391" lon="9.662089347839356">
<ele>341</ele>
</trkpt>
<trkpt lat="44.156219959259033" lon="9.661788940429688">
<ele>337</ele>
</trkpt>
<trkpt lat="44.156155586242676" lon="9.661552906036377">
<ele>333</ele>
</trkpt>
<trkpt lat="44.156091213226318" lon="9.661209583282471">
<ele>329</ele>
</trkpt>
<trkpt lat="44.156091213226318" lon="9.660716056823731">
<ele>326</ele>
</trkpt>
<trkpt lat="44.156134128570557" lon="9.660544395446777">
<ele>323</ele>
</trkpt>
<trkpt lat="44.156069755554199" lon="9.660308361053467">
<ele>320</ele>
</trkpt>
<trkpt lat="44.155941009521484" lon="9.660179615020752">
<ele>317</ele>
</trkpt>
<trkpt lat="44.155855178833008" lon="9.660050868988037">
<ele>314</ele>
</trkpt>
<trkpt lat="44.155941009521484" lon="9.65998649597168">
<ele>310</ele>
</trkpt>
<trkpt lat="44.156134128570557" lon="9.65998649597168">
<ele>307</ele>
</trkpt>
<trkpt lat="44.15630578994751" lon="9.660093784332275">
<ele>304</ele>
</trkpt>
<trkpt lat="44.156327247619629" lon="9.660050868988037">
<ele>301</ele>
</trkpt>
<trkpt lat="44.15630578994751" lon="9.659922122955322">
<ele>298</ele>
</trkpt>
<trkpt lat="44.155855178833008" lon="9.659342765808106">
<ele>294</ele>
</trkpt>
<trkpt lat="44.155833721160889" lon="9.659278392791748">
<ele>290</ele>
</trkpt>
<trkpt lat="44.156026840209961" lon="9.659299850463867">
<ele>285</ele>
</trkpt>
<trkpt lat="44.156069755554199" lon="9.659256935119629">
<ele>281</ele>
</trkpt>
<trkpt lat="44.155962467193604" lon="9.659171104431152">
<ele>277</ele>
</trkpt>
<trkpt lat="44.155855178833008" lon="9.659106731414795">
<ele>273</ele>
</trkpt>
<trkpt lat="44.155769348144531" lon="9.659085273742676">
<ele>269</ele>
</trkpt>
<trkpt lat="44.155769348144531" lon="9.658913612365723">
<ele>264</ele>
</trkpt>
<trkpt lat="44.155726432800293" lon="9.658763408660889">
<ele>260</ele>
</trkpt>
<trkpt lat="44.155683517456055" lon="9.658634662628174">
<ele>256</ele>
</trkpt>
<trkpt lat="44.155662059783936" lon="9.658548831939697">
<ele>254</ele>
</trkpt>
<trkpt lat="44.155683517456055" lon="9.658441543579102">
<ele>252</ele>
</trkpt>
<trkpt lat="44.155683517456055" lon="9.658398628234863">
<ele>250</ele>
</trkpt>
<trkpt lat="44.155662059783936" lon="9.658334255218506">
<ele>248</ele>
</trkpt>
<trkpt lat="44.155576229095459" lon="9.658312797546387">
<ele>246</ele>
</trkpt>
<trkpt lat="44.155361652374268" lon="9.658269882202148">
<ele>245</ele>
</trkpt>
<trkpt lat="44.15529727935791" lon="9.658312797546387">
<ele>243</ele>
</trkpt>
<trkpt lat="44.155211448669434" lon="9.658398628234863">
<ele>241</ele>
</trkpt>
<trkpt lat="44.155104160308838" lon="9.65872049331665">
<ele>239</ele>
</trkpt>
<trkpt lat="44.15503978729248" lon="9.658849239349365">
<ele>237</ele>
</trkpt>
<trkpt lat="44.154932498931885" lon="9.658913612365723">
<ele>235</ele>
</trkpt>
<trkpt lat="44.154846668243408" lon="9.658892154693604">
<ele>232</ele>
</trkpt>
<trkpt lat="44.154782295227051" lon="9.658656120300293">
<ele>230</ele>
</trkpt>
<trkpt lat="44.154653549194336" lon="9.658463001251221">
<ele>227</ele>
</trkpt>
<trkpt lat="44.154417514801025" lon="9.658205509185791">
<ele>225</ele>
</trkpt>
<trkpt lat="44.154374599456787" lon="9.658098220825195">
<ele>223</ele>
</trkpt>
<trkpt lat="44.154181480407715" lon="9.657905101776123">
<ele>220</ele>
</trkpt>
<trkpt lat="44.154095649719238" lon="9.657862186431885">
<ele>218</ele>
</trkpt>
<trkpt lat="44.154095649719238" lon="9.657819271087647">
<ele>215</ele>
</trkpt>
<trkpt lat="44.154138565063477" lon="9.657797813415527">
<ele>213</ele>
</trkpt>
<trkpt lat="44.154138565063477" lon="9.657711982727051">
<ele>211</ele>
</trkpt>
<trkpt lat="44.154052734375" lon="9.65773344039917">
<ele>208</ele>
</trkpt>
<trkpt lat="44.154074192047119" lon="9.657669067382813">
<ele>206</ele>
</trkpt>
<trkpt lat="44.154138565063477" lon="9.657647609710693">
<ele>203</ele>
</trkpt>
<trkpt lat="44.154245853424072" lon="9.657626152038574">
<ele>201</ele>
</trkpt>
<trkpt lat="44.154181480407715" lon="9.657561779022217">
<ele>199</ele>
</trkpt>
<trkpt lat="44.154052734375" lon="9.657583236694336">
<ele>196</ele>
</trkpt>
<trkpt lat="44.153988361358643" lon="9.657540321350098">
<ele>194</ele>
</trkpt>
<trkpt lat="44.153966903686523" lon="9.657497406005859">
<ele>191</ele>
</trkpt>
<trkpt lat="44.153902530670166" lon="9.657068252563477">
<ele>189</ele>
</trkpt>
<trkpt lat="44.153923988342285" lon="9.657003879547119">
<ele>186</ele>
</trkpt>
<trkpt lat="44.153966903686523" lon="9.657025337219238">
<ele>182</ele>
</trkpt>
<trkpt lat="44.154052734375" lon="9.657132625579834">
<ele>178</ele>
</trkpt>
<trkpt lat="44.154095649719238" lon="9.657132625579834">
<ele>175</ele>
</trkpt>
<trkpt lat="44.154074192047119" lon="9.656939506530762">
<ele>172</ele>
</trkpt>
<trkpt lat="44.154074192047119" lon="9.656574726104736">
<ele>168</ele>
</trkpt>
<trkpt lat="44.154009819030762" lon="9.656381607055664">
<ele>164</ele>
</trkpt>
<trkpt lat="44.153923988342285" lon="9.65623140335083">
<ele>161</ele>
</trkpt>
<trkpt lat="44.153709411621094" lon="9.655952453613281">
<ele>158</ele>
</trkpt>
<trkpt lat="44.153451919555664" lon="9.655823707580566">
<ele>154</ele>
</trkpt>
<trkpt lat="44.153215885162354" lon="9.655866622924805">
<ele>147</ele>
</trkpt>
<trkpt lat="44.153130054473877" lon="9.655845165252686">
<ele>139</ele>
</trkpt>
<trkpt lat="44.15306568145752" lon="9.655802249908447">
<ele>132</ele>
</trkpt>
<trkpt lat="44.152421951293945" lon="9.655609130859375">
<ele>125</ele>
</trkpt>
<trkpt lat="44.152379035949707" lon="9.655566215515137">
<ele>118</ele>
</trkpt>
<trkpt lat="44.152228832244873" lon="9.655544757843018">
<ele>110</ele>
</trkpt>
<trkpt lat="44.151971340179443" lon="9.655523300170898">
<ele>103</ele>
</trkpt>
<trkpt lat="44.151885509490967" lon="9.655394554138184">
<ele>96</ele>
</trkpt>
<trkpt lat="44.151821136474609" lon="9.655373096466065">
<ele>88</ele>
</trkpt>
<trkpt lat="44.151456356048584" lon="9.655158519744873">
<ele>81</ele>
</trkpt>
<trkpt lat="44.151349067687988" lon="9.655008316040039">
<ele>80</ele>
</trkpt>
<trkpt lat="44.15130615234375" lon="9.655008316040039">
<ele>78</ele>
</trkpt>
<trkpt lat="44.151113033294678" lon="9.655115604400635">
<ele>77</ele>
</trkpt>
<trkpt lat="44.150791168212891" lon="9.655201435089111">
<ele>75</ele>
</trkpt>
<trkpt lat="44.150705337524414" lon="9.655201435089111">
<ele>74</ele>
</trkpt>
<trkpt lat="44.150683879852295" lon="9.655265808105469">
<ele>73</ele>
</trkpt>
<trkpt lat="44.15055513381958" lon="9.655158519744873">
<ele>71</ele>
</trkpt>
<trkpt lat="44.150512218475342" lon="9.655287265777588">
<ele>70</ele>
</trkpt>
<trkpt lat="44.150404930114746" lon="9.655201435089111">
<ele>68</ele>
</trkpt>
<trkpt lat="44.150404930114746" lon="9.655308723449707">
<ele>67</ele>
</trkpt>
<trkpt lat="44.15031909942627" lon="9.655201435089111">
<ele>65</ele>
</trkpt>
<trkpt lat="44.150254726409912" lon="9.655094146728516">
<ele>62</ele>
</trkpt>
<trkpt lat="44.150125980377197" lon="9.65498685836792">
<ele>60</ele>
</trkpt>
<trkpt lat="44.149889945983887" lon="9.654965400695801">
<ele>58</ele>
</trkpt>
<trkpt lat="44.149653911590576" lon="9.654750823974609">
<ele>56</ele>
</trkpt>
<trkpt lat="44.149525165557861" lon="9.654750823974609">
<ele>53</ele>
</trkpt>
<trkpt lat="44.149353504180908" lon="9.654793739318848">
<ele>51</ele>
</trkpt>
<trkpt lat="44.149289131164551" lon="9.654815196990967">
<ele>49</ele>
</trkpt>
<trkpt lat="44.148666858673096" lon="9.655072689056397">
<ele>46</ele>
</trkpt>
<trkpt lat="44.148623943328857" lon="9.655072689056397">
<ele>44</ele>
</trkpt>
<trkpt lat="44.148495197296143" lon="9.655029773712158">
<ele>43</ele>
</trkpt>
<trkpt lat="44.148387908935547" lon="9.654965400695801">
<ele>41</ele>
</trkpt>
<trkpt lat="44.148344993591309" lon="9.654943943023682">
<ele>40</ele>
</trkpt>
<trkpt lat="44.147937297821045" lon="9.654943943023682">
<ele>39</ele>
</trkpt>
<trkpt lat="44.147765636444092" lon="9.654922485351563">
<ele>38</ele>
</trkpt>
<trkpt lat="44.147443771362305" lon="9.654901027679443">
<ele>36</ele>
</trkpt>
<trkpt lat="44.147207736968994" lon="9.654858112335205">
<ele>35</ele>
</trkpt>
<trkpt lat="44.147164821624756" lon="9.654858112335205">
<ele>34</ele>
</trkpt>
<trkpt lat="44.146971702575684" lon="9.654901027679443">
<ele>32</ele>
</trkpt>
<trkpt lat="44.146842956542969" lon="9.654943943023682">
<ele>31</ele>
</trkpt>
<trkpt lat="44.146649837493896" lon="9.655094146728516">
<ele>30</ele>
</trkpt>
<trkpt lat="44.146542549133301" lon="9.655137062072754">
<ele>28</ele>
</trkpt>
<trkpt lat="44.146499633789063" lon="9.655137062072754">
<ele>27</ele>
</trkpt>
<trkpt lat="44.146435260772705" lon="9.655137062072754">
<ele>26</ele>
</trkpt>
<trkpt lat="44.146327972412109" lon="9.65498685836792">
<ele>24</ele>
</trkpt>
<trkpt lat="44.146282961592078" lon="9.654987193644047">
<ele>23</ele>
</trkpt>
<trkpt lat="44.146177768707275" lon="9.654965400695801">
<ele>22</ele>
</trkpt>
<trkpt lat="44.146156311035156" lon="9.654922485351563">
<ele>21</ele>
</trkpt>
<trkpt lat="44.146091938018799" lon="9.654793739318848">
<ele>19</ele>
</trkpt>
<trkpt lat="44.146113395690918" lon="9.654750823974609">
<ele>18</ele>
</trkpt>
<trkpt lat="44.145920276641846" lon="9.654579162597656">
<ele>17</ele>
</trkpt>
<trkpt lat="44.14581298828125" lon="9.654428958892822">
<ele>17</ele>
</trkpt>
<trkpt lat="44.145770072937012" lon="9.654428958892822">
<ele>16</ele>
</trkpt>
<trkpt lat="44.145619869232178" lon="9.654450416564941">
<ele>16</ele>
</trkpt>
<trkpt lat="44.145576953887939" lon="9.654428958892822">
<ele>15</ele>
</trkpt>
<trkpt lat="44.145512580871582" lon="9.654343128204346">
<ele>14</ele>
</trkpt>
<trkpt lat="44.145169258117676" lon="9.654257297515869">
<ele>14</ele>
</trkpt>
<trkpt lat="44.145126342773438" lon="9.65423583984375">
<ele>13</ele>
</trkpt>
<trkpt lat="44.145097425207496" lon="9.654045319184661">
<ele>13</ele>
</trkpt>
<trkpt lat="44.145104885101318" lon="9.65397834777832">
<ele>12</ele>
</trkpt>
<trkpt lat="44.145147800445557" lon="9.653913974761963">
<ele>12</ele>
</trkpt>
<trkpt lat="44.145147800445557" lon="9.653806686401367">
<ele>12</ele>
</trkpt>
<trkpt lat="44.145147800445557" lon="9.653420448303223">
<ele>12</ele>
</trkpt>
<trkpt lat="44.145169258117676" lon="9.653356075286865">
<ele>12</ele>
</trkpt>
<trkpt lat="44.145212173461914" lon="9.653313159942627">
<ele>12</ele>
</trkpt>
<trkpt lat="44.145362377166748" lon="9.653162956237793">
<ele>12</ele>
</trkpt>
<trkpt lat="44.145426750183105" lon="9.653034210205078">
<ele>12</ele>
</trkpt>
<trkpt lat="44.145426750183105" lon="9.652690887451172">
<ele>12</ele>
</trkpt>
<trkpt lat="44.145469665527344" lon="9.652519226074219">
<ele>12</ele>
</trkpt>
<trkpt lat="44.145512580871582" lon="9.652326107025147">
<ele>12</ele>
</trkpt>
<trkpt lat="44.145512580871582" lon="9.652197360992432">
<ele>12</ele>
</trkpt>
<trkpt lat="44.145598411560059" lon="9.651768207550049">
<ele>11</ele>
</trkpt>
<trkpt lat="44.145705699920654" lon="9.651360511779785">
<ele>11</ele>
</trkpt>
<trkpt lat="44.145727157592773" lon="9.65125322341919">
<ele>10</ele>
</trkpt>
<trkpt lat="44.145791530609131" lon="9.650352001190186">
<ele>10</ele>
</trkpt>
<trkpt lat="44.145770072937012" lon="9.649858474731445">
<ele>10</ele>
</trkpt>
<trkpt lat="44.145770072937012" lon="9.649794101715088">
<ele>9</ele>
</trkpt>
<trkpt lat="44.145727157592773" lon="9.649558067321777">
<ele>9</ele>
</trkpt>
<trkpt lat="44.145678207278252" lon="9.649031264707446">
<ele>8</ele>
</trkpt>
<trkpt lat="44.145678207278252" lon="9.649031180888414">
<ele>8</ele>
</trkpt>
</trkseg>
</trk>
</gpx>
