<?xml version="1.0" encoding="UTF-8"?>
<gpx version="1.1"
creator="Smartprofil XE - http://www.rother.de"
xmlns:xsi="http://www.w3.org/2001/XMLSchema-instance"
xmlns="http://www.topografix.com/GPX/1/1"
xsi:schemaLocation="http://www.topografix.com/GPX/1/1 http://www.topografix.com/GPX/1/1/gpx.xsd">
<metadata>
<copyright author="Bergverlag Rother GmbH" />
<link href="https://www.rother.de/"><text>Bergverlag Rother</text></link>
<keywords>Rother, Bergverlag, GPS, GPX, Wandern, Wanderführer</keywords>
<bounds minlat="44.118711948394775" minlon="9.684255123138428" maxlat="44.134938139468431" maxlon="9.716184139251709"/>
</metadata>
<wpt lat="44.134938139468431" lon="9.684598194435239">
<ele>26</ele>
<name>21_Vernazza/ Stazione F.S. (1)</name>
<cmt></cmt>
<desc></desc>
<sym>Crossing</sym>
</wpt>

<wpt lat="44.129354953765869" lon="9.698717594146729">
<ele>200</ele>
<name>21_Prevo (2)</name>
<cmt></cmt>
<desc></desc>
<sym>Crossing</sym>
</wpt>

<wpt lat="44.12459135055542" lon="9.707579612731934">
<ele>115</ele>
<name>21_Brücke (3)</name>
<cmt></cmt>
<desc></desc>
<sym>Crossing</sym>
</wpt>

<wpt lat="44.119548797607422" lon="9.706785678863525">
<ele>85</ele>
<name>21_Corniglia (4)</name>
<cmt></cmt>
<desc></desc>
<sym>Crossing</sym>
</wpt>

<wpt lat="44.118711948394775" lon="9.716184139251709">
<ele>20</ele>
<name>21_Corniglia/ Stazione F.S. (5)</name>
<cmt></cmt>
<desc></desc>
<sym>Crossing</sym>
</wpt>

<trk>
<name>CinTe_21_Vernazza-Corniglia</name><trkseg>
<trkpt lat="44.134938139468431" lon="9.684598194435239">
<ele>26</ele>
</trkpt>
<trkpt lat="44.134869575500488" lon="9.684512615203857">
<ele>26</ele>
</trkpt>
<trkpt lat="44.134762287139893" lon="9.684362411499023">
<ele>26</ele>
</trkpt>
<trkpt lat="44.134697914123535" lon="9.684255123138428">
<ele>25</ele>
</trkpt>
<trkpt lat="44.134654998779297" lon="9.684340953826904">
<ele>25</ele>
</trkpt>
<trkpt lat="44.134547710418701" lon="9.6844482421875">
<ele>25</ele>
</trkpt>
<trkpt lat="44.134547710418701" lon="9.684534072875977">
<ele>25</ele>
</trkpt>
<trkpt lat="44.134504795074463" lon="9.684662818908691">
<ele>25</ele>
</trkpt>
<trkpt lat="44.134397506713867" lon="9.684748649597168">
<ele>24</ele>
</trkpt>
<trkpt lat="44.134354591369629" lon="9.684770107269287">
<ele>24</ele>
</trkpt>
<trkpt lat="44.134247303009033" lon="9.684727191925049">
<ele>24</ele>
</trkpt>
<trkpt lat="44.134225845336914" lon="9.684920310974121">
<ele>28</ele>
</trkpt>
<trkpt lat="44.134140014648438" lon="9.685027599334717">
<ele>33</ele>
</trkpt>
<trkpt lat="44.134097099304199" lon="9.685113430023193">
<ele>38</ele>
</trkpt>
<trkpt lat="44.134054183959961" lon="9.685242176055908">
<ele>42</ele>
</trkpt>
<trkpt lat="44.134054183959961" lon="9.685306549072266">
<ele>46</ele>
</trkpt>
<trkpt lat="44.133946895599365" lon="9.685435295104981">
<ele>51</ele>
</trkpt>
<trkpt lat="44.133903980255127" lon="9.685478210449219">
<ele>56</ele>
</trkpt>
<trkpt lat="44.133775234222412" lon="9.685478210449219">
<ele>60</ele>
</trkpt>
<trkpt lat="44.133667945861816" lon="9.685649871826172">
<ele>64</ele>
</trkpt>
<trkpt lat="44.133560657501221" lon="9.685757160186768">
<ele>69</ele>
</trkpt>
<trkpt lat="44.133496284484863" lon="9.685885906219482">
<ele>72</ele>
</trkpt>
<trkpt lat="44.13332462310791" lon="9.686100482940674">
<ele>74</ele>
</trkpt>
<trkpt lat="44.133174419403076" lon="9.686336517333984">
<ele>76</ele>
</trkpt>
<trkpt lat="44.133152961730957" lon="9.686400890350342">
<ele>79</ele>
</trkpt>
<trkpt lat="44.132981300354004" lon="9.686744213104248">
<ele>82</ele>
</trkpt>
<trkpt lat="44.132895469665527" lon="9.686872959136963">
<ele>84</ele>
</trkpt>
<trkpt lat="44.132745265960693" lon="9.687108993530273">
<ele>86</ele>
</trkpt>
<trkpt lat="44.132680892944336" lon="9.687259197235107">
<ele>89</ele>
</trkpt>
<trkpt lat="44.132637977600098" lon="9.687430858612061">
<ele>92</ele>
</trkpt>
<trkpt lat="44.132595062255859" lon="9.687709808349609">
<ele>94</ele>
</trkpt>
<trkpt lat="44.132595062255859" lon="9.687795639038086">
<ele>96</ele>
</trkpt>
<trkpt lat="44.132616519927979" lon="9.687924385070801">
<ele>99</ele>
</trkpt>
<trkpt lat="44.132637977600098" lon="9.688096046447754">
<ele>101</ele>
</trkpt>
<trkpt lat="44.132616519927979" lon="9.688332080841065">
<ele>104</ele>
</trkpt>
<trkpt lat="44.132637977600098" lon="9.688417911529541">
<ele>106</ele>
</trkpt>
<trkpt lat="44.132680892944336" lon="9.68869686126709">
<ele>108</ele>
</trkpt>
<trkpt lat="44.132637977600098" lon="9.688975811004639">
<ele>111</ele>
</trkpt>
<trkpt lat="44.132637977600098" lon="9.689040184020996">
<ele>113</ele>
</trkpt>
<trkpt lat="44.132616519927979" lon="9.689168930053711">
<ele>116</ele>
</trkpt>
<trkpt lat="44.132487773895264" lon="9.689512252807617">
<ele>118</ele>
</trkpt>
<trkpt lat="44.132316112518311" lon="9.689812660217285">
<ele>118</ele>
</trkpt>
<trkpt lat="44.132294654846191" lon="9.689855575561523">
<ele>118</ele>
</trkpt>
<trkpt lat="44.132273197174072" lon="9.690005779266357">
<ele>118</ele>
</trkpt>
<trkpt lat="44.132080078125" lon="9.690284729003906">
<ele>118</ele>
</trkpt>
<trkpt lat="44.132037162780762" lon="9.690370559692383">
<ele>118</ele>
</trkpt>
<trkpt lat="44.131994247436523" lon="9.690499305725098">
<ele>118</ele>
</trkpt>
<trkpt lat="44.131972789764404" lon="9.690735340118408">
<ele>118</ele>
</trkpt>
<trkpt lat="44.131951332092285" lon="9.690778255462647">
<ele>118</ele>
</trkpt>
<trkpt lat="44.131865501403809" lon="9.690842628479004">
<ele>118</ele>
</trkpt>
<trkpt lat="44.131715297698975" lon="9.691207408905029">
<ele>118</ele>
</trkpt>
<trkpt lat="44.131693840026855" lon="9.691336154937744">
<ele>121</ele>
</trkpt>
<trkpt lat="44.131650924682617" lon="9.691421985626221">
<ele>124</ele>
</trkpt>
<trkpt lat="44.131543636322021" lon="9.691615104675293">
<ele>127</ele>
</trkpt>
<trkpt lat="44.131414890289307" lon="9.691743850708008">
<ele>130</ele>
</trkpt>
<trkpt lat="44.130878448486328" lon="9.692752361297607">
<ele>132</ele>
</trkpt>
<trkpt lat="44.130985736846924" lon="9.692752361297607">
<ele>135</ele>
</trkpt>
<trkpt lat="44.130749702453613" lon="9.69294548034668">
<ele>138</ele>
</trkpt>
<trkpt lat="44.130599498748779" lon="9.693052768707275">
<ele>141</ele>
</trkpt>
<trkpt lat="44.130470752716064" lon="9.693031311035156">
<ele>144</ele>
</trkpt>
<trkpt lat="44.130384922027588" lon="9.693074226379395">
<ele>147</ele>
</trkpt>
<trkpt lat="44.13034200668335" lon="9.693117141723633">
<ele>151</ele>
</trkpt>
<trkpt lat="44.130363464355469" lon="9.693288803100586">
<ele>155</ele>
</trkpt>
<trkpt lat="44.130384922027588" lon="9.693481922149658">
<ele>159</ele>
</trkpt>
<trkpt lat="44.130384922027588" lon="9.69369649887085">
<ele>163</ele>
</trkpt>
<trkpt lat="44.13034200668335" lon="9.693868160247803">
<ele>167</ele>
</trkpt>
<trkpt lat="44.130256175994873" lon="9.694061279296875">
<ele>171</ele>
</trkpt>
<trkpt lat="44.130234718322754" lon="9.694211483001709">
<ele>175</ele>
</trkpt>
<trkpt lat="44.130148887634277" lon="9.694340229034424">
<ele>179</ele>
</trkpt>
<trkpt lat="44.130063056945801" lon="9.694168567657471">
<ele>183</ele>
</trkpt>
<trkpt lat="44.129977226257324" lon="9.694490432739258">
<ele>187</ele>
</trkpt>
<trkpt lat="44.129891395568848" lon="9.694705009460449">
<ele>188</ele>
</trkpt>
<trkpt lat="44.129955768585205" lon="9.69517707824707">
<ele>189</ele>
</trkpt>
<trkpt lat="44.129934310913086" lon="9.695348739624023">
<ele>189</ele>
</trkpt>
<trkpt lat="44.129891395568848" lon="9.695520401000977">
<ele>190</ele>
</trkpt>
<trkpt lat="44.129891395568848" lon="9.69569206237793">
<ele>191</ele>
</trkpt>
<trkpt lat="44.12982702255249" lon="9.695863723754883">
<ele>192</ele>
</trkpt>
<trkpt lat="44.12959098815918" lon="9.696335792541504">
<ele>193</ele>
</trkpt>
<trkpt lat="44.129526615142822" lon="9.696485996246338">
<ele>193</ele>
</trkpt>
<trkpt lat="44.129462242126465" lon="9.696829319000244">
<ele>194</ele>
</trkpt>
<trkpt lat="44.129376411437988" lon="9.697065353393555">
<ele>195</ele>
</trkpt>
<trkpt lat="44.12933349609375" lon="9.697279930114746">
<ele>196</ele>
</trkpt>
<trkpt lat="44.129354953765869" lon="9.697515964508057">
<ele>196</ele>
</trkpt>
<trkpt lat="44.129397869110107" lon="9.697644710540772">
<ele>197</ele>
</trkpt>
<trkpt lat="44.129483699798584" lon="9.697709083557129">
<ele>197</ele>
</trkpt>
<trkpt lat="44.129526615142822" lon="9.697773456573486">
<ele>198</ele>
</trkpt>
<trkpt lat="44.129548072814941" lon="9.697902202606201">
<ele>198</ele>
</trkpt>
<trkpt lat="44.129548072814941" lon="9.697988033294678">
<ele>199</ele>
</trkpt>
<trkpt lat="44.129312038421631" lon="9.698588848114014">
<ele>199</ele>
</trkpt>
<trkpt lat="44.129354953765869" lon="9.698717594146729">
<ele>200</ele>
</trkpt>
<trkpt lat="44.129419326782227" lon="9.698867797851563">
<ele>200</ele>
</trkpt>
<trkpt lat="44.129440784454346" lon="9.69893217086792">
<ele>200</ele>
</trkpt>
<trkpt lat="44.129440784454346" lon="9.698996543884277">
<ele>201</ele>
</trkpt>
<trkpt lat="44.129419326782227" lon="9.699146747589111">
<ele>201</ele>
</trkpt>
<trkpt lat="44.129419326782227" lon="9.699318408966065">
<ele>201</ele>
</trkpt>
<trkpt lat="44.129419326782227" lon="9.699811935424805">
<ele>201</ele>
</trkpt>
<trkpt lat="44.129397869110107" lon="9.699897766113281">
<ele>201</ele>
</trkpt>
<trkpt lat="44.129354953765869" lon="9.69994068145752">
<ele>202</ele>
</trkpt>
<trkpt lat="44.129118919372559" lon="9.700369834899902">
<ele>202</ele>
</trkpt>
<trkpt lat="44.129033088684082" lon="9.700562953948975">
<ele>202</ele>
</trkpt>
<trkpt lat="44.128797054290771" lon="9.701249599456787">
<ele>200</ele>
</trkpt>
<trkpt lat="44.128797054290771" lon="9.701313972473145">
<ele>198</ele>
</trkpt>
<trkpt lat="44.128818511962891" lon="9.701399803161621">
<ele>197</ele>
</trkpt>
<trkpt lat="44.12883996963501" lon="9.701528549194336">
<ele>195</ele>
</trkpt>
<trkpt lat="44.12883996963501" lon="9.701592922210693">
<ele>193</ele>
</trkpt>
<trkpt lat="44.128904342651367" lon="9.701764583587647">
<ele>191</ele>
</trkpt>
<trkpt lat="44.128990173339844" lon="9.701871871948242">
<ele>189</ele>
</trkpt>
<trkpt lat="44.129097461700439" lon="9.701979160308838">
<ele>188</ele>
</trkpt>
<trkpt lat="44.129183292388916" lon="9.702022075653076">
<ele>186</ele>
</trkpt>
<trkpt lat="44.129269123077393" lon="9.702086448669434">
<ele>184</ele>
</trkpt>
<trkpt lat="44.129312038421631" lon="9.702129364013672">
<ele>183</ele>
</trkpt>
<trkpt lat="44.129354953765869" lon="9.702279567718506">
<ele>182</ele>
</trkpt>
<trkpt lat="44.129505157470703" lon="9.70242977142334">
<ele>181</ele>
</trkpt>
<trkpt lat="44.129548072814941" lon="9.702451229095459">
<ele>180</ele>
</trkpt>
<trkpt lat="44.129655361175537" lon="9.702601432800293">
<ele>178</ele>
</trkpt>
<trkpt lat="44.129676818847656" lon="9.702644348144531">
<ele>177</ele>
</trkpt>
<trkpt lat="44.129676818847656" lon="9.702708721160889">
<ele>176</ele>
</trkpt>
<trkpt lat="44.129569530487061" lon="9.702837467193604">
<ele>175</ele>
</trkpt>
<trkpt lat="44.129483699798584" lon="9.702987670898438">
<ele>174</ele>
</trkpt>
<trkpt lat="44.129462242126465" lon="9.703094959259033">
<ele>173</ele>
</trkpt>
<trkpt lat="44.129226207733154" lon="9.703288078308106">
<ele>172</ele>
</trkpt>
<trkpt lat="44.129204750061035" lon="9.703373908996582">
<ele>172</ele>
</trkpt>
<trkpt lat="44.129097461700439" lon="9.703524112701416">
<ele>171</ele>
</trkpt>
<trkpt lat="44.128968715667725" lon="9.703695774078369">
<ele>171</ele>
</trkpt>
<trkpt lat="44.128775596618652" lon="9.703974723815918">
<ele>170</ele>
</trkpt>
<trkpt lat="44.128689765930176" lon="9.70416784286499">
<ele>169</ele>
</trkpt>
<trkpt lat="44.128625392913818" lon="9.704382419586182">
<ele>169</ele>
</trkpt>
<trkpt lat="44.12858247756958" lon="9.70442533493042">
<ele>168</ele>
</trkpt>
<trkpt lat="44.128496646881104" lon="9.704489707946777">
<ele>168</ele>
</trkpt>
<trkpt lat="44.128432273864746" lon="9.704554080963135">
<ele>167</ele>
</trkpt>
<trkpt lat="44.128282070159912" lon="9.704618453979492">
<ele>166</ele>
</trkpt>
<trkpt lat="44.128110408782959" lon="9.704639911651611">
<ele>165</ele>
</trkpt>
<trkpt lat="44.128046035766602" lon="9.704661369323731">
<ele>164</ele>
</trkpt>
<trkpt lat="44.127981662750244" lon="9.704747200012207">
<ele>163</ele>
</trkpt>
<trkpt lat="44.127874374389648" lon="9.704811573028565">
<ele>162</ele>
</trkpt>
<trkpt lat="44.127724170684814" lon="9.704854488372803">
<ele>162</ele>
</trkpt>
<trkpt lat="44.12733793258667" lon="9.705197811126709">
<ele>161</ele>
</trkpt>
<trkpt lat="44.127144813537598" lon="9.705240726470947">
<ele>160</ele>
</trkpt>
<trkpt lat="44.127037525177002" lon="9.705197811126709">
<ele>159</ele>
</trkpt>
<trkpt lat="44.126694202423096" lon="9.705305099487305">
<ele>158</ele>
</trkpt>
<trkpt lat="44.126608371734619" lon="9.705348014831543">
<ele>155</ele>
</trkpt>
<trkpt lat="44.126543998718262" lon="9.705348014831543">
<ele>152</ele>
</trkpt>
<trkpt lat="44.126436710357666" lon="9.705369472503662">
<ele>150</ele>
</trkpt>
<trkpt lat="44.126307964324951" lon="9.705348014831543">
<ele>147</ele>
</trkpt>
<trkpt lat="44.126136302947998" lon="9.705348014831543">
<ele>144</ele>
</trkpt>
<trkpt lat="44.126050472259521" lon="9.705326557159424">
<ele>141</ele>
</trkpt>
<trkpt lat="44.125900268554687" lon="9.705305099487305">
<ele>138</ele>
</trkpt>
<trkpt lat="44.12559986114502" lon="9.705562591552734">
<ele>136</ele>
</trkpt>
<trkpt lat="44.1255784034729" lon="9.705626964569092">
<ele>133</ele>
</trkpt>
<trkpt lat="44.125535488128662" lon="9.705841541290283">
<ele>130</ele>
</trkpt>
<trkpt lat="44.12508487701416" lon="9.705970287322998">
<ele>128</ele>
</trkpt>
<trkpt lat="44.124999046325684" lon="9.706056118011475">
<ele>126</ele>
</trkpt>
<trkpt lat="44.124891757965088" lon="9.706270694732666">
<ele>124</ele>
</trkpt>
<trkpt lat="44.124763011932373" lon="9.706506729125977">
<ele>122</ele>
</trkpt>
<trkpt lat="44.124612808227539" lon="9.706614017486572">
<ele>120</ele>
</trkpt>
<trkpt lat="44.124526977539063" lon="9.706635475158691">
<ele>117</ele>
</trkpt>
<trkpt lat="44.124462604522705" lon="9.70667839050293">
<ele>115</ele>
</trkpt>
<trkpt lat="44.124376773834229" lon="9.706892967224121">
<ele>113</ele>
</trkpt>
<trkpt lat="44.124355316162109" lon="9.707129001617432">
<ele>111</ele>
</trkpt>
<trkpt lat="44.124355316162109" lon="9.707214832305908">
<ele>109</ele>
</trkpt>
<trkpt lat="44.124398231506348" lon="9.707300662994385">
<ele>110</ele>
</trkpt>
<trkpt lat="44.124548435211182" lon="9.707322120666504">
<ele>111</ele>
</trkpt>
<trkpt lat="44.124612808227539" lon="9.707343578338623">
<ele>112</ele>
</trkpt>
<trkpt lat="44.124634265899658" lon="9.707386493682861">
<ele>113</ele>
</trkpt>
<trkpt lat="44.124634265899658" lon="9.707536697387695">
<ele>114</ele>
</trkpt>
<trkpt lat="44.12459135055542" lon="9.707579612731934">
<ele>115</ele>
</trkpt>
<trkpt lat="44.124505519866943" lon="9.707643985748291">
<ele>114</ele>
</trkpt>
<trkpt lat="44.124205112457275" lon="9.70792293548584">
<ele>113</ele>
</trkpt>
<trkpt lat="44.124011993408203" lon="9.708051681518555">
<ele>112</ele>
</trkpt>
<trkpt lat="44.123775959014893" lon="9.708244800567627">
<ele>111</ele>
</trkpt>
<trkpt lat="44.12358283996582" lon="9.708437919616699">
<ele>110</ele>
</trkpt>
<trkpt lat="44.123389720916748" lon="9.70867395401001">
<ele>110</ele>
</trkpt>
<trkpt lat="44.123282432556152" lon="9.708845615386963">
<ele>109</ele>
</trkpt>
<trkpt lat="44.123132228851318" lon="9.708952903747559">
<ele>108</ele>
</trkpt>
<trkpt lat="44.12308931350708" lon="9.709038734436035">
<ele>107</ele>
</trkpt>
<trkpt lat="44.123067855834961" lon="9.709188938140869">
<ele>106</ele>
</trkpt>
<trkpt lat="44.123003482818604" lon="9.70942497253418">
<ele>107</ele>
</trkpt>
<trkpt lat="44.122960567474365" lon="9.709467887878418">
<ele>107</ele>
</trkpt>
<trkpt lat="44.122917652130127" lon="9.709596633911133">
<ele>108</ele>
</trkpt>
<trkpt lat="44.122703075408936" lon="9.709339141845703">
<ele>108</ele>
</trkpt>
<trkpt lat="44.122660160064697" lon="9.709339141845703">
<ele>109</ele>
</trkpt>
<trkpt lat="44.122590003535151" lon="9.70919874496758">
<ele>110</ele>
</trkpt>
<trkpt lat="44.122506435960531" lon="9.709080643951893">
<ele>110</ele>
</trkpt>
<trkpt lat="44.122417503967881" lon="9.708994729444385">
<ele>111</ele>
</trkpt>
<trkpt lat="44.122304348275065" lon="9.708855170756578">
<ele>111</ele>
</trkpt>
<trkpt lat="44.122199239209294" lon="9.708658279851079">
<ele>112</ele>
</trkpt>
<trkpt lat="44.122091447934508" lon="9.70845066010952">
<ele>112</ele>
</trkpt>
<trkpt lat="44.121929677203298" lon="9.708278831094503">
<ele>113</ele>
</trkpt>
<trkpt lat="44.121751813217998" lon="9.708096357062459">
<ele>114</ele>
</trkpt>
<trkpt lat="44.121598256751895" lon="9.707985380664468">
<ele>114</ele>
</trkpt>
<trkpt lat="44.121444616466761" lon="9.707903070375323">
<ele>114</ele>
</trkpt>
<trkpt lat="44.121309835463762" lon="9.707845821976662">
<ele>115</ele>
</trkpt>
<trkpt lat="44.121215539053082" lon="9.707838613539934">
<ele>116</ele>
</trkpt>
<trkpt lat="44.121121242642403" lon="9.707928132265806">
<ele>116</ele>
</trkpt>
<trkpt lat="44.121053852140903" lon="9.708074815571308">
<ele>116</ele>
</trkpt>
<trkpt lat="44.121016133576632" lon="9.708200125023723">
<ele>117</ele>
</trkpt>
<trkpt lat="44.120948743075132" lon="9.708457868546248">
<ele>117</ele>
</trkpt>
<trkpt lat="44.120902977883816" lon="9.708676133304834">
<ele>117</ele>
</trkpt>
<trkpt lat="44.120768196880817" lon="9.708783505484462">
<ele>117</ele>
</trkpt>
<trkpt lat="44.120590332895517" lon="9.708851566538215">
<ele>117</ele>
</trkpt>
<trkpt lat="44.120496036484838" lon="9.708865899592638">
<ele>118</ele>
</trkpt>
<trkpt lat="44.120380114763975" lon="9.708890961483121">
<ele>118</ele>
</trkpt>
<trkpt lat="44.12029922939837" lon="9.709016187116504">
<ele>118</ele>
</trkpt>
<trkpt lat="44.120256146416068" lon="9.709091372787952">
<ele>118</ele>
</trkpt>
<trkpt lat="44.120223792269826" lon="9.709170078858733">
<ele>118</ele>
</trkpt>
<trkpt lat="44.120149612426758" lon="9.70916748046875">
<ele>118</ele>
</trkpt>
<trkpt lat="44.120128154754639" lon="9.708974361419678">
<ele>117</ele>
</trkpt>
<trkpt lat="44.119999408721924" lon="9.708845615386963">
<ele>116</ele>
</trkpt>
<trkpt lat="44.120020866394043" lon="9.708716869354248">
<ele>116</ele>
</trkpt>
<trkpt lat="44.120020866394043" lon="9.708609580993652">
<ele>115</ele>
</trkpt>
<trkpt lat="44.119999408721924" lon="9.708502292633057">
<ele>114</ele>
</trkpt>
<trkpt lat="44.119977951049805" lon="9.708266258239746">
<ele>113</ele>
</trkpt>
<trkpt lat="44.119977951049805" lon="9.70818042755127">
<ele>112</ele>
</trkpt>
<trkpt lat="44.119999408721924" lon="9.707987308502197">
<ele>112</ele>
</trkpt>
<trkpt lat="44.119977951049805" lon="9.707880020141602">
<ele>111</ele>
</trkpt>
<trkpt lat="44.11984920501709" lon="9.707493782043457">
<ele>110</ele>
</trkpt>
<trkpt lat="44.119806289672852" lon="9.7074294090271">
<ele>106</ele>
</trkpt>
<trkpt lat="44.119720458984375" lon="9.707343578338623">
<ele>103</ele>
</trkpt>
<trkpt lat="44.119656085968018" lon="9.707257747650147">
<ele>99</ele>
</trkpt>
<trkpt lat="44.119527339935303" lon="9.706978797912598">
<ele>96</ele>
</trkpt>
<trkpt lat="44.119484424591064" lon="9.70691442489624">
<ele>92</ele>
</trkpt>
<trkpt lat="44.119527339935303" lon="9.706785678863525">
<ele>89</ele>
</trkpt>
<trkpt lat="44.119548797607422" lon="9.706785678863525">
<ele>85</ele>
</trkpt>
<trkpt lat="44.119527339935303" lon="9.706807136535645">
<ele>88</ele>
</trkpt>
<trkpt lat="44.119462966918945" lon="9.706828594207764">
<ele>92</ele>
</trkpt>
<trkpt lat="44.119505882263184" lon="9.706892967224121">
<ele>95</ele>
</trkpt>
<trkpt lat="44.119656085968018" lon="9.707257747650147">
<ele>99</ele>
</trkpt>
<trkpt lat="44.119720458984375" lon="9.707343578338623">
<ele>102</ele>
</trkpt>
<trkpt lat="44.119806289672852" lon="9.7074294090271">
<ele>105</ele>
</trkpt>
<trkpt lat="44.119827747344971" lon="9.707472324371338">
<ele>109</ele>
</trkpt>
<trkpt lat="44.119956493377686" lon="9.707880020141602">
<ele>112</ele>
</trkpt>
<trkpt lat="44.119999408721924" lon="9.707987308502197">
<ele>116</ele>
</trkpt>
<trkpt lat="44.119999408721924" lon="9.708094596862793">
<ele>119</ele>
</trkpt>
<trkpt lat="44.119977951049805" lon="9.708266258239746">
<ele>118</ele>
</trkpt>
<trkpt lat="44.119999408721924" lon="9.708395004272461">
<ele>117</ele>
</trkpt>
<trkpt lat="44.119999408721924" lon="9.708502292633057">
<ele>117</ele>
</trkpt>
<trkpt lat="44.120020866394043" lon="9.708716869354248">
<ele>116</ele>
</trkpt>
<trkpt lat="44.120128154754639" lon="9.708974361419678">
<ele>115</ele>
</trkpt>
<trkpt lat="44.120213985443115" lon="9.709038734436035">
<ele>114</ele>
</trkpt>
<trkpt lat="44.120149612426758" lon="9.70916748046875">
<ele>113</ele>
</trkpt>
<trkpt lat="44.120213985443115" lon="9.709188938140869">
<ele>113</ele>
</trkpt>
<trkpt lat="44.119999408721924" lon="9.709639549255371">
<ele>112</ele>
</trkpt>
<trkpt lat="44.119977951049805" lon="9.709746837615967">
<ele>111</ele>
</trkpt>
<trkpt lat="44.119984405115247" lon="9.709896873682737">
<ele>110</ele>
</trkpt>
<trkpt lat="44.119999408721924" lon="9.710047245025635">
<ele>108</ele>
</trkpt>
<trkpt lat="44.120063781738281" lon="9.710218906402588">
<ele>106</ele>
</trkpt>
<trkpt lat="44.120213985443115" lon="9.710369110107422">
<ele>105</ele>
</trkpt>
<trkpt lat="44.120321273803711" lon="9.71041202545166">
<ele>104</ele>
</trkpt>
<trkpt lat="44.120235443115234" lon="9.710733890533447">
<ele>102</ele>
</trkpt>
<trkpt lat="44.120171070098877" lon="9.710690975189209">
<ele>100</ele>
</trkpt>
<trkpt lat="44.120213985443115" lon="9.710776805877686">
<ele>99</ele>
</trkpt>
<trkpt lat="44.120192527770996" lon="9.710841178894043">
<ele>98</ele>
</trkpt>
<trkpt lat="44.120128154754639" lon="9.710776805877686">
<ele>96</ele>
</trkpt>
<trkpt lat="44.12010669708252" lon="9.710819721221924">
<ele>95</ele>
</trkpt>
<trkpt lat="44.120192527770996" lon="9.710884094238281">
<ele>95</ele>
</trkpt>
<trkpt lat="44.120192527770996" lon="9.71092700958252">
<ele>94</ele>
</trkpt>
<trkpt lat="44.120128154754639" lon="9.710862636566162">
<ele>93</ele>
</trkpt>
<trkpt lat="44.12010669708252" lon="9.71092700958252">
<ele>92</ele>
</trkpt>
<trkpt lat="44.120171070098877" lon="9.710948467254639">
<ele>92</ele>
</trkpt>
<trkpt lat="44.12010669708252" lon="9.710948467254639">
<ele>91</ele>
</trkpt>
<trkpt lat="44.120149612426758" lon="9.711012840270996">
<ele>90</ele>
</trkpt>
<trkpt lat="44.12010669708252" lon="9.710991382598877">
<ele>90</ele>
</trkpt>
<trkpt lat="44.1200852394104" lon="9.711034297943115">
<ele>89</ele>
</trkpt>
<trkpt lat="44.120128154754639" lon="9.711098670959473">
<ele>88</ele>
</trkpt>
<trkpt lat="44.1200852394104" lon="9.711055755615234">
<ele>87</ele>
</trkpt>
<trkpt lat="44.12010669708252" lon="9.711120128631592">
<ele>85</ele>
</trkpt>
<trkpt lat="44.120063781738281" lon="9.711077213287354">
<ele>84</ele>
</trkpt>
<trkpt lat="44.120042324066162" lon="9.711120128631592">
<ele>83</ele>
</trkpt>
<trkpt lat="44.1200852394104" lon="9.71116304397583">
<ele>82</ele>
</trkpt>
<trkpt lat="44.120042324066162" lon="9.711120128631592">
<ele>81</ele>
</trkpt>
<trkpt lat="44.120063781738281" lon="9.711184501647949">
<ele>79</ele>
</trkpt>
<trkpt lat="44.120020866394043" lon="9.71116304397583">
<ele>78</ele>
</trkpt>
<trkpt lat="44.120020866394043" lon="9.711227416992188">
<ele>77</ele>
</trkpt>
<trkpt lat="44.119977951049805" lon="9.711184501647949">
<ele>76</ele>
</trkpt>
<trkpt lat="44.119999408721924" lon="9.711248874664307">
<ele>74</ele>
</trkpt>
<trkpt lat="44.119956493377686" lon="9.711227416992188">
<ele>73</ele>
</trkpt>
<trkpt lat="44.119977951049805" lon="9.711291790008545">
<ele>72</ele>
</trkpt>
<trkpt lat="44.119935035705566" lon="9.711270332336426">
<ele>70</ele>
</trkpt>
<trkpt lat="44.119935035705566" lon="9.711334705352783">
<ele>69</ele>
</trkpt>
<trkpt lat="44.119892120361328" lon="9.711313247680664">
<ele>68</ele>
</trkpt>
<trkpt lat="44.119913578033447" lon="9.711377620697022">
<ele>67</ele>
</trkpt>
<trkpt lat="44.119870662689209" lon="9.711356163024902">
<ele>65</ele>
</trkpt>
<trkpt lat="44.119892120361328" lon="9.711399078369141">
<ele>64</ele>
</trkpt>
<trkpt lat="44.119870662689209" lon="9.711441993713379">
<ele>63</ele>
</trkpt>
<trkpt lat="44.11984920501709" lon="9.711399078369141">
<ele>61</ele>
</trkpt>
<trkpt lat="44.119870662689209" lon="9.711463451385498">
<ele>60</ele>
</trkpt>
<trkpt lat="44.119806289672852" lon="9.711441993713379">
<ele>58</ele>
</trkpt>
<trkpt lat="44.119806289672852" lon="9.711506366729736">
<ele>57</ele>
</trkpt>
<trkpt lat="44.119784832000732" lon="9.711549282073975">
<ele>56</ele>
</trkpt>
<trkpt lat="44.119656085968018" lon="9.711441993713379">
<ele>54</ele>
</trkpt>
<trkpt lat="44.119634628295898" lon="9.711506366729736">
<ele>53</ele>
</trkpt>
<trkpt lat="44.119720458984375" lon="9.711570739746094">
<ele>51</ele>
</trkpt>
<trkpt lat="44.119784832000732" lon="9.711635112762451">
<ele>50</ele>
</trkpt>
<trkpt lat="44.119784832000732" lon="9.71165657043457">
<ele>46</ele>
</trkpt>
<trkpt lat="44.119377136230469" lon="9.713115692138672">
<ele>41</ele>
</trkpt>
<trkpt lat="44.11909818649292" lon="9.714210033416748">
<ele>37</ele>
</trkpt>
<trkpt lat="44.118797779083252" lon="9.715647697448731">
<ele>33</ele>
</trkpt>
<trkpt lat="44.118733406066895" lon="9.715991020202637">
<ele>29</ele>
</trkpt>
<trkpt lat="44.118733406066895" lon="9.716055393218994">
<ele>24</ele>
</trkpt>
<trkpt lat="44.118711948394775" lon="9.716184139251709">
<ele>20</ele>
</trkpt>
</trkseg>
</trk>
</gpx>
