<?xml version="1.0" encoding="UTF-8"?>
<gpx version="1.1"
creator="Smartprofil XE - http://www.rother.de"
xmlns:xsi="http://www.w3.org/2001/XMLSchema-instance"
xmlns="http://www.topografix.com/GPX/1/1"
xsi:schemaLocation="http://www.topografix.com/GPX/1/1 http://www.topografix.com/GPX/1/1/gpx.xsd">
<metadata>
<copyright author="Bergverlag Rother GmbH" />
<link href="https://www.rother.de/"><text>Bergverlag Rother</text></link>
<keywords>Rother, Bergverlag, GPS, GPX, Wandern, Wanderführer</keywords>
<bounds minlat="44.456281866878271" minlon="9.222657680511475" maxlat="44.481325149536133" maxlon="9.250574111938477"/>
</metadata>
<wpt lat="44.472548961639404" lon="9.250016212463379">
<ele>926</ele>
<name>38_Passo della Scoglina (1)</name>
<cmt>Passo della Scoglina 920m</cmt>
<desc></desc>
<sym>Crossing</sym>
</wpt>

<wpt lat="44.466390609741211" lon="9.239158630371094">
<ele>980</ele>
<name>38_Passo Volta (2)</name>
<cmt></cmt>
<desc></desc>
<sym>Crossing</sym>
</wpt>

<wpt lat="44.458365440368652" lon="9.231240749359131">
<ele>1083</ele>
<name>38_Aquapendente (3)</name>
<cmt></cmt>
<desc></desc>
<sym>Crossing</sym>
</wpt>

<wpt lat="44.456281866878271" lon="9.225608864799142">
<ele>1250</ele>
<name>38_Monte Caucaso (4)</name>
<cmt>Monte Caucaso 1250m</cmt>
<desc></desc>
<sym>Crossing</sym>
</wpt>

<wpt lat="44.460639953613281" lon="9.226198196411133">
<ele>1170</ele>
<name>38_Bric della Guardia (5)</name>
<cmt></cmt>
<desc></desc>
<sym>Crossing</sym>
</wpt>

<wpt lat="44.464330673217773" lon="9.229674339294434">
<ele>1109</ele>
<name>38_Passo del Gabba (6)</name>
<cmt>Passo di Stre Biurche 1108m</cmt>
<desc></desc>
<sym>Crossing</sym>
</wpt>

<wpt lat="44.481325149536133" lon="9.24224853515625">
<ele>1096</ele>
<name>38_Barbagelata (7)</name>
<cmt></cmt>
<desc></desc>
<sym>Crossing</sym>
</wpt>

<trk>
<name>CinTe_38_Monte Caucaso</name><trkseg>
<trkpt lat="44.472548961639404" lon="9.250016212463379">
<ele>926</ele>
</trkpt>
<trkpt lat="44.472506046295166" lon="9.249715805053711">
<ele>929</ele>
</trkpt>
<trkpt lat="44.472506046295166" lon="9.249672889709473">
<ele>933</ele>
</trkpt>
<trkpt lat="44.472506046295166" lon="9.2494797706604">
<ele>936</ele>
</trkpt>
<trkpt lat="44.472570419311523" lon="9.248921871185303">
<ele>939</ele>
</trkpt>
<trkpt lat="44.472377300262451" lon="9.248707294464111">
<ele>942</ele>
</trkpt>
<trkpt lat="44.472119808197021" lon="9.248299598693848">
<ele>946</ele>
</trkpt>
<trkpt lat="44.472012519836426" lon="9.248085021972656">
<ele>949</ele>
</trkpt>
<trkpt lat="44.471926689147949" lon="9.248020648956299">
<ele>952</ele>
</trkpt>
<trkpt lat="44.471733570098877" lon="9.248042106628418">
<ele>956</ele>
</trkpt>
<trkpt lat="44.471390247344971" lon="9.247720241546631">
<ele>959</ele>
</trkpt>
<trkpt lat="44.471240043640137" lon="9.247334003448486">
<ele>959</ele>
</trkpt>
<trkpt lat="44.471175670623779" lon="9.247119426727295">
<ele>958</ele>
</trkpt>
<trkpt lat="44.471046924591064" lon="9.246883392333984">
<ele>958</ele>
</trkpt>
<trkpt lat="44.47089672088623" lon="9.246540069580078">
<ele>958</ele>
</trkpt>
<trkpt lat="44.470767974853516" lon="9.246325492858887">
<ele>958</ele>
</trkpt>
<trkpt lat="44.470725059509277" lon="9.246153831481934">
<ele>957</ele>
</trkpt>
<trkpt lat="44.470789432525635" lon="9.2460036277771">
<ele>957</ele>
</trkpt>
<trkpt lat="44.470810890197754" lon="9.245874881744385">
<ele>957</ele>
</trkpt>
<trkpt lat="44.470767974853516" lon="9.245510101318359">
<ele>956</ele>
</trkpt>
<trkpt lat="44.470639228820801" lon="9.245188236236572">
<ele>956</ele>
</trkpt>
<trkpt lat="44.470381736755371" lon="9.244844913482666">
<ele>957</ele>
</trkpt>
<trkpt lat="44.470016956329346" lon="9.244544506072998">
<ele>958</ele>
</trkpt>
<trkpt lat="44.469802379608154" lon="9.243879318237305">
<ele>960</ele>
</trkpt>
<trkpt lat="44.469823837280273" lon="9.242892265319824">
<ele>961</ele>
</trkpt>
<trkpt lat="44.46965217590332" lon="9.24250602722168">
<ele>962</ele>
</trkpt>
<trkpt lat="44.469480514526367" lon="9.241905212402344">
<ele>963</ele>
</trkpt>
<trkpt lat="44.469244480133057" lon="9.241433143615723">
<ele>964</ele>
</trkpt>
<trkpt lat="44.468879699707031" lon="9.240832328796387">
<ele>966</ele>
</trkpt>
<trkpt lat="44.46866512298584" lon="9.240531921386719">
<ele>967</ele>
</trkpt>
<trkpt lat="44.468620950356126" lon="9.240448605269194">
<ele>968</ele>
</trkpt>
<trkpt lat="44.468472003936768" lon="9.240167140960693">
<ele>969</ele>
</trkpt>
<trkpt lat="44.468128681182861" lon="9.239566326141357">
<ele>970</ele>
</trkpt>
<trkpt lat="44.468064308166504" lon="9.239394664764404">
<ele>971</ele>
</trkpt>
<trkpt lat="44.468021392822266" lon="9.239201545715332">
<ele>972</ele>
</trkpt>
<trkpt lat="44.46791410446167" lon="9.239115715026856">
<ele>973</ele>
</trkpt>
<trkpt lat="44.467763900756836" lon="9.239158630371094">
<ele>974</ele>
</trkpt>
<trkpt lat="44.467613697052002" lon="9.239308834075928">
<ele>974</ele>
</trkpt>
<trkpt lat="44.467442035675049" lon="9.239394664764404">
<ele>975</ele>
</trkpt>
<trkpt lat="44.467248916625977" lon="9.239437580108643">
<ele>976</ele>
</trkpt>
<trkpt lat="44.467120170593262" lon="9.239287376403809">
<ele>977</ele>
</trkpt>
<trkpt lat="44.466862678527832" lon="9.239223003387451">
<ele>978</ele>
</trkpt>
<trkpt lat="44.466583728790283" lon="9.239137172698975">
<ele>979</ele>
</trkpt>
<trkpt lat="44.466390609741211" lon="9.239158630371094">
<ele>980</ele>
</trkpt>
<trkpt lat="44.466304779052734" lon="9.23900842666626">
<ele>980</ele>
</trkpt>
<trkpt lat="44.466304779052734" lon="9.238858222961426">
<ele>981</ele>
</trkpt>
<trkpt lat="44.466261863708496" lon="9.238793849945068">
<ele>982</ele>
</trkpt>
<trkpt lat="44.466197490692139" lon="9.238686561584473">
<ele>982</ele>
</trkpt>
<trkpt lat="44.466047286987305" lon="9.238600730895996">
<ele>982</ele>
</trkpt>
<trkpt lat="44.466004371643066" lon="9.238579273223877">
<ele>983</ele>
</trkpt>
<trkpt lat="44.465832710266113" lon="9.238386154174805">
<ele>984</ele>
</trkpt>
<trkpt lat="44.465725421905518" lon="9.238407611846924">
<ele>984</ele>
</trkpt>
<trkpt lat="44.465682506561279" lon="9.238407611846924">
<ele>984</ele>
</trkpt>
<trkpt lat="44.465618133544922" lon="9.238386154174805">
<ele>985</ele>
</trkpt>
<trkpt lat="44.465510845184326" lon="9.238386154174805">
<ele>986</ele>
</trkpt>
<trkpt lat="44.465382099151611" lon="9.238471984863281">
<ele>987</ele>
</trkpt>
<trkpt lat="44.465253353118896" lon="9.238386154174805">
<ele>988</ele>
</trkpt>
<trkpt lat="44.465146064758301" lon="9.23825740814209">
<ele>989</ele>
</trkpt>
<trkpt lat="44.465017318725586" lon="9.238042831420898">
<ele>990</ele>
</trkpt>
<trkpt lat="44.464888572692871" lon="9.237957000732422">
<ele>990</ele>
</trkpt>
<trkpt lat="44.464802742004395" lon="9.237849712371826">
<ele>991</ele>
</trkpt>
<trkpt lat="44.464695453643799" lon="9.237742424011231">
<ele>992</ele>
</trkpt>
<trkpt lat="44.464502334594727" lon="9.237527847290039">
<ele>993</ele>
</trkpt>
<trkpt lat="44.464373588562012" lon="9.237484931945801">
<ele>994</ele>
</trkpt>
<trkpt lat="44.464180469512939" lon="9.237377643585205">
<ele>995</ele>
</trkpt>
<trkpt lat="44.464008808135986" lon="9.237377643585205">
<ele>996</ele>
</trkpt>
<trkpt lat="44.463815689086914" lon="9.237334728240967">
<ele>997</ele>
</trkpt>
<trkpt lat="44.463686943054199" lon="9.237313270568848">
<ele>998</ele>
</trkpt>
<trkpt lat="44.463493824005127" lon="9.23724889755249">
<ele>998</ele>
</trkpt>
<trkpt lat="44.46342945098877" lon="9.237141609191895">
<ele>999</ele>
</trkpt>
<trkpt lat="44.463322162628174" lon="9.237034320831299">
<ele>1000</ele>
</trkpt>
<trkpt lat="44.463214874267578" lon="9.236862659454346">
<ele>1001</ele>
</trkpt>
<trkpt lat="44.46317195892334" lon="9.236626625061035">
<ele>1002</ele>
</trkpt>
<trkpt lat="44.463150501251221" lon="9.236454963684082">
<ele>1003</ele>
</trkpt>
<trkpt lat="44.463021755218506" lon="9.236433506011963">
<ele>1006</ele>
</trkpt>
<trkpt lat="44.462742805480957" lon="9.236240386962891">
<ele>1009</ele>
</trkpt>
<trkpt lat="44.462549686431885" lon="9.236047267913818">
<ele>1012</ele>
</trkpt>
<trkpt lat="44.462399482727051" lon="9.235961437225342">
<ele>1015</ele>
</trkpt>
<trkpt lat="44.462184906005859" lon="9.235875606536865">
<ele>1018</ele>
</trkpt>
<trkpt lat="44.461884498596191" lon="9.235703945159912">
<ele>1021</ele>
</trkpt>
<trkpt lat="44.461669921875" lon="9.235467910766602">
<ele>1024</ele>
</trkpt>
<trkpt lat="44.461476802825928" lon="9.235339164733887">
<ele>1027</ele>
</trkpt>
<trkpt lat="44.461305141448975" lon="9.235317707061768">
<ele>1030</ele>
</trkpt>
<trkpt lat="44.461004734039307" lon="9.235103130340576">
<ele>1033</ele>
</trkpt>
<trkpt lat="44.46091890335083" lon="9.234974384307861">
<ele>1036</ele>
</trkpt>
<trkpt lat="44.460833072662354" lon="9.234910011291504">
<ele>1038</ele>
</trkpt>
<trkpt lat="44.46068286895752" lon="9.234845638275147">
<ele>1040</ele>
</trkpt>
<trkpt lat="44.460554122924805" lon="9.234867095947266">
<ele>1043</ele>
</trkpt>
<trkpt lat="44.460446834564209" lon="9.234867095947266">
<ele>1046</ele>
</trkpt>
<trkpt lat="44.460296630859375" lon="9.234781265258789">
<ele>1048</ele>
</trkpt>
<trkpt lat="44.460146427154541" lon="9.234631061553955">
<ele>1050</ele>
</trkpt>
<trkpt lat="44.459996223449707" lon="9.234545230865479">
<ele>1053</ele>
</trkpt>
<trkpt lat="44.459846019744873" lon="9.234523773193359">
<ele>1056</ele>
</trkpt>
<trkpt lat="44.459717273712158" lon="9.234459400177002">
<ele>1058</ele>
</trkpt>
<trkpt lat="44.459588527679443" lon="9.234437942504883">
<ele>1056</ele>
</trkpt>
<trkpt lat="44.459502696990967" lon="9.234416484832764">
<ele>1053</ele>
</trkpt>
<trkpt lat="44.459395408630371" lon="9.234158992767334">
<ele>1051</ele>
</trkpt>
<trkpt lat="44.459309577941895" lon="9.234094619750977">
<ele>1049</ele>
</trkpt>
<trkpt lat="44.45918083190918" lon="9.234073162078857">
<ele>1046</ele>
</trkpt>
<trkpt lat="44.459052085876465" lon="9.233965873718262">
<ele>1044</ele>
</trkpt>
<trkpt lat="44.458794593811035" lon="9.233880043029785">
<ele>1042</ele>
</trkpt>
<trkpt lat="44.458644390106201" lon="9.233794212341309">
<ele>1040</ele>
</trkpt>
<trkpt lat="44.458451271057129" lon="9.233729839324951">
<ele>1037</ele>
</trkpt>
<trkpt lat="44.458301067352295" lon="9.233622550964356">
<ele>1035</ele>
</trkpt>
<trkpt lat="44.458279609680176" lon="9.233493804931641">
<ele>1041</ele>
</trkpt>
<trkpt lat="44.458365440368652" lon="9.233343601226807">
<ele>1046</ele>
</trkpt>
<trkpt lat="44.45866584777832" lon="9.233193397521973">
<ele>1052</ele>
</trkpt>
<trkpt lat="44.458730220794678" lon="9.233086109161377">
<ele>1058</ele>
</trkpt>
<trkpt lat="44.458751678466797" lon="9.232957363128662">
<ele>1064</ele>
</trkpt>
<trkpt lat="44.458708763122559" lon="9.232807159423828">
<ele>1069</ele>
</trkpt>
<trkpt lat="44.458730220794678" lon="9.232721328735352">
<ele>1075</ele>
</trkpt>
<trkpt lat="44.458794593811035" lon="9.232656955718994">
<ele>1081</ele>
</trkpt>
<trkpt lat="44.458837509155273" lon="9.23250675201416">
<ele>1086</ele>
</trkpt>
<trkpt lat="44.45892333984375" lon="9.232356548309326">
<ele>1092</ele>
</trkpt>
<trkpt lat="44.458987712860107" lon="9.23227071762085">
<ele>1091</ele>
</trkpt>
<trkpt lat="44.458966255187988" lon="9.232206344604492">
<ele>1091</ele>
</trkpt>
<trkpt lat="44.459039596840739" lon="9.231688678264618">
<ele>1090</ele>
</trkpt>
<trkpt lat="44.459073543548584" lon="9.231455326080322">
<ele>1089</ele>
</trkpt>
<trkpt lat="44.459073543548584" lon="9.231305122375488">
<ele>1089</ele>
</trkpt>
<trkpt lat="44.459009170532227" lon="9.231305122375488">
<ele>1088</ele>
</trkpt>
<trkpt lat="44.458880424499512" lon="9.231390953063965">
<ele>1088</ele>
</trkpt>
<trkpt lat="44.458794593811035" lon="9.231498241424561">
<ele>1087</ele>
</trkpt>
<trkpt lat="44.458622932434082" lon="9.231648445129395">
<ele>1086</ele>
</trkpt>
<trkpt lat="44.458537101745605" lon="9.231626987457275">
<ele>1086</ele>
</trkpt>
<trkpt lat="44.458472728729248" lon="9.231626987457275">
<ele>1085</ele>
</trkpt>
<trkpt lat="44.458386898040771" lon="9.231562614440918">
<ele>1084</ele>
</trkpt>
<trkpt lat="44.458386898040771" lon="9.231433868408203">
<ele>1084</ele>
</trkpt>
<trkpt lat="44.458365440368652" lon="9.231240749359131">
<ele>1083</ele>
</trkpt>
<trkpt lat="44.458687305450439" lon="9.231154918670654">
<ele>1086</ele>
</trkpt>
<trkpt lat="44.458773136138916" lon="9.23100471496582">
<ele>1088</ele>
</trkpt>
<trkpt lat="44.458816051483154" lon="9.230897426605225">
<ele>1091</ele>
</trkpt>
<trkpt lat="44.458858966827393" lon="9.230639934539795">
<ele>1093</ele>
</trkpt>
<trkpt lat="44.458901882171631" lon="9.230618476867676">
<ele>1096</ele>
</trkpt>
<trkpt lat="44.45892333984375" lon="9.230554103851318">
<ele>1099</ele>
</trkpt>
<trkpt lat="44.45892333984375" lon="9.230425357818604">
<ele>1101</ele>
</trkpt>
<trkpt lat="44.458987712860107" lon="9.230318069458008">
<ele>1104</ele>
</trkpt>
<trkpt lat="44.459009170532227" lon="9.23027515411377">
<ele>1106</ele>
</trkpt>
<trkpt lat="44.458987712860107" lon="9.230103492736816">
<ele>1109</ele>
</trkpt>
<trkpt lat="44.459030628204346" lon="9.230082035064697">
<ele>1112</ele>
</trkpt>
<trkpt lat="44.459052085876465" lon="9.230039119720459">
<ele>1115</ele>
</trkpt>
<trkpt lat="44.458966255187988" lon="9.229931831359863">
<ele>1118</ele>
</trkpt>
<trkpt lat="44.458901882171631" lon="9.229910373687744">
<ele>1121</ele>
</trkpt>
<trkpt lat="44.458944797515869" lon="9.229738712310791">
<ele>1124</ele>
</trkpt>
<trkpt lat="44.458880424499512" lon="9.229674339294434">
<ele>1127</ele>
</trkpt>
<trkpt lat="44.458837509155273" lon="9.229695796966553">
<ele>1130</ele>
</trkpt>
<trkpt lat="44.458751678466797" lon="9.229674339294434">
<ele>1133</ele>
</trkpt>
<trkpt lat="44.458708763122559" lon="9.229631423950195">
<ele>1136</ele>
</trkpt>
<trkpt lat="44.458580017089844" lon="9.229631423950195">
<ele>1139</ele>
</trkpt>
<trkpt lat="44.458472728729248" lon="9.229567050933838">
<ele>1142</ele>
</trkpt>
<trkpt lat="44.458408355712891" lon="9.229588508605957">
<ele>1145</ele>
</trkpt>
<trkpt lat="44.458365440368652" lon="9.229567050933838">
<ele>1149</ele>
</trkpt>
<trkpt lat="44.458343982696533" lon="9.2295241355896">
<ele>1152</ele>
</trkpt>
<trkpt lat="44.45817232131958" lon="9.229373931884766">
<ele>1155</ele>
</trkpt>
<trkpt lat="44.45817232131958" lon="9.229288101196289">
<ele>1158</ele>
</trkpt>
<trkpt lat="44.458129405975342" lon="9.229245185852051">
<ele>1161</ele>
</trkpt>
<trkpt lat="44.458065032958984" lon="9.229094982147217">
<ele>1165</ele>
</trkpt>
<trkpt lat="44.458000659942627" lon="9.229073524475098">
<ele>1168</ele>
</trkpt>
<trkpt lat="44.457957744598389" lon="9.229030609130859">
<ele>1171</ele>
</trkpt>
<trkpt lat="44.457893371582031" lon="9.228923320770264">
<ele>1174</ele>
</trkpt>
<trkpt lat="44.457828998565674" lon="9.228837490081787">
<ele>1178</ele>
</trkpt>
<trkpt lat="44.457786083221436" lon="9.228816032409668">
<ele>1181</ele>
</trkpt>
<trkpt lat="44.457764625549316" lon="9.228665828704834">
<ele>1185</ele>
</trkpt>
<trkpt lat="44.45767879486084" lon="9.228622913360596">
<ele>1188</ele>
</trkpt>
<trkpt lat="44.457635879516602" lon="9.228494167327881">
<ele>1191</ele>
</trkpt>
<trkpt lat="44.457635879516602" lon="9.228365421295166">
<ele>1195</ele>
</trkpt>
<trkpt lat="44.457592964172363" lon="9.228322505950928">
<ele>1198</ele>
</trkpt>
<trkpt lat="44.457614421844482" lon="9.228193759918213">
<ele>1202</ele>
</trkpt>
<trkpt lat="44.457571506500244" lon="9.228107929229736">
<ele>1205</ele>
</trkpt>
<trkpt lat="44.457614421844482" lon="9.228086471557617">
<ele>1208</ele>
</trkpt>
<trkpt lat="44.457550048828125" lon="9.227957725524902">
<ele>1210</ele>
</trkpt>
<trkpt lat="44.457528591156006" lon="9.227893352508545">
<ele>1212</ele>
</trkpt>
<trkpt lat="44.457485675811768" lon="9.227871894836426">
<ele>1215</ele>
</trkpt>
<trkpt lat="44.457399845123291" lon="9.227786064147949">
<ele>1218</ele>
</trkpt>
<trkpt lat="44.457271099090576" lon="9.227678775787354">
<ele>1220</ele>
</trkpt>
<trkpt lat="44.457228183746338" lon="9.227592945098877">
<ele>1222</ele>
</trkpt>
<trkpt lat="44.45716381072998" lon="9.22752857208252">
<ele>1225</ele>
</trkpt>
<trkpt lat="44.456949234008789" lon="9.227464199066162">
<ele>1228</ele>
</trkpt>
<trkpt lat="44.456906318664551" lon="9.2275071144104">
<ele>1230</ele>
</trkpt>
<trkpt lat="44.456884860992432" lon="9.227421283721924">
<ele>1231</ele>
</trkpt>
<trkpt lat="44.456820487976074" lon="9.227421283721924">
<ele>1233</ele>
</trkpt>
<trkpt lat="44.456777572631836" lon="9.227399826049805">
<ele>1234</ele>
</trkpt>
<trkpt lat="44.456691741943359" lon="9.227292537689209">
<ele>1236</ele>
</trkpt>
<trkpt lat="44.456562995910645" lon="9.227099418640137">
<ele>1237</ele>
</trkpt>
<trkpt lat="44.456498622894287" lon="9.227056503295898">
<ele>1239</ele>
</trkpt>
<trkpt lat="44.456412792205811" lon="9.22701358795166">
<ele>1240</ele>
</trkpt>
<trkpt lat="44.456391334533691" lon="9.226970672607422">
<ele>1241</ele>
</trkpt>
<trkpt lat="44.456305503845215" lon="9.226841926574707">
<ele>1243</ele>
</trkpt>
<trkpt lat="44.456348419189453" lon="9.22652006149292">
<ele>1244</ele>
</trkpt>
<trkpt lat="44.456326961517334" lon="9.226305484771729">
<ele>1246</ele>
</trkpt>
<trkpt lat="44.456305503845215" lon="9.226176738739014">
<ele>1247</ele>
</trkpt>
<trkpt lat="44.456284046173096" lon="9.225790500640869">
<ele>1249</ele>
</trkpt>
<trkpt lat="44.456281866878271" lon="9.225608864799142">
<ele>1250</ele>
</trkpt>
<trkpt lat="44.456305503845215" lon="9.225447177886963">
<ele>1247</ele>
</trkpt>
<trkpt lat="44.456326961517334" lon="9.225361347198486">
<ele>1244</ele>
</trkpt>
<trkpt lat="44.456391334533691" lon="9.225254058837891">
<ele>1242</ele>
</trkpt>
<trkpt lat="44.456498622894287" lon="9.225103855133057">
<ele>1239</ele>
</trkpt>
<trkpt lat="44.456541538238525" lon="9.225039482116699">
<ele>1236</ele>
</trkpt>
<trkpt lat="44.456584453582764" lon="9.224932193756104">
<ele>1233</ele>
</trkpt>
<trkpt lat="44.456627368927002" lon="9.22478199005127">
<ele>1230</ele>
</trkpt>
<trkpt lat="44.456627368927002" lon="9.224588871002197">
<ele>1228</ele>
</trkpt>
<trkpt lat="44.456691741943359" lon="9.224545955657959">
<ele>1225</ele>
</trkpt>
<trkpt lat="44.456691741943359" lon="9.224352836608887">
<ele>1222</ele>
</trkpt>
<trkpt lat="44.456713199615479" lon="9.224309921264648">
<ele>1222</ele>
</trkpt>
<trkpt lat="44.456756114959717" lon="9.224009513854981">
<ele>1221</ele>
</trkpt>
<trkpt lat="44.456799030303955" lon="9.223794937133789">
<ele>1221</ele>
</trkpt>
<trkpt lat="44.456906318664551" lon="9.223387241363525">
<ele>1221</ele>
</trkpt>
<trkpt lat="44.457056522369385" lon="9.223065376281738">
<ele>1220</ele>
</trkpt>
<trkpt lat="44.457142353057861" lon="9.222936630249023">
<ele>1220</ele>
</trkpt>
<trkpt lat="44.4571852684021" lon="9.222893714904785">
<ele>1220</ele>
</trkpt>
<trkpt lat="44.457314014434814" lon="9.22276496887207">
<ele>1220</ele>
</trkpt>
<trkpt lat="44.45742130279541" lon="9.222700595855713">
<ele>1219</ele>
</trkpt>
<trkpt lat="44.457571506500244" lon="9.222657680511475">
<ele>1219</ele>
</trkpt>
<trkpt lat="44.457657337188721" lon="9.222679138183594">
<ele>1219</ele>
</trkpt>
<trkpt lat="44.457828998565674" lon="9.222657680511475">
<ele>1219</ele>
</trkpt>
<trkpt lat="44.457979202270508" lon="9.222722053527832">
<ele>1218</ele>
</trkpt>
<trkpt lat="44.458065032958984" lon="9.222722053527832">
<ele>1218</ele>
</trkpt>
<trkpt lat="44.458236694335938" lon="9.22276496887207">
<ele>1218</ele>
</trkpt>
<trkpt lat="44.458365440368652" lon="9.22278642654419">
<ele>1218</ele>
</trkpt>
<trkpt lat="44.458451271057129" lon="9.22276496887207">
<ele>1218</ele>
</trkpt>
<trkpt lat="44.458601474761963" lon="9.222807884216309">
<ele>1217</ele>
</trkpt>
<trkpt lat="44.458858966827393" lon="9.222893714904785">
<ele>1217</ele>
</trkpt>
<trkpt lat="44.458944797515869" lon="9.222958087921143">
<ele>1217</ele>
</trkpt>
<trkpt lat="44.459095001220703" lon="9.223086833953857">
<ele>1215</ele>
</trkpt>
<trkpt lat="44.459223747253418" lon="9.223237037658691">
<ele>1214</ele>
</trkpt>
<trkpt lat="44.459352493286133" lon="9.223344326019287">
<ele>1212</ele>
</trkpt>
<trkpt lat="44.45941686630249" lon="9.223494529724121">
<ele>1210</ele>
</trkpt>
<trkpt lat="44.459524154663086" lon="9.223644733428955">
<ele>1208</ele>
</trkpt>
<trkpt lat="44.459545612335205" lon="9.223794937133789">
<ele>1207</ele>
</trkpt>
<trkpt lat="44.459545612335205" lon="9.223923683166504">
<ele>1205</ele>
</trkpt>
<trkpt lat="44.459609985351563" lon="9.224052429199219">
<ele>1203</ele>
</trkpt>
<trkpt lat="44.459738731384277" lon="9.22426700592041">
<ele>1202</ele>
</trkpt>
<trkpt lat="44.459760189056396" lon="9.224395751953125">
<ele>1200</ele>
</trkpt>
<trkpt lat="44.459867477416992" lon="9.224610328674316">
<ele>1197</ele>
</trkpt>
<trkpt lat="44.459888935089111" lon="9.22478199005127">
<ele>1194</ele>
</trkpt>
<trkpt lat="44.460082054138184" lon="9.224975109100342">
<ele>1191</ele>
</trkpt>
<trkpt lat="44.460103511810303" lon="9.225103855133057">
<ele>1188</ele>
</trkpt>
<trkpt lat="44.460146427154541" lon="9.225211143493652">
<ele>1185</ele>
</trkpt>
<trkpt lat="44.460339546203613" lon="9.225404262542725">
<ele>1182</ele>
</trkpt>
<trkpt lat="44.460361003875732" lon="9.225490093231201">
<ele>1179</ele>
</trkpt>
<trkpt lat="44.460446834564209" lon="9.225833415985107">
<ele>1176</ele>
</trkpt>
<trkpt lat="44.460639953613281" lon="9.226112365722656">
<ele>1173</ele>
</trkpt>
<trkpt lat="44.460639953613281" lon="9.226198196411133">
<ele>1170</ele>
</trkpt>
<trkpt lat="44.460704326629639" lon="9.226284027099609">
<ele>1169</ele>
</trkpt>
<trkpt lat="44.460768699645996" lon="9.226391315460205">
<ele>1167</ele>
</trkpt>
<trkpt lat="44.460854530334473" lon="9.226477146148682">
<ele>1166</ele>
</trkpt>
<trkpt lat="44.461090564727783" lon="9.226562976837158">
<ele>1164</ele>
</trkpt>
<trkpt lat="44.46117639541626" lon="9.226605892181397">
<ele>1163</ele>
</trkpt>
<trkpt lat="44.461348056793213" lon="9.226648807525635">
<ele>1162</ele>
</trkpt>
<trkpt lat="44.461433887481689" lon="9.226605892181397">
<ele>1160</ele>
</trkpt>
<trkpt lat="44.461498260498047" lon="9.226648807525635">
<ele>1159</ele>
</trkpt>
<trkpt lat="44.461541175842285" lon="9.226734638214111">
<ele>1157</ele>
</trkpt>
<trkpt lat="44.461669921875" lon="9.226820468902588">
<ele>1156</ele>
</trkpt>
<trkpt lat="44.461755752563477" lon="9.226949214935303">
<ele>1156</ele>
</trkpt>
<trkpt lat="44.461798667907715" lon="9.227077960968018">
<ele>1156</ele>
</trkpt>
<trkpt lat="44.461863040924072" lon="9.227249622344971">
<ele>1157</ele>
</trkpt>
<trkpt lat="44.461905956268311" lon="9.227442741394043">
<ele>1157</ele>
</trkpt>
<trkpt lat="44.462013244628906" lon="9.227743148803711">
<ele>1157</ele>
</trkpt>
<trkpt lat="44.462056159973145" lon="9.227850437164307">
<ele>1157</ele>
</trkpt>
<trkpt lat="44.462141990661621" lon="9.227914810180664">
<ele>1157</ele>
</trkpt>
<trkpt lat="44.462206363677979" lon="9.227979183197022">
<ele>1158</ele>
</trkpt>
<trkpt lat="44.462292194366455" lon="9.228386878967285">
<ele>1158</ele>
</trkpt>
<trkpt lat="44.462335109710693" lon="9.228537082672119">
<ele>1158</ele>
</trkpt>
<trkpt lat="44.462463855743408" lon="9.228751659393311">
<ele>1156</ele>
</trkpt>
<trkpt lat="44.462571144104004" lon="9.228816032409668">
<ele>1153</ele>
</trkpt>
<trkpt lat="44.46265697479248" lon="9.228837490081787">
<ele>1151</ele>
</trkpt>
<trkpt lat="44.462742805480957" lon="9.228923320770264">
<ele>1148</ele>
</trkpt>
<trkpt lat="44.462828636169434" lon="9.228923320770264">
<ele>1146</ele>
</trkpt>
<trkpt lat="44.462978839874268" lon="9.228966236114502">
<ele>1144</ele>
</trkpt>
<trkpt lat="44.463193416595459" lon="9.228880405426025">
<ele>1141</ele>
</trkpt>
<trkpt lat="44.463279247283936" lon="9.228923320770264">
<ele>1139</ele>
</trkpt>
<trkpt lat="44.463365077972412" lon="9.228923320770264">
<ele>1136</ele>
</trkpt>
<trkpt lat="44.46342945098877" lon="9.228901863098145">
<ele>1134</ele>
</trkpt>
<trkpt lat="44.463515281677246" lon="9.228923320770264">
<ele>1132</ele>
</trkpt>
<trkpt lat="44.463601112365723" lon="9.228901863098145">
<ele>1129</ele>
</trkpt>
<trkpt lat="44.463644027709961" lon="9.228923320770264">
<ele>1127</ele>
</trkpt>
<trkpt lat="44.463837146759033" lon="9.229073524475098">
<ele>1125</ele>
</trkpt>
<trkpt lat="44.463880062103271" lon="9.229180812835693">
<ele>1123</ele>
</trkpt>
<trkpt lat="44.463965892791748" lon="9.229309558868408">
<ele>1120</ele>
</trkpt>
<trkpt lat="44.464030265808105" lon="9.229416847229004">
<ele>1118</ele>
</trkpt>
<trkpt lat="44.46415901184082" lon="9.229502677917481">
<ele>1116</ele>
</trkpt>
<trkpt lat="44.464201927185059" lon="9.229609966278076">
<ele>1114</ele>
</trkpt>
<trkpt lat="44.464287757873535" lon="9.229609966278076">
<ele>1111</ele>
</trkpt>
<trkpt lat="44.464330673217773" lon="9.229674339294434">
<ele>1109</ele>
</trkpt>
<trkpt lat="44.464437961578369" lon="9.229738712310791">
<ele>1108</ele>
</trkpt>
<trkpt lat="44.464631080627441" lon="9.229953289031982">
<ele>1108</ele>
</trkpt>
<trkpt lat="44.464888572692871" lon="9.230082035064697">
<ele>1107</ele>
</trkpt>
<trkpt lat="44.464952945709229" lon="9.230146408081055">
<ele>1107</ele>
</trkpt>
<trkpt lat="44.465060234069824" lon="9.230167865753174">
<ele>1106</ele>
</trkpt>
<trkpt lat="44.465103149414063" lon="9.230146408081055">
<ele>1105</ele>
</trkpt>
<trkpt lat="44.465188980102539" lon="9.230167865753174">
<ele>1105</ele>
</trkpt>
<trkpt lat="44.46540355682373" lon="9.230232238769531">
<ele>1104</ele>
</trkpt>
<trkpt lat="44.465446472167969" lon="9.230296611785889">
<ele>1104</ele>
</trkpt>
<trkpt lat="44.465596675872803" lon="9.230360984802246">
<ele>1103</ele>
</trkpt>
<trkpt lat="44.465682506561279" lon="9.230425357818604">
<ele>1103</ele>
</trkpt>
<trkpt lat="44.465746879577637" lon="9.23051118850708">
<ele>1102</ele>
</trkpt>
<trkpt lat="44.465811252593994" lon="9.230618476867676">
<ele>1102</ele>
</trkpt>
<trkpt lat="44.465875625610352" lon="9.230704307556152">
<ele>1101</ele>
</trkpt>
<trkpt lat="44.466004371643066" lon="9.230790138244629">
<ele>1101</ele>
</trkpt>
<trkpt lat="44.466133117675781" lon="9.230897426605225">
<ele>1101</ele>
</trkpt>
<trkpt lat="44.466218948364258" lon="9.23100471496582">
<ele>1100</ele>
</trkpt>
<trkpt lat="44.466326236724854" lon="9.231112003326416">
<ele>1100</ele>
</trkpt>
<trkpt lat="44.46641206741333" lon="9.231133460998535">
<ele>1099</ele>
</trkpt>
<trkpt lat="44.466540813446045" lon="9.231133460998535">
<ele>1099</ele>
</trkpt>
<trkpt lat="44.46666955947876" lon="9.23126220703125">
<ele>1101</ele>
</trkpt>
<trkpt lat="44.466798305511475" lon="9.231326580047607">
<ele>1103</ele>
</trkpt>
<trkpt lat="44.466884136199951" lon="9.231433868408203">
<ele>1105</ele>
</trkpt>
<trkpt lat="44.466991424560547" lon="9.231605529785156">
<ele>1107</ele>
</trkpt>
<trkpt lat="44.467012882232666" lon="9.231712818145752">
<ele>1110</ele>
</trkpt>
<trkpt lat="44.467141628265381" lon="9.231948852539063">
<ele>1112</ele>
</trkpt>
<trkpt lat="44.467248916625977" lon="9.232034683227539">
<ele>1114</ele>
</trkpt>
<trkpt lat="44.467334747314453" lon="9.232184886932373">
<ele>1116</ele>
</trkpt>
<trkpt lat="44.467570781707764" lon="9.232356548309326">
<ele>1118</ele>
</trkpt>
<trkpt lat="44.467699527740479" lon="9.232571125030518">
<ele>1120</ele>
</trkpt>
<trkpt lat="44.467828273773193" lon="9.23276424407959">
<ele>1117</ele>
</trkpt>
<trkpt lat="44.467957019805908" lon="9.232850074768066">
<ele>1113</ele>
</trkpt>
<trkpt lat="44.468085765838623" lon="9.232871532440186">
<ele>1110</ele>
</trkpt>
<trkpt lat="44.4681715965271" lon="9.232850074768066">
<ele>1106</ele>
</trkpt>
<trkpt lat="44.468321800231934" lon="9.232871532440186">
<ele>1103</ele>
</trkpt>
<trkpt lat="44.468386173248291" lon="9.232828617095947">
<ele>1100</ele>
</trkpt>
<trkpt lat="44.468579292297363" lon="9.232828617095947">
<ele>1096</ele>
</trkpt>
<trkpt lat="44.468643665313721" lon="9.232807159423828">
<ele>1093</ele>
</trkpt>
<trkpt lat="44.46890115737915" lon="9.232807159423828">
<ele>1089</ele>
</trkpt>
<trkpt lat="44.468986988067627" lon="9.232850074768066">
<ele>1086</ele>
</trkpt>
<trkpt lat="44.469308853149414" lon="9.232678413391113">
<ele>1085</ele>
</trkpt>
<trkpt lat="44.469566345214844" lon="9.232592582702637">
<ele>1083</ele>
</trkpt>
<trkpt lat="44.469673633575439" lon="9.232571125030518">
<ele>1082</ele>
</trkpt>
<trkpt lat="44.469738006591797" lon="9.23250675201416">
<ele>1081</ele>
</trkpt>
<trkpt lat="44.469931125640869" lon="9.232442378997803">
<ele>1080</ele>
</trkpt>
<trkpt lat="44.470038414001465" lon="9.232335090637207">
<ele>1078</ele>
</trkpt>
<trkpt lat="44.470102787017822" lon="9.232206344604492">
<ele>1077</ele>
</trkpt>
<trkpt lat="44.470188617706299" lon="9.232141971588135">
<ele>1076</ele>
</trkpt>
<trkpt lat="44.470188617706299" lon="9.232077598571777">
<ele>1074</ele>
</trkpt>
<trkpt lat="44.470295906066895" lon="9.232034683227539">
<ele>1073</ele>
</trkpt>
<trkpt lat="44.470317363739014" lon="9.231991767883301">
<ele>1072</ele>
</trkpt>
<trkpt lat="44.470446109771729" lon="9.231905937194824">
<ele>1070</ele>
</trkpt>
<trkpt lat="44.470553398132324" lon="9.231863021850586">
<ele>1068</ele>
</trkpt>
<trkpt lat="44.470725059509277" lon="9.231712818145752">
<ele>1067</ele>
</trkpt>
<trkpt lat="44.47089672088623" lon="9.231476783752441">
<ele>1066</ele>
</trkpt>
<trkpt lat="44.471046924591064" lon="9.231369495391846">
<ele>1064</ele>
</trkpt>
<trkpt lat="44.471175670623779" lon="9.231197834014893">
<ele>1062</ele>
</trkpt>
<trkpt lat="44.471282958984375" lon="9.23100471496582">
<ele>1061</ele>
</trkpt>
<trkpt lat="44.471304416656494" lon="9.230918884277344">
<ele>1060</ele>
</trkpt>
<trkpt lat="44.471368789672852" lon="9.230811595916748">
<ele>1058</ele>
</trkpt>
<trkpt lat="44.471433162689209" lon="9.23076868057251">
<ele>1057</ele>
</trkpt>
<trkpt lat="44.471561908721924" lon="9.230661392211914">
<ele>1056</ele>
</trkpt>
<trkpt lat="44.471755027770996" lon="9.230639934539795">
<ele>1055</ele>
</trkpt>
<trkpt lat="44.471840858459473" lon="9.230597019195557">
<ele>1054</ele>
</trkpt>
<trkpt lat="44.47190523147583" lon="9.230597019195557">
<ele>1053</ele>
</trkpt>
<trkpt lat="44.472141265869141" lon="9.230468273162842">
<ele>1052</ele>
</trkpt>
<trkpt lat="44.472227096557617" lon="9.230446815490723">
<ele>1051</ele>
</trkpt>
<trkpt lat="44.472355842590332" lon="9.230339527130127">
<ele>1050</ele>
</trkpt>
<trkpt lat="44.472527503967285" lon="9.230339527130127">
<ele>1049</ele>
</trkpt>
<trkpt lat="44.472677707672119" lon="9.230425357818604">
<ele>1048</ele>
</trkpt>
<trkpt lat="44.472763538360596" lon="9.230425357818604">
<ele>1051</ele>
</trkpt>
<trkpt lat="44.472892284393311" lon="9.230318069458008">
<ele>1053</ele>
</trkpt>
<trkpt lat="44.472956657409668" lon="9.230425357818604">
<ele>1056</ele>
</trkpt>
<trkpt lat="44.472956657409668" lon="9.23051118850708">
<ele>1059</ele>
</trkpt>
<trkpt lat="44.473085403442383" lon="9.230704307556152">
<ele>1062</ele>
</trkpt>
<trkpt lat="44.473471641540527" lon="9.230918884277344">
<ele>1064</ele>
</trkpt>
<trkpt lat="44.473536014556885" lon="9.23100471496582">
<ele>1067</ele>
</trkpt>
<trkpt lat="44.473621845245361" lon="9.23102617263794">
<ele>1070</ele>
</trkpt>
<trkpt lat="44.473707675933838" lon="9.231069087982178">
<ele>1072</ele>
</trkpt>
<trkpt lat="44.473772048950195" lon="9.231176376342773">
<ele>1075</ele>
</trkpt>
<trkpt lat="44.473879337310791" lon="9.231240749359131">
<ele>1074</ele>
</trkpt>
<trkpt lat="44.473986625671387" lon="9.231240749359131">
<ele>1073</ele>
</trkpt>
<trkpt lat="44.474072456359863" lon="9.231283664703369">
<ele>1072</ele>
</trkpt>
<trkpt lat="44.474136829376221" lon="9.231326580047607">
<ele>1071</ele>
</trkpt>
<trkpt lat="44.474136829376221" lon="9.231476783752441">
<ele>1070</ele>
</trkpt>
<trkpt lat="44.47415828704834" lon="9.231648445129395">
<ele>1069</ele>
</trkpt>
<trkpt lat="44.47415828704834" lon="9.231734275817871">
<ele>1068</ele>
</trkpt>
<trkpt lat="44.473943710327148" lon="9.231884479522705">
<ele>1067</ele>
</trkpt>
<trkpt lat="44.47390079498291" lon="9.231970310211182">
<ele>1066</ele>
</trkpt>
<trkpt lat="44.473729133605957" lon="9.232099056243897">
<ele>1065</ele>
</trkpt>
<trkpt lat="44.47364330291748" lon="9.232313632965088">
<ele>1066</ele>
</trkpt>
<trkpt lat="44.47364330291748" lon="9.232420921325684">
<ele>1066</ele>
</trkpt>
<trkpt lat="44.473686218261719" lon="9.23250675201416">
<ele>1067</ele>
</trkpt>
<trkpt lat="44.473793506622314" lon="9.232656955718994">
<ele>1068</ele>
</trkpt>
<trkpt lat="44.473857879638672" lon="9.232699871063232">
<ele>1068</ele>
</trkpt>
<trkpt lat="44.473965167999268" lon="9.233043193817139">
<ele>1069</ele>
</trkpt>
<trkpt lat="44.473986625671387" lon="9.233193397521973">
<ele>1070</ele>
</trkpt>
<trkpt lat="44.474050998687744" lon="9.233322143554688">
<ele>1071</ele>
</trkpt>
<trkpt lat="44.474136829376221" lon="9.233386516571045">
<ele>1071</ele>
</trkpt>
<trkpt lat="44.474244117736816" lon="9.233429431915283">
<ele>1072</ele>
</trkpt>
<trkpt lat="44.474351406097412" lon="9.233450889587402">
<ele>1073</ele>
</trkpt>
<trkpt lat="44.474501609802246" lon="9.233386516571045">
<ele>1075</ele>
</trkpt>
<trkpt lat="44.474608898162842" lon="9.233429431915283">
<ele>1076</ele>
</trkpt>
<trkpt lat="44.474694728851318" lon="9.233472347259522">
<ele>1077</ele>
</trkpt>
<trkpt lat="44.474716186523438" lon="9.23351526260376">
<ele>1078</ele>
</trkpt>
<trkpt lat="44.474759101867676" lon="9.233708381652832">
<ele>1080</ele>
</trkpt>
<trkpt lat="44.474802017211914" lon="9.233922958374023">
<ele>1081</ele>
</trkpt>
<trkpt lat="44.474844932556152" lon="9.234051704406738">
<ele>1082</ele>
</trkpt>
<trkpt lat="44.47490930557251" lon="9.234158992767334">
<ele>1084</ele>
</trkpt>
<trkpt lat="44.474995136260986" lon="9.234223365783691">
<ele>1085</ele>
</trkpt>
<trkpt lat="44.475038051605225" lon="9.234330654144287">
<ele>1086</ele>
</trkpt>
<trkpt lat="44.475231170654297" lon="9.234395027160645">
<ele>1087</ele>
</trkpt>
<trkpt lat="44.475295543670654" lon="9.234459400177002">
<ele>1089</ele>
</trkpt>
<trkpt lat="44.475209712982178" lon="9.234716892242432">
<ele>1090</ele>
</trkpt>
<trkpt lat="44.475209712982178" lon="9.234952926635742">
<ele>1091</ele>
</trkpt>
<trkpt lat="44.475274085998535" lon="9.235081672668457">
<ele>1092</ele>
</trkpt>
<trkpt lat="44.47540283203125" lon="9.235210418701172">
<ele>1093</ele>
</trkpt>
<trkpt lat="44.47540283203125" lon="9.235317707061768">
<ele>1095</ele>
</trkpt>
<trkpt lat="44.475338459014893" lon="9.235575199127197">
<ele>1096</ele>
</trkpt>
<trkpt lat="44.475274085998535" lon="9.235725402832031">
<ele>1097</ele>
</trkpt>
<trkpt lat="44.475295543670654" lon="9.23576831817627">
<ele>1097</ele>
</trkpt>
<trkpt lat="44.475359916687012" lon="9.23574686050415">
<ele>1096</ele>
</trkpt>
<trkpt lat="44.475381374359131" lon="9.235789775848389">
<ele>1096</ele>
</trkpt>
<trkpt lat="44.475381374359131" lon="9.235832691192627">
<ele>1096</ele>
</trkpt>
<trkpt lat="44.475467205047607" lon="9.235939979553223">
<ele>1096</ele>
</trkpt>
<trkpt lat="44.475574493408203" lon="9.235918521881104">
<ele>1095</ele>
</trkpt>
<trkpt lat="44.475724697113037" lon="9.235832691192627">
<ele>1095</ele>
</trkpt>
<trkpt lat="44.475767612457275" lon="9.235854148864746">
<ele>1095</ele>
</trkpt>
<trkpt lat="44.47589635848999" lon="9.235939979553223">
<ele>1094</ele>
</trkpt>
<trkpt lat="44.475960731506348" lon="9.235939979553223">
<ele>1094</ele>
</trkpt>
<trkpt lat="44.476068019866943" lon="9.23600435256958">
<ele>1095</ele>
</trkpt>
<trkpt lat="44.476132392883301" lon="9.236025810241699">
<ele>1096</ele>
</trkpt>
<trkpt lat="44.476239681243896" lon="9.236133098602295">
<ele>1098</ele>
</trkpt>
<trkpt lat="44.476325511932373" lon="9.236154556274414">
<ele>1099</ele>
</trkpt>
<trkpt lat="44.47638988494873" lon="9.236240386962891">
<ele>1100</ele>
</trkpt>
<trkpt lat="44.476518630981445" lon="9.236218929290772">
<ele>1101</ele>
</trkpt>
<trkpt lat="44.476604461669922" lon="9.236176013946533">
<ele>1102</ele>
</trkpt>
<trkpt lat="44.47664737701416" lon="9.236240386962891">
<ele>1104</ele>
</trkpt>
<trkpt lat="44.476754665374756" lon="9.236304759979248">
<ele>1105</ele>
</trkpt>
<trkpt lat="44.476840496063232" lon="9.236390590667725">
<ele>1106</ele>
</trkpt>
<trkpt lat="44.476969242095947" lon="9.236433506011963">
<ele>1105</ele>
</trkpt>
<trkpt lat="44.477076530456543" lon="9.23651933670044">
<ele>1104</ele>
</trkpt>
<trkpt lat="44.477248191833496" lon="9.236626625061035">
<ele>1103</ele>
</trkpt>
<trkpt lat="44.477376937866211" lon="9.236669540405273">
<ele>1102</ele>
</trkpt>
<trkpt lat="44.477505683898926" lon="9.236690998077393">
<ele>1100</ele>
</trkpt>
<trkpt lat="44.477677345275879" lon="9.236648082733154">
<ele>1099</ele>
</trkpt>
<trkpt lat="44.477827548980713" lon="9.236605167388916">
<ele>1098</ele>
</trkpt>
<trkpt lat="44.478020668029785" lon="9.236605167388916">
<ele>1097</ele>
</trkpt>
<trkpt lat="44.478170871734619" lon="9.236626625061035">
<ele>1096</ele>
</trkpt>
<trkpt lat="44.478321075439453" lon="9.236626625061035">
<ele>1095</ele>
</trkpt>
<trkpt lat="44.47840690612793" lon="9.236648082733154">
<ele>1095</ele>
</trkpt>
<trkpt lat="44.478492736816406" lon="9.23675537109375">
<ele>1094</ele>
</trkpt>
<trkpt lat="44.478535652160645" lon="9.236841201782227">
<ele>1094</ele>
</trkpt>
<trkpt lat="44.478578567504883" lon="9.236991405487061">
<ele>1093</ele>
</trkpt>
<trkpt lat="44.478793144226074" lon="9.237420558929443">
<ele>1093</ele>
</trkpt>
<trkpt lat="44.479072093963623" lon="9.237742424011231">
<ele>1093</ele>
</trkpt>
<trkpt lat="44.479458332061768" lon="9.238128662109375">
<ele>1092</ele>
</trkpt>
<trkpt lat="44.479629993438721" lon="9.238429069519043">
<ele>1092</ele>
</trkpt>
<trkpt lat="44.47988748550415" lon="9.239201545715332">
<ele>1091</ele>
</trkpt>
<trkpt lat="44.479973316192627" lon="9.239609241485596">
<ele>1091</ele>
</trkpt>
<trkpt lat="44.480423927307129" lon="9.240424633026123">
<ele>1092</ele>
</trkpt>
<trkpt lat="44.480509757995605" lon="9.240682125091553">
<ele>1092</ele>
</trkpt>
<trkpt lat="44.480552673339844" lon="9.240832328796387">
<ele>1093</ele>
</trkpt>
<trkpt lat="44.480595588684082" lon="9.240918159484863">
<ele>1094</ele>
</trkpt>
<trkpt lat="44.480938911437988" lon="9.241690635681152">
<ele>1095</ele>
</trkpt>
<trkpt lat="44.481110572814941" lon="9.242033958435059">
<ele>1095</ele>
</trkpt>
<trkpt lat="44.481325149536133" lon="9.24224853515625">
<ele>1096</ele>
</trkpt>
<trkpt lat="44.481325149536133" lon="9.24224853515625">
<ele>1094</ele>
</trkpt>
<trkpt lat="44.481325149536133" lon="9.24224853515625">
<ele>1093</ele>
</trkpt>
<trkpt lat="44.481110572814941" lon="9.242033958435059">
<ele>1091</ele>
</trkpt>
<trkpt lat="44.480938911437988" lon="9.241690635681152">
<ele>1090</ele>
</trkpt>
<trkpt lat="44.480617046356201" lon="9.240982532501221">
<ele>1088</ele>
</trkpt>
<trkpt lat="44.480595588684082" lon="9.240918159484863">
<ele>1086</ele>
</trkpt>
<trkpt lat="44.480531215667725" lon="9.241046905517578">
<ele>1085</ele>
</trkpt>
<trkpt lat="44.480423927307129" lon="9.241282939910889">
<ele>1083</ele>
</trkpt>
<trkpt lat="44.480273723602295" lon="9.24149751663208">
<ele>1082</ele>
</trkpt>
<trkpt lat="44.480252265930176" lon="9.241561889648438">
<ele>1080</ele>
</trkpt>
<trkpt lat="44.480102062225342" lon="9.241905212402344">
<ele>1077</ele>
</trkpt>
<trkpt lat="44.479973316192627" lon="9.242076873779297">
<ele>1074</ele>
</trkpt>
<trkpt lat="44.479866027832031" lon="9.242119789123535">
<ele>1071</ele>
</trkpt>
<trkpt lat="44.479587078094482" lon="9.242398738861084">
<ele>1068</ele>
</trkpt>
<trkpt lat="44.47939395904541" lon="9.24250602722168">
<ele>1066</ele>
</trkpt>
<trkpt lat="44.479265213012695" lon="9.242613315582275">
<ele>1063</ele>
</trkpt>
<trkpt lat="44.479222297668457" lon="9.242677688598633">
<ele>1060</ele>
</trkpt>
<trkpt lat="44.479050636291504" lon="9.242763519287109">
<ele>1057</ele>
</trkpt>
<trkpt lat="44.479007720947266" lon="9.242806434631348">
<ele>1054</ele>
</trkpt>
<trkpt lat="44.478857517242432" lon="9.242806434631348">
<ele>1051</ele>
</trkpt>
<trkpt lat="44.478836059570313" lon="9.242870807647705">
<ele>1050</ele>
</trkpt>
<trkpt lat="44.47890043258667" lon="9.242978096008301">
<ele>1048</ele>
</trkpt>
<trkpt lat="44.47890043258667" lon="9.243063926696777">
<ele>1047</ele>
</trkpt>
<trkpt lat="44.478836059570313" lon="9.24325704574585">
<ele>1046</ele>
</trkpt>
<trkpt lat="44.478857517242432" lon="9.243364334106445">
<ele>1044</ele>
</trkpt>
<trkpt lat="44.478814601898193" lon="9.243514537811279">
<ele>1043</ele>
</trkpt>
<trkpt lat="44.478728771209717" lon="9.243578910827637">
<ele>1042</ele>
</trkpt>
<trkpt lat="44.478728771209717" lon="9.24375057220459">
<ele>1041</ele>
</trkpt>
<trkpt lat="44.478707313537598" lon="9.243879318237305">
<ele>1039</ele>
</trkpt>
<trkpt lat="44.478685855865479" lon="9.2439866065979">
<ele>1038</ele>
</trkpt>
<trkpt lat="44.478578567504883" lon="9.244115352630615">
<ele>1034</ele>
</trkpt>
<trkpt lat="44.478449821472168" lon="9.244201183319092">
<ele>1030</ele>
</trkpt>
<trkpt lat="44.47840690612793" lon="9.244351387023926">
<ele>1025</ele>
</trkpt>
<trkpt lat="44.478385448455811" lon="9.24450159072876">
<ele>1021</ele>
</trkpt>
<trkpt lat="44.478342533111572" lon="9.244565963745117">
<ele>1017</ele>
</trkpt>
<trkpt lat="44.478213787078857" lon="9.244630336761475">
<ele>1013</ele>
</trkpt>
<trkpt lat="44.478063583374023" lon="9.244801998138428">
<ele>1009</ele>
</trkpt>
<trkpt lat="44.478042125701904" lon="9.244909286499023">
<ele>1004</ele>
</trkpt>
<trkpt lat="44.477999210357666" lon="9.245102405548096">
<ele>1000</ele>
</trkpt>
<trkpt lat="44.477956295013428" lon="9.245188236236572">
<ele>996</ele>
</trkpt>
<trkpt lat="44.477870464324951" lon="9.245231151580811">
<ele>992</ele>
</trkpt>
<trkpt lat="44.477741718292236" lon="9.245359897613525">
<ele>989</ele>
</trkpt>
<trkpt lat="44.477634429931641" lon="9.245510101318359">
<ele>985</ele>
</trkpt>
<trkpt lat="44.477505683898926" lon="9.245789051055908">
<ele>982</ele>
</trkpt>
<trkpt lat="44.47739839553833" lon="9.245896339416504">
<ele>978</ele>
</trkpt>
<trkpt lat="44.477355480194092" lon="9.245917797088623">
<ele>974</ele>
</trkpt>
<trkpt lat="44.477269649505615" lon="9.245896339416504">
<ele>971</ele>
</trkpt>
<trkpt lat="44.477226734161377" lon="9.245853424072266">
<ele>967</ele>
</trkpt>
<trkpt lat="44.477097988128662" lon="9.2460036277771">
<ele>964</ele>
</trkpt>
<trkpt lat="44.476990699768066" lon="9.246196746826172">
<ele>960</ele>
</trkpt>
<trkpt lat="44.476861953735352" lon="9.246304035186768">
<ele>958</ele>
</trkpt>
<trkpt lat="44.476625919342041" lon="9.246454238891602">
<ele>955</ele>
</trkpt>
<trkpt lat="44.476583003997803" lon="9.246561527252197">
<ele>953</ele>
</trkpt>
<trkpt lat="44.476540088653564" lon="9.246776103973389">
<ele>951</ele>
</trkpt>
<trkpt lat="44.476368427276611" lon="9.247012138366699">
<ele>948</ele>
</trkpt>
<trkpt lat="44.476304054260254" lon="9.247291088104248">
<ele>946</ele>
</trkpt>
<trkpt lat="44.47615385055542" lon="9.247591495513916">
<ele>944</ele>
</trkpt>
<trkpt lat="44.476068019866943" lon="9.247956275939941">
<ele>942</ele>
</trkpt>
<trkpt lat="44.475831985473633" lon="9.248042106628418">
<ele>939</ele>
</trkpt>
<trkpt lat="44.475595951080322" lon="9.24823522567749">
<ele>937</ele>
</trkpt>
<trkpt lat="44.475467205047607" lon="9.248363971710205">
<ele>938</ele>
</trkpt>
<trkpt lat="44.475166797637939" lon="9.248771667480469">
<ele>940</ele>
</trkpt>
<trkpt lat="44.47514533996582" lon="9.249007701873779">
<ele>941</ele>
</trkpt>
<trkpt lat="44.475188255310059" lon="9.249200820922852">
<ele>942</ele>
</trkpt>
<trkpt lat="44.475166797637939" lon="9.249372482299805">
<ele>944</ele>
</trkpt>
<trkpt lat="44.475102424621582" lon="9.249629974365234">
<ele>945</ele>
</trkpt>
<trkpt lat="44.47490930557251" lon="9.249866008758545">
<ele>946</ele>
</trkpt>
<trkpt lat="44.474866390228271" lon="9.250037670135498">
<ele>947</ele>
</trkpt>
<trkpt lat="44.474716186523438" lon="9.250338077545166">
<ele>949</ele>
</trkpt>
<trkpt lat="44.47465181350708" lon="9.250574111938477">
<ele>950</ele>
</trkpt>
<trkpt lat="44.474523067474365" lon="9.250466823577881">
<ele>947</ele>
</trkpt>
<trkpt lat="44.473746484145522" lon="9.250091062858701">
<ele>944</ele>
</trkpt>
<trkpt lat="44.473192691802979" lon="9.249823093414307">
<ele>941</ele>
</trkpt>
<trkpt lat="44.473085403442383" lon="9.249801635742188">
<ele>938</ele>
</trkpt>
<trkpt lat="44.472978115081787" lon="9.249801635742188">
<ele>935</ele>
</trkpt>
<trkpt lat="44.472870826721191" lon="9.249823093414307">
<ele>932</ele>
</trkpt>
<trkpt lat="44.472699165344238" lon="9.249930381774902">
<ele>929</ele>
</trkpt>
<trkpt lat="44.472548961639404" lon="9.250016212463379">
<ele>926</ele>
</trkpt>
</trkseg>
</trk>
</gpx>
