<?xml version="1.0" encoding="UTF-8"?>
<gpx version="1.1"
creator="Smartprofil-Office - http://www.rother.de"
xmlns:xsi="http://www.w3.org/2001/XMLSchema-instance"
xmlns="http://www.topografix.com/GPX/1/1"
xsi:schemaLocation="http://www.topografix.com/GPX/1/1 http://www.topografix.com/GPX/1/1/gpx.xsd">
<metadata>

<bounds minlat="40.539411976933479" minlon="14.209404671564698" maxlat="40.556317018344998" maxlon="14.242685018107295"/>
</metadata>
<wpt lat="40.556317018344998" lon="14.239017013460398">
<ele>5</ele>
<name>47_Marina Grande (1)</name>
<cmt></cmt>
<desc></desc>
<sym>Crossing</sym>
</wpt>

<wpt lat="40.550870960578322" lon="14.242685018107295">
<ele>142</ele>
<name>47_Capri Piazza Umberto I (2)</name>
<cmt></cmt>
<desc></desc>
<sym>Crossing</sym>
</wpt>

<wpt lat="40.545311998575926" lon="14.223417034372687">
<ele>589</ele>
<name>47_Monte Solaro (3)</name>
<cmt></cmt>
<desc></desc>
<sym>Crossing</sym>
</wpt>

<wpt lat="40.539411976933479" lon="14.209741037338972">
<ele>202</ele>
<name>47_Belvedere di Migliara (4)</name>
<cmt></cmt>
<desc></desc>
<sym>Crossing</sym>
</wpt>

<wpt lat="40.555601036176085" lon="14.221606040373445">
<ele>287</ele>
<name>47_Anacapri Piazza Vittoria (5)</name>
<cmt></cmt>
<desc></desc>
<sym>Crossing</sym>
</wpt>

<trk>
<name>Neapel_47_Monte Solaro</name>
<trkseg>
<trkpt lat="40.556317018344998" lon="14.239017013460398">
<ele>5</ele>
</trkpt>
<trkpt lat="40.556220961734653" lon="14.238978121429682">
<ele>5</ele>
</trkpt>
<trkpt lat="40.556197157129645" lon="14.23890377394855">
<ele>5</ele>
</trkpt>
<trkpt lat="40.556219704449177" lon="14.238811153918505">
<ele>5</ele>
</trkpt>
<trkpt lat="40.556195145472884" lon="14.238800844177604">
<ele>5</ele>
</trkpt>
<trkpt lat="40.556135969236493" lon="14.238987425342202">
<ele>5</ele>
</trkpt>
<trkpt lat="40.556033877655864" lon="14.239233182743192">
<ele>5</ele>
</trkpt>
<trkpt lat="40.555967073887587" lon="14.2394451610744">
<ele>5</ele>
</trkpt>
<trkpt lat="40.555921727791429" lon="14.23964649438858">
<ele>5</ele>
</trkpt>
<trkpt lat="40.555874370038509" lon="14.239773731678724">
<ele>5</ele>
</trkpt>
<trkpt lat="40.555601455271244" lon="14.23994698561728">
<ele>5</ele>
</trkpt>
<trkpt lat="40.555428536608815" lon="14.239952936768532">
<ele>7</ele>
</trkpt>
<trkpt lat="40.555318146944046" lon="14.239820670336485">
<ele>9</ele>
</trkpt>
<trkpt lat="40.555255617946386" lon="14.239868614822626">
<ele>12</ele>
</trkpt>
<trkpt lat="40.555216893553734" lon="14.239922342821956">
<ele>14</ele>
</trkpt>
<trkpt lat="40.555174648761749" lon="14.240020914003253">
<ele>16</ele>
</trkpt>
<trkpt lat="40.55512486025691" lon="14.240085706114769">
<ele>18</ele>
</trkpt>
<trkpt lat="40.555027713999152" lon="14.240089477971196">
<ele>20</ele>
</trkpt>
<trkpt lat="40.554940709844232" lon="14.240196933969855">
<ele>23</ele>
</trkpt>
<trkpt lat="40.554931322112679" lon="14.240209255367517">
<ele>25</ele>
</trkpt>
<trkpt lat="40.554839707911015" lon="14.240280082449317">
<ele>27</ele>
</trkpt>
<trkpt lat="40.554829481989145" lon="14.240281088277698">
<ele>29</ele>
</trkpt>
<trkpt lat="40.554702747613192" lon="14.240195844322443">
<ele>31</ele>
</trkpt>
<trkpt lat="40.554513903334737" lon="14.240225264802575">
<ele>32</ele>
</trkpt>
<trkpt lat="40.554369064047933" lon="14.240198526531458">
<ele>34</ele>
</trkpt>
<trkpt lat="40.554229170084" lon="14.240164328366518">
<ele>36</ele>
</trkpt>
<trkpt lat="40.554099921137094" lon="14.240069277584553">
<ele>38</ele>
</trkpt>
<trkpt lat="40.553984837606549" lon="14.239947153255343">
<ele>40</ele>
</trkpt>
<trkpt lat="40.553869167342782" lon="14.23986978828907">
<ele>41</ele>
</trkpt>
<trkpt lat="40.553775541484356" lon="14.239734672009945">
<ele>43</ele>
</trkpt>
<trkpt lat="40.553537830710411" lon="14.239780521020293">
<ele>45</ele>
</trkpt>
<trkpt lat="40.553465746343136" lon="14.239795356988907">
<ele>47</ele>
</trkpt>
<trkpt lat="40.553374132141471" lon="14.239821759983897">
<ele>49</ele>
</trkpt>
<trkpt lat="40.553326439112425" lon="14.239888731390238">
<ele>50</ele>
</trkpt>
<trkpt lat="40.553257036954165" lon="14.240043628960848">
<ele>52</ele>
</trkpt>
<trkpt lat="40.553197609260678" lon="14.240181595087051">
<ele>54</ele>
</trkpt>
<trkpt lat="40.553201716393232" lon="14.240263821557164">
<ele>56</ele>
</trkpt>
<trkpt lat="40.553208086639643" lon="14.240388963371515">
<ele>58</ele>
</trkpt>
<trkpt lat="40.553204817697406" lon="14.240440260618925">
<ele>59</ele>
</trkpt>
<trkpt lat="40.553189478814602" lon="14.240496251732111">
<ele>61</ele>
</trkpt>
<trkpt lat="40.553014883771539" lon="14.240649053826928">
<ele>63</ele>
</trkpt>
<trkpt lat="40.552849257364869" lon="14.240625584498048">
<ele>65</ele>
</trkpt>
<trkpt lat="40.552779352292418" lon="14.240552159026265">
<ele>66</ele>
</trkpt>
<trkpt lat="40.552715482190251" lon="14.240568755194545">
<ele>68</ele>
</trkpt>
<trkpt lat="40.552639961242676" lon="14.240538328886032">
<ele>70</ele>
</trkpt>
<trkpt lat="40.552547257393599" lon="14.240429028868675">
<ele>72</ele>
</trkpt>
<trkpt lat="40.552510712295771" lon="14.240380665287375">
<ele>73</ele>
</trkpt>
<trkpt lat="40.552422786131501" lon="14.240422826260328">
<ele>75</ele>
</trkpt>
<trkpt lat="40.552373332902789" lon="14.240502370521426">
<ele>77</ele>
</trkpt>
<trkpt lat="40.55229957215488" lon="14.240600606426597">
<ele>78</ele>
</trkpt>
<trkpt lat="40.552195971831679" lon="14.24069263972342">
<ele>80</ele>
</trkpt>
<trkpt lat="40.552126653492451" lon="14.240720300003886">
<ele>82</ele>
</trkpt>
<trkpt lat="40.551955495029688" lon="14.24077570438385">
<ele>85</ele>
</trkpt>
<trkpt lat="40.55178651586175" lon="14.240714432671666">
<ele>87</ele>
</trkpt>
<trkpt lat="40.55169858969748" lon="14.240739159286022">
<ele>90</ele>
</trkpt>
<trkpt lat="40.551640084013343" lon="14.240724323317409">
<ele>92</ele>
</trkpt>
<trkpt lat="40.551601611077785" lon="14.24065550789237">
<ele>94</ele>
</trkpt>
<trkpt lat="40.551510164514184" lon="14.240638241171837">
<ele>97</ele>
</trkpt>
<trkpt lat="40.551377898082137" lon="14.240701943635941">
<ele>99</ele>
</trkpt>
<trkpt lat="40.551356188952923" lon="14.240725915879011">
<ele>102</ele>
</trkpt>
<trkpt lat="40.551181929185987" lon="14.240888608619571">
<ele>104</ele>
</trkpt>
<trkpt lat="40.550986044108868" lon="14.240980725735426">
<ele>106</ele>
</trkpt>
<trkpt lat="40.55092359893024" lon="14.241057755425572">
<ele>109</ele>
</trkpt>
<trkpt lat="40.550755625590682" lon="14.241238050162792">
<ele>111</ele>
</trkpt>
<trkpt lat="40.550576504319906" lon="14.241320863366127">
<ele>113</ele>
</trkpt>
<trkpt lat="40.550536187365651" lon="14.241302004083991">
<ele>116</ele>
</trkpt>
<trkpt lat="40.550473239272833" lon="14.241282138973475">
<ele>118</ele>
</trkpt>
<trkpt lat="40.550392773002386" lon="14.241438461467624">
<ele>120</ele>
</trkpt>
<trkpt lat="40.550396125763655" lon="14.241750938817859">
<ele>122</ele>
</trkpt>
<trkpt lat="40.550423534587026" lon="14.24188538454473">
<ele>125</ele>
</trkpt>
<trkpt lat="40.550420684739947" lon="14.241944644600153">
<ele>127</ele>
</trkpt>
<trkpt lat="40.550402412191033" lon="14.24208914861083">
<ele>129</ele>
</trkpt>
<trkpt lat="40.550430491566658" lon="14.24228897318244">
<ele>131</ele>
</trkpt>
<trkpt lat="40.550470305606723" lon="14.242322668433189">
<ele>133</ele>
</trkpt>
<trkpt lat="40.550543311983347" lon="14.242520481348038">
<ele>136</ele>
</trkpt>
<trkpt lat="40.550582120195031" lon="14.242546884343028">
<ele>138</ele>
</trkpt>
<trkpt lat="40.550823183730245" lon="14.242670852690935">
<ele>140</ele>
</trkpt>
<trkpt lat="40.550870960578322" lon="14.242685018107295">
<ele>142</ele>
</trkpt>
<trkpt lat="40.550615899264812" lon="14.242679234594107">
<ele>142</ele>
</trkpt>
<trkpt lat="40.550439460203052" lon="14.242512350901961">
<ele>141</ele>
</trkpt>
<trkpt lat="40.550340134650469" lon="14.242323087528348">
<ele>141</ele>
</trkpt>
<trkpt lat="40.550226559862494" lon="14.242155198007822">
<ele>140</ele>
</trkpt>
<trkpt lat="40.550223123282194" lon="14.242117730900645">
<ele>140</ele>
</trkpt>
<trkpt lat="40.550233097746968" lon="14.241875577718019">
<ele>140</ele>
</trkpt>
<trkpt lat="40.550231169909239" lon="14.24174465239048">
<ele>139</ele>
</trkpt>
<trkpt lat="40.550095634534955" lon="14.24146075733006">
<ele>139</ele>
</trkpt>
<trkpt lat="40.55005774833262" lon="14.241118272766471">
<ele>138</ele>
</trkpt>
<trkpt lat="40.550001421943307" lon="14.24077813513577">
<ele>138</ele>
</trkpt>
<trkpt lat="40.5499551538378" lon="14.240505807101727">
<ele>138</ele>
</trkpt>
<trkpt lat="40.549947861582041" lon="14.240183187648654">
<ele>137</ele>
</trkpt>
<trkpt lat="40.549947526305914" lon="14.239847827702761">
<ele>136</ele>
</trkpt>
<trkpt lat="40.54999471642077" lon="14.239629060029984">
<ele>136</ele>
</trkpt>
<trkpt lat="40.54995465092361" lon="14.239453040063381">
<ele>136</ele>
</trkpt>
<trkpt lat="40.549928667023778" lon="14.239145256578922">
<ele>135</ele>
</trkpt>
<trkpt lat="40.549915926530957" lon="14.238934619352221">
<ele>134</ele>
</trkpt>
<trkpt lat="40.549887176603079" lon="14.238836886361241">
<ele>134</ele>
</trkpt>
<trkpt lat="40.549821211025119" lon="14.238625830039382">
<ele>134</ele>
</trkpt>
<trkpt lat="40.549835208803415" lon="14.238391304388642">
<ele>133</ele>
</trkpt>
<trkpt lat="40.549902515485883" lon="14.23813808709383">
<ele>133</ele>
</trkpt>
<trkpt lat="40.549859935417771" lon="14.237887216731906">
<ele>132</ele>
</trkpt>
<trkpt lat="40.549864545464516" lon="14.237853521481156">
<ele>132</ele>
</trkpt>
<trkpt lat="40.54985985159874" lon="14.237742545083165">
<ele>131</ele>
</trkpt>
<trkpt lat="40.549827078357339" lon="14.23757272772491">
<ele>131</ele>
</trkpt>
<trkpt lat="40.549832610413432" lon="14.237505504861474">
<ele>131</ele>
</trkpt>
<trkpt lat="40.549848368391395" lon="14.237317750230432">
<ele>130</ele>
</trkpt>
<trkpt lat="40.549810901284218" lon="14.237121697515249">
<ele>130</ele>
</trkpt>
<trkpt lat="40.549802603200078" lon="14.237095126882195">
<ele>129</ele>
</trkpt>
<trkpt lat="40.549762705340981" lon="14.236898571252823">
<ele>129</ele>
</trkpt>
<trkpt lat="40.549740577116609" lon="14.236762952059507">
<ele>130</ele>
</trkpt>
<trkpt lat="40.549669079482555" lon="14.236692124977708">
<ele>132</ele>
</trkpt>
<trkpt lat="40.549678383395076" lon="14.236574610695243">
<ele>133</ele>
</trkpt>
<trkpt lat="40.549677042290568" lon="14.236453995108604">
<ele>134</ele>
</trkpt>
<trkpt lat="40.549701182171702" lon="14.236396914348006">
<ele>136</ele>
</trkpt>
<trkpt lat="40.549787348136306" lon="14.236333295702934">
<ele>137</ele>
</trkpt>
<trkpt lat="40.549811823293567" lon="14.236239166930318">
<ele>138</ele>
</trkpt>
<trkpt lat="40.549731608480215" lon="14.235942112281919">
<ele>139</ele>
</trkpt>
<trkpt lat="40.549764214083552" lon="14.235867513343692">
<ele>141</ele>
</trkpt>
<trkpt lat="40.549828503280878" lon="14.23578386195004">
<ele>142</ele>
</trkpt>
<trkpt lat="40.549899833276868" lon="14.235778581351042">
<ele>144</ele>
</trkpt>
<trkpt lat="40.54995808750391" lon="14.235671376809478">
<ele>145</ele>
</trkpt>
<trkpt lat="40.549994129687548" lon="14.235561322420835">
<ele>147</ele>
</trkpt>
<trkpt lat="40.550033105537295" lon="14.235484292730689">
<ele>149</ele>
</trkpt>
<trkpt lat="40.550072751939297" lon="14.23537197522819">
<ele>150</ele>
</trkpt>
<trkpt lat="40.550078954547644" lon="14.235292598605156">
<ele>152</ele>
</trkpt>
<trkpt lat="40.549956662580371" lon="14.235133593901992">
<ele>154</ele>
</trkpt>
<trkpt lat="40.54995465092361" lon="14.234999399632215">
<ele>156</ele>
</trkpt>
<trkpt lat="40.549922715872526" lon="14.234784655272961">
<ele>157</ele>
</trkpt>
<trkpt lat="40.549957416951656" lon="14.234685329720378">
<ele>159</ele>
</trkpt>
<trkpt lat="40.55000301450491" lon="14.234634535387158">
<ele>163</ele>
</trkpt>
<trkpt lat="40.549952806904912" lon="14.234533030539751">
<ele>168</ele>
</trkpt>
<trkpt lat="40.549859516322613" lon="14.234491707757115">
<ele>172</ele>
</trkpt>
<trkpt lat="40.549803776666522" lon="14.234398920089006">
<ele>176</ele>
</trkpt>
<trkpt lat="40.549736805260181" lon="14.234247542917728">
<ele>180</ele>
</trkpt>
<trkpt lat="40.549620883539319" lon="14.234114773571491">
<ele>185</ele>
</trkpt>
<trkpt lat="40.549574112519622" lon="14.23406976275146">
<ele>189</ele>
</trkpt>
<trkpt lat="40.549561707302928" lon="14.233878739178181">
<ele>193</ele>
</trkpt>
<trkpt lat="40.549625912681222" lon="14.233749574050307">
<ele>198</ele>
</trkpt>
<trkpt lat="40.549785252660513" lon="14.233761476352811">
<ele>202</ele>
</trkpt>
<trkpt lat="40.549904694780707" lon="14.233702886849642">
<ele>203</ele>
</trkpt>
<trkpt lat="40.549980802461505" lon="14.233584199100733">
<ele>204</ele>
</trkpt>
<trkpt lat="40.550071662291884" lon="14.233504654839635">
<ele>205</ele>
</trkpt>
<trkpt lat="40.550076020881534" lon="14.233494512736797">
<ele>206</ele>
</trkpt>
<trkpt lat="40.550250532105565" lon="14.233443383127451">
<ele>206</ele>
</trkpt>
<trkpt lat="40.550164449959993" lon="14.23337641172111">
<ele>207</ele>
</trkpt>
<trkpt lat="40.55009588599205" lon="14.233302399516106">
<ele>208</ele>
</trkpt>
<trkpt lat="40.550062693655491" lon="14.233186561614275">
<ele>209</ele>
</trkpt>
<trkpt lat="40.550152631476521" lon="14.233071561902761">
<ele>210</ele>
</trkpt>
<trkpt lat="40.550175597891212" lon="14.232965866103768">
<ele>211</ele>
</trkpt>
<trkpt lat="40.550245922058821" lon="14.232849692925811">
<ele>212</ele>
</trkpt>
<trkpt lat="40.550227733328938" lon="14.232699824497104">
<ele>213</ele>
</trkpt>
<trkpt lat="40.550239803269506" lon="14.232653053477407">
<ele>214</ele>
</trkpt>
<trkpt lat="40.550303505733609" lon="14.232559176161885">
<ele>215</ele>
</trkpt>
<trkpt lat="40.550370812416077" lon="14.232368068769574">
<ele>216</ele>
</trkpt>
<trkpt lat="40.55039294064045" lon="14.232360692694783">
<ele>216</ele>
</trkpt>
<trkpt lat="40.550499139353633" lon="14.232319286093116">
<ele>217</ele>
</trkpt>
<trkpt lat="40.550514981150627" lon="14.232279388234019">
<ele>218</ele>
</trkpt>
<trkpt lat="40.550636099651456" lon="14.232187354937196">
<ele>219</ele>
</trkpt>
<trkpt lat="40.550788063555956" lon="14.232103619724512">
<ele>220</ele>
</trkpt>
<trkpt lat="40.550856376066804" lon="14.232009658589959">
<ele>222</ele>
</trkpt>
<trkpt lat="40.550870038568974" lon="14.231994319707155">
<ele>223</ele>
</trkpt>
<trkpt lat="40.550958719104528" lon="14.231793321669102">
<ele>224</ele>
</trkpt>
<trkpt lat="40.551078077405691" lon="14.231670359149575">
<ele>226</ele>
</trkpt>
<trkpt lat="40.551113365218043" lon="14.231628449633718">
<ele>228</ele>
</trkpt>
<trkpt lat="40.551235992461443" lon="14.231545552611351">
<ele>229</ele>
</trkpt>
<trkpt lat="40.551291732117534" lon="14.231492076069117">
<ele>230</ele>
</trkpt>
<trkpt lat="40.551357781514525" lon="14.231388727203012">
<ele>232</ele>
</trkpt>
<trkpt lat="40.551404301077127" lon="14.231317229568958">
<ele>234</ele>
</trkpt>
<trkpt lat="40.551482085138559" lon="14.231217317283154">
<ele>235</ele>
</trkpt>
<trkpt lat="40.551565233618021" lon="14.231172474101186">
<ele>238</ele>
</trkpt>
<trkpt lat="40.551635306328535" lon="14.231112208217382">
<ele>240</ele>
</trkpt>
<trkpt lat="40.551624828949571" lon="14.231013720855117">
<ele>243</ele>
</trkpt>
<trkpt lat="40.551731111481786" lon="14.230846334248781">
<ele>246</ele>
</trkpt>
<trkpt lat="40.551786599680781" lon="14.230790762230754">
<ele>248</ele>
</trkpt>
<trkpt lat="40.551746701821685" lon="14.230716582387686">
<ele>251</ele>
</trkpt>
<trkpt lat="40.551757933571935" lon="14.230665620416403">
<ele>254</ele>
</trkpt>
<trkpt lat="40.551759274676442" lon="14.230627482756972">
<ele>257</ele>
</trkpt>
<trkpt lat="40.551673946902156" lon="14.230611138045788">
<ele>259</ele>
</trkpt>
<trkpt lat="40.551568251103163" lon="14.23055456019938">
<ele>262</ele>
</trkpt>
<trkpt lat="40.55158032104373" lon="14.23045925796032">
<ele>265</ele>
</trkpt>
<trkpt lat="40.55158325470984" lon="14.230372253805399">
<ele>268</ele>
</trkpt>
<trkpt lat="40.551607562229037" lon="14.230275778099895">
<ele>270</ele>
</trkpt>
<trkpt lat="40.551608819514513" lon="14.230243507772684">
<ele>273</ele>
</trkpt>
<trkpt lat="40.551586104556918" lon="14.230106631293893">
<ele>276</ele>
</trkpt>
<trkpt lat="40.551578812301159" lon="14.230065895244479">
<ele>279</ele>
</trkpt>
<trkpt lat="40.551623152568936" lon="14.229929773136973">
<ele>282</ele>
</trkpt>
<trkpt lat="40.551624493673444" lon="14.229808403179049">
<ele>284</ele>
</trkpt>
<trkpt lat="40.551471775397658" lon="14.229817036539316">
<ele>287</ele>
</trkpt>
<trkpt lat="40.551404049620032" lon="14.229667084291577">
<ele>290</ele>
</trkpt>
<trkpt lat="40.551398685202003" lon="14.229667251929641">
<ele>292</ele>
</trkpt>
<trkpt lat="40.551302041858435" lon="14.229661971330643">
<ele>295</ele>
</trkpt>
<trkpt lat="40.551288295537233" lon="14.229606818407774">
<ele>297</ele>
</trkpt>
<trkpt lat="40.551237920299172" lon="14.229620397090912">
<ele>300</ele>
</trkpt>
<trkpt lat="40.551177905872464" lon="14.229703629389405">
<ele>302</ele>
</trkpt>
<trkpt lat="40.551090398803353" lon="14.229810917750001">
<ele>304</ele>
</trkpt>
<trkpt lat="40.550996102392673" lon="14.229829190298915">
<ele>307</ele>
</trkpt>
<trkpt lat="40.55097782984376" lon="14.229928767308593">
<ele>309</ele>
</trkpt>
<trkpt lat="40.550927622243762" lon="14.22997310757637">
<ele>312</ele>
</trkpt>
<trkpt lat="40.550786638632417" lon="14.229987943544984">
<ele>314</ele>
</trkpt>
<trkpt lat="40.550710614770651" lon="14.230097243562341">
<ele>317</ele>
</trkpt>
<trkpt lat="40.55069686844945" lon="14.23025700263679">
<ele>321</ele>
</trkpt>
<trkpt lat="40.550755457952619" lon="14.230437213554978">
<ele>324</ele>
</trkpt>
<trkpt lat="40.55075260810554" lon="14.230518853291869">
<ele>328</ele>
</trkpt>
<trkpt lat="40.550732323899865" lon="14.230561433359981">
<ele>331</ele>
</trkpt>
<trkpt lat="40.550668286159635" lon="14.230602839961648">
<ele>334</ele>
</trkpt>
<trkpt lat="40.550564015284181" lon="14.230702752247453">
<ele>338</ele>
</trkpt>
<trkpt lat="40.550545491278172" lon="14.230742733925581">
<ele>341</ele>
</trkpt>
<trkpt lat="40.550475502386689" lon="14.230786906555295">
<ele>345</ele>
</trkpt>
<trkpt lat="40.550413057208061" lon="14.2308159917593">
<ele>348</ele>
</trkpt>
<trkpt lat="40.550297722220421" lon="14.230864606797695">
<ele>355</ele>
</trkpt>
<trkpt lat="40.550265200436115" lon="14.230867205187678">
<ele>363</ele>
</trkpt>
<trkpt lat="40.550222285091877" lon="14.2309351824224">
<ele>370</ele>
</trkpt>
<trkpt lat="40.55012078024447" lon="14.231033166870475">
<ele>377</ele>
</trkpt>
<trkpt lat="40.550071075558662" lon="14.23099284991622">
<ele>384</ele>
</trkpt>
<trkpt lat="40.550070656463504" lon="14.23092445358634">
<ele>392</ele>
</trkpt>
<trkpt lat="40.55007635615766" lon="14.230842310935259">
<ele>399</ele>
</trkpt>
<trkpt lat="40.550205688923597" lon="14.2305897641927">
<ele>406</ele>
</trkpt>
<trkpt lat="40.550268637016416" lon="14.230640893802047">
<ele>414</ele>
</trkpt>
<trkpt lat="40.550295375287533" lon="14.230585070326924">
<ele>421</ele>
</trkpt>
<trkpt lat="40.550345415249467" lon="14.230546848848462">
<ele>424</ele>
</trkpt>
<trkpt lat="40.550316330045462" lon="14.23042606562376">
<ele>428</ele>
</trkpt>
<trkpt lat="40.550289675593376" lon="14.230308467522264">
<ele>431</ele>
</trkpt>
<trkpt lat="40.550341559574008" lon="14.230263624340296">
<ele>435</ele>
</trkpt>
<trkpt lat="40.550332088023424" lon="14.230090454220772">
<ele>438</ele>
</trkpt>
<trkpt lat="40.550303086638451" lon="14.229975203052163">
<ele>441</ele>
</trkpt>
<trkpt lat="40.550290094688535" lon="14.229921391233802">
<ele>445</ele>
</trkpt>
<trkpt lat="40.550188338384032" lon="14.229739587754011">
<ele>448</ele>
</trkpt>
<trkpt lat="40.550110135227442" lon="14.22972047701478">
<ele>452</ele>
</trkpt>
<trkpt lat="40.55001868866384" lon="14.229664485901594">
<ele>455</ele>
</trkpt>
<trkpt lat="40.54996102117002" lon="14.229640178382397">
<ele>456</ele>
</trkpt>
<trkpt lat="40.549870831891894" lon="14.229585444554687">
<ele>456</ele>
</trkpt>
<trkpt lat="40.549691878259182" lon="14.229613104835153">
<ele>457</ele>
</trkpt>
<trkpt lat="40.549601186066866" lon="14.229586282745004">
<ele>458</ele>
</trkpt>
<trkpt lat="40.549523653462529" lon="14.229570189490914">
<ele>458</ele>
</trkpt>
<trkpt lat="40.549414521083236" lon="14.229546803981066">
<ele>459</ele>
</trkpt>
<trkpt lat="40.549361128360033" lon="14.2295191437006">
<ele>460</ele>
</trkpt>
<trkpt lat="40.549271190539002" lon="14.229496512562037">
<ele>461</ele>
</trkpt>
<trkpt lat="40.549174295738339" lon="14.229462649673223">
<ele>461</ele>
</trkpt>
<trkpt lat="40.54908293299377" lon="14.229431133717299">
<ele>462</ele>
</trkpt>
<trkpt lat="40.54899693466723" lon="14.229426020756364">
<ele>462</ele>
</trkpt>
<trkpt lat="40.548802725970745" lon="14.229356786236167">
<ele>463</ele>
</trkpt>
<trkpt lat="40.548767941072583" lon="14.229354187846184">
<ele>463</ele>
</trkpt>
<trkpt lat="40.5487428791821" lon="14.229308590292931">
<ele>463</ele>
</trkpt>
<trkpt lat="40.548580856993794" lon="14.229245390743017">
<ele>464</ele>
</trkpt>
<trkpt lat="40.548470467329025" lon="14.229220915585756">
<ele>464</ele>
</trkpt>
<trkpt lat="40.548405339941382" lon="14.229206750169396">
<ele>464</ele>
</trkpt>
<trkpt lat="40.548266787081957" lon="14.229156794026494">
<ele>464</ele>
</trkpt>
<trkpt lat="40.548138376325369" lon="14.229134581983089">
<ele>465</ele>
</trkpt>
<trkpt lat="40.548029076308012" lon="14.229116309434175">
<ele>465</ele>
</trkpt>
<trkpt lat="40.547919776290655" lon="14.229099042713642">
<ele>464</ele>
</trkpt>
<trkpt lat="40.547825563699007" lon="14.229082446545362">
<ele>464</ele>
</trkpt>
<trkpt lat="40.547668067738414" lon="14.229049505665898">
<ele>463</ele>
</trkpt>
<trkpt lat="40.547533873468637" lon="14.229015978053212">
<ele>462</ele>
</trkpt>
<trkpt lat="40.547459609806538" lon="14.228986976668239">
<ele>462</ele>
</trkpt>
<trkpt lat="40.547351567074656" lon="14.228945905342698">
<ele>461</ele>
</trkpt>
<trkpt lat="40.547250565141439" lon="14.228853452950716">
<ele>460</ele>
</trkpt>
<trkpt lat="40.547173283994198" lon="14.228780614212155">
<ele>459</ele>
</trkpt>
<trkpt lat="40.547110922634602" lon="14.228786900639534">
<ele>459</ele>
</trkpt>
<trkpt lat="40.547123411670327" lon="14.228591686114669">
<ele>458</ele>
</trkpt>
<trkpt lat="40.547115616500378" lon="14.228485990315676">
<ele>459</ele>
</trkpt>
<trkpt lat="40.547111174091697" lon="14.228389849886298">
<ele>460</ele>
</trkpt>
<trkpt lat="40.546965328976512" lon="14.228155910968781">
<ele>462</ele>
</trkpt>
<trkpt lat="40.546804647892714" lon="14.228235455229878">
<ele>463</ele>
</trkpt>
<trkpt lat="40.546679589897394" lon="14.22818667255342">
<ele>464</ele>
</trkpt>
<trkpt lat="40.546516226604581" lon="14.228082150220871">
<ele>465</ele>
</trkpt>
<trkpt lat="40.546413883566856" lon="14.227941166609526">
<ele>466</ele>
</trkpt>
<trkpt lat="40.546374153345823" lon="14.227810576558113">
<ele>468</ele>
</trkpt>
<trkpt lat="40.546389743685722" lon="14.227718627080321">
<ele>469</ele>
</trkpt>
<trkpt lat="40.546373398974538" lon="14.227590467780828">
<ele>470</ele>
</trkpt>
<trkpt lat="40.546332579106092" lon="14.227436324581504">
<ele>472</ele>
</trkpt>
<trkpt lat="40.546239372342825" lon="14.2273950856179">
<ele>473</ele>
</trkpt>
<trkpt lat="40.546134850010276" lon="14.227314284071326">
<ele>475</ele>
</trkpt>
<trkpt lat="40.546045582741499" lon="14.227184616029263">
<ele>476</ele>
</trkpt>
<trkpt lat="40.546011636033654" lon="14.227094175294042">
<ele>478</ele>
</trkpt>
<trkpt lat="40.545944413170218" lon="14.226986719295382">
<ele>480</ele>
</trkpt>
<trkpt lat="40.545860510319471" lon="14.226866858080029">
<ele>481</ele>
</trkpt>
<trkpt lat="40.545757748186588" lon="14.2268131300807">
<ele>483</ele>
</trkpt>
<trkpt lat="40.545635037124157" lon="14.226744147017598">
<ele>484</ele>
</trkpt>
<trkpt lat="40.545533113181591" lon="14.226696453988552">
<ele>486</ele>
</trkpt>
<trkpt lat="40.545408641919494" lon="14.226684803143144">
<ele>488</ele>
</trkpt>
<trkpt lat="40.54523547179997" lon="14.226716235280037">
<ele>491</ele>
</trkpt>
<trkpt lat="40.545153161510825" lon="14.226679774001241">
<ele>493</ele>
</trkpt>
<trkpt lat="40.5451147723943" lon="14.226598050445318">
<ele>496</ele>
</trkpt>
<trkpt lat="40.545046962797642" lon="14.226495875045657">
<ele>498</ele>
</trkpt>
<trkpt lat="40.544942440465093" lon="14.2263865750283">
<ele>500</ele>
</trkpt>
<trkpt lat="40.544872786849737" lon="14.226269479840994">
<ele>503</ele>
</trkpt>
<trkpt lat="40.544861471280456" lon="14.22616520896554">
<ele>505</ele>
</trkpt>
<trkpt lat="40.544795924797654" lon="14.226023387163877">
<ele>508</ele>
</trkpt>
<trkpt lat="40.544810425490141" lon="14.225905118510127">
<ele>510</ele>
</trkpt>
<trkpt lat="40.544862560927868" lon="14.225819958373904">
<ele>513</ele>
</trkpt>
<trkpt lat="40.544854933395982" lon="14.225646704435349">
<ele>516</ele>
</trkpt>
<trkpt lat="40.544891729950905" lon="14.225616697221994">
<ele>520</ele>
</trkpt>
<trkpt lat="40.54494428448379" lon="14.225568501278758">
<ele>523</ele>
</trkpt>
<trkpt lat="40.545062050223351" lon="14.225517120212317">
<ele>526</ele>
</trkpt>
<trkpt lat="40.545122399926186" lon="14.225417040288448">
<ele>529</ele>
</trkpt>
<trkpt lat="40.545133464038372" lon="14.225325006991625">
<ele>532</ele>
</trkpt>
<trkpt lat="40.545171182602644" lon="14.225149070844054">
<ele>536</ele>
</trkpt>
<trkpt lat="40.545171685516834" lon="14.224987803027034">
<ele>539</ele>
</trkpt>
<trkpt lat="40.54522130638361" lon="14.224953856319189">
<ele>542</ele>
</trkpt>
<trkpt lat="40.545238824561238" lon="14.224796527996659">
<ele>546</ele>
</trkpt>
<trkpt lat="40.545262712985277" lon="14.22459720633924">
<ele>549</ele>
</trkpt>
<trkpt lat="40.545270089060068" lon="14.224500982090831">
<ele>553</ele>
</trkpt>
<trkpt lat="40.545228263363242" lon="14.224434848874807">
<ele>556</ele>
</trkpt>
<trkpt lat="40.545220552012324" lon="14.224339630454779">
<ele>560</ele>
</trkpt>
<trkpt lat="40.545211751013994" lon="14.224118767306209">
<ele>564</ele>
</trkpt>
<trkpt lat="40.545220132917166" lon="14.224021872505546">
<ele>567</ele>
</trkpt>
<trkpt lat="40.54518953897059" lon="14.223956577479839">
<ele>571</ele>
</trkpt>
<trkpt lat="40.545142348855734" lon="14.22390871681273">
<ele>575</ele>
</trkpt>
<trkpt lat="40.545147964730859" lon="14.223772594705224">
<ele>578</ele>
</trkpt>
<trkpt lat="40.545192221179605" lon="14.223677879199386">
<ele>582</ele>
</trkpt>
<trkpt lat="40.545168919488788" lon="14.223483586683869">
<ele>585</ele>
</trkpt>
<trkpt lat="40.545311998575926" lon="14.223417034372687">
<ele>589</ele>
</trkpt>
<trkpt lat="40.545325912535191" lon="14.2233956605196">
<ele>588</ele>
</trkpt>
<trkpt lat="40.545220719650388" lon="14.223458357155323">
<ele>587</ele>
</trkpt>
<trkpt lat="40.545111335813999" lon="14.223444694653153">
<ele>585</ele>
</trkpt>
<trkpt lat="40.545037323608994" lon="14.223415525630116">
<ele>584</ele>
</trkpt>
<trkpt lat="40.544955851510167" lon="14.223316954448819">
<ele>583</ele>
</trkpt>
<trkpt lat="40.544963646680117" lon="14.223291305825114">
<ele>582</ele>
</trkpt>
<trkpt lat="40.544992480427027" lon="14.223179407417774">
<ele>581</ele>
</trkpt>
<trkpt lat="40.544926095753908" lon="14.223272111266851">
<ele>579</ele>
</trkpt>
<trkpt lat="40.544919222593307" lon="14.223270937800407">
<ele>578</ele>
</trkpt>
<trkpt lat="40.545037239789963" lon="14.223105059936643">
<ele>577</ele>
</trkpt>
<trkpt lat="40.545108569785953" lon="14.223080920055509">
<ele>574</ele>
</trkpt>
<trkpt lat="40.545055596157908" lon="14.222975727170706">
<ele>571</ele>
</trkpt>
<trkpt lat="40.545239578932524" lon="14.222933147102594">
<ele>568</ele>
</trkpt>
<trkpt lat="40.545343011617661" lon="14.222978660836816">
<ele>565</ele>
</trkpt>
<trkpt lat="40.545451976358891" lon="14.22302819788456">
<ele>562</ele>
</trkpt>
<trkpt lat="40.545494640246034" lon="14.222991485148668">
<ele>558</ele>
</trkpt>
<trkpt lat="40.545438146218657" lon="14.222893500700593">
<ele>555</ele>
</trkpt>
<trkpt lat="40.54535080678761" lon="14.222847484052181">
<ele>552</ele>
</trkpt>
<trkpt lat="40.545249721035361" lon="14.222746817395091">
<ele>549</ele>
</trkpt>
<trkpt lat="40.545173278078437" lon="14.222699208185077">
<ele>546</ele>
</trkpt>
<trkpt lat="40.545068504288793" lon="14.222633242607117">
<ele>543</ele>
</trkpt>
<trkpt lat="40.544973956421018" lon="14.222548585385084">
<ele>541</ele>
</trkpt>
<trkpt lat="40.544897010549903" lon="14.222471471875906">
<ele>538</ele>
</trkpt>
<trkpt lat="40.544815203174949" lon="14.222405925393105">
<ele>536</ele>
</trkpt>
<trkpt lat="40.54475661367178" lon="14.222376672551036">
<ele>533</ele>
</trkpt>
<trkpt lat="40.544642955064774" lon="14.222245663404465">
<ele>530</ele>
</trkpt>
<trkpt lat="40.54455628618598" lon="14.222186570987105">
<ele>528</ele>
</trkpt>
<trkpt lat="40.544539438560605" lon="14.222189001739025">
<ele>525</ele>
</trkpt>
<trkpt lat="40.544500211253762" lon="14.222190510481596">
<ele>523</ele>
</trkpt>
<trkpt lat="40.544375237077475" lon="14.22209738753736">
<ele>520</ele>
</trkpt>
<trkpt lat="40.544333159923553" lon="14.22207341529429">
<ele>520</ele>
</trkpt>
<trkpt lat="40.544134089723229" lon="14.221901753917336">
<ele>519</ele>
</trkpt>
<trkpt lat="40.544062256813049" lon="14.221858335658908">
<ele>519</ele>
</trkpt>
<trkpt lat="40.543946251273155" lon="14.22169866040349">
<ele>519</ele>
</trkpt>
<trkpt lat="40.543867545202374" lon="14.221624648198485">
<ele>518</ele>
</trkpt>
<trkpt lat="40.543785905465484" lon="14.221560442820191">
<ele>518</ele>
</trkpt>
<trkpt lat="40.543718347325921" lon="14.221487771719694">
<ele>518</ele>
</trkpt>
<trkpt lat="40.54356780834496" lon="14.221387356519699">
<ele>518</ele>
</trkpt>
<trkpt lat="40.543448030948639" lon="14.221267411485314">
<ele>517</ele>
</trkpt>
<trkpt lat="40.543354321271181" lon="14.221169343218207">
<ele>517</ele>
</trkpt>
<trkpt lat="40.543332612141967" lon="14.221146963536739">
<ele>516</ele>
</trkpt>
<trkpt lat="40.543184503912926" lon="14.220998352393508">
<ele>516</ele>
</trkpt>
<trkpt lat="40.543113257735968" lon="14.220942864194512">
<ele>515</ele>
</trkpt>
<trkpt lat="40.543010998517275" lon="14.220844963565469">
<ele>515</ele>
</trkpt>
<trkpt lat="40.542975962162018" lon="14.22080053947866">
<ele>514</ele>
</trkpt>
<trkpt lat="40.542910331860185" lon="14.220715630799532">
<ele>513</ele>
</trkpt>
<trkpt lat="40.542854256927967" lon="14.2206153832376">
<ele>513</ele>
</trkpt>
<trkpt lat="40.542807066813111" lon="14.220511866733432">
<ele>512</ele>
</trkpt>
<trkpt lat="40.542784268036485" lon="14.22033341601491">
<ele>512</ele>
</trkpt>
<trkpt lat="40.542784268036485" lon="14.220175165683031">
<ele>511</ele>
</trkpt>
<trkpt lat="40.542773371562362" lon="14.22012378461659">
<ele>508</ele>
</trkpt>
<trkpt lat="40.542780160903931" lon="14.219953548163176">
<ele>506</ele>
</trkpt>
<trkpt lat="40.542773706838489" lon="14.219913482666016">
<ele>504</ele>
</trkpt>
<trkpt lat="40.542769432067871" lon="14.219852881506085">
<ele>501</ele>
</trkpt>
<trkpt lat="40.542768593877554" lon="14.219677783548832">
<ele>498</ele>
</trkpt>
<trkpt lat="40.542726013809443" lon="14.219524646177888">
<ele>496</ele>
</trkpt>
<trkpt lat="40.542688798159361" lon="14.219436468556523">
<ele>494</ele>
</trkpt>
<trkpt lat="40.542632304131985" lon="14.219339909031987">
<ele>491</ele>
</trkpt>
<trkpt lat="40.542599447071552" lon="14.219176294282079">
<ele>488</ele>
</trkpt>
<trkpt lat="40.542587460950017" lon="14.219100773334503">
<ele>486</ele>
</trkpt>
<trkpt lat="40.542554017156363" lon="14.218988036736846">
<ele>483</ele>
</trkpt>
<trkpt lat="40.542538510635495" lon="14.21887488104403">
<ele>480</ele>
</trkpt>
<trkpt lat="40.542523339390755" lon="14.218681426718831">
<ele>476</ele>
</trkpt>
<trkpt lat="40.542514957487583" lon="14.218574305996299">
<ele>473</ele>
</trkpt>
<trkpt lat="40.542467851191759" lon="14.218402476981282">
<ele>470</ele>
</trkpt>
<trkpt lat="40.542449075728655" lon="14.218297870829701">
<ele>467</ele>
</trkpt>
<trkpt lat="40.542445471510291" lon="14.218224445357919">
<ele>464</ele>
</trkpt>
<trkpt lat="40.542423846200109" lon="14.218020429834723">
<ele>460</ele>
</trkpt>
<trkpt lat="40.54240926168859" lon="14.217854216694832">
<ele>457</ele>
</trkpt>
<trkpt lat="40.542319240048528" lon="14.217673921957612">
<ele>454</ele>
</trkpt>
<trkpt lat="40.542269703000784" lon="14.21757509931922">
<ele>452</ele>
</trkpt>
<trkpt lat="40.54219619370997" lon="14.217449454590678">
<ele>450</ele>
</trkpt>
<trkpt lat="40.542131820693612" lon="14.217359013855457">
<ele>448</ele>
</trkpt>
<trkpt lat="40.542070381343365" lon="14.21730101108551">
<ele>446</ele>
</trkpt>
<trkpt lat="40.542034506797791" lon="14.21724678017199">
<ele>444</ele>
</trkpt>
<trkpt lat="40.542026460170746" lon="14.21707914210856">
<ele>443</ele>
</trkpt>
<trkpt lat="40.542107345536351" lon="14.217154243960977">
<ele>441</ele>
</trkpt>
<trkpt lat="40.542179010808468" lon="14.217175701633096">
<ele>439</ele>
</trkpt>
<trkpt lat="40.542236929759383" lon="14.217222891747952">
<ele>437</ele>
</trkpt>
<trkpt lat="40.54234866052866" lon="14.217272093519568">
<ele>435</ele>
</trkpt>
<trkpt lat="40.542469779029489" lon="14.217359181493521">
<ele>430</ele>
</trkpt>
<trkpt lat="40.54256365634501" lon="14.217324480414391">
<ele>426</ele>
</trkpt>
<trkpt lat="40.542645212262869" lon="14.217321714386344">
<ele>421</ele>
</trkpt>
<trkpt lat="40.542668262496591" lon="14.217269998043776">
<ele>417</ele>
</trkpt>
<trkpt lat="40.542704975232482" lon="14.217150639742613">
<ele>412</ele>
</trkpt>
<trkpt lat="40.542740430682898" lon="14.217063970863819">
<ele>407</ele>
</trkpt>
<trkpt lat="40.54282458499074" lon="14.217027090489864">
<ele>403</ele>
</trkpt>
<trkpt lat="40.542911170050502" lon="14.217080483213067">
<ele>398</ele>
</trkpt>
<trkpt lat="40.542921144515276" lon="14.217000855132937">
<ele>394</ele>
</trkpt>
<trkpt lat="40.542921395972371" lon="14.216938996687531">
<ele>389</ele>
</trkpt>
<trkpt lat="40.542858028784394" lon="14.216839084401727">
<ele>385</ele>
</trkpt>
<trkpt lat="40.542913181707263" lon="14.216772112995386">
<ele>381</ele>
</trkpt>
<trkpt lat="40.542944949120283" lon="14.216745039448142">
<ele>376</ele>
</trkpt>
<trkpt lat="40.543025834485888" lon="14.21670095063746">
<ele>372</ele>
</trkpt>
<trkpt lat="40.543049303814769" lon="14.216638756915927">
<ele>368</ele>
</trkpt>
<trkpt lat="40.543081741780043" lon="14.216562146320939">
<ele>364</ele>
</trkpt>
<trkpt lat="40.543094733729959" lon="14.216406242921948">
<ele>360</ele>
</trkpt>
<trkpt lat="40.543142091482878" lon="14.216381935402751">
<ele>355</ele>
</trkpt>
<trkpt lat="40.543155753985047" lon="14.216248830780387">
<ele>351</ele>
</trkpt>
<trkpt lat="40.543190287426114" lon="14.216229049488902">
<ele>347</ele>
</trkpt>
<trkpt lat="40.543227922171354" lon="14.216193091124296">
<ele>344</ele>
</trkpt>
<trkpt lat="40.543307047337294" lon="14.216165849938989">
<ele>341</ele>
</trkpt>
<trkpt lat="40.543318782001734" lon="14.216043641790748">
<ele>338</ele>
</trkpt>
<trkpt lat="40.543311405926943" lon="14.215923780575395">
<ele>335</ele>
</trkpt>
<trkpt lat="40.543285757303238" lon="14.215805428102612">
<ele>332</ele>
</trkpt>
<trkpt lat="40.543273519724607" lon="14.215670395642519">
<ele>328</ele>
</trkpt>
<trkpt lat="40.543276956304908" lon="14.21561423689127">
<ele>325</ele>
</trkpt>
<trkpt lat="40.543216606602073" lon="14.215511810034513">
<ele>322</ele>
</trkpt>
<trkpt lat="40.543166231364012" lon="14.215382728725672">
<ele>319</ele>
</trkpt>
<trkpt lat="40.543124740943313" lon="14.215277619659901">
<ele>316</ele>
</trkpt>
<trkpt lat="40.543117867782712" lon="14.215184077620506">
<ele>313</ele>
</trkpt>
<trkpt lat="40.543094649910927" lon="14.215023731812835">
<ele>310</ele>
</trkpt>
<trkpt lat="40.543025834485888" lon="14.214945528656244">
<ele>307</ele>
</trkpt>
<trkpt lat="40.543024828657508" lon="14.214927172288299">
<ele>304</ele>
</trkpt>
<trkpt lat="40.542965484783053" lon="14.214690383523703">
<ele>300</ele>
</trkpt>
<trkpt lat="40.542956348508596" lon="14.214593404904008">
<ele>297</ele>
</trkpt>
<trkpt lat="40.542896250262856" lon="14.214459294453263">
<ele>294</ele>
</trkpt>
<trkpt lat="40.542848724871874" lon="14.214281514286995">
<ele>291</ele>
</trkpt>
<trkpt lat="40.542785190045834" lon="14.214092837646604">
<ele>288</ele>
</trkpt>
<trkpt lat="40.542737580835819" lon="14.213935676962137">
<ele>285</ele>
</trkpt>
<trkpt lat="40.542686115950346" lon="14.213795615360141">
<ele>284</ele>
</trkpt>
<trkpt lat="40.542576815932989" lon="14.213687656447291">
<ele>283</ele>
</trkpt>
<trkpt lat="40.542467348277569" lon="14.213589420542121">
<ele>283</ele>
</trkpt>
<trkpt lat="40.542450416833162" lon="14.213580535724759">
<ele>282</ele>
</trkpt>
<trkpt lat="40.542351845651865" lon="14.213585732504725">
<ele>281</ele>
</trkpt>
<trkpt lat="40.542320916429162" lon="14.213514653965831">
<ele>280</ele>
</trkpt>
<trkpt lat="40.542233744636178" lon="14.213485904037952">
<ele>279</ele>
</trkpt>
<trkpt lat="40.542147997766733" lon="14.213399738073349">
<ele>279</ele>
</trkpt>
<trkpt lat="40.542072225362062" lon="14.213314661756158">
<ele>278</ele>
</trkpt>
<trkpt lat="40.542014976963401" lon="14.213236793875694">
<ele>277</ele>
</trkpt>
<trkpt lat="40.541945826262236" lon="14.213149873539805">
<ele>275</ele>
</trkpt>
<trkpt lat="40.541845913976431" lon="14.213015427812934">
<ele>273</ele>
</trkpt>
<trkpt lat="40.54176134057343" lon="14.21295465901494">
<ele>271</ele>
</trkpt>
<trkpt lat="40.541635192930698" lon="14.212840246036649">
<ele>269</ele>
</trkpt>
<trkpt lat="40.541493706405163" lon="14.212727677077055">
<ele>266</ele>
</trkpt>
<trkpt lat="40.541460178792477" lon="14.212628686800599">
<ele>264</ele>
</trkpt>
<trkpt lat="40.541420951485634" lon="14.212439591065049">
<ele>262</ele>
</trkpt>
<trkpt lat="40.541266892105341" lon="14.212289722636342">
<ele>260</ele>
</trkpt>
<trkpt lat="40.541182486340404" lon="14.212194168940187">
<ele>258</ele>
</trkpt>
<trkpt lat="40.541096236556768" lon="14.212101716548204">
<ele>256</ele>
</trkpt>
<trkpt lat="40.541032114997506" lon="14.212004235014319">
<ele>253</ele>
</trkpt>
<trkpt lat="40.540959946811199" lon="14.211936173960567">
<ele>250</ele>
</trkpt>
<trkpt lat="40.540892388671637" lon="14.21181907877326">
<ele>248</ele>
</trkpt>
<trkpt lat="40.540783172473311" lon="14.211683291941881">
<ele>245</ele>
</trkpt>
<trkpt lat="40.540709747001529" lon="14.211564352735877">
<ele>242</ele>
</trkpt>
<trkpt lat="40.540657108649611" lon="14.211444407701492">
<ele>239</ele>
</trkpt>
<trkpt lat="40.540599944069982" lon="14.211332676932216">
<ele>236</ele>
</trkpt>
<trkpt lat="40.540573121979833" lon="14.211210301145911">
<ele>234</ele>
</trkpt>
<trkpt lat="40.540505312383175" lon="14.211082812398672">
<ele>231</ele>
</trkpt>
<trkpt lat="40.54039022885263" lon="14.210954401642084">
<ele>228</ele>
</trkpt>
<trkpt lat="40.5403814278543" lon="14.210947444662452">
<ele>226</ele>
</trkpt>
<trkpt lat="40.540302721783519" lon="14.210885837674141">
<ele>224</ele>
</trkpt>
<trkpt lat="40.540274642407894" lon="14.210759354755282">
<ele>223</ele>
</trkpt>
<trkpt lat="40.540223680436611" lon="14.210609989240766">
<ele>221</ele>
</trkpt>
<trkpt lat="40.54021337069571" lon="14.210511418059468">
<ele>219</ele>
</trkpt>
<trkpt lat="40.540133155882359" lon="14.210447547957301">
<ele>217</ele>
</trkpt>
<trkpt lat="40.540116727352142" lon="14.21041376888752">
<ele>215</ele>
</trkpt>
<trkpt lat="40.540002398192883" lon="14.210288627073169">
<ele>214</ele>
</trkpt>
<trkpt lat="40.539923524484038" lon="14.210203886032104">
<ele>212</ele>
</trkpt>
<trkpt lat="40.539858564734459" lon="14.210148816928267">
<ele>210</ele>
</trkpt>
<trkpt lat="40.539753288030624" lon="14.210066590458155">
<ele>209</ele>
</trkpt>
<trkpt lat="40.539723783731461" lon="14.210050832480192">
<ele>207</ele>
</trkpt>
<trkpt lat="40.539606437087059" lon="14.209851510822773">
<ele>206</ele>
</trkpt>
<trkpt lat="40.539554301649332" lon="14.209800129756331">
<ele>205</ele>
</trkpt>
<trkpt lat="40.539461011067033" lon="14.20974925160408">
<ele>203</ele>
</trkpt>
<trkpt lat="40.539411976933479" lon="14.209741037338972">
<ele>202</ele>
</trkpt>
<trkpt lat="40.53954147733748" lon="14.209773307666183">
<ele>202</ele>
</trkpt>
<trkpt lat="40.539627224206924" lon="14.209740199148655">
<ele>202</ele>
</trkpt>
<trkpt lat="40.53971447981894" lon="14.209649926051497">
<ele>202</ele>
</trkpt>
<trkpt lat="40.539786899462342" lon="14.209615141153336">
<ele>202</ele>
</trkpt>
<trkpt lat="40.54000080563128" lon="14.209474660456181">
<ele>202</ele>
</trkpt>
<trkpt lat="40.540041290223598" lon="14.209404671564698">
<ele>202</ele>
</trkpt>
<trkpt lat="40.540139023214579" lon="14.209484970197082">
<ele>202</ele>
</trkpt>
<trkpt lat="40.540209598839283" lon="14.209555545821786">
<ele>202</ele>
</trkpt>
<trkpt lat="40.540320742875338" lon="14.209642549976707">
<ele>202</ele>
</trkpt>
<trkpt lat="40.54045376367867" lon="14.209814462810755">
<ele>202</ele>
</trkpt>
<trkpt lat="40.540711674839258" lon="14.210087545216084">
<ele>204</ele>
</trkpt>
<trkpt lat="40.540829859673977" lon="14.210271276533604">
<ele>206</ele>
</trkpt>
<trkpt lat="40.540969334542751" lon="14.210501862689853">
<ele>208</ele>
</trkpt>
<trkpt lat="40.541066899895668" lon="14.210646450519562">
<ele>210</ele>
</trkpt>
<trkpt lat="40.541111323982477" lon="14.210734292864799">
<ele>212</ele>
</trkpt>
<trkpt lat="40.54122481495142" lon="14.210909474641085">
<ele>215</ele>
</trkpt>
<trkpt lat="40.541391363367438" lon="14.211167637258768">
<ele>217</ele>
</trkpt>
<trkpt lat="40.541573837399483" lon="14.211435271427035">
<ele>219</ele>
</trkpt>
<trkpt lat="40.54176134057343" lon="14.211672395467758">
<ele>221</ele>
</trkpt>
<trkpt lat="40.541993184015155" lon="14.211926367133856">
<ele>223</ele>
</trkpt>
<trkpt lat="40.54220600053668" lon="14.212112864479423">
<ele>224</ele>
</trkpt>
<trkpt lat="40.542437508702278" lon="14.2121572047472">
<ele>224</ele>
</trkpt>
<trkpt lat="40.542668513953686" lon="14.212267426773906">
<ele>225</ele>
</trkpt>
<trkpt lat="40.542880827561021" lon="14.212468843907118">
<ele>225</ele>
</trkpt>
<trkpt lat="40.543044861406088" lon="14.212661460042">
<ele>226</ele>
</trkpt>
<trkpt lat="40.543268071487546" lon="14.212849298492074">
<ele>227</ele>
</trkpt>
<trkpt lat="40.543479127809405" lon="14.213041746988893">
<ele>227</ele>
</trkpt>
<trkpt lat="40.543653722852468" lon="14.213236039504409">
<ele>228</ele>
</trkpt>
<trkpt lat="40.543815242126584" lon="14.213426979258657">
<ele>228</ele>
</trkpt>
<trkpt lat="40.543941389769316" lon="14.213549271225929">
<ele>229</ele>
</trkpt>
<trkpt lat="40.544047504663467" lon="14.213686650618911">
<ele>230</ele>
</trkpt>
<trkpt lat="40.544152613729239" lon="14.213993009179831">
<ele>231</ele>
</trkpt>
<trkpt lat="40.544263171032071" lon="14.214225858449936">
<ele>232</ele>
</trkpt>
<trkpt lat="40.544450422748923" lon="14.214404057711363">
<ele>233</ele>
</trkpt>
<trkpt lat="40.544588137418032" lon="14.214603882282972">
<ele>234</ele>
</trkpt>
<trkpt lat="40.544821741059422" lon="14.214810412377119">
<ele>236</ele>
</trkpt>
<trkpt lat="40.544909499585629" lon="14.214973356574774">
<ele>237</ele>
</trkpt>
<trkpt lat="40.545025924220681" lon="14.215174941346049">
<ele>238</ele>
</trkpt>
<trkpt lat="40.545205380767584" lon="14.215391362085938">
<ele>239</ele>
</trkpt>
<trkpt lat="40.545377461239696" lon="14.215569980442524">
<ele>240</ele>
</trkpt>
<trkpt lat="40.545530933886766" lon="14.215677939355373">
<ele>241</ele>
</trkpt>
<trkpt lat="40.545629253610969" lon="14.215809870511293">
<ele>242</ele>
</trkpt>
<trkpt lat="40.545764956623316" lon="14.216016232967377">
<ele>243</ele>
</trkpt>
<trkpt lat="40.545891607180238" lon="14.216200802475214">
<ele>244</ele>
</trkpt>
<trkpt lat="40.546066202223301" lon="14.216462234035134">
<ele>244</ele>
</trkpt>
<trkpt lat="40.546212047338486" lon="14.216577401384711">
<ele>245</ele>
</trkpt>
<trkpt lat="40.546390330418944" lon="14.216796420514584">
<ele>246</ele>
</trkpt>
<trkpt lat="40.546586718410254" lon="14.217053996399045">
<ele>247</ele>
</trkpt>
<trkpt lat="40.546787045896053" lon="14.21730587258935">
<ele>248</ele>
</trkpt>
<trkpt lat="40.54695300757885" lon="14.217553054913878">
<ele>249</ele>
</trkpt>
<trkpt lat="40.546955103054643" lon="14.217567555606365">
<ele>250</ele>
</trkpt>
<trkpt lat="40.547099942341447" lon="14.217745838686824">
<ele>251</ele>
</trkpt>
<trkpt lat="40.547252912074327" lon="14.21790299937129">
<ele>252</ele>
</trkpt>
<trkpt lat="40.54732390679419" lon="14.218115648254752">
<ele>253</ele>
</trkpt>
<trkpt lat="40.547407642006874" lon="14.218321423977613">
<ele>254</ele>
</trkpt>
<trkpt lat="40.547661613672972" lon="14.218492833897471">
<ele>256</ele>
</trkpt>
<trkpt lat="40.547869820147753" lon="14.218598864972591">
<ele>257</ele>
</trkpt>
<trkpt lat="40.54805631749332" lon="14.218857614323497">
<ele>258</ele>
</trkpt>
<trkpt lat="40.548147596418858" lon="14.218876305967569">
<ele>259</ele>
</trkpt>
<trkpt lat="40.548186404630542" lon="14.218897176906466">
<ele>260</ele>
</trkpt>
<trkpt lat="40.548422858119011" lon="14.219130109995604">
<ele>260</ele>
</trkpt>
<trkpt lat="40.548672303557396" lon="14.219260532408953">
<ele>260</ele>
</trkpt>
<trkpt lat="40.54885083809495" lon="14.219442000612617">
<ele>260</ele>
</trkpt>
<trkpt lat="40.549153173342347" lon="14.219616260379553">
<ele>260</ele>
</trkpt>
<trkpt lat="40.549291307106614" lon="14.219697061926126">
<ele>260</ele>
</trkpt>
<trkpt lat="40.549507224932313" lon="14.21984139829874">
<ele>260</ele>
</trkpt>
<trkpt lat="40.549851721152663" lon="14.219937035813928">
<ele>260</ele>
</trkpt>
<trkpt lat="40.550049031153321" lon="14.219949776306748">
<ele>260</ele>
</trkpt>
<trkpt lat="40.550189595669508" lon="14.219961930066347">
<ele>260</ele>
</trkpt>
<trkpt lat="40.550425965338945" lon="14.219899568706751">
<ele>260</ele>
</trkpt>
<trkpt lat="40.550626963376999" lon="14.219828825443983">
<ele>260</ele>
</trkpt>
<trkpt lat="40.550647666677833" lon="14.21981792896986">
<ele>261</ele>
</trkpt>
<trkpt lat="40.550839947536588" lon="14.219771241769195">
<ele>262</ele>
</trkpt>
<trkpt lat="40.550924772396684" lon="14.219740312546492">
<ele>262</ele>
</trkpt>
<trkpt lat="40.551192658022046" lon="14.219769900664687">
<ele>262</ele>
</trkpt>
<trkpt lat="40.551474625244737" lon="14.219884313642979">
<ele>263</ele>
</trkpt>
<trkpt lat="40.551505051553249" lon="14.219900825992227">
<ele>264</ele>
</trkpt>
<trkpt lat="40.55179925635457" lon="14.220022950321436">
<ele>264</ele>
</trkpt>
<trkpt lat="40.552031770348549" lon="14.220099141821265">
<ele>264</ele>
</trkpt>
<trkpt lat="40.552132939919829" lon="14.220169130712748">
<ele>265</ele>
</trkpt>
<trkpt lat="40.55213151499629" lon="14.220171729102731">
<ele>266</ele>
</trkpt>
<trkpt lat="40.552330752834678" lon="14.220197629183531">
<ele>266</ele>
</trkpt>
<trkpt lat="40.552380625158548" lon="14.220214644446969">
<ele>267</ele>
</trkpt>
<trkpt lat="40.552609115839005" lon="14.220335762947798">
<ele>267</ele>
</trkpt>
<trkpt lat="40.552725037559867" lon="14.220430226996541">
<ele>268</ele>
</trkpt>
<trkpt lat="40.552903739735484" lon="14.220535336062312">
<ele>269</ele>
</trkpt>
<trkpt lat="40.553049584850669" lon="14.220681097358465">
<ele>269</ele>
</trkpt>
<trkpt lat="40.553301796317101" lon="14.2208157107234">
<ele>270</ele>
</trkpt>
<trkpt lat="40.553576974198222" lon="14.220948228612542">
<ele>270</ele>
</trkpt>
<trkpt lat="40.553712677210569" lon="14.220976140350103">
<ele>271</ele>
</trkpt>
<trkpt lat="40.553811248391867" lon="14.220991814509034">
<ele>272</ele>
</trkpt>
<trkpt lat="40.553900599479675" lon="14.221010003238916">
<ele>273</ele>
</trkpt>
<trkpt lat="40.554062621667981" lon="14.22110497020185">
<ele>275</ele>
</trkpt>
<trkpt lat="40.554132610559464" lon="14.221167163923383">
<ele>276</ele>
</trkpt>
<trkpt lat="40.554285245016217" lon="14.221169091761112">
<ele>277</ele>
</trkpt>
<trkpt lat="40.55439680814743" lon="14.221206726506352">
<ele>278</ele>
</trkpt>
<trkpt lat="40.554473167285323" lon="14.22126917168498">
<ele>280</ele>
</trkpt>
<trkpt lat="40.554701071232557" lon="14.221462542191148">
<ele>281</ele>
</trkpt>
<trkpt lat="40.55487709119916" lon="14.221518030390143">
<ele>282</ele>
</trkpt>
<trkpt lat="40.555152436718345" lon="14.221593635156751">
<ele>283</ele>
</trkpt>
<trkpt lat="40.555355697870255" lon="14.221641412004828">
<ele>285</ele>
</trkpt>
<trkpt lat="40.555507242679596" lon="14.22159262932837">
<ele>286</ele>
</trkpt>
<trkpt lat="40.555601036176085" lon="14.221606040373445">
<ele>287</ele>
</trkpt>
</trkseg>
</trk>
</gpx>
