<?xml version="1.0" encoding="UTF-8"?>
<gpx version="1.1"
creator="Smartprofil-Office - http://www.rother.de"
xmlns:xsi="http://www.w3.org/2001/XMLSchema-instance"
xmlns="http://www.topografix.com/GPX/1/1"
xsi:schemaLocation="http://www.topografix.com/GPX/1/1 http://www.topografix.com/GPX/1/1/gpx.xsd">
<metadata>

<bounds minlat="40.646850289776921" minlon="14.47624197229743" maxlat="40.670797722414136" maxlon="14.505847189575434"/>
</metadata>
<wpt lat="40.670735025778413" lon="14.47624197229743">
<ele>1102</ele>
<name>32_Stazione M. Faito (1)</name>
<cmt></cmt>
<desc></desc>
<sym>Crossing</sym>
</wpt>

<wpt lat="40.658417986705899" lon="14.498252011835575">
<ele>1278</ele>
<name>32_Capella S. Michele (2)</name>
<cmt></cmt>
<desc></desc>
<sym>Crossing</sym>
</wpt>

<wpt lat="40.647463006898761" lon="14.505844004452229">
<ele>1444</ele>
<name>32_Monte S. Michele (3)</name>
<cmt></cmt>
<desc></desc>
<sym>Crossing</sym>
</wpt>

<trk>
<name>Neapel_32_Monte Faito - Monte Sant'Angelo</name>
<trkseg>
<trkpt lat="40.670735025778413" lon="14.47624197229743">
<ele>1102</ele>
</trkpt>
<trkpt lat="40.670797722414136" lon="14.476657714694738">
<ele>1103</ele>
</trkpt>
<trkpt lat="40.670744497328997" lon="14.476682944223285">
<ele>1104</ele>
</trkpt>
<trkpt lat="40.670680794864893" lon="14.476774726063013">
<ele>1105</ele>
</trkpt>
<trkpt lat="40.670601669698954" lon="14.47686642408371">
<ele>1106</ele>
</trkpt>
<trkpt lat="40.670579625293612" lon="14.476961391046643">
<ele>1108</ele>
</trkpt>
<trkpt lat="40.670460350811481" lon="14.477297170087695">
<ele>1109</ele>
</trkpt>
<trkpt lat="40.670389691367745" lon="14.477466568350792">
<ele>1110</ele>
</trkpt>
<trkpt lat="40.670329928398132" lon="14.47776647284627">
<ele>1111</ele>
</trkpt>
<trkpt lat="40.670245522633195" lon="14.478028491139412">
<ele>1112</ele>
</trkpt>
<trkpt lat="40.670145275071263" lon="14.478330155834556">
<ele>1113</ele>
</trkpt>
<trkpt lat="40.670068748295307" lon="14.478631233796477">
<ele>1113</ele>
</trkpt>
<trkpt lat="40.669945115223527" lon="14.478764506056905">
<ele>1113</ele>
</trkpt>
<trkpt lat="40.669819721952081" lon="14.478878919035196">
<ele>1114</ele>
</trkpt>
<trkpt lat="40.669700028374791" lon="14.479007581248879">
<ele>1114</ele>
</trkpt>
<trkpt lat="40.669554267078638" lon="14.479217045009136">
<ele>1114</ele>
</trkpt>
<trkpt lat="40.669440105557442" lon="14.4793691765517">
<ele>1114</ele>
</trkpt>
<trkpt lat="40.66936869174242" lon="14.479517703875899">
<ele>1114</ele>
</trkpt>
<trkpt lat="40.66933742724359" lon="14.479622645303607">
<ele>1115</ele>
</trkpt>
<trkpt lat="40.669295685365796" lon="14.479757510125637">
<ele>1115</ele>
</trkpt>
<trkpt lat="40.669150426983833" lon="14.479886591434479">
<ele>1115</ele>
</trkpt>
<trkpt lat="40.66909066401422" lon="14.479964207857847">
<ele>1115</ele>
</trkpt>
<trkpt lat="40.66899879835546" lon="14.48005179874599">
<ele>1115</ele>
</trkpt>
<trkpt lat="40.668867789208889" lon="14.480165373533964">
<ele>1116</ele>
</trkpt>
<trkpt lat="40.668676597997546" lon="14.480231087654829">
<ele>1116</ele>
</trkpt>
<trkpt lat="40.668604262173176" lon="14.480299986898899">
<ele>1116</ele>
</trkpt>
<trkpt lat="40.668526478111744" lon="14.480427894741297">
<ele>1116</ele>
</trkpt>
<trkpt lat="40.668488424271345" lon="14.480494866147637">
<ele>1116</ele>
</trkpt>
<trkpt lat="40.668410724028945" lon="14.480605507269502">
<ele>1117</ele>
</trkpt>
<trkpt lat="40.668340735137463" lon="14.480738779529929">
<ele>1117</ele>
</trkpt>
<trkpt lat="40.668284157291055" lon="14.480902729555964">
<ele>1117</ele>
</trkpt>
<trkpt lat="40.668253730982542" lon="14.481018986552954">
<ele>1118</ele>
</trkpt>
<trkpt lat="40.668201679363847" lon="14.481070367619395">
<ele>1119</ele>
</trkpt>
<trkpt lat="40.668169911950827" lon="14.481176817789674">
<ele>1120</ele>
</trkpt>
<trkpt lat="40.667986264452338" lon="14.481403967365623">
<ele>1121</ele>
</trkpt>
<trkpt lat="40.667839832603931" lon="14.481569845229387">
<ele>1122</ele>
</trkpt>
<trkpt lat="40.667723827064037" lon="14.481755252927542">
<ele>1124</ele>
</trkpt>
<trkpt lat="40.667710248380899" lon="14.481797162443399">
<ele>1125</ele>
</trkpt>
<trkpt lat="40.667639253661036" lon="14.481918532401323">
<ele>1126</ele>
</trkpt>
<trkpt lat="40.667570773512125" lon="14.482046775519848">
<ele>1127</ele>
</trkpt>
<trkpt lat="40.667480081319809" lon="14.482393031939864">
<ele>1128</ele>
</trkpt>
<trkpt lat="40.667412858456373" lon="14.482633173465729">
<ele>1130</ele>
</trkpt>
<trkpt lat="40.667354268953204" lon="14.482833752408624">
<ele>1133</ele>
</trkpt>
<trkpt lat="40.667317723855376" lon="14.483053861185908">
<ele>1135</ele>
</trkpt>
<trkpt lat="40.667257122695446" lon="14.483292829245329">
<ele>1138</ele>
</trkpt>
<trkpt lat="40.667122593149543" lon="14.483642019331455">
<ele>1140</ele>
</trkpt>
<trkpt lat="40.667067691683769" lon="14.483947539702058">
<ele>1142</ele>
</trkpt>
<trkpt lat="40.667022513225675" lon="14.484133198857307">
<ele>1145</ele>
</trkpt>
<trkpt lat="40.667011449113488" lon="14.484242917969823">
<ele>1147</ele>
</trkpt>
<trkpt lat="40.666987309232354" lon="14.484383147209883">
<ele>1150</ele>
</trkpt>
<trkpt lat="40.66692310385406" lon="14.484514659270644">
<ele>1152</ele>
</trkpt>
<trkpt lat="40.666839871555567" lon="14.484727140516043">
<ele>1153</ele>
</trkpt>
<trkpt lat="40.666686398908496" lon="14.485014975070953">
<ele>1153</ele>
</trkpt>
<trkpt lat="40.666613057255745" lon="14.485160820186138">
<ele>1154</ele>
</trkpt>
<trkpt lat="40.666579864919186" lon="14.485218320041895">
<ele>1154</ele>
</trkpt>
<trkpt lat="40.666469978168607" lon="14.485374642536044">
<ele>1155</ele>
</trkpt>
<trkpt lat="40.666462685912848" lon="14.485386880114675">
<ele>1156</ele>
</trkpt>
<trkpt lat="40.666364450007677" lon="14.48562023229897">
<ele>1156</ele>
</trkpt>
<trkpt lat="40.666211899369955" lon="14.485992137342691">
<ele>1157</ele>
</trkpt>
<trkpt lat="40.666117519140244" lon="14.486246947199106">
<ele>1157</ele>
</trkpt>
<trkpt lat="40.666057504713535" lon="14.486504439264536">
<ele>1158</ele>
</trkpt>
<trkpt lat="40.666050799190998" lon="14.486812055110931">
<ele>1160</ele>
</trkpt>
<trkpt lat="40.665945103392005" lon="14.48708857409656">
<ele>1162</ele>
</trkpt>
<trkpt lat="40.665904954075813" lon="14.48721706867218">
<ele>1164</ele>
</trkpt>
<trkpt lat="40.665830187499523" lon="14.487252607941628">
<ele>1166</ele>
</trkpt>
<trkpt lat="40.665785931050777" lon="14.487396189942956">
<ele>1168</ele>
</trkpt>
<trkpt lat="40.66573622636497" lon="14.487553602084517">
<ele>1169</ele>
</trkpt>
<trkpt lat="40.66566975787282" lon="14.487812854349613">
<ele>1171</ele>
</trkpt>
<trkpt lat="40.665641510859132" lon="14.488039668649435">
<ele>1173</ele>
</trkpt>
<trkpt lat="40.665532881394029" lon="14.488214682787657">
<ele>1175</ele>
</trkpt>
<trkpt lat="40.665500359609723" lon="14.488262040540576">
<ele>1177</ele>
</trkpt>
<trkpt lat="40.665396340191364" lon="14.488480892032385">
<ele>1179</ele>
</trkpt>
<trkpt lat="40.665318220853806" lon="14.488732013851404">
<ele>1181</ele>
</trkpt>
<trkpt lat="40.665215542539954" lon="14.488949188962579">
<ele>1183</ele>
</trkpt>
<trkpt lat="40.665189474821091" lon="14.489065026864409">
<ele>1185</ele>
</trkpt>
<trkpt lat="40.665186541154981" lon="14.489071564748883">
<ele>1186</ele>
</trkpt>
<trkpt lat="40.665150918066502" lon="14.4891950301826">
<ele>1188</ele>
</trkpt>
<trkpt lat="40.665116216987371" lon="14.489237777888775">
<ele>1190</ele>
</trkpt>
<trkpt lat="40.665083695203066" lon="14.489349257200956">
<ele>1192</ele>
</trkpt>
<trkpt lat="40.66501990891993" lon="14.489462496712804">
<ele>1194</ele>
</trkpt>
<trkpt lat="40.66490507684648" lon="14.489620076492429">
<ele>1196</ele>
</trkpt>
<trkpt lat="40.664891917258501" lon="14.489620327949524">
<ele>1196</ele>
</trkpt>
<trkpt lat="40.664793848991394" lon="14.489735076203942">
<ele>1196</ele>
</trkpt>
<trkpt lat="40.664637191221118" lon="14.490007236599922">
<ele>1196</ele>
</trkpt>
<trkpt lat="40.664535015821457" lon="14.490210665389895">
<ele>1196</ele>
</trkpt>
<trkpt lat="40.664440467953682" lon="14.490288197994232">
<ele>1196</ele>
</trkpt>
<trkpt lat="40.664369557052851" lon="14.490393977612257">
<ele>1196</ele>
</trkpt>
<trkpt lat="40.664198063313961" lon="14.490477796643972">
<ele>1196</ele>
</trkpt>
<trkpt lat="40.664090774953365" lon="14.490572176873684">
<ele>1196</ele>
</trkpt>
<trkpt lat="40.664023132994771" lon="14.490610482171178">
<ele>1196</ele>
</trkpt>
<trkpt lat="40.663818782195449" lon="14.490659348666668">
<ele>1196</ele>
</trkpt>
<trkpt lat="40.663782320916653" lon="14.490676950663328">
<ele>1196</ele>
</trkpt>
<trkpt lat="40.663694646209478" lon="14.490788094699383">
<ele>1196</ele>
</trkpt>
<trkpt lat="40.663496078923345" lon="14.490943662822247">
<ele>1197</ele>
</trkpt>
<trkpt lat="40.66333313472569" lon="14.491054387763143">
<ele>1197</ele>
</trkpt>
<trkpt lat="40.663171950727701" lon="14.491194868460298">
<ele>1197</ele>
</trkpt>
<trkpt lat="40.663005150854588" lon="14.491397039964795">
<ele>1197</ele>
</trkpt>
<trkpt lat="40.662850169464946" lon="14.491780512034893">
<ele>1197</ele>
</trkpt>
<trkpt lat="40.662739025428891" lon="14.492017719894648">
<ele>1198</ele>
</trkpt>
<trkpt lat="40.662658894434571" lon="14.49223036877811">
<ele>1198</ele>
</trkpt>
<trkpt lat="40.662643974646926" lon="14.492279402911663">
<ele>1198</ele>
</trkpt>
<trkpt lat="40.662586642429233" lon="14.49247126467526">
<ele>1200</ele>
</trkpt>
<trkpt lat="40.662566693499684" lon="14.492601603269577">
<ele>1201</ele>
</trkpt>
<trkpt lat="40.66256208345294" lon="14.492684165015817">
<ele>1203</ele>
</trkpt>
<trkpt lat="40.662471475079656" lon="14.49287585914135">
<ele>1204</ele>
</trkpt>
<trkpt lat="40.662419255822897" lon="14.492993373423815">
<ele>1206</ele>
</trkpt>
<trkpt lat="40.662368629127741" lon="14.493164448067546">
<ele>1208</ele>
</trkpt>
<trkpt lat="40.662333341315389" lon="14.493245081976056">
<ele>1209</ele>
</trkpt>
<trkpt lat="40.662249522283673" lon="14.493642970919609">
<ele>1211</ele>
</trkpt>
<trkpt lat="40.662233596667647" lon="14.493677755817771">
<ele>1212</ele>
</trkpt>
<trkpt lat="40.662120021879673" lon="14.493920747190714">
<ele>1214</ele>
</trkpt>
<trkpt lat="40.661988593637943" lon="14.494119482114911">
<ele>1215</ele>
</trkpt>
<trkpt lat="40.661944001913071" lon="14.494183100759983">
<ele>1215</ele>
</trkpt>
<trkpt lat="40.661824811249971" lon="14.494307152926922">
<ele>1216</ele>
</trkpt>
<trkpt lat="40.661555919796228" lon="14.494469007477164">
<ele>1216</ele>
</trkpt>
<trkpt lat="40.661457013338804" lon="14.494539918377995">
<ele>1217</ele>
</trkpt>
<trkpt lat="40.661413427442312" lon="14.494556179270148">
<ele>1218</ele>
</trkpt>
<trkpt lat="40.66126280464232" lon="14.494649050757289">
<ele>1218</ele>
</trkpt>
<trkpt lat="40.661190217360854" lon="14.494713256135583">
<ele>1219</ele>
</trkpt>
<trkpt lat="40.661082593724132" lon="14.49480595998466">
<ele>1219</ele>
</trkpt>
<trkpt lat="40.660937922075391" lon="14.494933281093836">
<ele>1220</ele>
</trkpt>
<trkpt lat="40.660586971789598" lon="14.49511768296361">
<ele>1222</ele>
</trkpt>
<trkpt lat="40.660447916015983" lon="14.495209632441401">
<ele>1225</ele>
</trkpt>
<trkpt lat="40.660237781703472" lon="14.495331170037389">
<ele>1227</ele>
</trkpt>
<trkpt lat="40.660109790042043" lon="14.495353801175952">
<ele>1230</ele>
</trkpt>
<trkpt lat="40.660031838342547" lon="14.49537861160934">
<ele>1232</ele>
</trkpt>
<trkpt lat="40.659870905801654" lon="14.495478440076113">
<ele>1234</ele>
</trkpt>
<trkpt lat="40.659762108698487" lon="14.495483972132206">
<ele>1237</ele>
</trkpt>
<trkpt lat="40.659532276913524" lon="14.495625207200646">
<ele>1239</ele>
</trkpt>
<trkpt lat="40.659487349912524" lon="14.495678767561913">
<ele>1242</ele>
</trkpt>
<trkpt lat="40.659497492015362" lon="14.495751187205315">
<ele>1244</ele>
</trkpt>
<trkpt lat="40.659509478136897" lon="14.495883453637362">
<ele>1246</ele>
</trkpt>
<trkpt lat="40.659403782337904" lon="14.496045643463731">
<ele>1247</ele>
</trkpt>
<trkpt lat="40.659250225871801" lon="14.496225100010633">
<ele>1249</ele>
</trkpt>
<trkpt lat="40.659173112362623" lon="14.496318893507123">
<ele>1250</ele>
</trkpt>
<trkpt lat="40.659127933904529" lon="14.496396509930491">
<ele>1252</ele>
</trkpt>
<trkpt lat="40.659013604745269" lon="14.496525758877397">
<ele>1254</ele>
</trkpt>
<trkpt lat="40.658981585875154" lon="14.496541349217296">
<ele>1255</ele>
</trkpt>
<trkpt lat="40.658907406032085" lon="14.496741089969873">
<ele>1257</ele>
</trkpt>
<trkpt lat="40.658896761015058" lon="14.496770929545164">
<ele>1258</ele>
</trkpt>
<trkpt lat="40.658818809315562" lon="14.496916607022285">
<ele>1260</ele>
</trkpt>
<trkpt lat="40.658717723563313" lon="14.497080724686384">
<ele>1262</ele>
</trkpt>
<trkpt lat="40.658604148775339" lon="14.497345928102732">
<ele>1263</ele>
</trkpt>
<trkpt lat="40.658587971702218" lon="14.497463442385197">
<ele>1265</ele>
</trkpt>
<trkpt lat="40.658585540950298" lon="14.497531084343791">
<ele>1267</ele>
</trkpt>
<trkpt lat="40.658533573150635" lon="14.49771037325263">
<ele>1268</ele>
</trkpt>
<trkpt lat="40.658528376370668" lon="14.49772797524929">
<ele>1270</ele>
</trkpt>
<trkpt lat="40.658490909263492" lon="14.497885052114725">
<ele>1271</ele>
</trkpt>
<trkpt lat="40.658472469076514" lon="14.497940875589848">
<ele>1273</ele>
</trkpt>
<trkpt lat="40.658453609794378" lon="14.498093007132411">
<ele>1275</ele>
</trkpt>
<trkpt lat="40.658478168770671" lon="14.498138856142759">
<ele>1276</ele>
</trkpt>
<trkpt lat="40.658417986705899" lon="14.498252011835575">
<ele>1278</ele>
</trkpt>
<trkpt lat="40.658541955053806" lon="14.497177787125111">
<ele>1275</ele>
</trkpt>
<trkpt lat="40.658528544008732" lon="14.497182900086045">
<ele>1273</ele>
</trkpt>
<trkpt lat="40.65836719237268" lon="14.497297899797559">
<ele>1270</ele>
</trkpt>
<trkpt lat="40.658221431076527" lon="14.497437877580523">
<ele>1267</ele>
</trkpt>
<trkpt lat="40.658072233200073" lon="14.497565701603889">
<ele>1264</ele>
</trkpt>
<trkpt lat="40.657880622893572" lon="14.497776757925749">
<ele>1262</ele>
</trkpt>
<trkpt lat="40.657769981771708" lon="14.497875915840268">
<ele>1259</ele>
</trkpt>
<trkpt lat="40.657659005373716" lon="14.498015223070979">
<ele>1256</ele>
</trkpt>
<trkpt lat="40.657583987340331" lon="14.497972810640931">
<ele>1254</ele>
</trkpt>
<trkpt lat="40.657603433355689" lon="14.497839957475662">
<ele>1251</ele>
</trkpt>
<trkpt lat="40.657611396163702" lon="14.497713726013899">
<ele>1249</ele>
</trkpt>
<trkpt lat="40.657613826915622" lon="14.49768690392375">
<ele>1247</ele>
</trkpt>
<trkpt lat="40.657524559646845" lon="14.497730238363147">
<ele>1244</ele>
</trkpt>
<trkpt lat="40.657376367598772" lon="14.497822523117065">
<ele>1242</ele>
</trkpt>
<trkpt lat="40.657265894114971" lon="14.497921513393521">
<ele>1240</ele>
</trkpt>
<trkpt lat="40.657165478914976" lon="14.497986640781164">
<ele>1238</ele>
</trkpt>
<trkpt lat="40.657113678753376" lon="14.498022682964802">
<ele>1236</ele>
</trkpt>
<trkpt lat="40.656880410388112" lon="14.498048247769475">
<ele>1233</ele>
</trkpt>
<trkpt lat="40.656821150332689" lon="14.498078506439924">
<ele>1231</ele>
</trkpt>
<trkpt lat="40.656670611351728" lon="14.498111195862293">
<ele>1229</ele>
</trkpt>
<trkpt lat="40.656568100675941" lon="14.49814816005528">
<ele>1227</ele>
</trkpt>
<trkpt lat="40.656428709626198" lon="14.498206498101354">
<ele>1225</ele>
</trkpt>
<trkpt lat="40.65642393194139" lon="14.498213538900018">
<ele>1223</ele>
</trkpt>
<trkpt lat="40.656398115679622" lon="14.498319234699011">
<ele>1221</ele>
</trkpt>
<trkpt lat="40.65636576153338" lon="14.49832116253674">
<ele>1218</ele>
</trkpt>
<trkpt lat="40.656328042969108" lon="14.498388133943081">
<ele>1216</ele>
</trkpt>
<trkpt lat="40.656213462352753" lon="14.498508414253592">
<ele>1214</ele>
</trkpt>
<trkpt lat="40.656155543401837" lon="14.498614696785808">
<ele>1212</ele>
</trkpt>
<trkpt lat="40.65612830221653" lon="14.498644536361098">
<ele>1210</ele>
</trkpt>
<trkpt lat="40.656047333031893" lon="14.498761212453246">
<ele>1208</ele>
</trkpt>
<trkpt lat="40.656028306111693" lon="14.498802199959755">
<ele>1206</ele>
</trkpt>
<trkpt lat="40.655860835686326" lon="14.498862465843558">
<ele>1205</ele>
</trkpt>
<trkpt lat="40.655722199007869" lon="14.498843941837549">
<ele>1203</ele>
</trkpt>
<trkpt lat="40.655472921207547" lon="14.498778898268938">
<ele>1202</ele>
</trkpt>
<trkpt lat="40.655261278152466" lon="14.498768672347069">
<ele>1200</ele>
</trkpt>
<trkpt lat="40.655228504911065" lon="14.498761463910341">
<ele>1198</ele>
</trkpt>
<trkpt lat="40.655118282884359" lon="14.498767331242561">
<ele>1197</ele>
</trkpt>
<trkpt lat="40.654960870742798" lon="14.498876547440886">
<ele>1195</ele>
</trkpt>
<trkpt lat="40.654806727543473" lon="14.499120293185115">
<ele>1194</ele>
</trkpt>
<trkpt lat="40.654805554077029" lon="14.499204531311989">
<ele>1192</ele>
</trkpt>
<trkpt lat="40.654767081141472" lon="14.499321961775422">
<ele>1193</ele>
</trkpt>
<trkpt lat="40.654726512730122" lon="14.499463532119989">
<ele>1194</ele>
</trkpt>
<trkpt lat="40.65470639616251" lon="14.499554643407464">
<ele>1194</ele>
</trkpt>
<trkpt lat="40.65472885966301" lon="14.499764693900943">
<ele>1195</ele>
</trkpt>
<trkpt lat="40.654685022309422" lon="14.499867036938667">
<ele>1196</ele>
</trkpt>
<trkpt lat="40.654530543833971" lon="14.500038530677557">
<ele>1197</ele>
</trkpt>
<trkpt lat="40.654389979317784" lon="14.499925458803773">
<ele>1198</ele>
</trkpt>
<trkpt lat="40.654226113110781" lon="14.499962590634823">
<ele>1198</ele>
</trkpt>
<trkpt lat="40.654078926891088" lon="14.499984886497259">
<ele>1199</ele>
</trkpt>
<trkpt lat="40.653951438143849" lon="14.500003326684237">
<ele>1200</ele>
</trkpt>
<trkpt lat="40.65359378233552" lon="14.500121595337987">
<ele>1202</ele>
</trkpt>
<trkpt lat="40.653449781239033" lon="14.500142047181726">
<ele>1203</ele>
</trkpt>
<trkpt lat="40.65334701910615" lon="14.500231146812439">
<ele>1205</ele>
</trkpt>
<trkpt lat="40.653339559212327" lon="14.500243552029133">
<ele>1206</ele>
</trkpt>
<trkpt lat="40.653260936960578" lon="14.500332232564688">
<ele>1208</ele>
</trkpt>
<trkpt lat="40.653165383264422" lon="14.500512275844812">
<ele>1210</ele>
</trkpt>
<trkpt lat="40.653044348582625" lon="14.500597016885877">
<ele>1211</ele>
</trkpt>
<trkpt lat="40.653034625574946" lon="14.500600034371018">
<ele>1213</ele>
</trkpt>
<trkpt lat="40.652955081313848" lon="14.500713357701898">
<ele>1214</ele>
</trkpt>
<trkpt lat="40.65284863114357" lon="14.500927682965994">
<ele>1216</ele>
</trkpt>
<trkpt lat="40.652779983356595" lon="14.500980321317911">
<ele>1218</ele>
</trkpt>
<trkpt lat="40.652611423283815" lon="14.501143097877502">
<ele>1221</ele>
</trkpt>
<trkpt lat="40.652599185705185" lon="14.501154413446784">
<ele>1223</ele>
</trkpt>
<trkpt lat="40.652455519884825" lon="14.501329259946942">
<ele>1226</ele>
</trkpt>
<trkpt lat="40.652392320334911" lon="14.50146202929318">
<ele>1228</ele>
</trkpt>
<trkpt lat="40.652345465496182" lon="14.501602845266461">
<ele>1230</ele>
</trkpt>
<trkpt lat="40.652311602607369" lon="14.501592870801687">
<ele>1233</ele>
</trkpt>
<trkpt lat="40.65223490819335" lon="14.501759167760611">
<ele>1235</ele>
</trkpt>
<trkpt lat="40.652169194072485" lon="14.501748941838741">
<ele>1238</ele>
</trkpt>
<trkpt lat="40.651987893506885" lon="14.501666380092502">
<ele>1240</ele>
</trkpt>
<trkpt lat="40.651867529377341" lon="14.501566216349602">
<ele>1240</ele>
</trkpt>
<trkpt lat="40.651784213259816" lon="14.5015006698668">
<ele>1241</ele>
</trkpt>
<trkpt lat="40.651719588786364" lon="14.501480720937252">
<ele>1242</ele>
</trkpt>
<trkpt lat="40.651614479720592" lon="14.501467477530241">
<ele>1242</ele>
</trkpt>
<trkpt lat="40.651493528857827" lon="14.50125876814127">
<ele>1242</ele>
</trkpt>
<trkpt lat="40.651347767561674" lon="14.501035390421748">
<ele>1243</ele>
</trkpt>
<trkpt lat="40.651321616023779" lon="14.500996666029096">
<ele>1244</ele>
</trkpt>
<trkpt lat="40.651318095624447" lon="14.500878565013409">
<ele>1244</ele>
</trkpt>
<trkpt lat="40.651279287412763" lon="14.500834560021758">
<ele>1244</ele>
</trkpt>
<trkpt lat="40.651199156418443" lon="14.500782759860158">
<ele>1245</ele>
</trkpt>
<trkpt lat="40.651049204170704" lon="14.500710256397724">
<ele>1246</ele>
</trkpt>
<trkpt lat="40.650908472016454" lon="14.500735905021429">
<ele>1248</ele>
</trkpt>
<trkpt lat="40.650708395987749" lon="14.500971017405391">
<ele>1250</ele>
</trkpt>
<trkpt lat="40.650527263060212" lon="14.501147121191025">
<ele>1251</ele>
</trkpt>
<trkpt lat="40.650433888658881" lon="14.501209482550621">
<ele>1252</ele>
</trkpt>
<trkpt lat="40.650352835655212" lon="14.501398243010044">
<ele>1254</ele>
</trkpt>
<trkpt lat="40.650345459580421" lon="14.501413917168975">
<ele>1256</ele>
</trkpt>
<trkpt lat="40.650235908105969" lon="14.50163989327848">
<ele>1257</ele>
</trkpt>
<trkpt lat="40.650236746296287" lon="14.501699907705188">
<ele>1258</ele>
</trkpt>
<trkpt lat="40.650200452655554" lon="14.501900235190988">
<ele>1260</ele>
</trkpt>
<trkpt lat="40.650172624737024" lon="14.501950275152922">
<ele>1263</ele>
</trkpt>
<trkpt lat="40.65007128752768" lon="14.501979947090149">
<ele>1266</ele>
</trkpt>
<trkpt lat="40.649958802387118" lon="14.502076087519526">
<ele>1270</ele>
</trkpt>
<trkpt lat="40.649855202063918" lon="14.502202738076448">
<ele>1273</ele>
</trkpt>
<trkpt lat="40.649867691099644" lon="14.50200685299933">
<ele>1276</ele>
</trkpt>
<trkpt lat="40.649933824315667" lon="14.501830916851759">
<ele>1279</ele>
</trkpt>
<trkpt lat="40.649955533444881" lon="14.501751037314534">
<ele>1282</ele>
</trkpt>
<trkpt lat="40.649929214268923" lon="14.501628410071135">
<ele>1286</ele>
</trkpt>
<trkpt lat="40.649861237034202" lon="14.50153679586947">
<ele>1289</ele>
</trkpt>
<trkpt lat="40.649816393852234" lon="14.501624554395676">
<ele>1292</ele>
</trkpt>
<trkpt lat="40.649725031107664" lon="14.501704601570964">
<ele>1296</ele>
</trkpt>
<trkpt lat="40.649636937305331" lon="14.501743325963616">
<ele>1299</ele>
</trkpt>
<trkpt lat="40.649564266204834" lon="14.501804178580642">
<ele>1303</ele>
</trkpt>
<trkpt lat="40.649496456608176" lon="14.501906018704176">
<ele>1306</ele>
</trkpt>
<trkpt lat="40.64945463091135" lon="14.501999728381634">
<ele>1310</ele>
</trkpt>
<trkpt lat="40.649380283430219" lon="14.501879112794995">
<ele>1314</ele>
</trkpt>
<trkpt lat="40.649324124678969" lon="14.501876346766949">
<ele>1317</ele>
</trkpt>
<trkpt lat="40.649289339780807" lon="14.501913813874125">
<ele>1321</ele>
</trkpt>
<trkpt lat="40.649220524355769" lon="14.502021102234721">
<ele>1324</ele>
</trkpt>
<trkpt lat="40.649157240986824" lon="14.502122774720192">
<ele>1328</ele>
</trkpt>
<trkpt lat="40.64915070310235" lon="14.502137610688806">
<ele>1330</ele>
</trkpt>
<trkpt lat="40.649102842435241" lon="14.502361239865422">
<ele>1333</ele>
</trkpt>
<trkpt lat="40.649140225723386" lon="14.502493338659406">
<ele>1336</ele>
</trkpt>
<trkpt lat="40.649135615676641" lon="14.502535918727517">
<ele>1338</ele>
</trkpt>
<trkpt lat="40.64903637394309" lon="14.502612445503473">
<ele>1340</ele>
</trkpt>
<trkpt lat="40.648984825238585" lon="14.502639770507813">
<ele>1343</ele>
</trkpt>
<trkpt lat="40.648793466389179" lon="14.502630047500134">
<ele>1346</ele>
</trkpt>
<trkpt lat="40.648724902421236" lon="14.50269341468811">
<ele>1348</ele>
</trkpt>
<trkpt lat="40.64863714389503" lon="14.502800703048706">
<ele>1350</ele>
</trkpt>
<trkpt lat="40.648584337905049" lon="14.502838421612978">
<ele>1353</ele>
</trkpt>
<trkpt lat="40.64849984832108" lon="14.502998264506459">
<ele>1355</ele>
</trkpt>
<trkpt lat="40.648549217730761" lon="14.503164310008287">
<ele>1357</ele>
</trkpt>
<trkpt lat="40.648465314880013" lon="14.503351394087076">
<ele>1359</ele>
</trkpt>
<trkpt lat="40.648441761732101" lon="14.503643335774541">
<ele>1361</ele>
</trkpt>
<trkpt lat="40.648426171392202" lon="14.50370192527771">
<ele>1363</ele>
</trkpt>
<trkpt lat="40.64847344532609" lon="14.503822289407253">
<ele>1365</ele>
</trkpt>
<trkpt lat="40.648486353456974" lon="14.503861349076033">
<ele>1367</ele>
</trkpt>
<trkpt lat="40.648402869701385" lon="14.503979030996561">
<ele>1369</ele>
</trkpt>
<trkpt lat="40.648363893851638" lon="14.504034770652652">
<ele>1371</ele>
</trkpt>
<trkpt lat="40.648292815312743" lon="14.5040547195822">
<ele>1373</ele>
</trkpt>
<trkpt lat="40.648142108693719" lon="14.504248844459653">
<ele>1374</ele>
</trkpt>
<trkpt lat="40.648055523633957" lon="14.504301901906729">
<ele>1376</ele>
</trkpt>
<trkpt lat="40.648017888888717" lon="14.504314390942454">
<ele>1377</ele>
</trkpt>
<trkpt lat="40.647907750681043" lon="14.504436431452632">
<ele>1378</ele>
</trkpt>
<trkpt lat="40.64789735712111" lon="14.504533829167485">
<ele>1380</ele>
</trkpt>
<trkpt lat="40.647832565009594" lon="14.504478173330426">
<ele>1381</ele>
</trkpt>
<trkpt lat="40.647755870595574" lon="14.504512203857303">
<ele>1382</ele>
</trkpt>
<trkpt lat="40.647665681317449" lon="14.504605075344443">
<ele>1383</ele>
</trkpt>
<trkpt lat="40.647593596950173" lon="14.504690654575825">
<ele>1385</ele>
</trkpt>
<trkpt lat="40.647394442930818" lon="14.504748405888677">
<ele>1386</ele>
</trkpt>
<trkpt lat="40.647272486239672" lon="14.504797775298357">
<ele>1388</ele>
</trkpt>
<trkpt lat="40.647073080763221" lon="14.504916630685329">
<ele>1389</ele>
</trkpt>
<trkpt lat="40.646971659734845" lon="14.505028529092669">
<ele>1390</ele>
</trkpt>
<trkpt lat="40.646905107423663" lon="14.505096338689327">
<ele>1392</ele>
</trkpt>
<trkpt lat="40.646873591467738" lon="14.505217876285315">
<ele>1394</ele>
</trkpt>
<trkpt lat="40.646850289776921" lon="14.505288871005177">
<ele>1395</ele>
</trkpt>
<trkpt lat="40.646962774917483" lon="14.505342934280634">
<ele>1396</ele>
</trkpt>
<trkpt lat="40.647045085206628" lon="14.505389789119363">
<ele>1398</ele>
</trkpt>
<trkpt lat="40.647076852619648" lon="14.505425496026874">
<ele>1400</ele>
</trkpt>
<trkpt lat="40.647117672488093" lon="14.505475033074617">
<ele>1401</ele>
</trkpt>
<trkpt lat="40.647199731320143" lon="14.505574526265264">
<ele>1404</ele>
</trkpt>
<trkpt lat="40.647252202033997" lon="14.50549372471869">
<ele>1408</ele>
</trkpt>
<trkpt lat="40.64723233692348" lon="14.505416359752417">
<ele>1411</ele>
</trkpt>
<trkpt lat="40.647316239774227" lon="14.505401104688644">
<ele>1414</ele>
</trkpt>
<trkpt lat="40.647352114319801" lon="14.505370929837227">
<ele>1418</ele>
</trkpt>
<trkpt lat="40.647429060190916" lon="14.50547176413238">
<ele>1421</ele>
</trkpt>
<trkpt lat="40.64745906740427" lon="14.505468746647239">
<ele>1424</ele>
</trkpt>
<trkpt lat="40.647516567260027" lon="14.505396327003837">
<ele>1427</ele>
</trkpt>
<trkpt lat="40.647519249469042" lon="14.505571760237217">
<ele>1431</ele>
</trkpt>
<trkpt lat="40.647514136508107" lon="14.505607970058918">
<ele>1434</ele>
</trkpt>
<trkpt lat="40.647517070174217" lon="14.505733028054237">
<ele>1437</ele>
</trkpt>
<trkpt lat="40.647515896707773" lon="14.505760101601481">
<ele>1441</ele>
</trkpt>
<trkpt lat="40.647463006898761" lon="14.505844004452229">
<ele>1444</ele>
</trkpt>
<trkpt lat="40.647471221163869" lon="14.505847189575434">
<ele>1442</ele>
</trkpt>
<trkpt lat="40.647515896707773" lon="14.505760101601481">
<ele>1439</ele>
</trkpt>
<trkpt lat="40.647517070174217" lon="14.505733028054237">
<ele>1437</ele>
</trkpt>
<trkpt lat="40.647514136508107" lon="14.505607970058918">
<ele>1435</ele>
</trkpt>
<trkpt lat="40.647519249469042" lon="14.505571760237217">
<ele>1432</ele>
</trkpt>
<trkpt lat="40.647540371865034" lon="14.50546002946794">
<ele>1430</ele>
</trkpt>
<trkpt lat="40.647516567260027" lon="14.505396327003837">
<ele>1428</ele>
</trkpt>
<trkpt lat="40.64745906740427" lon="14.505468746647239">
<ele>1426</ele>
</trkpt>
<trkpt lat="40.647429060190916" lon="14.50547176413238">
<ele>1423</ele>
</trkpt>
<trkpt lat="40.647352114319801" lon="14.505370929837227">
<ele>1421</ele>
</trkpt>
<trkpt lat="40.647316239774227" lon="14.505401104688644">
<ele>1418</ele>
</trkpt>
<trkpt lat="40.64723233692348" lon="14.505416359752417">
<ele>1415</ele>
</trkpt>
<trkpt lat="40.647252202033997" lon="14.50549372471869">
<ele>1412</ele>
</trkpt>
<trkpt lat="40.647199731320143" lon="14.505574526265264">
<ele>1409</ele>
</trkpt>
<trkpt lat="40.647162683308125" lon="14.505536556243896">
<ele>1406</ele>
</trkpt>
<trkpt lat="40.647117672488093" lon="14.505475033074617">
<ele>1402</ele>
</trkpt>
<trkpt lat="40.647045085206628" lon="14.505389789119363">
<ele>1399</ele>
</trkpt>
<trkpt lat="40.646962774917483" lon="14.505342934280634">
<ele>1396</ele>
</trkpt>
<trkpt lat="40.646850289776921" lon="14.505288871005177">
<ele>1393</ele>
</trkpt>
<trkpt lat="40.646873591467738" lon="14.505217876285315">
<ele>1390</ele>
</trkpt>
<trkpt lat="40.646896976977587" lon="14.505105894058943">
<ele>1389</ele>
</trkpt>
<trkpt lat="40.646905107423663" lon="14.505096338689327">
<ele>1388</ele>
</trkpt>
<trkpt lat="40.647073080763221" lon="14.504916630685329">
<ele>1387</ele>
</trkpt>
<trkpt lat="40.647272486239672" lon="14.504797775298357">
<ele>1386</ele>
</trkpt>
<trkpt lat="40.647394442930818" lon="14.504748405888677">
<ele>1386</ele>
</trkpt>
<trkpt lat="40.647593596950173" lon="14.504690654575825">
<ele>1385</ele>
</trkpt>
<trkpt lat="40.647665681317449" lon="14.504605075344443">
<ele>1384</ele>
</trkpt>
<trkpt lat="40.647755870595574" lon="14.504512203857303">
<ele>1383</ele>
</trkpt>
<trkpt lat="40.647814208641648" lon="14.504487477242947">
<ele>1382</ele>
</trkpt>
<trkpt lat="40.64789735712111" lon="14.504533829167485">
<ele>1381</ele>
</trkpt>
<trkpt lat="40.647907750681043" lon="14.504436431452632">
<ele>1379</ele>
</trkpt>
<trkpt lat="40.647982098162174" lon="14.504330568015575">
<ele>1377</ele>
</trkpt>
<trkpt lat="40.648017888888717" lon="14.504314390942454">
<ele>1374</ele>
</trkpt>
<trkpt lat="40.648142108693719" lon="14.504248844459653">
<ele>1372</ele>
</trkpt>
<trkpt lat="40.648245792835951" lon="14.50414658524096">
<ele>1370</ele>
</trkpt>
<trkpt lat="40.648292815312743" lon="14.5040547195822">
<ele>1368</ele>
</trkpt>
<trkpt lat="40.648363893851638" lon="14.504034770652652">
<ele>1366</ele>
</trkpt>
<trkpt lat="40.648486353456974" lon="14.503861349076033">
<ele>1363</ele>
</trkpt>
<trkpt lat="40.64847344532609" lon="14.503822289407253">
<ele>1361</ele>
</trkpt>
<trkpt lat="40.648426171392202" lon="14.50370192527771">
<ele>1359</ele>
</trkpt>
<trkpt lat="40.648441761732101" lon="14.503643335774541">
<ele>1357</ele>
</trkpt>
<trkpt lat="40.648465314880013" lon="14.503351394087076">
<ele>1356</ele>
</trkpt>
<trkpt lat="40.648549217730761" lon="14.503164310008287">
<ele>1354</ele>
</trkpt>
<trkpt lat="40.648524155840278" lon="14.50303154066205">
<ele>1353</ele>
</trkpt>
<trkpt lat="40.64849984832108" lon="14.502998264506459">
<ele>1351</ele>
</trkpt>
<trkpt lat="40.648564975708723" lon="14.502856275066733">
<ele>1349</ele>
</trkpt>
<trkpt lat="40.648584337905049" lon="14.502838421612978">
<ele>1348</ele>
</trkpt>
<trkpt lat="40.648724902421236" lon="14.50269341468811">
<ele>1346</ele>
</trkpt>
<trkpt lat="40.648793466389179" lon="14.502630047500134">
<ele>1345</ele>
</trkpt>
<trkpt lat="40.648927493020892" lon="14.502624180167913">
<ele>1343</ele>
</trkpt>
<trkpt lat="40.648984825238585" lon="14.502639770507813">
<ele>1341</ele>
</trkpt>
<trkpt lat="40.64903637394309" lon="14.502612445503473">
<ele>1338</ele>
</trkpt>
<trkpt lat="40.649135615676641" lon="14.502535918727517">
<ele>1336</ele>
</trkpt>
<trkpt lat="40.649140225723386" lon="14.502493338659406">
<ele>1333</ele>
</trkpt>
<trkpt lat="40.649102842435241" lon="14.502361239865422">
<ele>1331</ele>
</trkpt>
<trkpt lat="40.649136621505022" lon="14.502198547124863">
<ele>1329</ele>
</trkpt>
<trkpt lat="40.64915070310235" lon="14.502137610688806">
<ele>1326</ele>
</trkpt>
<trkpt lat="40.649220524355769" lon="14.502021102234721">
<ele>1324</ele>
</trkpt>
<trkpt lat="40.649234186857939" lon="14.501978270709515">
<ele>1321</ele>
</trkpt>
<trkpt lat="40.649289339780807" lon="14.501913813874125">
<ele>1319</ele>
</trkpt>
<trkpt lat="40.649380283430219" lon="14.501879112794995">
<ele>1315</ele>
</trkpt>
<trkpt lat="40.649409200996161" lon="14.501984557136893">
<ele>1312</ele>
</trkpt>
<trkpt lat="40.64945463091135" lon="14.501999728381634">
<ele>1308</ele>
</trkpt>
<trkpt lat="40.649564266204834" lon="14.501804178580642">
<ele>1305</ele>
</trkpt>
<trkpt lat="40.649636937305331" lon="14.501743325963616">
<ele>1301</ele>
</trkpt>
<trkpt lat="40.649725031107664" lon="14.501704601570964">
<ele>1297</ele>
</trkpt>
<trkpt lat="40.649816393852234" lon="14.501624554395676">
<ele>1294</ele>
</trkpt>
<trkpt lat="40.649861237034202" lon="14.50153679586947">
<ele>1290</ele>
</trkpt>
<trkpt lat="40.649929214268923" lon="14.501628410071135">
<ele>1287</ele>
</trkpt>
<trkpt lat="40.649955533444881" lon="14.501751037314534">
<ele>1283</ele>
</trkpt>
<trkpt lat="40.649933824315667" lon="14.501830916851759">
<ele>1280</ele>
</trkpt>
<trkpt lat="40.649867691099644" lon="14.50200685299933">
<ele>1277</ele>
</trkpt>
<trkpt lat="40.649822177365422" lon="14.502195110544562">
<ele>1274</ele>
</trkpt>
<trkpt lat="40.649855202063918" lon="14.502202738076448">
<ele>1271</ele>
</trkpt>
<trkpt lat="40.649905744940042" lon="14.502136940136552">
<ele>1268</ele>
</trkpt>
<trkpt lat="40.650011273100972" lon="14.502023113891482">
<ele>1266</ele>
</trkpt>
<trkpt lat="40.650094756856561" lon="14.501977683976293">
<ele>1263</ele>
</trkpt>
<trkpt lat="40.650200452655554" lon="14.501900235190988">
<ele>1260</ele>
</trkpt>
<trkpt lat="40.650236746296287" lon="14.501699907705188">
<ele>1257</ele>
</trkpt>
<trkpt lat="40.650235908105969" lon="14.50163989327848">
<ele>1254</ele>
</trkpt>
<trkpt lat="40.650299191474915" lon="14.501505615189672">
<ele>1253</ele>
</trkpt>
<trkpt lat="40.650345459580421" lon="14.501413917168975">
<ele>1252</ele>
</trkpt>
<trkpt lat="40.650433888658881" lon="14.501209482550621">
<ele>1250</ele>
</trkpt>
<trkpt lat="40.650527263060212" lon="14.501147121191025">
<ele>1249</ele>
</trkpt>
<trkpt lat="40.650708395987749" lon="14.500971017405391">
<ele>1248</ele>
</trkpt>
<trkpt lat="40.650908472016454" lon="14.500735905021429">
<ele>1247</ele>
</trkpt>
<trkpt lat="40.651049204170704" lon="14.500710256397724">
<ele>1246</ele>
</trkpt>
<trkpt lat="40.651199156418443" lon="14.500782759860158">
<ele>1244</ele>
</trkpt>
<trkpt lat="40.65121416002512" lon="14.500805642455816">
<ele>1243</ele>
</trkpt>
<trkpt lat="40.651318095624447" lon="14.500878565013409">
<ele>1242</ele>
</trkpt>
<trkpt lat="40.651321616023779" lon="14.500996666029096">
<ele>1242</ele>
</trkpt>
<trkpt lat="40.651347767561674" lon="14.501035390421748">
<ele>1241</ele>
</trkpt>
<trkpt lat="40.651493528857827" lon="14.50125876814127">
<ele>1240</ele>
</trkpt>
<trkpt lat="40.651614479720592" lon="14.501467477530241">
<ele>1240</ele>
</trkpt>
<trkpt lat="40.651719588786364" lon="14.501480720937252">
<ele>1240</ele>
</trkpt>
<trkpt lat="40.651784213259816" lon="14.5015006698668">
<ele>1239</ele>
</trkpt>
<trkpt lat="40.651867529377341" lon="14.501566216349602">
<ele>1238</ele>
</trkpt>
<trkpt lat="40.651987893506885" lon="14.501666380092502">
<ele>1238</ele>
</trkpt>
<trkpt lat="40.652169194072485" lon="14.501748941838741">
<ele>1238</ele>
</trkpt>
<trkpt lat="40.65223490819335" lon="14.501759167760611">
<ele>1237</ele>
</trkpt>
<trkpt lat="40.652303555980325" lon="14.501677360385656">
<ele>1234</ele>
</trkpt>
<trkpt lat="40.652311602607369" lon="14.501592870801687">
<ele>1232</ele>
</trkpt>
<trkpt lat="40.652392320334911" lon="14.50146202929318">
<ele>1230</ele>
</trkpt>
<trkpt lat="40.652455519884825" lon="14.501329259946942">
<ele>1227</ele>
</trkpt>
<trkpt lat="40.652525760233402" lon="14.501213170588017">
<ele>1224</ele>
</trkpt>
<trkpt lat="40.652599185705185" lon="14.501154413446784">
<ele>1222</ele>
</trkpt>
<trkpt lat="40.652779983356595" lon="14.500980321317911">
<ele>1220</ele>
</trkpt>
<trkpt lat="40.65284863114357" lon="14.500927682965994">
<ele>1217</ele>
</trkpt>
<trkpt lat="40.652955081313848" lon="14.500713357701898">
<ele>1214</ele>
</trkpt>
<trkpt lat="40.653034625574946" lon="14.500600034371018">
<ele>1212</ele>
</trkpt>
<trkpt lat="40.653044348582625" lon="14.500597016885877">
<ele>1211</ele>
</trkpt>
<trkpt lat="40.653165383264422" lon="14.500512275844812">
<ele>1209</ele>
</trkpt>
<trkpt lat="40.653260936960578" lon="14.500332232564688">
<ele>1208</ele>
</trkpt>
<trkpt lat="40.653339559212327" lon="14.500243552029133">
<ele>1206</ele>
</trkpt>
<trkpt lat="40.65334701910615" lon="14.500231146812439">
<ele>1205</ele>
</trkpt>
<trkpt lat="40.653449781239033" lon="14.500142047181726">
<ele>1204</ele>
</trkpt>
<trkpt lat="40.65359378233552" lon="14.500121595337987">
<ele>1202</ele>
</trkpt>
<trkpt lat="40.653951438143849" lon="14.500003326684237">
<ele>1201</ele>
</trkpt>
<trkpt lat="40.654078926891088" lon="14.499984886497259">
<ele>1199</ele>
</trkpt>
<trkpt lat="40.654226113110781" lon="14.499962590634823">
<ele>1198</ele>
</trkpt>
<trkpt lat="40.654389979317784" lon="14.499925458803773">
<ele>1198</ele>
</trkpt>
<trkpt lat="40.654530543833971" lon="14.500038530677557">
<ele>1198</ele>
</trkpt>
<trkpt lat="40.654685022309422" lon="14.499867036938667">
<ele>1197</ele>
</trkpt>
<trkpt lat="40.65472885966301" lon="14.499764693900943">
<ele>1197</ele>
</trkpt>
<trkpt lat="40.65470639616251" lon="14.499554643407464">
<ele>1197</ele>
</trkpt>
<trkpt lat="40.654726512730122" lon="14.499463532119989">
<ele>1197</ele>
</trkpt>
<trkpt lat="40.654767081141472" lon="14.499321961775422">
<ele>1197</ele>
</trkpt>
<trkpt lat="40.654805554077029" lon="14.499204531311989">
<ele>1196</ele>
</trkpt>
<trkpt lat="40.654806727543473" lon="14.499120293185115">
<ele>1196</ele>
</trkpt>
<trkpt lat="40.654960870742798" lon="14.498876547440886">
<ele>1196</ele>
</trkpt>
<trkpt lat="40.655118282884359" lon="14.498767331242561">
<ele>1198</ele>
</trkpt>
<trkpt lat="40.655169077217579" lon="14.49876238591969">
<ele>1199</ele>
</trkpt>
<trkpt lat="40.655261278152466" lon="14.498768672347069">
<ele>1201</ele>
</trkpt>
<trkpt lat="40.655472921207547" lon="14.498778898268938">
<ele>1202</ele>
</trkpt>
<trkpt lat="40.655722199007869" lon="14.498843941837549">
<ele>1204</ele>
</trkpt>
<trkpt lat="40.655860835686326" lon="14.498862465843558">
<ele>1206</ele>
</trkpt>
<trkpt lat="40.656028306111693" lon="14.498802199959755">
<ele>1207</ele>
</trkpt>
<trkpt lat="40.656047333031893" lon="14.498761212453246">
<ele>1209</ele>
</trkpt>
<trkpt lat="40.65612830221653" lon="14.498644536361098">
<ele>1210</ele>
</trkpt>
<trkpt lat="40.656155543401837" lon="14.498614696785808">
<ele>1212</ele>
</trkpt>
<trkpt lat="40.656213462352753" lon="14.498508414253592">
<ele>1214</ele>
</trkpt>
<trkpt lat="40.656328042969108" lon="14.498388133943081">
<ele>1216</ele>
</trkpt>
<trkpt lat="40.65636576153338" lon="14.49832116253674">
<ele>1218</ele>
</trkpt>
<trkpt lat="40.65642393194139" lon="14.498213538900018">
<ele>1220</ele>
</trkpt>
<trkpt lat="40.656428709626198" lon="14.498206498101354">
<ele>1222</ele>
</trkpt>
<trkpt lat="40.656568100675941" lon="14.49814816005528">
<ele>1225</ele>
</trkpt>
<trkpt lat="40.656670611351728" lon="14.498111195862293">
<ele>1227</ele>
</trkpt>
<trkpt lat="40.656821150332689" lon="14.498078506439924">
<ele>1229</ele>
</trkpt>
<trkpt lat="40.656880410388112" lon="14.498048247769475">
<ele>1231</ele>
</trkpt>
<trkpt lat="40.657040001824498" lon="14.498029556125402">
<ele>1233</ele>
</trkpt>
<trkpt lat="40.657113678753376" lon="14.498022682964802">
<ele>1235</ele>
</trkpt>
<trkpt lat="40.657265894114971" lon="14.497921513393521">
<ele>1237</ele>
</trkpt>
<trkpt lat="40.657376367598772" lon="14.497822523117065">
<ele>1239</ele>
</trkpt>
<trkpt lat="40.657524559646845" lon="14.497730238363147">
<ele>1241</ele>
</trkpt>
<trkpt lat="40.657613826915622" lon="14.49768690392375">
<ele>1244</ele>
</trkpt>
<trkpt lat="40.657611396163702" lon="14.497713726013899">
<ele>1246</ele>
</trkpt>
<trkpt lat="40.657603433355689" lon="14.497839957475662">
<ele>1248</ele>
</trkpt>
<trkpt lat="40.657583987340331" lon="14.497972810640931">
<ele>1250</ele>
</trkpt>
<trkpt lat="40.657659005373716" lon="14.498015223070979">
<ele>1252</ele>
</trkpt>
<trkpt lat="40.657769981771708" lon="14.497875915840268">
<ele>1254</ele>
</trkpt>
<trkpt lat="40.657880622893572" lon="14.497776757925749">
<ele>1257</ele>
</trkpt>
<trkpt lat="40.658072233200073" lon="14.497565701603889">
<ele>1261</ele>
</trkpt>
<trkpt lat="40.658221431076527" lon="14.497437877580523">
<ele>1264</ele>
</trkpt>
<trkpt lat="40.65836719237268" lon="14.497297899797559">
<ele>1268</ele>
</trkpt>
<trkpt lat="40.658528544008732" lon="14.497182900086045">
<ele>1271</ele>
</trkpt>
<trkpt lat="40.658541955053806" lon="14.497177787125111">
<ele>1275</ele>
</trkpt>
<trkpt lat="40.658417986705899" lon="14.498252011835575">
<ele>1278</ele>
</trkpt>
<trkpt lat="40.658478168770671" lon="14.498138856142759">
<ele>1276</ele>
</trkpt>
<trkpt lat="40.658453609794378" lon="14.498093007132411">
<ele>1275</ele>
</trkpt>
<trkpt lat="40.658472469076514" lon="14.497940875589848">
<ele>1273</ele>
</trkpt>
<trkpt lat="40.658490909263492" lon="14.497885052114725">
<ele>1272</ele>
</trkpt>
<trkpt lat="40.658528376370668" lon="14.49772797524929">
<ele>1270</ele>
</trkpt>
<trkpt lat="40.658533573150635" lon="14.49771037325263">
<ele>1268</ele>
</trkpt>
<trkpt lat="40.658576237037778" lon="14.497598223388195">
<ele>1267</ele>
</trkpt>
<trkpt lat="40.658585540950298" lon="14.497531084343791">
<ele>1265</ele>
</trkpt>
<trkpt lat="40.658604148775339" lon="14.497345928102732">
<ele>1264</ele>
</trkpt>
<trkpt lat="40.658717723563313" lon="14.497080724686384">
<ele>1262</ele>
</trkpt>
<trkpt lat="40.658818809315562" lon="14.496916607022285">
<ele>1261</ele>
</trkpt>
<trkpt lat="40.658896761015058" lon="14.496770929545164">
<ele>1259</ele>
</trkpt>
<trkpt lat="40.658907406032085" lon="14.496741089969873">
<ele>1258</ele>
</trkpt>
<trkpt lat="40.658932970836759" lon="14.496581582352519">
<ele>1256</ele>
</trkpt>
<trkpt lat="40.658981585875154" lon="14.496541349217296">
<ele>1255</ele>
</trkpt>
<trkpt lat="40.659127933904529" lon="14.496396509930491">
<ele>1254</ele>
</trkpt>
<trkpt lat="40.659173112362623" lon="14.496318893507123">
<ele>1252</ele>
</trkpt>
<trkpt lat="40.659250225871801" lon="14.496225100010633">
<ele>1251</ele>
</trkpt>
<trkpt lat="40.659403782337904" lon="14.496045643463731">
<ele>1249</ele>
</trkpt>
<trkpt lat="40.659509478136897" lon="14.495883453637362">
<ele>1248</ele>
</trkpt>
<trkpt lat="40.659497492015362" lon="14.495751187205315">
<ele>1245</ele>
</trkpt>
<trkpt lat="40.659491457045078" lon="14.495738865807652">
<ele>1242</ele>
</trkpt>
<trkpt lat="40.659762108698487" lon="14.495483972132206">
<ele>1240</ele>
</trkpt>
<trkpt lat="40.659870905801654" lon="14.495478440076113">
<ele>1237</ele>
</trkpt>
<trkpt lat="40.65999043174088" lon="14.495405349880457">
<ele>1234</ele>
</trkpt>
<trkpt lat="40.660031838342547" lon="14.49537861160934">
<ele>1231</ele>
</trkpt>
<trkpt lat="40.660237781703472" lon="14.495331170037389">
<ele>1228</ele>
</trkpt>
<trkpt lat="40.660447916015983" lon="14.495209632441401">
<ele>1226</ele>
</trkpt>
<trkpt lat="40.660586971789598" lon="14.49511768296361">
<ele>1223</ele>
</trkpt>
<trkpt lat="40.660937922075391" lon="14.494933281093836">
<ele>1220</ele>
</trkpt>
<trkpt lat="40.661082593724132" lon="14.49480595998466">
<ele>1219</ele>
</trkpt>
<trkpt lat="40.661176387220621" lon="14.494730774313211">
<ele>1219</ele>
</trkpt>
<trkpt lat="40.661190217360854" lon="14.494713256135583">
<ele>1218</ele>
</trkpt>
<trkpt lat="40.661336733028293" lon="14.494557855650783">
<ele>1218</ele>
</trkpt>
<trkpt lat="40.661413427442312" lon="14.494556179270148">
<ele>1217</ele>
</trkpt>
<trkpt lat="40.661555919796228" lon="14.494469007477164">
<ele>1216</ele>
</trkpt>
<trkpt lat="40.661824811249971" lon="14.494307152926922">
<ele>1216</ele>
</trkpt>
<trkpt lat="40.661944001913071" lon="14.494183100759983">
<ele>1215</ele>
</trkpt>
<trkpt lat="40.661988593637943" lon="14.494119482114911">
<ele>1215</ele>
</trkpt>
<trkpt lat="40.662120021879673" lon="14.493920747190714">
<ele>1214</ele>
</trkpt>
<trkpt lat="40.662233596667647" lon="14.493677755817771">
<ele>1212</ele>
</trkpt>
<trkpt lat="40.662249522283673" lon="14.493642970919609">
<ele>1211</ele>
</trkpt>
<trkpt lat="40.662322947755456" lon="14.493318172171712">
<ele>1209</ele>
</trkpt>
<trkpt lat="40.662333341315389" lon="14.493245081976056">
<ele>1208</ele>
</trkpt>
<trkpt lat="40.662419255822897" lon="14.492993373423815">
<ele>1206</ele>
</trkpt>
<trkpt lat="40.662471475079656" lon="14.49287585914135">
<ele>1204</ele>
</trkpt>
<trkpt lat="40.66256208345294" lon="14.492684165015817">
<ele>1203</ele>
</trkpt>
<trkpt lat="40.662566693499684" lon="14.492601603269577">
<ele>1201</ele>
</trkpt>
<trkpt lat="40.662586642429233" lon="14.49247126467526">
<ele>1200</ele>
</trkpt>
<trkpt lat="40.662611955776811" lon="14.492326509207487">
<ele>1198</ele>
</trkpt>
<trkpt lat="40.662643974646926" lon="14.492279402911663">
<ele>1198</ele>
</trkpt>
<trkpt lat="40.662739025428891" lon="14.492017719894648">
<ele>1197</ele>
</trkpt>
<trkpt lat="40.662850169464946" lon="14.491780512034893">
<ele>1197</ele>
</trkpt>
<trkpt lat="40.663005150854588" lon="14.491397039964795">
<ele>1197</ele>
</trkpt>
<trkpt lat="40.663171950727701" lon="14.491194868460298">
<ele>1196</ele>
</trkpt>
<trkpt lat="40.66333313472569" lon="14.491054387763143">
<ele>1196</ele>
</trkpt>
<trkpt lat="40.663496078923345" lon="14.490943662822247">
<ele>1196</ele>
</trkpt>
<trkpt lat="40.663694646209478" lon="14.490788094699383">
<ele>1196</ele>
</trkpt>
<trkpt lat="40.663765892386436" lon="14.490696899592876">
<ele>1195</ele>
</trkpt>
<trkpt lat="40.663782320916653" lon="14.490676950663328">
<ele>1195</ele>
</trkpt>
<trkpt lat="40.664019864052534" lon="14.490586929023266">
<ele>1195</ele>
</trkpt>
<trkpt lat="40.664023132994771" lon="14.490610482171178">
<ele>1195</ele>
</trkpt>
<trkpt lat="40.664090774953365" lon="14.490572176873684">
<ele>1196</ele>
</trkpt>
<trkpt lat="40.664198063313961" lon="14.490477796643972">
<ele>1196</ele>
</trkpt>
<trkpt lat="40.664369557052851" lon="14.490393977612257">
<ele>1196</ele>
</trkpt>
<trkpt lat="40.664440467953682" lon="14.490288197994232">
<ele>1196</ele>
</trkpt>
<trkpt lat="40.664535015821457" lon="14.490210665389895">
<ele>1196</ele>
</trkpt>
<trkpt lat="40.664637191221118" lon="14.490007236599922">
<ele>1197</ele>
</trkpt>
<trkpt lat="40.664793848991394" lon="14.489735076203942">
<ele>1197</ele>
</trkpt>
<trkpt lat="40.664891917258501" lon="14.489620327949524">
<ele>1197</ele>
</trkpt>
<trkpt lat="40.66490507684648" lon="14.489620076492429">
<ele>1195</ele>
</trkpt>
<trkpt lat="40.66501990891993" lon="14.489462496712804">
<ele>1193</ele>
</trkpt>
<trkpt lat="40.665083695203066" lon="14.489349257200956">
<ele>1192</ele>
</trkpt>
<trkpt lat="40.665116216987371" lon="14.489237777888775">
<ele>1190</ele>
</trkpt>
<trkpt lat="40.665150918066502" lon="14.4891950301826">
<ele>1188</ele>
</trkpt>
<trkpt lat="40.665186541154981" lon="14.489071564748883">
<ele>1186</ele>
</trkpt>
<trkpt lat="40.665189474821091" lon="14.489065026864409">
<ele>1184</ele>
</trkpt>
<trkpt lat="40.665215542539954" lon="14.488949188962579">
<ele>1183</ele>
</trkpt>
<trkpt lat="40.665318220853806" lon="14.488732013851404">
<ele>1181</ele>
</trkpt>
<trkpt lat="40.665396340191364" lon="14.488480892032385">
<ele>1179</ele>
</trkpt>
<trkpt lat="40.665500359609723" lon="14.488262040540576">
<ele>1177</ele>
</trkpt>
<trkpt lat="40.665532881394029" lon="14.488214682787657">
<ele>1175</ele>
</trkpt>
<trkpt lat="40.665641510859132" lon="14.488039668649435">
<ele>1173</ele>
</trkpt>
<trkpt lat="40.66566975787282" lon="14.487812854349613">
<ele>1171</ele>
</trkpt>
<trkpt lat="40.66573622636497" lon="14.487553602084517">
<ele>1170</ele>
</trkpt>
<trkpt lat="40.665785931050777" lon="14.487396189942956">
<ele>1168</ele>
</trkpt>
<trkpt lat="40.665829433128238" lon="14.487266270443797">
<ele>1166</ele>
</trkpt>
<trkpt lat="40.665830187499523" lon="14.487252607941628">
<ele>1164</ele>
</trkpt>
<trkpt lat="40.665945103392005" lon="14.48708857409656">
<ele>1162</ele>
</trkpt>
<trkpt lat="40.666050799190998" lon="14.486812055110931">
<ele>1160</ele>
</trkpt>
<trkpt lat="40.666057504713535" lon="14.486504439264536">
<ele>1159</ele>
</trkpt>
<trkpt lat="40.666117519140244" lon="14.486246947199106">
<ele>1159</ele>
</trkpt>
<trkpt lat="40.666211899369955" lon="14.485992137342691">
<ele>1158</ele>
</trkpt>
<trkpt lat="40.666364450007677" lon="14.48562023229897">
<ele>1158</ele>
</trkpt>
<trkpt lat="40.666462685912848" lon="14.485386880114675">
<ele>1157</ele>
</trkpt>
<trkpt lat="40.666469978168607" lon="14.485374642536044">
<ele>1156</ele>
</trkpt>
<trkpt lat="40.666576009243727" lon="14.48523223400116">
<ele>1156</ele>
</trkpt>
<trkpt lat="40.666579864919186" lon="14.485218320041895">
<ele>1155</ele>
</trkpt>
<trkpt lat="40.666686398908496" lon="14.485014975070953">
<ele>1155</ele>
</trkpt>
<trkpt lat="40.666839871555567" lon="14.484727140516043">
<ele>1154</ele>
</trkpt>
<trkpt lat="40.66692310385406" lon="14.484514659270644">
<ele>1152</ele>
</trkpt>
<trkpt lat="40.666987309232354" lon="14.484383147209883">
<ele>1150</ele>
</trkpt>
<trkpt lat="40.667011449113488" lon="14.484242917969823">
<ele>1147</ele>
</trkpt>
<trkpt lat="40.667022513225675" lon="14.484133198857307">
<ele>1145</ele>
</trkpt>
<trkpt lat="40.667067691683769" lon="14.483947539702058">
<ele>1143</ele>
</trkpt>
<trkpt lat="40.667122593149543" lon="14.483642019331455">
<ele>1141</ele>
</trkpt>
<trkpt lat="40.667257122695446" lon="14.483292829245329">
<ele>1139</ele>
</trkpt>
<trkpt lat="40.667317723855376" lon="14.483053861185908">
<ele>1136</ele>
</trkpt>
<trkpt lat="40.667354268953204" lon="14.482833752408624">
<ele>1134</ele>
</trkpt>
<trkpt lat="40.667412858456373" lon="14.482633173465729">
<ele>1132</ele>
</trkpt>
<trkpt lat="40.667480081319809" lon="14.482393031939864">
<ele>1131</ele>
</trkpt>
<trkpt lat="40.667570773512125" lon="14.482046775519848">
<ele>1130</ele>
</trkpt>
<trkpt lat="40.667639253661036" lon="14.481918532401323">
<ele>1128</ele>
</trkpt>
<trkpt lat="40.667710248380899" lon="14.481797162443399">
<ele>1127</ele>
</trkpt>
<trkpt lat="40.667723827064037" lon="14.481755252927542">
<ele>1126</ele>
</trkpt>
<trkpt lat="40.667839832603931" lon="14.481569845229387">
<ele>1125</ele>
</trkpt>
<trkpt lat="40.667986264452338" lon="14.481403967365623">
<ele>1124</ele>
</trkpt>
<trkpt lat="40.668103443458676" lon="14.481293745338917">
<ele>1122</ele>
</trkpt>
<trkpt lat="40.668123057112098" lon="14.481267426162958">
<ele>1121</ele>
</trkpt>
<trkpt lat="40.66818374209106" lon="14.481122167780995">
<ele>1120</ele>
</trkpt>
<trkpt lat="40.668201679363847" lon="14.481070367619395">
<ele>1119</ele>
</trkpt>
<trkpt lat="40.668284157291055" lon="14.480902729555964">
<ele>1118</ele>
</trkpt>
<trkpt lat="40.668340735137463" lon="14.480738779529929">
<ele>1117</ele>
</trkpt>
<trkpt lat="40.668410724028945" lon="14.480605507269502">
<ele>1116</ele>
</trkpt>
<trkpt lat="40.668465374037623" lon="14.48054532520473">
<ele>1115</ele>
</trkpt>
<trkpt lat="40.668526478111744" lon="14.480427894741297">
<ele>1114</ele>
</trkpt>
<trkpt lat="40.668604262173176" lon="14.480299986898899">
<ele>1113</ele>
</trkpt>
<trkpt lat="40.668676597997546" lon="14.480231087654829">
<ele>1112</ele>
</trkpt>
<trkpt lat="40.668867789208889" lon="14.480165373533964">
<ele>1111</ele>
</trkpt>
<trkpt lat="40.66899879835546" lon="14.48005179874599">
<ele>1110</ele>
</trkpt>
<trkpt lat="40.66909066401422" lon="14.479964207857847">
<ele>1110</ele>
</trkpt>
<trkpt lat="40.669150426983833" lon="14.479886591434479">
<ele>1111</ele>
</trkpt>
<trkpt lat="40.669295685365796" lon="14.479757510125637">
<ele>1112</ele>
</trkpt>
<trkpt lat="40.66933742724359" lon="14.479622645303607">
<ele>1112</ele>
</trkpt>
<trkpt lat="40.66936869174242" lon="14.479517703875899">
<ele>1112</ele>
</trkpt>
<trkpt lat="40.669440105557442" lon="14.4793691765517">
<ele>1113</ele>
</trkpt>
<trkpt lat="40.669554267078638" lon="14.479217045009136">
<ele>1114</ele>
</trkpt>
<trkpt lat="40.669700028374791" lon="14.479007581248879">
<ele>1114</ele>
</trkpt>
<trkpt lat="40.669819721952081" lon="14.478878919035196">
<ele>1114</ele>
</trkpt>
<trkpt lat="40.669945115223527" lon="14.478764506056905">
<ele>1115</ele>
</trkpt>
<trkpt lat="40.670068748295307" lon="14.478631233796477">
<ele>1114</ele>
</trkpt>
<trkpt lat="40.670145275071263" lon="14.478330155834556">
<ele>1113</ele>
</trkpt>
<trkpt lat="40.670245522633195" lon="14.478028491139412">
<ele>1112</ele>
</trkpt>
<trkpt lat="40.670329928398132" lon="14.47776647284627">
<ele>1111</ele>
</trkpt>
<trkpt lat="40.670389691367745" lon="14.477466568350792">
<ele>1110</ele>
</trkpt>
<trkpt lat="40.670460350811481" lon="14.477297170087695">
<ele>1108</ele>
</trkpt>
<trkpt lat="40.670579625293612" lon="14.476961391046643">
<ele>1107</ele>
</trkpt>
<trkpt lat="40.670601669698954" lon="14.47686642408371">
<ele>1106</ele>
</trkpt>
<trkpt lat="40.670680794864893" lon="14.476774726063013">
<ele>1105</ele>
</trkpt>
<trkpt lat="40.670744497328997" lon="14.476682944223285">
<ele>1104</ele>
</trkpt>
<trkpt lat="40.670797722414136" lon="14.476657714694738">
<ele>1103</ele>
</trkpt>
<trkpt lat="40.670735025778413" lon="14.47624197229743">
<ele>1102</ele>
</trkpt>
</trkseg>
</trk>
</gpx>
