<?xml version="1.0" encoding="UTF-8"?>
<gpx version="1.1"
creator="Smartprofil-Office - http://www.rother.de"
xmlns:xsi="http://www.w3.org/2001/XMLSchema-instance"
xmlns="http://www.topografix.com/GPX/1/1"
xsi:schemaLocation="http://www.topografix.com/GPX/1/1 http://www.topografix.com/GPX/1/1/gpx.xsd">
<metadata>

<bounds minlat="40.627551209181547" minlon="14.480022713541985" maxlat="40.636984538286924" maxlon="14.493774063885212"/>
</metadata>
<wpt lat="40.629498995840549" lon="14.482384985312819">
<ele>164</ele>
<name>29_Positano Chiesa Nuova (1)</name>
<cmt></cmt>
<desc></desc>
<sym>Crossing</sym>
</wpt>

<wpt lat="40.636984538286924" lon="14.486108561977744">
<ele>304</ele>
<name>29_Valle Pozzo (2)</name>
<cmt></cmt>
<desc></desc>
<sym>Crossing</sym>
</wpt>

<wpt lat="40.633288035169244" lon="14.492814000695944">
<ele>352</ele>
<name>29_Montepertuso (3)</name>
<cmt></cmt>
<desc></desc>
<sym>Crossing</sym>
</wpt>

<wpt lat="40.630370965227485" lon="14.48741395957768">
<ele>96</ele>
<name>29_Positano Li Parlati (4)</name>
<cmt></cmt>
<desc></desc>
<sym>Crossing</sym>
</wpt>

<trk>
<name>Neapel_29_Positano-Rundweg</name>
<trkseg>
<trkpt lat="40.629498995840549" lon="14.482384985312819">
<ele>164</ele>
</trkpt>
<trkpt lat="40.629528081044555" lon="14.482219442725182">
<ele>166</ele>
</trkpt>
<trkpt lat="40.629638973623514" lon="14.48213092982769">
<ele>168</ele>
</trkpt>
<trkpt lat="40.629780711606145" lon="14.482076112180948">
<ele>170</ele>
</trkpt>
<trkpt lat="40.62974969856441" lon="14.481907971203327">
<ele>172</ele>
</trkpt>
<trkpt lat="40.629776269197464" lon="14.481882993131876">
<ele>174</ele>
</trkpt>
<trkpt lat="40.629774928092957" lon="14.481758438050747">
<ele>176</ele>
</trkpt>
<trkpt lat="40.629826057702303" lon="14.48166380636394">
<ele>178</ele>
</trkpt>
<trkpt lat="40.629861513152719" lon="14.481660537421703">
<ele>180</ele>
</trkpt>
<trkpt lat="40.629978524520993" lon="14.481459790840745">
<ele>182</ele>
</trkpt>
<trkpt lat="40.63000475987792" lon="14.48135937564075">
<ele>184</ele>
</trkpt>
<trkpt lat="40.630052117630839" lon="14.481268264353275">
<ele>186</ele>
</trkpt>
<trkpt lat="40.63007265329361" lon="14.481219481676817">
<ele>189</ele>
</trkpt>
<trkpt lat="40.630109366029501" lon="14.481084197759628">
<ele>191</ele>
</trkpt>
<trkpt lat="40.630081035196781" lon="14.48104958049953">
<ele>194</ele>
</trkpt>
<trkpt lat="40.630150269716978" lon="14.480882110074162">
<ele>196</ele>
</trkpt>
<trkpt lat="40.63017088919878" lon="14.480857718735933">
<ele>198</ele>
</trkpt>
<trkpt lat="40.630264431238174" lon="14.480725955218077">
<ele>201</ele>
</trkpt>
<trkpt lat="40.630302736535668" lon="14.480691757053137">
<ele>203</ele>
</trkpt>
<trkpt lat="40.63039124943316" lon="14.480571476742625">
<ele>206</ele>
</trkpt>
<trkpt lat="40.630393428727984" lon="14.480572734028101">
<ele>208</ele>
</trkpt>
<trkpt lat="40.630512787029147" lon="14.480629311874509">
<ele>209</ele>
</trkpt>
<trkpt lat="40.630583614110947" lon="14.480647165328264">
<ele>210</ele>
</trkpt>
<trkpt lat="40.630880752578378" lon="14.480457399040461">
<ele>212</ele>
</trkpt>
<trkpt lat="40.630893241614103" lon="14.480451615527272">
<ele>213</ele>
</trkpt>
<trkpt lat="40.631106393411756" lon="14.480382883921266">
<ele>214</ele>
</trkpt>
<trkpt lat="40.631279647350311" lon="14.48031079955399">
<ele>215</ele>
</trkpt>
<trkpt lat="40.631451727822423" lon="14.480332341045141">
<ele>216</ele>
</trkpt>
<trkpt lat="40.631623724475503" lon="14.480452286079526">
<ele>218</ele>
</trkpt>
<trkpt lat="40.631778370589018" lon="14.480550605803728">
<ele>219</ele>
</trkpt>
<trkpt lat="40.631918935105205" lon="14.480640878900886">
<ele>220</ele>
</trkpt>
<trkpt lat="40.632012141868472" lon="14.480734672397375">
<ele>222</ele>
</trkpt>
<trkpt lat="40.63210828229785" lon="14.480847660452127">
<ele>223</ele>
</trkpt>
<trkpt lat="40.632260078564286" lon="14.480931228026748">
<ele>225</ele>
</trkpt>
<trkpt lat="40.632418412715197" lon="14.480939190834761">
<ele>227</ele>
</trkpt>
<trkpt lat="40.632513295859098" lon="14.480943717062473">
<ele>228</ele>
</trkpt>
<trkpt lat="40.632605580613017" lon="14.480921505019069">
<ele>230</ele>
</trkpt>
<trkpt lat="40.632779337465763" lon="14.480880685150623">
<ele>232</ele>
</trkpt>
<trkpt lat="40.632936833426356" lon="14.480976322665811">
<ele>234</ele>
</trkpt>
<trkpt lat="40.633026855066419" lon="14.481105906888843">
<ele>235</ele>
</trkpt>
<trkpt lat="40.63307530246675" lon="14.481285363435745">
<ele>237</ele>
</trkpt>
<trkpt lat="40.633180746808648" lon="14.481504382565618">
<ele>239</ele>
</trkpt>
<trkpt lat="40.633295411244035" lon="14.481620471924543">
<ele>240</ele>
</trkpt>
<trkpt lat="40.633317204192281" lon="14.481633631512523">
<ele>242</ele>
</trkpt>
<trkpt lat="40.633415775373578" lon="14.481680151075125">
<ele>244</ele>
</trkpt>
<trkpt lat="40.633535217493773" lon="14.481746200472116">
<ele>246</ele>
</trkpt>
<trkpt lat="40.633669830858707" lon="14.481794983148575">
<ele>247</ele>
</trkpt>
<trkpt lat="40.634438954293728" lon="14.481545453891158">
<ele>249</ele>
</trkpt>
<trkpt lat="40.634706085547805" lon="14.481786265969276">
<ele>251</ele>
</trkpt>
<trkpt lat="40.63476987183094" lon="14.482002938166261">
<ele>252</ele>
</trkpt>
<trkpt lat="40.634860396385193" lon="14.482095306739211">
<ele>254</ele>
</trkpt>
<trkpt lat="40.635015713050961" lon="14.482239224016666">
<ele>255</ele>
</trkpt>
<trkpt lat="40.635166168212891" lon="14.482345841825008">
<ele>256</ele>
</trkpt>
<trkpt lat="40.635222746059299" lon="14.48243536055088">
<ele>257</ele>
</trkpt>
<trkpt lat="40.635276725515723" lon="14.482595873996615">
<ele>258</ele>
</trkpt>
<trkpt lat="40.635296255350113" lon="14.482556646689773">
<ele>258</ele>
</trkpt>
<trkpt lat="40.635328777134418" lon="14.482611799612641">
<ele>259</ele>
</trkpt>
<trkpt lat="40.63537186011672" lon="14.482830232009292">
<ele>260</ele>
</trkpt>
<trkpt lat="40.635392144322395" lon="14.482975825667381">
<ele>261</ele>
</trkpt>
<trkpt lat="40.635403711348772" lon="14.483018657192588">
<ele>262</ele>
</trkpt>
<trkpt lat="40.635502114892006" lon="14.48323474265635">
<ele>263</ele>
</trkpt>
<trkpt lat="40.635640081018209" lon="14.483336247503757">
<ele>265</ele>
</trkpt>
<trkpt lat="40.635765641927719" lon="14.48337497189641">
<ele>267</ele>
</trkpt>
<trkpt lat="40.635883742943406" lon="14.483589883893728">
<ele>268</ele>
</trkpt>
<trkpt lat="40.63589371740818" lon="14.483865480870008">
<ele>270</ele>
</trkpt>
<trkpt lat="40.635857004672289" lon="14.484124230220914">
<ele>272</ele>
</trkpt>
<trkpt lat="40.635871337726712" lon="14.48427158407867">
<ele>274</ele>
</trkpt>
<trkpt lat="40.63596454448998" lon="14.484488591551781">
<ele>276</ele>
</trkpt>
<trkpt lat="40.635927496477962" lon="14.484787154942751">
<ele>277</ele>
</trkpt>
<trkpt lat="40.635846192017198" lon="14.485005252063274">
<ele>279</ele>
</trkpt>
<trkpt lat="40.635777041316032" lon="14.485180601477623">
<ele>281</ele>
</trkpt>
<trkpt lat="40.635721385478973" lon="14.485436165705323">
<ele>284</ele>
</trkpt>
<trkpt lat="40.63574661500752" lon="14.485628865659237">
<ele>287</ele>
</trkpt>
<trkpt lat="40.635877205058932" lon="14.485661974176764">
<ele>290</ele>
</trkpt>
<trkpt lat="40.63601098023355" lon="14.485712181776762">
<ele>292</ele>
</trkpt>
<trkpt lat="40.636648256331682" lon="14.485911168158054">
<ele>295</ele>
</trkpt>
<trkpt lat="40.636775409802794" lon="14.485904211178422">
<ele>298</ele>
</trkpt>
<trkpt lat="40.63688856549561" lon="14.485923405736685">
<ele>301</ele>
</trkpt>
<trkpt lat="40.636984538286924" lon="14.486108561977744">
<ele>304</ele>
</trkpt>
<trkpt lat="40.636934330686927" lon="14.486235715448856">
<ele>306</ele>
</trkpt>
<trkpt lat="40.636744983494282" lon="14.486280810087919">
<ele>308</ele>
</trkpt>
<trkpt lat="40.636404929682612" lon="14.486422380432487">
<ele>310</ele>
</trkpt>
<trkpt lat="40.636302251368761" lon="14.486561100929976">
<ele>312</ele>
</trkpt>
<trkpt lat="40.636190688237548" lon="14.486693786457181">
<ele>314</ele>
</trkpt>
<trkpt lat="40.636054817587137" lon="14.486844073981047">
<ele>316</ele>
</trkpt>
<trkpt lat="40.635898327454925" lon="14.486990002915263">
<ele>318</ele>
</trkpt>
<trkpt lat="40.635764803737402" lon="14.487103577703238">
<ele>320</ele>
</trkpt>
<trkpt lat="40.635627005249262" lon="14.487226121127605">
<ele>322</ele>
</trkpt>
<trkpt lat="40.63548275269568" lon="14.487513285130262">
<ele>324</ele>
</trkpt>
<trkpt lat="40.63546565361321" lon="14.487862978130579">
<ele>325</ele>
</trkpt>
<trkpt lat="40.635436736047268" lon="14.488105801865458">
<ele>326</ele>
</trkpt>
<trkpt lat="40.635426929220557" lon="14.48836681433022">
<ele>326</ele>
</trkpt>
<trkpt lat="40.635438747704029" lon="14.488385422155261">
<ele>327</ele>
</trkpt>
<trkpt lat="40.63544319011271" lon="14.488452728837729">
<ele>328</ele>
</trkpt>
<trkpt lat="40.634939102455974" lon="14.488509222865105">
<ele>329</ele>
</trkpt>
<trkpt lat="40.634780516847968" lon="14.488484663888812">
<ele>330</ele>
</trkpt>
<trkpt lat="40.634288499131799" lon="14.488557083532214">
<ele>330</ele>
</trkpt>
<trkpt lat="40.634097727015615" lon="14.488629084080458">
<ele>331</ele>
</trkpt>
<trkpt lat="40.63398364931345" lon="14.48872690089047">
<ele>332</ele>
</trkpt>
<trkpt lat="40.633849203586578" lon="14.488852713257074">
<ele>333</ele>
</trkpt>
<trkpt lat="40.633059293031693" lon="14.488996881991625">
<ele>335</ele>
</trkpt>
<trkpt lat="40.632848991081119" lon="14.48900836519897">
<ele>336</ele>
</trkpt>
<trkpt lat="40.632692920044065" lon="14.489039881154895">
<ele>337</ele>
</trkpt>
<trkpt lat="40.632675485685468" lon="14.489059830084443">
<ele>338</ele>
</trkpt>
<trkpt lat="40.632523437961936" lon="14.489247836172581">
<ele>340</ele>
</trkpt>
<trkpt lat="40.632506003603339" lon="14.489268707111478">
<ele>341</ele>
</trkpt>
<trkpt lat="40.63239217735827" lon="14.489432824775577">
<ele>342</ele>
</trkpt>
<trkpt lat="40.632326044142246" lon="14.489535754546523">
<ele>344</ele>
</trkpt>
<trkpt lat="40.632230658084154" lon="14.489700626581907">
<ele>345</ele>
</trkpt>
<trkpt lat="40.632216995581985" lon="14.489728538319468">
<ele>346</ele>
</trkpt>
<trkpt lat="40.631982050836086" lon="14.490036321803927">
<ele>346</ele>
</trkpt>
<trkpt lat="40.631958581507206" lon="14.490076219663024">
<ele>346</ele>
</trkpt>
<trkpt lat="40.631871074438095" lon="14.490219885483384">
<ele>347</ele>
</trkpt>
<trkpt lat="40.631811730563641" lon="14.490610649809241">
<ele>348</ele>
</trkpt>
<trkpt lat="40.632693087682128" lon="14.491437608376145">
<ele>348</ele>
</trkpt>
<trkpt lat="40.632839519530535" lon="14.491555206477642">
<ele>348</ele>
</trkpt>
<trkpt lat="40.632921410724521" lon="14.491686467081308">
<ele>349</ele>
</trkpt>
<trkpt lat="40.633108494803309" lon="14.491917053237557">
<ele>350</ele>
</trkpt>
<trkpt lat="40.633238330483437" lon="14.492163565009832">
<ele>350</ele>
</trkpt>
<trkpt lat="40.633240425959229" lon="14.492248892784119">
<ele>350</ele>
</trkpt>
<trkpt lat="40.63325023278594" lon="14.492365485057235">
<ele>351</ele>
</trkpt>
<trkpt lat="40.633373111486435" lon="14.492568746209145">
<ele>351</ele>
</trkpt>
<trkpt lat="40.633366070687771" lon="14.492742251604795">
<ele>351</ele>
</trkpt>
<trkpt lat="40.633346876129508" lon="14.492809725925326">
<ele>352</ele>
</trkpt>
<trkpt lat="40.633288035169244" lon="14.492814000695944">
<ele>352</ele>
</trkpt>
<trkpt lat="40.633280910551548" lon="14.492808552458882">
<ele>353</ele>
</trkpt>
<trkpt lat="40.633152248337865" lon="14.492948781698942">
<ele>355</ele>
</trkpt>
<trkpt lat="40.63305283896625" lon="14.492922881618142">
<ele>356</ele>
</trkpt>
<trkpt lat="40.633022915571928" lon="14.492910727858543">
<ele>357</ele>
</trkpt>
<trkpt lat="40.632787216454744" lon="14.492965880781412">
<ele>358</ele>
</trkpt>
<trkpt lat="40.632763160392642" lon="14.492929670959711">
<ele>360</ele>
</trkpt>
<trkpt lat="40.632695350795984" lon="14.492903016507626">
<ele>361</ele>
</trkpt>
<trkpt lat="40.632389495149255" lon="14.492943333461881">
<ele>362</ele>
</trkpt>
<trkpt lat="40.632268628105521" lon="14.492984069511294">
<ele>364</ele>
</trkpt>
<trkpt lat="40.63223727978766" lon="14.492998402565718">
<ele>365</ele>
</trkpt>
<trkpt lat="40.632039634510875" lon="14.493063949048519">
<ele>364</ele>
</trkpt>
<trkpt lat="40.631889514625072" lon="14.493160508573055">
<ele>362</ele>
</trkpt>
<trkpt lat="40.631805611774325" lon="14.493198394775391">
<ele>361</ele>
</trkpt>
<trkpt lat="40.631693126633763" lon="14.493288164958358">
<ele>360</ele>
</trkpt>
<trkpt lat="40.631595309823751" lon="14.493389669805765">
<ele>358</ele>
</trkpt>
<trkpt lat="40.631556920707226" lon="14.493399225175381">
<ele>357</ele>
</trkpt>
<trkpt lat="40.631439490243793" lon="14.493556637316942">
<ele>356</ele>
</trkpt>
<trkpt lat="40.631376961246133" lon="14.493644060567021">
<ele>355</ele>
</trkpt>
<trkpt lat="40.631275037303567" lon="14.493774063885212">
<ele>353</ele>
</trkpt>
<trkpt lat="40.631173197180033" lon="14.493720419704914">
<ele>352</ele>
</trkpt>
<trkpt lat="40.631103375926614" lon="14.493687646463513">
<ele>349</ele>
</trkpt>
<trkpt lat="40.631001284345984" lon="14.493692591786385">
<ele>346</ele>
</trkpt>
<trkpt lat="40.630990136414766" lon="14.49364447966218">
<ele>342</ele>
</trkpt>
<trkpt lat="40.630952585488558" lon="14.49358387850225">
<ele>339</ele>
</trkpt>
<trkpt lat="40.630865916609764" lon="14.493545237928629">
<ele>336</ele>
</trkpt>
<trkpt lat="40.63080757856369" lon="14.493564097210765">
<ele>333</ele>
</trkpt>
<trkpt lat="40.630802381783724" lon="14.493568204343319">
<ele>330</ele>
</trkpt>
<trkpt lat="40.630607753992081" lon="14.493509698659182">
<ele>326</ele>
</trkpt>
<trkpt lat="40.630483869463205" lon="14.493483379483223">
<ele>323</ele>
</trkpt>
<trkpt lat="40.63042938709259" lon="14.493445744737983">
<ele>320</ele>
</trkpt>
<trkpt lat="40.630387393757701" lon="14.493253044784069">
<ele>317</ele>
</trkpt>
<trkpt lat="40.630358308553696" lon="14.493136871606112">
<ele>314</ele>
</trkpt>
<trkpt lat="40.630337353795767" lon="14.493108289316297">
<ele>310</ele>
</trkpt>
<trkpt lat="40.630257977172732" lon="14.493032433092594">
<ele>307</ele>
</trkpt>
<trkpt lat="40.630176505073905" lon="14.49296529404819">
<ele>304</ele>
</trkpt>
<trkpt lat="40.63013568520546" lon="14.492926318198442">
<ele>301</ele>
</trkpt>
<trkpt lat="40.630166195333004" lon="14.492742922157049">
<ele>298</ele>
</trkpt>
<trkpt lat="40.630241800099611" lon="14.492561621591449">
<ele>294</ele>
</trkpt>
<trkpt lat="40.630280859768391" lon="14.492399683222175">
<ele>291</ele>
</trkpt>
<trkpt lat="40.630275746807456" lon="14.492330700159073">
<ele>288</ele>
</trkpt>
<trkpt lat="40.630397954955697" lon="14.492231123149395">
<ele>285</ele>
</trkpt>
<trkpt lat="40.630462663248181" lon="14.492210503667593">
<ele>282</ele>
</trkpt>
<trkpt lat="40.63048311509192" lon="14.492063904181123">
<ele>278</ele>
</trkpt>
<trkpt lat="40.63052318058908" lon="14.491975056007504">
<ele>275</ele>
</trkpt>
<trkpt lat="40.63050608150661" lon="14.491787385195494">
<ele>272</ele>
</trkpt>
<trkpt lat="40.630300221964717" lon="14.491680348291993">
<ele>269</ele>
</trkpt>
<trkpt lat="40.630188658833504" lon="14.491594349965453">
<ele>266</ele>
</trkpt>
<trkpt lat="40.629969974979758" lon="14.491480104625225">
<ele>262</ele>
</trkpt>
<trkpt lat="40.629836786538363" lon="14.491498377174139">
<ele>259</ele>
</trkpt>
<trkpt lat="40.629752716049552" lon="14.491495946422219">
<ele>256</ele>
</trkpt>
<trkpt lat="40.629727151244879" lon="14.491523858159781">
<ele>251</ele>
</trkpt>
<trkpt lat="40.629586670547724" lon="14.49150525033474">
<ele>246</ele>
</trkpt>
<trkpt lat="40.629441747441888" lon="14.491470297798514">
<ele>242</ele>
</trkpt>
<trkpt lat="40.629330603405833" lon="14.491360494866967">
<ele>237</ele>
</trkpt>
<trkpt lat="40.629259357228875" lon="14.491254296153784">
<ele>232</ele>
</trkpt>
<trkpt lat="40.629132706671953" lon="14.49120132252574">
<ele>227</ele>
</trkpt>
<trkpt lat="40.629168665036559" lon="14.490920528769493">
<ele>222</ele>
</trkpt>
<trkpt lat="40.629181489348412" lon="14.490864453837276">
<ele>218</ele>
</trkpt>
<trkpt lat="40.629132790490985" lon="14.490673094987869">
<ele>213</ele>
</trkpt>
<trkpt lat="40.629143351688981" lon="14.490577708929777">
<ele>208</ele>
</trkpt>
<trkpt lat="40.629156678915024" lon="14.49050847440958">
<ele>204</ele>
</trkpt>
<trkpt lat="40.629126504063606" lon="14.490486010909081">
<ele>201</ele>
</trkpt>
<trkpt lat="40.629091300070286" lon="14.49055633507669">
<ele>198</ele>
</trkpt>
<trkpt lat="40.629062550142407" lon="14.490720704197884">
<ele>194</ele>
</trkpt>
<trkpt lat="40.629027681425214" lon="14.490600507706404">
<ele>190</ele>
</trkpt>
<trkpt lat="40.629036230966449" lon="14.490504283457994">
<ele>187</ele>
</trkpt>
<trkpt lat="40.629044277593493" lon="14.49037847109139">
<ele>184</ele>
</trkpt>
<trkpt lat="40.628993902355433" lon="14.490334801375866">
<ele>180</ele>
</trkpt>
<trkpt lat="40.629041260108352" lon="14.49024704284966">
<ele>176</ele>
</trkpt>
<trkpt lat="40.629057940095663" lon="14.490166073665023">
<ele>173</ele>
</trkpt>
<trkpt lat="40.628987029194832" lon="14.489985276013613">
<ele>171</ele>
</trkpt>
<trkpt lat="40.62907537445426" lon="14.489841610193253">
<ele>169</ele>
</trkpt>
<trkpt lat="40.629157517105341" lon="14.489728035405278">
<ele>167</ele>
</trkpt>
<trkpt lat="40.629155756905675" lon="14.489713115617633">
<ele>165</ele>
</trkpt>
<trkpt lat="40.629236558452249" lon="14.489517984911799">
<ele>164</ele>
</trkpt>
<trkpt lat="40.629289532080293" lon="14.489423772320151">
<ele>162</ele>
</trkpt>
<trkpt lat="40.629307720810175" lon="14.48936065658927">
<ele>160</ele>
</trkpt>
<trkpt lat="40.629366645589471" lon="14.489250686019659">
<ele>158</ele>
</trkpt>
<trkpt lat="40.629416350275278" lon="14.489137530326843">
<ele>156</ele>
</trkpt>
<trkpt lat="40.629433700814843" lon="14.489101404324174">
<ele>154</ele>
</trkpt>
<trkpt lat="40.629518274217844" lon="14.488895880058408">
<ele>152</ele>
</trkpt>
<trkpt lat="40.629534870386124" lon="14.488874422386289">
<ele>151</ele>
</trkpt>
<trkpt lat="40.629604775458574" lon="14.488757411018014">
<ele>149</ele>
</trkpt>
<trkpt lat="40.629561692476273" lon="14.488709215074778">
<ele>147</ele>
</trkpt>
<trkpt lat="40.629577282816172" lon="14.488622797653079">
<ele>146</ele>
</trkpt>
<trkpt lat="40.629662191495299" lon="14.488558759912848">
<ele>144</ele>
</trkpt>
<trkpt lat="40.629667807370424" lon="14.488552305847406">
<ele>142</ele>
</trkpt>
<trkpt lat="40.629790350794792" lon="14.488365221768618">
<ele>140</ele>
</trkpt>
<trkpt lat="40.629844833165407" lon="14.488390451297164">
<ele>139</ele>
</trkpt>
<trkpt lat="40.629856316372752" lon="14.488396150991321">
<ele>137</ele>
</trkpt>
<trkpt lat="40.629998054355383" lon="14.488298585638404">
<ele>135</ele>
</trkpt>
<trkpt lat="40.630024876445532" lon="14.488261034712195">
<ele>133</ele>
</trkpt>
<trkpt lat="40.630059074610472" lon="14.488087948411703">
<ele>131</ele>
</trkpt>
<trkpt lat="40.630178516730666" lon="14.488042434677482">
<ele>129</ele>
</trkpt>
<trkpt lat="40.630248337984085" lon="14.487991724163294">
<ele>127</ele>
</trkpt>
<trkpt lat="40.63034238293767" lon="14.487915616482496">
<ele>125</ele>
</trkpt>
<trkpt lat="40.630414467304945" lon="14.487865660339594">
<ele>123</ele>
</trkpt>
<trkpt lat="40.63041815534234" lon="14.487812435254455">
<ele>121</ele>
</trkpt>
<trkpt lat="40.630425699055195" lon="14.487732388079166">
<ele>119</ele>
</trkpt>
<trkpt lat="40.630583865568042" lon="14.487612778320909">
<ele>117</ele>
</trkpt>
<trkpt lat="40.630712443962693" lon="14.487549746409059">
<ele>115</ele>
</trkpt>
<trkpt lat="40.630771787837148" lon="14.487547650933266">
<ele>113</ele>
</trkpt>
<trkpt lat="40.630859127268195" lon="14.487501382827759">
<ele>111</ele>
</trkpt>
<trkpt lat="40.630921237170696" lon="14.487503729760647">
<ele>109</ele>
</trkpt>
<trkpt lat="40.630881171673536" lon="14.487473890185356">
<ele>107</ele>
</trkpt>
<trkpt lat="40.63072208315134" lon="14.487499119713902">
<ele>106</ele>
</trkpt>
<trkpt lat="40.630623931065202" lon="14.487524013966322">
<ele>104</ele>
</trkpt>
<trkpt lat="40.630531227216125" lon="14.487487133592367">
<ele>102</ele>
</trkpt>
<trkpt lat="40.630467273294926" lon="14.487452013418078">
<ele>100</ele>
</trkpt>
<trkpt lat="40.630390495061874" lon="14.487439356744289">
<ele>98</ele>
</trkpt>
<trkpt lat="40.630370965227485" lon="14.48741395957768">
<ele>96</ele>
</trkpt>
<trkpt lat="40.630384543910623" lon="14.487411864101887">
<ele>94</ele>
</trkpt>
<trkpt lat="40.630307011306286" lon="14.487397950142622">
<ele>93</ele>
</trkpt>
<trkpt lat="40.630264263600111" lon="14.4874232634902">
<ele>91</ele>
</trkpt>
<trkpt lat="40.630137948319316" lon="14.487477159127593">
<ele>89</ele>
</trkpt>
<trkpt lat="40.630090925842524" lon="14.487501634284854">
<ele>88</ele>
</trkpt>
<trkpt lat="40.629992689937353" lon="14.487488223239779">
<ele>86</ele>
</trkpt>
<trkpt lat="40.629931418225169" lon="14.487468274310231">
<ele>84</ele>
</trkpt>
<trkpt lat="40.629835613071918" lon="14.487464586272836">
<ele>82</ele>
</trkpt>
<trkpt lat="40.629782052710652" lon="14.487401973456144">
<ele>81</ele>
</trkpt>
<trkpt lat="40.62975749373436" lon="14.487249171361327">
<ele>79</ele>
</trkpt>
<trkpt lat="40.629715751856565" lon="14.48714573867619">
<ele>76</ele>
</trkpt>
<trkpt lat="40.629641823470592" lon="14.487244980409741">
<ele>74</ele>
</trkpt>
<trkpt lat="40.629479298368096" lon="14.487313879653811">
<ele>71</ele>
</trkpt>
<trkpt lat="40.629445016384125" lon="14.487379258498549">
<ele>69</ele>
</trkpt>
<trkpt lat="40.629364131018519" lon="14.487355453893542">
<ele>66</ele>
</trkpt>
<trkpt lat="40.62934166751802" lon="14.487130148336291">
<ele>63</ele>
</trkpt>
<trkpt lat="40.629382403567433" lon="14.486998552456498">
<ele>61</ele>
</trkpt>
<trkpt lat="40.629475526511669" lon="14.486811384558678">
<ele>58</ele>
</trkpt>
<trkpt lat="40.629483070224524" lon="14.486793195828795">
<ele>56</ele>
</trkpt>
<trkpt lat="40.629550376906991" lon="14.486682219430804">
<ele>53</ele>
</trkpt>
<trkpt lat="40.629574013873935" lon="14.486615750938654">
<ele>51</ele>
</trkpt>
<trkpt lat="40.629637632519007" lon="14.486467475071549">
<ele>50</ele>
</trkpt>
<trkpt lat="40.629698149859905" lon="14.486387595534325">
<ele>48</ele>
</trkpt>
<trkpt lat="40.62962899915874" lon="14.486335460096598">
<ele>47</ele>
</trkpt>
<trkpt lat="40.629588095471263" lon="14.486344931647182">
<ele>45</ele>
</trkpt>
<trkpt lat="40.629575354978442" lon="14.486397486180067">
<ele>43</ele>
</trkpt>
<trkpt lat="40.629514334723353" lon="14.486337639391422">
<ele>42</ele>
</trkpt>
<trkpt lat="40.629375111311674" lon="14.486165391281247">
<ele>40</ele>
</trkpt>
<trkpt lat="40.629347283393145" lon="14.486153572797775">
<ele>39</ele>
</trkpt>
<trkpt lat="40.629170509055257" lon="14.486473593860865">
<ele>37</ele>
</trkpt>
<trkpt lat="40.629159612581134" lon="14.486498069018126">
<ele>35</ele>
</trkpt>
<trkpt lat="40.629015946760774" lon="14.486599322408438">
<ele>33</ele>
</trkpt>
<trkpt lat="40.628928858786821" lon="14.486645339056849">
<ele>31</ele>
</trkpt>
<trkpt lat="40.628835987299681" lon="14.486681465059519">
<ele>29</ele>
</trkpt>
<trkpt lat="40.628719814121723" lon="14.486677944660187">
<ele>27</ele>
</trkpt>
<trkpt lat="40.62865468673408" lon="14.486732929944992">
<ele>25</ele>
</trkpt>
<trkpt lat="40.628548404201865" lon="14.486583899706602">
<ele>23</ele>
</trkpt>
<trkpt lat="40.628426698967814" lon="14.486463619396091">
<ele>21</ele>
</trkpt>
<trkpt lat="40.628395183011889" lon="14.486475521698594">
<ele>19</ele>
</trkpt>
<trkpt lat="40.628336928784847" lon="14.486390193924308">
<ele>17</ele>
</trkpt>
<trkpt lat="40.628255037590861" lon="14.48680954053998">
<ele>16</ele>
</trkpt>
<trkpt lat="40.628244057297707" lon="14.486834770068526">
<ele>16</ele>
</trkpt>
<trkpt lat="40.628209356218576" lon="14.486976424232125">
<ele>16</ele>
</trkpt>
<trkpt lat="40.62811279669404" lon="14.487080108374357">
<ele>15</ele>
</trkpt>
<trkpt lat="40.628077508881688" lon="14.487221427261829">
<ele>14</ele>
</trkpt>
<trkpt lat="40.627970471978188" lon="14.487210446968675">
<ele>14</ele>
</trkpt>
<trkpt lat="40.627973908558488" lon="14.487178260460496">
<ele>14</ele>
</trkpt>
<trkpt lat="40.627976674586535" lon="14.487157138064504">
<ele>13</ele>
</trkpt>
<trkpt lat="40.628032749518752" lon="14.487015400081873">
<ele>12</ele>
</trkpt>
<trkpt lat="40.628036018460989" lon="14.486927390098572">
<ele>12</ele>
</trkpt>
<trkpt lat="40.628090668469667" lon="14.486651960760355">
<ele>13</ele>
</trkpt>
<trkpt lat="40.628096451982856" lon="14.486627988517284">
<ele>14</ele>
</trkpt>
<trkpt lat="40.628159651532769" lon="14.486494967713952">
<ele>15</ele>
</trkpt>
<trkpt lat="40.628243302926421" lon="14.486457500606775">
<ele>16</ele>
</trkpt>
<trkpt lat="40.628207763656974" lon="14.486253233626485">
<ele>17</ele>
</trkpt>
<trkpt lat="40.628255121409893" lon="14.486275026574731">
<ele>18</ele>
</trkpt>
<trkpt lat="40.62848562374711" lon="14.486159440129995">
<ele>19</ele>
</trkpt>
<trkpt lat="40.628587044775486" lon="14.486057348549366">
<ele>20</ele>
</trkpt>
<trkpt lat="40.628630295395851" lon="14.486024742946029">
<ele>21</ele>
</trkpt>
<trkpt lat="40.628607580438256" lon="14.48593832552433">
<ele>22</ele>
</trkpt>
<trkpt lat="40.628533652052283" lon="14.486022815108299">
<ele>25</ele>
</trkpt>
<trkpt lat="40.628377832472324" lon="14.486004710197449">
<ele>27</ele>
</trkpt>
<trkpt lat="40.628333324566483" lon="14.485985934734344">
<ele>30</ele>
</trkpt>
<trkpt lat="40.628207679837942" lon="14.486075872555375">
<ele>32</ele>
</trkpt>
<trkpt lat="40.628157388418913" lon="14.486125912517309">
<ele>35</ele>
</trkpt>
<trkpt lat="40.628062840551138" lon="14.485953245311975">
<ele>38</ele>
</trkpt>
<trkpt lat="40.628069965168834" lon="14.485886273905635">
<ele>40</ele>
</trkpt>
<trkpt lat="40.628022775053978" lon="14.485849142074585">
<ele>43</ele>
</trkpt>
<trkpt lat="40.628010956570506" lon="14.485847381874919">
<ele>45</ele>
</trkpt>
<trkpt lat="40.627866201102734" lon="14.485674044117332">
<ele>48</ele>
</trkpt>
<trkpt lat="40.62788950279355" lon="14.485597936436534">
<ele>51</ele>
</trkpt>
<trkpt lat="40.627765031531453" lon="14.485521493479609">
<ele>54</ele>
</trkpt>
<trkpt lat="40.627702251076698" lon="14.485504226759076">
<ele>58</ele>
</trkpt>
<trkpt lat="40.627656988799572" lon="14.485404817387462">
<ele>61</ele>
</trkpt>
<trkpt lat="40.627666460350156" lon="14.485288895666599">
<ele>64</ele>
</trkpt>
<trkpt lat="40.627644248306751" lon="14.485192587599158">
<ele>67</ele>
</trkpt>
<trkpt lat="40.627671824768186" lon="14.485190492123365">
<ele>70</ele>
</trkpt>
<trkpt lat="40.627647014334798" lon="14.48496057651937">
<ele>74</ele>
</trkpt>
<trkpt lat="40.627624969929457" lon="14.484923528507352">
<ele>77</ele>
</trkpt>
<trkpt lat="40.62770283780992" lon="14.484962588176131">
<ele>80</ele>
</trkpt>
<trkpt lat="40.62779470346868" lon="14.485070463269949">
<ele>81</ele>
</trkpt>
<trkpt lat="40.62780199572444" lon="14.485050514340401">
<ele>82</ele>
</trkpt>
<trkpt lat="40.627778191119432" lon="14.485009191557765">
<ele>82</ele>
</trkpt>
<trkpt lat="40.627696383744478" lon="14.484767373651266">
<ele>83</ele>
</trkpt>
<trkpt lat="40.627629160881042" lon="14.484525555744767">
<ele>84</ele>
</trkpt>
<trkpt lat="40.627606194466352" lon="14.484427403658628">
<ele>85</ele>
</trkpt>
<trkpt lat="40.627553137019277" lon="14.484222801402211">
<ele>86</ele>
</trkpt>
<trkpt lat="40.627551209181547" lon="14.484061365947127">
<ele>86</ele>
</trkpt>
<trkpt lat="40.627633854746819" lon="14.483892470598221">
<ele>87</ele>
</trkpt>
<trkpt lat="40.627640308812261" lon="14.483814937993884">
<ele>88</ele>
</trkpt>
<trkpt lat="40.627743657678366" lon="14.483701279386878">
<ele>90</ele>
</trkpt>
<trkpt lat="40.627868380397558" lon="14.483457030728459">
<ele>92</ele>
</trkpt>
<trkpt lat="40.628396356478333" lon="14.481411259621382">
<ele>94</ele>
</trkpt>
<trkpt lat="40.628442876040936" lon="14.481222750619054">
<ele>96</ele>
</trkpt>
<trkpt lat="40.62851294875145" lon="14.480565022677183">
<ele>98</ele>
</trkpt>
<trkpt lat="40.628481768071651" lon="14.480477515608072">
<ele>100</ele>
</trkpt>
<trkpt lat="40.628364337608218" lon="14.480369472876191">
<ele>102</ele>
</trkpt>
<trkpt lat="40.628265934064984" lon="14.480271069332957">
<ele>104</ele>
</trkpt>
<trkpt lat="40.628293761983514" lon="14.48017836548388">
<ele>106</ele>
</trkpt>
<trkpt lat="40.628446061164141" lon="14.480190351605415">
<ele>108</ele>
</trkpt>
<trkpt lat="40.628613950684667" lon="14.480210216715932">
<ele>110</ele>
</trkpt>
<trkpt lat="40.628661643713713" lon="14.480209210887551">
<ele>113</ele>
</trkpt>
<trkpt lat="40.62884671613574" lon="14.480084739625454">
<ele>115</ele>
</trkpt>
<trkpt lat="40.629018796607852" lon="14.480022713541985">
<ele>118</ele>
</trkpt>
<trkpt lat="40.629069339483976" lon="14.480240223929286">
<ele>120</ele>
</trkpt>
<trkpt lat="40.628903545439243" lon="14.48098604567349">
<ele>122</ele>
</trkpt>
<trkpt lat="40.628616213798523" lon="14.482546923682094">
<ele>125</ele>
</trkpt>
<trkpt lat="40.628596097230911" lon="14.482588414102793">
<ele>127</ele>
</trkpt>
<trkpt lat="40.628353776410222" lon="14.483645707368851">
<ele>130</ele>
</trkpt>
<trkpt lat="40.62837808392942" lon="14.483790211379528">
<ele>132</ele>
</trkpt>
<trkpt lat="40.628332234919071" lon="14.483990035951138">
<ele>133</ele>
</trkpt>
<trkpt lat="40.628309771418571" lon="14.484117859974504">
<ele>135</ele>
</trkpt>
<trkpt lat="40.628245146945119" lon="14.484217436984181">
<ele>136</ele>
</trkpt>
<trkpt lat="40.628393674269319" lon="14.484191788360476">
<ele>138</ele>
</trkpt>
<trkpt lat="40.628458298742771" lon="14.484078465029597">
<ele>139</ele>
</trkpt>
<trkpt lat="40.628431392833591" lon="14.483934128656983">
<ele>140</ele>
</trkpt>
<trkpt lat="40.628432650119066" lon="14.483852069824934">
<ele>142</ele>
</trkpt>
<trkpt lat="40.628558965399861" lon="14.483729191124439">
<ele>143</ele>
</trkpt>
<trkpt lat="40.628590565174818" lon="14.483692143112421">
<ele>145</ele>
</trkpt>
<trkpt lat="40.628717299550772" lon="14.483520314097404">
<ele>146</ele>
</trkpt>
<trkpt lat="40.628728615120053" lon="14.48349223472178">
<ele>148</ele>
</trkpt>
<trkpt lat="40.628814026713371" lon="14.483307329937816">
<ele>150</ele>
</trkpt>
<trkpt lat="40.62884571030736" lon="14.483206914737821">
<ele>153</ele>
</trkpt>
<trkpt lat="40.628907149657607" lon="14.483025278896093">
<ele>155</ele>
</trkpt>
<trkpt lat="40.629073781892657" lon="14.482780024409294">
<ele>157</ele>
</trkpt>
<trkpt lat="40.629095742478967" lon="14.482756974175572">
<ele>160</ele>
</trkpt>
<trkpt lat="40.629310151562095" lon="14.482572572305799">
<ele>162</ele>
</trkpt>
<trkpt lat="40.629498995840549" lon="14.482384985312819">
<ele>164</ele>
</trkpt>
</trkseg>
</trk>
</gpx>
