<?xml version="1.0" encoding="UTF-8"?>
<gpx version="1.1"
creator="Smartprofil-Office - http://www.rother.de"
xmlns:xsi="http://www.w3.org/2001/XMLSchema-instance"
xmlns="http://www.topografix.com/GPX/1/1"
xsi:schemaLocation="http://www.topografix.com/GPX/1/1 http://www.topografix.com/GPX/1/1/gpx.xsd">
<metadata>

<bounds minlat="40.545132290571928" minlon="14.242835976183414" maxlat="40.557229975238442" maxlon="14.262489024549723"/>
</metadata>
<wpt lat="40.550730982795358" lon="14.242835976183414">
<ele>142</ele>
<name>46_Capri Piazza Umberto I (1)</name>
<cmt></cmt>
<desc></desc>
<sym>Crossing</sym>
</wpt>

<wpt lat="40.550517160445452" lon="14.256813302636147">
<ele>182</ele>
<name>46_Arco Naturale (2)</name>
<cmt></cmt>
<desc></desc>
<sym>Crossing</sym>
</wpt>

<wpt lat="40.551028959453106" lon="14.248528964817524">
<ele>170</ele>
<name>46_S. Michele della Croce (3)</name>
<cmt></cmt>
<desc></desc>
<sym>Crossing</sym>
</wpt>

<wpt lat="40.557229975238442" lon="14.262489024549723">
<ele>335</ele>
<name>46_Palazzo di Tiberio (4)</name>
<cmt></cmt>
<desc></desc>
<sym>Crossing</sym>
</wpt>

<trk>
<name>Neapel_46_Capri - Palazzo di Tiberio</name>
<trkseg>
<trkpt lat="40.550730982795358" lon="14.242835976183414">
<ele>142</ele>
</trkpt>
<trkpt lat="40.55075503885746" lon="14.24297402612865">
<ele>142</ele>
</trkpt>
<trkpt lat="40.550755960866809" lon="14.243027921766043">
<ele>142</ele>
</trkpt>
<trkpt lat="40.550745064392686" lon="14.243182064965367">
<ele>142</ele>
</trkpt>
<trkpt lat="40.550671555101871" lon="14.2432442586869">
<ele>142</ele>
</trkpt>
<trkpt lat="40.550527889281511" lon="14.243383314460516">
<ele>142</ele>
</trkpt>
<trkpt lat="40.550515316426754" lon="14.243393708020449">
<ele>142</ele>
</trkpt>
<trkpt lat="40.550419678911567" lon="14.243483897298574">
<ele>142</ele>
</trkpt>
<trkpt lat="40.550297219306231" lon="14.243690092116594">
<ele>142</ele>
</trkpt>
<trkpt lat="40.550168640911579" lon="14.243861585855484">
<ele>142</ele>
</trkpt>
<trkpt lat="40.550093371421099" lon="14.243921348825097">
<ele>142</ele>
</trkpt>
<trkpt lat="40.550010222941637" lon="14.243974322453141">
<ele>141</ele>
</trkpt>
<trkpt lat="40.549914166331291" lon="14.244014220312238">
<ele>140</ele>
</trkpt>
<trkpt lat="40.549881644546986" lon="14.244019752368331">
<ele>140</ele>
</trkpt>
<trkpt lat="40.549720795825124" lon="14.24409544095397">
<ele>139</ele>
</trkpt>
<trkpt lat="40.54967905394733" lon="14.244272550567985">
<ele>138</ele>
</trkpt>
<trkpt lat="40.549707971513271" lon="14.244397273287177">
<ele>137</ele>
</trkpt>
<trkpt lat="40.549768740311265" lon="14.244499364867806">
<ele>136</ele>
</trkpt>
<trkpt lat="40.549779888242483" lon="14.244639175012708">
<ele>136</ele>
</trkpt>
<trkpt lat="40.549785755574703" lon="14.244690053164959">
<ele>135</ele>
</trkpt>
<trkpt lat="40.549808721989393" lon="14.244891135022044">
<ele>134</ele>
</trkpt>
<trkpt lat="40.549818193539977" lon="14.244954502210021">
<ele>134</ele>
</trkpt>
<trkpt lat="40.549859767779708" lon="14.245117781683803">
<ele>135</ele>
</trkpt>
<trkpt lat="40.549906035885215" lon="14.245330849662423">
<ele>136</ele>
</trkpt>
<trkpt lat="40.549930678680539" lon="14.245431935414672">
<ele>137</ele>
</trkpt>
<trkpt lat="40.549974096938968" lon="14.245634526014328">
<ele>137</ele>
</trkpt>
<trkpt lat="40.549967642873526" lon="14.245911212638021">
<ele>138</ele>
</trkpt>
<trkpt lat="40.549940569326282" lon="14.246181026101112">
<ele>139</ele>
</trkpt>
<trkpt lat="40.54989161901176" lon="14.246526611968875">
<ele>139</ele>
</trkpt>
<trkpt lat="40.549835627898574" lon="14.246733812615275">
<ele>139</ele>
</trkpt>
<trkpt lat="40.549662290140986" lon="14.247059701010585">
<ele>140</ele>
</trkpt>
<trkpt lat="40.549580315127969" lon="14.247165899723768">
<ele>141</ele>
</trkpt>
<trkpt lat="40.549526168033481" lon="14.24725248478353">
<ele>142</ele>
</trkpt>
<trkpt lat="40.549461459740996" lon="14.247497236356139">
<ele>142</ele>
</trkpt>
<trkpt lat="40.54941619746387" lon="14.247596394270658">
<ele>143</ele>
</trkpt>
<trkpt lat="40.549413179978728" lon="14.247747855260968">
<ele>144</ele>
</trkpt>
<trkpt lat="40.54936196655035" lon="14.247809210792184">
<ele>145</ele>
</trkpt>
<trkpt lat="40.549279991537333" lon="14.247906189411879">
<ele>146</ele>
</trkpt>
<trkpt lat="40.549112521111965" lon="14.248074414208531">
<ele>146</ele>
</trkpt>
<trkpt lat="40.549013530835509" lon="14.248247165232897">
<ele>147</ele>
</trkpt>
<trkpt lat="40.548815550282598" lon="14.248512620106339">
<ele>148</ele>
</trkpt>
<trkpt lat="40.548663418740034" lon="14.248725268989801">
<ele>150</ele>
</trkpt>
<trkpt lat="40.548566188663244" lon="14.24884538166225">
<ele>152</ele>
</trkpt>
<trkpt lat="40.548397963866591" lon="14.249051660299301">
<ele>154</ele>
</trkpt>
<trkpt lat="40.548174753785133" lon="14.249209826812148">
<ele>156</ele>
</trkpt>
<trkpt lat="40.548010049387813" lon="14.249287778511643">
<ele>158</ele>
</trkpt>
<trkpt lat="40.547779630869627" lon="14.249403700232506">
<ele>160</ele>
</trkpt>
<trkpt lat="40.547524401918054" lon="14.249694216996431">
<ele>162</ele>
</trkpt>
<trkpt lat="40.547294402495027" lon="14.249793542549014">
<ele>164</ele>
</trkpt>
<trkpt lat="40.547190885990858" lon="14.249799409881234">
<ele>166</ele>
</trkpt>
<trkpt lat="40.547035904601216" lon="14.249844253063202">
<ele>168</ele>
</trkpt>
<trkpt lat="40.546879665926099" lon="14.249909296631813">
<ele>168</ele>
</trkpt>
<trkpt lat="40.546695264056325" lon="14.250019351020455">
<ele>167</ele>
</trkpt>
<trkpt lat="40.546524524688721" lon="14.249970316886902">
<ele>167</ele>
</trkpt>
<trkpt lat="40.546400556340814" lon="14.24996780231595">
<ele>167</ele>
</trkpt>
<trkpt lat="40.546234510838985" lon="14.250005185604095">
<ele>167</ele>
</trkpt>
<trkpt lat="40.545981293544173" lon="14.249940142035484">
<ele>166</ele>
</trkpt>
<trkpt lat="40.545832430943847" lon="14.249928491190076">
<ele>166</ele>
</trkpt>
<trkpt lat="40.54582723416388" lon="14.249922120943666">
<ele>166</ele>
</trkpt>
<trkpt lat="40.545704271644354" lon="14.249925138428807">
<ele>165</ele>
</trkpt>
<trkpt lat="40.545635372400284" lon="14.250008873641491">
<ele>165</ele>
</trkpt>
<trkpt lat="40.545487850904465" lon="14.250094369053841">
<ele>163</ele>
</trkpt>
<trkpt lat="40.545348711311817" lon="14.250086490064859">
<ele>161</ele>
</trkpt>
<trkpt lat="40.545297414064407" lon="14.250024547800422">
<ele>158</ele>
</trkpt>
<trkpt lat="40.545216780155897" lon="14.250025469809771">
<ele>156</ele>
</trkpt>
<trkpt lat="40.545211751013994" lon="14.250054303556681">
<ele>154</ele>
</trkpt>
<trkpt lat="40.545155173167586" lon="14.250231245532632">
<ele>152</ele>
</trkpt>
<trkpt lat="40.545154418796301" lon="14.250374156981707">
<ele>150</ele>
</trkpt>
<trkpt lat="40.545161878690124" lon="14.250402739271522">
<ele>147</ele>
</trkpt>
<trkpt lat="40.545163555070758" lon="14.250486306846142">
<ele>145</ele>
</trkpt>
<trkpt lat="40.545132290571928" lon="14.250655705109239">
<ele>144</ele>
</trkpt>
<trkpt lat="40.545145366340876" lon="14.250833569094539">
<ele>146</ele>
</trkpt>
<trkpt lat="40.545158190652728" lon="14.250894170254469">
<ele>147</ele>
</trkpt>
<trkpt lat="40.545159447938204" lon="14.251109249889851">
<ele>149</ele>
</trkpt>
<trkpt lat="40.545215690508485" lon="14.251408483833075">
<ele>150</ele>
</trkpt>
<trkpt lat="40.545225832611322" lon="14.251659940928221">
<ele>152</ele>
</trkpt>
<trkpt lat="40.5452442727983" lon="14.251969903707504">
<ele>154</ele>
</trkpt>
<trkpt lat="40.545260701328516" lon="14.252161346375942">
<ele>155</ele>
</trkpt>
<trkpt lat="40.545221893116832" lon="14.252258827909827">
<ele>157</ele>
</trkpt>
<trkpt lat="40.545180486515164" lon="14.252311298623681">
<ele>158</ele>
</trkpt>
<trkpt lat="40.54521543905139" lon="14.252566527575254">
<ele>160</ele>
</trkpt>
<trkpt lat="40.545239746570587" lon="14.252587482333183">
<ele>162</ele>
</trkpt>
<trkpt lat="40.545257432386279" lon="14.252686053514481">
<ele>163</ele>
</trkpt>
<trkpt lat="40.545265479013324" lon="14.252787055447698">
<ele>165</ele>
</trkpt>
<trkpt lat="40.545366397127509" lon="14.253036417067051">
<ele>167</ele>
</trkpt>
<trkpt lat="40.545375449582934" lon="14.253118727356195">
<ele>168</ele>
</trkpt>
<trkpt lat="40.54538450203836" lon="14.253271026536822">
<ele>170</ele>
</trkpt>
<trkpt lat="40.545523976907134" lon="14.253497086465359">
<ele>172</ele>
</trkpt>
<trkpt lat="40.545576447620988" lon="14.253797326236963">
<ele>174</ele>
</trkpt>
<trkpt lat="40.545588685199618" lon="14.253922384232283">
<ele>175</ele>
</trkpt>
<trkpt lat="40.545487515628338" lon="14.254145510494709">
<ele>177</ele>
</trkpt>
<trkpt lat="40.545510733500123" lon="14.254260258749127">
<ele>173</ele>
</trkpt>
<trkpt lat="40.545511236414313" lon="14.2544050142169">
<ele>168</ele>
</trkpt>
<trkpt lat="40.545512326061726" lon="14.254541136324406">
<ele>164</ele>
</trkpt>
<trkpt lat="40.545547781512141" lon="14.254695028066635">
<ele>159</ele>
</trkpt>
<trkpt lat="40.545531939715147" lon="14.254813296720386">
<ele>155</ele>
</trkpt>
<trkpt lat="40.545567143708467" lon="14.254908347502351">
<ele>151</ele>
</trkpt>
<trkpt lat="40.545566473156214" lon="14.254911281168461">
<ele>146</ele>
</trkpt>
<trkpt lat="40.545494304969907" lon="14.255058383569121">
<ele>142</ele>
</trkpt>
<trkpt lat="40.545402690768242" lon="14.255198528990149">
<ele>137</ele>
</trkpt>
<trkpt lat="40.545361870899796" lon="14.255257705226541">
<ele>133</ele>
</trkpt>
<trkpt lat="40.545317782089114" lon="14.255416542291641">
<ele>133</ele>
</trkpt>
<trkpt lat="40.545306717976928" lon="14.255435653030872">
<ele>134</ele>
</trkpt>
<trkpt lat="40.545229353010654" lon="14.255513520911336">
<ele>134</ele>
</trkpt>
<trkpt lat="40.545337731018662" lon="14.255607565864921">
<ele>134</ele>
</trkpt>
<trkpt lat="40.545391459017992" lon="14.255656264722347">
<ele>134</ele>
</trkpt>
<trkpt lat="40.545539986342192" lon="14.255758691579103">
<ele>135</ele>
</trkpt>
<trkpt lat="40.545568652451038" lon="14.255752321332693">
<ele>135</ele>
</trkpt>
<trkpt lat="40.545715838670731" lon="14.255627514794469">
<ele>135</ele>
</trkpt>
<trkpt lat="40.545871993526816" lon="14.255587365478277">
<ele>136</ele>
</trkpt>
<trkpt lat="40.545927733182907" lon="14.255663054063916">
<ele>136</ele>
</trkpt>
<trkpt lat="40.546049857512116" lon="14.255815604701638">
<ele>136</ele>
</trkpt>
<trkpt lat="40.546129820868373" lon="14.25591878592968">
<ele>135</ele>
</trkpt>
<trkpt lat="40.546295111998916" lon="14.256285158917308">
<ele>134</ele>
</trkpt>
<trkpt lat="40.546294776722789" lon="14.256299240514636">
<ele>134</ele>
</trkpt>
<trkpt lat="40.546299805864692" lon="14.256398482248187">
<ele>134</ele>
</trkpt>
<trkpt lat="40.546262925490737" lon="14.25657793879509">
<ele>133</ele>
</trkpt>
<trkpt lat="40.546314138919115" lon="14.25661607645452">
<ele>133</ele>
</trkpt>
<trkpt lat="40.546407010406256" lon="14.256570981815457">
<ele>133</ele>
</trkpt>
<trkpt lat="40.546553358435631" lon="14.256575172767043">
<ele>133</ele>
</trkpt>
<trkpt lat="40.54660901427269" lon="14.256573747843504">
<ele>132</ele>
</trkpt>
<trkpt lat="40.546796265989542" lon="14.2566136457026">
<ele>132</ele>
</trkpt>
<trkpt lat="40.54687581025064" lon="14.256719844415784">
<ele>131</ele>
</trkpt>
<trkpt lat="40.546952672302723" lon="14.256756389513612">
<ele>131</ele>
</trkpt>
<trkpt lat="40.547064319252968" lon="14.256702242419124">
<ele>131</ele>
</trkpt>
<trkpt lat="40.547251487150788" lon="14.256696375086904">
<ele>131</ele>
</trkpt>
<trkpt lat="40.547352405264974" lon="14.256704840809107">
<ele>130</ele>
</trkpt>
<trkpt lat="40.54753253236413" lon="14.256793688982725">
<ele>130</ele>
</trkpt>
<trkpt lat="40.54770109243691" lon="14.256881782785058">
<ele>130</ele>
</trkpt>
<trkpt lat="40.547785330563784" lon="14.257014552131295">
<ele>129</ele>
</trkpt>
<trkpt lat="40.54784718900919" lon="14.257107926532626">
<ele>129</ele>
</trkpt>
<trkpt lat="40.547871999442577" lon="14.25725712440908">
<ele>130</ele>
</trkpt>
<trkpt lat="40.547904437407851" lon="14.257336501032114">
<ele>130</ele>
</trkpt>
<trkpt lat="40.547987585887313" lon="14.257286880165339">
<ele>131</ele>
</trkpt>
<trkpt lat="40.548169473186135" lon="14.257215801626444">
<ele>132</ele>
</trkpt>
<trkpt lat="40.548239629715681" lon="14.25715503282845">
<ele>133</ele>
</trkpt>
<trkpt lat="40.54834658280015" lon="14.257034081965685">
<ele>133</ele>
</trkpt>
<trkpt lat="40.548466444015503" lon="14.25696300342679">
<ele>134</ele>
</trkpt>
<trkpt lat="40.548575911670923" lon="14.256881782785058">
<ele>135</ele>
</trkpt>
<trkpt lat="40.548754865303636" lon="14.256737614050508">
<ele>135</ele>
</trkpt>
<trkpt lat="40.548942871391773" lon="14.256575340405107">
<ele>136</ele>
</trkpt>
<trkpt lat="40.54900674149394" lon="14.256429830566049">
<ele>141</ele>
</trkpt>
<trkpt lat="40.5490140337497" lon="14.25638347864151">
<ele>145</ele>
</trkpt>
<trkpt lat="40.549129452556372" lon="14.256278034299612">
<ele>149</ele>
</trkpt>
<trkpt lat="40.549165159463882" lon="14.256242914125323">
<ele>154</ele>
</trkpt>
<trkpt lat="40.549229783937335" lon="14.256039820611477">
<ele>159</ele>
</trkpt>
<trkpt lat="40.549239171668887" lon="14.255977207794785">
<ele>163</ele>
</trkpt>
<trkpt lat="40.549355177208781" lon="14.256008975207806">
<ele>167</ele>
</trkpt>
<trkpt lat="40.549380574375391" lon="14.255956755951047">
<ele>172</ele>
</trkpt>
<trkpt lat="40.54938493296504" lon="14.255809234455228">
<ele>177</ele>
</trkpt>
<trkpt lat="40.549332294613123" lon="14.255795823410153">
<ele>181</ele>
</trkpt>
<trkpt lat="40.549310501664877" lon="14.255794649943709">
<ele>185</ele>
</trkpt>
<trkpt lat="40.549177480861545" lon="14.255648385733366">
<ele>188</ele>
</trkpt>
<trkpt lat="40.549177564680576" lon="14.255619468167424">
<ele>191</ele>
</trkpt>
<trkpt lat="40.549209835007787" lon="14.255513437092304">
<ele>195</ele>
</trkpt>
<trkpt lat="40.549229783937335" lon="14.255360718816519">
<ele>199</ele>
</trkpt>
<trkpt lat="40.549208410084248" lon="14.255352420732379">
<ele>202</ele>
</trkpt>
<trkpt lat="40.549174631014466" lon="14.255310595035553">
<ele>205</ele>
</trkpt>
<trkpt lat="40.549120903015137" lon="14.255145974457264">
<ele>209</ele>
</trkpt>
<trkpt lat="40.549163399264216" lon="14.255072381347418">
<ele>213</ele>
</trkpt>
<trkpt lat="40.549206482246518" lon="14.255085373297334">
<ele>216</ele>
</trkpt>
<trkpt lat="40.549351824447513" lon="14.25509643740952">
<ele>217</ele>
</trkpt>
<trkpt lat="40.549429943785071" lon="14.255182184278965">
<ele>219</ele>
</trkpt>
<trkpt lat="40.549495406448841" lon="14.255294166505337">
<ele>221</ele>
</trkpt>
<trkpt lat="40.549522982910275" lon="14.255313277244568">
<ele>223</ele>
</trkpt>
<trkpt lat="40.549583835527301" lon="14.255292993038893">
<ele>224</ele>
</trkpt>
<trkpt lat="40.549780810251832" lon="14.255188722163439">
<ele>225</ele>
</trkpt>
<trkpt lat="40.549799920991063" lon="14.255162989720702">
<ele>227</ele>
</trkpt>
<trkpt lat="40.549870915710926" lon="14.255013959482312">
<ele>228</ele>
</trkpt>
<trkpt lat="40.549898659810424" lon="14.255034327507019">
<ele>230</ele>
</trkpt>
<trkpt lat="40.549942748621106" lon="14.255022760480642">
<ele>231</ele>
</trkpt>
<trkpt lat="40.549960685893893" lon="14.255034662783146">
<ele>229</ele>
</trkpt>
<trkpt lat="40.549976862967014" lon="14.255101550370455">
<ele>226</ele>
</trkpt>
<trkpt lat="40.549957081675529" lon="14.255256783217192">
<ele>224</ele>
</trkpt>
<trkpt lat="40.549993040040135" lon="14.2553426977247">
<ele>221</ele>
</trkpt>
<trkpt lat="40.55002891458571" lon="14.255454931408167">
<ele>219</ele>
</trkpt>
<trkpt lat="40.550041487440467" lon="14.255478819832206">
<ele>217</ele>
</trkpt>
<trkpt lat="40.550066716969013" lon="14.25559583120048">
<ele>214</ele>
</trkpt>
<trkpt lat="40.550133185461164" lon="14.255600608885288">
<ele>212</ele>
</trkpt>
<trkpt lat="40.550158331170678" lon="14.255688954144716">
<ele>209</ele>
</trkpt>
<trkpt lat="40.550197809934616" lon="14.255798757076263">
<ele>207</ele>
</trkpt>
<trkpt lat="40.550323622301221" lon="14.255894310772419">
<ele>203</ele>
</trkpt>
<trkpt lat="40.550431413576007" lon="14.255982656031847">
<ele>200</ele>
</trkpt>
<trkpt lat="40.550515819340944" lon="14.256226234138012">
<ele>196</ele>
</trkpt>
<trkpt lat="40.550600308924913" lon="14.256476936861873">
<ele>193</ele>
</trkpt>
<trkpt lat="40.550549933686852" lon="14.256550949066877">
<ele>189</ele>
</trkpt>
<trkpt lat="40.550494277849793" lon="14.256624961271882">
<ele>186</ele>
</trkpt>
<trkpt lat="40.550517160445452" lon="14.256813302636147">
<ele>182</ele>
</trkpt>
<trkpt lat="40.550508694723248" lon="14.256803998723626">
<ele>184</ele>
</trkpt>
<trkpt lat="40.550494277849793" lon="14.256624961271882">
<ele>187</ele>
</trkpt>
<trkpt lat="40.550549933686852" lon="14.256550949066877">
<ele>189</ele>
</trkpt>
<trkpt lat="40.550600308924913" lon="14.256476936861873">
<ele>191</ele>
</trkpt>
<trkpt lat="40.550515819340944" lon="14.256226234138012">
<ele>194</ele>
</trkpt>
<trkpt lat="40.550431413576007" lon="14.255982656031847">
<ele>196</ele>
</trkpt>
<trkpt lat="40.550323622301221" lon="14.255894310772419">
<ele>198</ele>
</trkpt>
<trkpt lat="40.550197809934616" lon="14.255798757076263">
<ele>200</ele>
</trkpt>
<trkpt lat="40.550158331170678" lon="14.255688954144716">
<ele>203</ele>
</trkpt>
<trkpt lat="40.550133185461164" lon="14.255600608885288">
<ele>205</ele>
</trkpt>
<trkpt lat="40.550041487440467" lon="14.255478819832206">
<ele>206</ele>
</trkpt>
<trkpt lat="40.55002891458571" lon="14.255454931408167">
<ele>206</ele>
</trkpt>
<trkpt lat="40.549993040040135" lon="14.2553426977247">
<ele>207</ele>
</trkpt>
<trkpt lat="40.549957081675529" lon="14.255256783217192">
<ele>207</ele>
</trkpt>
<trkpt lat="40.549976862967014" lon="14.255101550370455">
<ele>208</ele>
</trkpt>
<trkpt lat="40.549960685893893" lon="14.255034662783146">
<ele>209</ele>
</trkpt>
<trkpt lat="40.549949873238802" lon="14.254996525123715">
<ele>209</ele>
</trkpt>
<trkpt lat="40.549847697839141" lon="14.254847913980484">
<ele>210</ele>
</trkpt>
<trkpt lat="40.549754826352" lon="14.254752863198519">
<ele>210</ele>
</trkpt>
<trkpt lat="40.549741750583053" lon="14.254757054150105">
<ele>211</ele>
</trkpt>
<trkpt lat="40.549645526334643" lon="14.254609448835254">
<ele>212</ele>
</trkpt>
<trkpt lat="40.549575788900256" lon="14.254439882934093">
<ele>213</ele>
</trkpt>
<trkpt lat="40.549557683989406" lon="14.254225976765156">
<ele>213</ele>
</trkpt>
<trkpt lat="40.549558103084564" lon="14.254149869084358">
<ele>214</ele>
</trkpt>
<trkpt lat="40.54955399595201" lon="14.25406051799655">
<ele>215</ele>
</trkpt>
<trkpt lat="40.549537986516953" lon="14.25402145832777">
<ele>216</ele>
</trkpt>
<trkpt lat="40.549504207447171" lon="14.253805121406913">
<ele>217</ele>
</trkpt>
<trkpt lat="40.549573861062527" lon="14.253763044252992">
<ele>217</ele>
</trkpt>
<trkpt lat="40.549614513292909" lon="14.253440676257014">
<ele>218</ele>
</trkpt>
<trkpt lat="40.549600515514612" lon="14.253261219710112">
<ele>219</ele>
</trkpt>
<trkpt lat="40.549618117511272" lon="14.253056449815631">
<ele>218</ele>
</trkpt>
<trkpt lat="40.549666984006763" lon="14.25289710983634">
<ele>217</ele>
</trkpt>
<trkpt lat="40.549661619588733" lon="14.252797700464725">
<ele>215</ele>
</trkpt>
<trkpt lat="40.549652567133307" lon="14.252524031326175">
<ele>214</ele>
</trkpt>
<trkpt lat="40.549547206610441" lon="14.252229407429695">
<ele>213</ele>
</trkpt>
<trkpt lat="40.549532454460859" lon="14.252032851800323">
<ele>212</ele>
</trkpt>
<trkpt lat="40.54957159794867" lon="14.251839984208345">
<ele>211</ele>
</trkpt>
<trkpt lat="40.549649465829134" lon="14.25167066976428">
<ele>209</ele>
</trkpt>
<trkpt lat="40.549711911007762" lon="14.251456176862121">
<ele>208</ele>
</trkpt>
<trkpt lat="40.549722975119948" lon="14.251444861292839">
<ele>207</ele>
</trkpt>
<trkpt lat="40.549840489402413" lon="14.251292897388339">
<ele>205</ele>
</trkpt>
<trkpt lat="40.549850463867188" lon="14.251231541857123">
<ele>203</ele>
</trkpt>
<trkpt lat="40.549945347011089" lon="14.251003721728921">
<ele>201</ele>
</trkpt>
<trkpt lat="40.5499810539186" lon="14.250781601294875">
<ele>199</ele>
</trkpt>
<trkpt lat="40.550027992576361" lon="14.250606084242463">
<ele>197</ele>
</trkpt>
<trkpt lat="40.550070991739631" lon="14.250544728711247">
<ele>195</ele>
</trkpt>
<trkpt lat="40.550198396667838" lon="14.250323111191392">
<ele>193</ele>
</trkpt>
<trkpt lat="40.55026151239872" lon="14.250265108421445">
<ele>191</ele>
</trkpt>
<trkpt lat="40.550375673919916" lon="14.250139715149999">
<ele>189</ele>
</trkpt>
<trkpt lat="40.550457146018744" lon="14.249991774559021">
<ele>187</ele>
</trkpt>
<trkpt lat="40.550555549561977" lon="14.24987300299108">
<ele>185</ele>
</trkpt>
<trkpt lat="40.550600392743945" lon="14.249792452901602">
<ele>183</ele>
</trkpt>
<trkpt lat="40.55071790702641" lon="14.249599501490593">
<ele>181</ele>
</trkpt>
<trkpt lat="40.550822680816054" lon="14.249348966404796">
<ele>179</ele>
</trkpt>
<trkpt lat="40.550812873989344" lon="14.24920454621315">
<ele>178</ele>
</trkpt>
<trkpt lat="40.550808850675821" lon="14.249194823205471">
<ele>176</ele>
</trkpt>
<trkpt lat="40.550924269482493" lon="14.248768435791135">
<ele>174</ele>
</trkpt>
<trkpt lat="40.5510189011693" lon="14.248577998951077">
<ele>172</ele>
</trkpt>
<trkpt lat="40.551028959453106" lon="14.248528964817524">
<ele>170</ele>
</trkpt>
<trkpt lat="40.551150245591998" lon="14.248566934838891">
<ele>171</ele>
</trkpt>
<trkpt lat="40.551316710188985" lon="14.248541202396154">
<ele>172</ele>
</trkpt>
<trkpt lat="40.551295839250088" lon="14.248599708080292">
<ele>174</ele>
</trkpt>
<trkpt lat="40.551301706582308" lon="14.248676486313343">
<ele>175</ele>
</trkpt>
<trkpt lat="40.55131453089416" lon="14.248773297294974">
<ele>176</ele>
</trkpt>
<trkpt lat="40.551349315792322" lon="14.249048223719001">
<ele>177</ele>
</trkpt>
<trkpt lat="40.551455682143569" lon="14.249312756583095">
<ele>178</ele>
</trkpt>
<trkpt lat="40.551550062373281" lon="14.249510485678911">
<ele>180</ele>
</trkpt>
<trkpt lat="40.551614435389638" lon="14.249706957489252">
<ele>181</ele>
</trkpt>
<trkpt lat="40.551675874739885" lon="14.249741323292255">
<ele>182</ele>
</trkpt>
<trkpt lat="40.551673276349902" lon="14.249868728220463">
<ele>183</ele>
</trkpt>
<trkpt lat="40.551824737340212" lon="14.250108869746327">
<ele>184</ele>
</trkpt>
<trkpt lat="40.552008720114827" lon="14.250367535278201">
<ele>184</ele>
</trkpt>
<trkpt lat="40.552229331806302" lon="14.250594433397055">
<ele>185</ele>
</trkpt>
<trkpt lat="40.552288005128503" lon="14.250818146392703">
<ele>186</ele>
</trkpt>
<trkpt lat="40.552363861352205" lon="14.251103801652789">
<ele>187</ele>
</trkpt>
<trkpt lat="40.552416332066059" lon="14.25138283520937">
<ele>188</ele>
</trkpt>
<trkpt lat="40.552399568259716" lon="14.251440754160285">
<ele>188</ele>
</trkpt>
<trkpt lat="40.552518758922815" lon="14.251587856560946">
<ele>189</ele>
</trkpt>
<trkpt lat="40.55264800786972" lon="14.251808384433389">
<ele>190</ele>
</trkpt>
<trkpt lat="40.552746914327145" lon="14.251869907602668">
<ele>191</ele>
</trkpt>
<trkpt lat="40.552793350070715" lon="14.251997144892812">
<ele>193</ele>
</trkpt>
<trkpt lat="40.552996192127466" lon="14.252148941159248">
<ele>194</ele>
</trkpt>
<trkpt lat="40.553008764982224" lon="14.252176517620683">
<ele>196</ele>
</trkpt>
<trkpt lat="40.553133822977543" lon="14.252456557005644">
<ele>197</ele>
</trkpt>
<trkpt lat="40.553232058882713" lon="14.252682784572244">
<ele>198</ele>
</trkpt>
<trkpt lat="40.553340017795563" lon="14.2528663482517">
<ele>200</ele>
</trkpt>
<trkpt lat="40.553437415510416" lon="14.253019317984581">
<ele>201</ele>
</trkpt>
<trkpt lat="40.553554426878691" lon="14.253159379586577">
<ele>203</ele>
</trkpt>
<trkpt lat="40.553575213998556" lon="14.253195002675056">
<ele>204</ele>
</trkpt>
<trkpt lat="40.553681496530771" lon="14.253313271328807">
<ele>206</ele>
</trkpt>
<trkpt lat="40.553759280592203" lon="14.253394659608603">
<ele>208</ele>
</trkpt>
<trkpt lat="40.553913675248623" lon="14.253584677353501">
<ele>210</ele>
</trkpt>
<trkpt lat="40.554035464301705" lon="14.253722056746483">
<ele>212</ele>
</trkpt>
<trkpt lat="40.554101429879665" lon="14.253964629024267">
<ele>214</ele>
</trkpt>
<trkpt lat="40.5541617795825" lon="14.254321195185184">
<ele>215</ele>
</trkpt>
<trkpt lat="40.55422774516046" lon="14.254630655050278">
<ele>217</ele>
</trkpt>
<trkpt lat="40.554288011044264" lon="14.254832994192839">
<ele>219</ele>
</trkpt>
<trkpt lat="40.554448524489999" lon="14.255050756037235">
<ele>221</ele>
</trkpt>
<trkpt lat="40.554605098441243" lon="14.255276899784803">
<ele>223</ele>
</trkpt>
<trkpt lat="40.554777681827545" lon="14.25557772628963">
<ele>225</ele>
</trkpt>
<trkpt lat="40.55482629686594" lon="14.255756763741374">
<ele>226</ele>
</trkpt>
<trkpt lat="40.55492059327662" lon="14.255981147289276">
<ele>228</ele>
</trkpt>
<trkpt lat="40.554917911067605" lon="14.256033450365067">
<ele>230</ele>
</trkpt>
<trkpt lat="40.554925454780459" lon="14.256173176690936">
<ele>232</ele>
</trkpt>
<trkpt lat="40.554928556084633" lon="14.256318183615804">
<ele>233</ele>
</trkpt>
<trkpt lat="40.554928220808506" lon="14.256369229406118">
<ele>235</ele>
</trkpt>
<trkpt lat="40.554974908009171" lon="14.256511721760035">
<ele>237</ele>
</trkpt>
<trkpt lat="40.554919503629208" lon="14.256638707593083">
<ele>238</ele>
</trkpt>
<trkpt lat="40.554829901084304" lon="14.256790336221457">
<ele>240</ele>
</trkpt>
<trkpt lat="40.554782543331385" lon="14.256872897967696">
<ele>241</ele>
</trkpt>
<trkpt lat="40.554673494771123" lon="14.256893265992403">
<ele>242</ele>
</trkpt>
<trkpt lat="40.554544664919376" lon="14.256788827478886">
<ele>242</ele>
</trkpt>
<trkpt lat="40.554496301338077" lon="14.256690675392747">
<ele>243</ele>
</trkpt>
<trkpt lat="40.554458918049932" lon="14.256800897419453">
<ele>244</ele>
</trkpt>
<trkpt lat="40.554463276639581" lon="14.25693173892796">
<ele>245</ele>
</trkpt>
<trkpt lat="40.554434275254607" lon="14.257233906537294">
<ele>246</ele>
</trkpt>
<trkpt lat="40.554438214749098" lon="14.257411351427436">
<ele>246</ele>
</trkpt>
<trkpt lat="40.55444173514843" lon="14.257449237629771">
<ele>247</ele>
</trkpt>
<trkpt lat="40.55432790890336" lon="14.257745621725917">
<ele>248</ele>
</trkpt>
<trkpt lat="40.554351378232241" lon="14.25797394476831">
<ele>250</ele>
</trkpt>
<trkpt lat="40.55440510623157" lon="14.258132949471474">
<ele>252</ele>
</trkpt>
<trkpt lat="40.554423881694674" lon="14.258232358843088">
<ele>253</ele>
</trkpt>
<trkpt lat="40.55449403822422" lon="14.258421622216702">
<ele>255</ele>
</trkpt>
<trkpt lat="40.554505940526724" lon="14.258468896150589">
<ele>257</ele>
</trkpt>
<trkpt lat="40.554524464532733" lon="14.258591774851084">
<ele>259</ele>
</trkpt>
<trkpt lat="40.554610379040241" lon="14.258784055709839">
<ele>261</ele>
</trkpt>
<trkpt lat="40.554634016007185" lon="14.259023275226355">
<ele>262</ele>
</trkpt>
<trkpt lat="40.554717164486647" lon="14.25919602625072">
<ele>264</ele>
</trkpt>
<trkpt lat="40.554710291326046" lon="14.259263752028346">
<ele>266</ele>
</trkpt>
<trkpt lat="40.554697969928384" lon="14.259395599365234">
<ele>268</ele>
</trkpt>
<trkpt lat="40.554676009342074" lon="14.259555777534842">
<ele>269</ele>
</trkpt>
<trkpt lat="40.554742896929383" lon="14.259806647896767">
<ele>271</ele>
</trkpt>
<trkpt lat="40.554859153926373" lon="14.260050477460027">
<ele>272</ele>
</trkpt>
<trkpt lat="40.554980775341392" lon="14.260174948722124">
<ele>274</ele>
</trkpt>
<trkpt lat="40.555054368451238" lon="14.260307801887393">
<ele>276</ele>
</trkpt>
<trkpt lat="40.555006675422192" lon="14.260453144088387">
<ele>277</ele>
</trkpt>
<trkpt lat="40.5550148896873" lon="14.26048943772912">
<ele>279</ele>
</trkpt>
<trkpt lat="40.554917743429542" lon="14.260569652542472">
<ele>280</ele>
</trkpt>
<trkpt lat="40.554899051785469" lon="14.260679790750146">
<ele>282</ele>
</trkpt>
<trkpt lat="40.55490885861218" lon="14.260757323354483">
<ele>287</ele>
</trkpt>
<trkpt lat="40.554964849725366" lon="14.260959411039948">
<ele>291</ele>
</trkpt>
<trkpt lat="40.555022768676281" lon="14.261083295568824">
<ele>296</ele>
</trkpt>
<trkpt lat="40.555122680962086" lon="14.261244395747781">
<ele>301</ele>
</trkpt>
<trkpt lat="40.555198537185788" lon="14.261366687715054">
<ele>306</ele>
</trkpt>
<trkpt lat="40.555307753384113" lon="14.261516891419888">
<ele>310</ele>
</trkpt>
<trkpt lat="40.555432811379433" lon="14.261664915829897">
<ele>315</ele>
</trkpt>
<trkpt lat="40.555574381724" lon="14.261792069301009">
<ele>320</ele>
</trkpt>
<trkpt lat="40.555580919608474" lon="14.261793745681643">
<ele>324</ele>
</trkpt>
<trkpt lat="40.555808320641518" lon="14.261840097606182">
<ele>329</ele>
</trkpt>
<trkpt lat="40.555946538224816" lon="14.261898184195161">
<ele>330</ele>
</trkpt>
<trkpt lat="40.556138148531318" lon="14.262008657678962">
<ele>330</ele>
</trkpt>
<trkpt lat="40.556202353909612" lon="14.262054925784469">
<ele>331</ele>
</trkpt>
<trkpt lat="40.556387845426798" lon="14.262146707624197">
<ele>332</ele>
</trkpt>
<trkpt lat="40.556595297530293" lon="14.262244356796145">
<ele>333</ele>
</trkpt>
<trkpt lat="40.556743238121271" lon="14.262318788096309">
<ele>334</ele>
</trkpt>
<trkpt lat="40.556897632777691" lon="14.262399254366755">
<ele>334</ele>
</trkpt>
<trkpt lat="40.557229975238442" lon="14.262489024549723">
<ele>335</ele>
</trkpt>
<trkpt lat="40.557113718241453" lon="14.262448539957404">
<ele>334</ele>
</trkpt>
<trkpt lat="40.557113634422421" lon="14.262448204681277">
<ele>334</ele>
</trkpt>
<trkpt lat="40.557112544775009" lon="14.262448539957404">
<ele>334</ele>
</trkpt>
<trkpt lat="40.557112041860819" lon="14.262444349005818">
<ele>333</ele>
</trkpt>
<trkpt lat="40.55702512152493" lon="14.262379137799144">
<ele>332</ele>
</trkpt>
<trkpt lat="40.556853963062167" lon="14.262284757569432">
<ele>332</ele>
</trkpt>
<trkpt lat="40.556638380512595" lon="14.26219280809164">
<ele>332</ele>
</trkpt>
<trkpt lat="40.556424139067531" lon="14.262124579399824">
<ele>331</ele>
</trkpt>
<trkpt lat="40.556200761348009" lon="14.262061547487974">
<ele>330</ele>
</trkpt>
<trkpt lat="40.555918961763382" lon="14.2619963362813">
<ele>330</ele>
</trkpt>
<trkpt lat="40.555774290114641" lon="14.261953672394156">
<ele>324</ele>
</trkpt>
<trkpt lat="40.555540015920997" lon="14.261808833107352">
<ele>318</ele>
</trkpt>
<trkpt lat="40.555372964590788" lon="14.261722415685654">
<ele>312</ele>
</trkpt>
<trkpt lat="40.555229382589459" lon="14.261589059606194">
<ele>306</ele>
</trkpt>
<trkpt lat="40.555063923820853" lon="14.261382026597857">
<ele>300</ele>
</trkpt>
<trkpt lat="40.554942553862929" lon="14.261225201189518">
<ele>293</ele>
</trkpt>
<trkpt lat="40.554877677932382" lon="14.260962344706059">
<ele>287</ele>
</trkpt>
<trkpt lat="40.554910283535719" lon="14.260749528184533">
<ele>281</ele>
</trkpt>
<trkpt lat="40.554928975179791" lon="14.260604185983539">
<ele>275</ele>
</trkpt>
<trkpt lat="40.554993012920022" lon="14.260441912338138">
<ele>269</ele>
</trkpt>
<trkpt lat="40.554999131709337" lon="14.260256923735142">
<ele>268</ele>
</trkpt>
<trkpt lat="40.5549371894449" lon="14.260182995349169">
<ele>268</ele>
</trkpt>
<trkpt lat="40.554821016266942" lon="14.260071432217956">
<ele>267</ele>
</trkpt>
<trkpt lat="40.554677015170455" lon="14.259938830509782">
<ele>266</ele>
</trkpt>
<trkpt lat="40.554572409018874" lon="14.259778400883079">
<ele>266</ele>
</trkpt>
<trkpt lat="40.554654970765114" lon="14.259521244093776">
<ele>265</ele>
</trkpt>
<trkpt lat="40.554665951058269" lon="14.259378500282764">
<ele>264</ele>
</trkpt>
<trkpt lat="40.554637368768454" lon="14.259215053170919">
<ele>263</ele>
</trkpt>
<trkpt lat="40.554602835327387" lon="14.258987568318844">
<ele>263</ele>
</trkpt>
<trkpt lat="40.554576851427555" lon="14.258891344070435">
<ele>262</ele>
</trkpt>
<trkpt lat="40.554527984932065" lon="14.258673079311848">
<ele>260</ele>
</trkpt>
<trkpt lat="40.554462103173137" lon="14.258404523134232">
<ele>259</ele>
</trkpt>
<trkpt lat="40.554385324940085" lon="14.25816304050386">
<ele>257</ele>
</trkpt>
<trkpt lat="40.554377781227231" lon="14.258143594488502">
<ele>255</ele>
</trkpt>
<trkpt lat="40.55432153865695" lon="14.257815191522241">
<ele>254</ele>
</trkpt>
<trkpt lat="40.554317515343428" lon="14.2577257566154">
<ele>252</ele>
</trkpt>
<trkpt lat="40.554340230301023" lon="14.257423169910908">
<ele>250</ele>
</trkpt>
<trkpt lat="40.554335955530405" lon="14.257204569876194">
<ele>248</ele>
</trkpt>
<trkpt lat="40.554335620254278" lon="14.257195936515927">
<ele>247</ele>
</trkpt>
<trkpt lat="40.554371913895011" lon="14.257054617628455">
<ele>245</ele>
</trkpt>
<trkpt lat="40.5543880071491" lon="14.257034752517939">
<ele>243</ele>
</trkpt>
<trkpt lat="40.554543407633901" lon="14.256894690915942">
<ele>242</ele>
</trkpt>
<trkpt lat="40.554667040705681" lon="14.256931403651834">
<ele>240</ele>
</trkpt>
<trkpt lat="40.554747004061937" lon="14.256797963753343">
<ele>239</ele>
</trkpt>
<trkpt lat="40.55476326495409" lon="14.256767285987735">
<ele>237</ele>
</trkpt>
<trkpt lat="40.554881365969777" lon="14.256580956280231">
<ele>235</ele>
</trkpt>
<trkpt lat="40.55489863269031" lon="14.256505351513624">
<ele>234</ele>
</trkpt>
<trkpt lat="40.554910786449909" lon="14.256390351802111">
<ele>232</ele>
</trkpt>
<trkpt lat="40.554915061220527" lon="14.256188431754708">
<ele>231</ele>
</trkpt>
<trkpt lat="40.554918916895986" lon="14.256118861958385">
<ele>229</ele>
</trkpt>
<trkpt lat="40.554820261895657" lon="14.255923898890615">
<ele>228</ele>
</trkpt>
<trkpt lat="40.554806096479297" lon="14.255858939141035">
<ele>227</ele>
</trkpt>
<trkpt lat="40.554704507812858" lon="14.25555182620883">
<ele>226</ele>
</trkpt>
<trkpt lat="40.554580204188824" lon="14.25539642572403">
<ele>225</ele>
</trkpt>
<trkpt lat="40.554550867527723" lon="14.255361389368773">
<ele>224</ele>
</trkpt>
<trkpt lat="40.554410554468632" lon="14.255176233127713">
<ele>222</ele>
</trkpt>
<trkpt lat="40.554381804540753" lon="14.255117895081639">
<ele>221</ele>
</trkpt>
<trkpt lat="40.554362358525395" lon="14.254999374970794">
<ele>220</ele>
</trkpt>
<trkpt lat="40.554260266944766" lon="14.25483307801187">
<ele>219</ele>
</trkpt>
<trkpt lat="40.554253226146102" lon="14.254753617569804">
<ele>218</ele>
</trkpt>
<trkpt lat="40.554206455126405" lon="14.254624955356121">
<ele>217</ele>
</trkpt>
<trkpt lat="40.554118528962135" lon="14.254391938447952">
<ele>216</ele>
</trkpt>
<trkpt lat="40.55407770909369" lon="14.254161352291703">
<ele>215</ele>
</trkpt>
<trkpt lat="40.554025741294026" lon="14.253975693136454">
<ele>214</ele>
</trkpt>
<trkpt lat="40.553989950567484" lon="14.253841582685709">
<ele>212</ele>
</trkpt>
<trkpt lat="40.5539804790169" lon="14.253831692039967">
<ele>211</ele>
</trkpt>
<trkpt lat="40.553869754076004" lon="14.253755668178201">
<ele>210</ele>
</trkpt>
<trkpt lat="40.553700271993876" lon="14.253519717603922">
<ele>209</ele>
</trkpt>
<trkpt lat="40.553588960319757" lon="14.253452494740486">
<ele>208</ele>
</trkpt>
<trkpt lat="40.553529616445303" lon="14.253444280475378">
<ele>207</ele>
</trkpt>
<trkpt lat="40.553385196253657" lon="14.253188716247678">
<ele>205</ele>
</trkpt>
<trkpt lat="40.553254606202245" lon="14.252911526709795">
<ele>203</ele>
</trkpt>
<trkpt lat="40.553147317841649" lon="14.252749839797616">
<ele>201</ele>
</trkpt>
<trkpt lat="40.553007172420621" lon="14.252527635544538">
<ele>199</ele>
</trkpt>
<trkpt lat="40.552858980372548" lon="14.252170398831367">
<ele>198</ele>
</trkpt>
<trkpt lat="40.552802067250013" lon="14.252088507637382">
<ele>196</ele>
</trkpt>
<trkpt lat="40.552694192156196" lon="14.251887928694487">
<ele>194</ele>
</trkpt>
<trkpt lat="40.552534265443683" lon="14.251736886799335">
<ele>192</ele>
</trkpt>
<trkpt lat="40.552423037588596" lon="14.251522477716208">
<ele>190</ele>
</trkpt>
<trkpt lat="40.552266715094447" lon="14.251208743080497">
<ele>188</ele>
</trkpt>
<trkpt lat="40.552309798076749" lon="14.25107454881072">
<ele>188</ele>
</trkpt>
<trkpt lat="40.552300829440355" lon="14.250953430309892">
<ele>187</ele>
</trkpt>
<trkpt lat="40.552272498607635" lon="14.250892577692866">
<ele>186</ele>
</trkpt>
<trkpt lat="40.552063286304474" lon="14.250468872487545">
<ele>186</ele>
</trkpt>
<trkpt lat="40.551926661282778" lon="14.250218840315938">
<ele>186</ele>
</trkpt>
<trkpt lat="40.551717951893806" lon="14.249974172562361">
<ele>185</ele>
</trkpt>
<trkpt lat="40.551666906103492" lon="14.249750543385744">
<ele>184</ele>
</trkpt>
<trkpt lat="40.551598761230707" lon="14.249478299170732">
<ele>184</ele>
</trkpt>
<trkpt lat="40.551568167284131" lon="14.249359779059887">
<ele>184</ele>
</trkpt>
<trkpt lat="40.551525251939893" lon="14.249206390231848">
<ele>183</ele>
</trkpt>
<trkpt lat="40.551317967474461" lon="14.248975217342377">
<ele>181</ele>
</trkpt>
<trkpt lat="40.551252420991659" lon="14.248753516003489">
<ele>179</ele>
</trkpt>
<trkpt lat="40.551261054351926" lon="14.248682437464595">
<ele>177</ele>
</trkpt>
<trkpt lat="40.551173463463783" lon="14.248649328947067">
<ele>176</ele>
</trkpt>
<trkpt lat="40.5511708650738" lon="14.248637342825532">
<ele>174</ele>
</trkpt>
<trkpt lat="40.551052847877145" lon="14.248571377247572">
<ele>172</ele>
</trkpt>
<trkpt lat="40.551028959453106" lon="14.248528964817524">
<ele>170</ele>
</trkpt>
<trkpt lat="40.551015045493841" lon="14.248456712812185">
<ele>171</ele>
</trkpt>
<trkpt lat="40.550991995260119" lon="14.248400889337063">
<ele>171</ele>
</trkpt>
<trkpt lat="40.5509446375072" lon="14.248376246541739">
<ele>172</ele>
</trkpt>
<trkpt lat="40.551058212295175" lon="14.248156137764454">
<ele>173</ele>
</trkpt>
<trkpt lat="40.551162147894502" lon="14.248051447793841">
<ele>174</ele>
</trkpt>
<trkpt lat="40.551204057410359" lon="14.248009538277984">
<ele>173</ele>
</trkpt>
<trkpt lat="40.55128812789917" lon="14.247816922143102">
<ele>174</ele>
</trkpt>
<trkpt lat="40.551260551437736" lon="14.247759003192186">
<ele>175</ele>
</trkpt>
<trkpt lat="40.551235154271126" lon="14.247751124203205">
<ele>175</ele>
</trkpt>
<trkpt lat="40.55150362662971" lon="14.247261537238955">
<ele>176</ele>
</trkpt>
<trkpt lat="40.551511170342565" lon="14.247253658249974">
<ele>174</ele>
</trkpt>
<trkpt lat="40.551566071808338" lon="14.247128013521433">
<ele>173</ele>
</trkpt>
<trkpt lat="40.551558192819357" lon="14.247065400704741">
<ele>171</ele>
</trkpt>
<trkpt lat="40.551522150635719" lon="14.247010750696063">
<ele>170</ele>
</trkpt>
<trkpt lat="40.551529610529542" lon="14.246725179255009">
<ele>168</ele>
</trkpt>
<trkpt lat="40.551481498405337" lon="14.246422257274389">
<ele>165</ele>
</trkpt>
<trkpt lat="40.551505638286471" lon="14.246281776577234">
<ele>164</ele>
</trkpt>
<trkpt lat="40.551495580002666" lon="14.246027553454041">
<ele>162</ele>
</trkpt>
<trkpt lat="40.551503291353583" lon="14.24590433947742">
<ele>161</ele>
</trkpt>
<trkpt lat="40.551529778167605" lon="14.245763774961233">
<ele>159</ele>
</trkpt>
<trkpt lat="40.551574788987637" lon="14.245541235432029">
<ele>159</ele>
</trkpt>
<trkpt lat="40.551604880020022" lon="14.245323892682791">
<ele>159</ele>
</trkpt>
<trkpt lat="40.551591636613011" lon="14.245231859385967">
<ele>159</ele>
</trkpt>
<trkpt lat="40.55155978538096" lon="14.245043601840734">
<ele>159</ele>
</trkpt>
<trkpt lat="40.551556935533881" lon="14.24491879530251">
<ele>160</ele>
</trkpt>
<trkpt lat="40.551559533923864" lon="14.244724167510867">
<ele>159</ele>
</trkpt>
<trkpt lat="40.551581829786301" lon="14.244675552472472">
<ele>159</ele>
</trkpt>
<trkpt lat="40.551578728482127" lon="14.244517721235752">
<ele>159</ele>
</trkpt>
<trkpt lat="40.551551738753915" lon="14.244445888325572">
<ele>159</ele>
</trkpt>
<trkpt lat="40.551640000194311" lon="14.244176242500544">
<ele>159</ele>
</trkpt>
<trkpt lat="40.551601862534881" lon="14.244055626913905">
<ele>157</ele>
</trkpt>
<trkpt lat="40.551594067364931" lon="14.244029056280851">
<ele>156</ele>
</trkpt>
<trkpt lat="40.551608568057418" lon="14.243851276114583">
<ele>154</ele>
</trkpt>
<trkpt lat="40.551605047658086" lon="14.243829986080527">
<ele>153</ele>
</trkpt>
<trkpt lat="40.551599850878119" lon="14.243755135685205">
<ele>151</ele>
</trkpt>
<trkpt lat="40.551531538367271" lon="14.243541564792395">
<ele>148</ele>
</trkpt>
<trkpt lat="40.551300700753927" lon="14.24334492534399">
<ele>147</ele>
</trkpt>
<trkpt lat="40.551020745187998" lon="14.243173012509942">
<ele>145</ele>
</trkpt>
<trkpt lat="40.550865428522229" lon="14.242964973673224">
<ele>144</ele>
</trkpt>
<trkpt lat="40.550730982795358" lon="14.242835976183414">
<ele>142</ele>
</trkpt>
</trkseg>
</trk>
</gpx>
