<?xml version="1.0" encoding="UTF-8"?>
<gpx version="1.1"
creator="Smartprofil-Office - http://www.rother.de"
xmlns:xsi="http://www.w3.org/2001/XMLSchema-instance"
xmlns="http://www.topografix.com/GPX/1/1"
xsi:schemaLocation="http://www.topografix.com/GPX/1/1 http://www.topografix.com/GPX/1/1/gpx.xsd">
<metadata>

<bounds minlat="40.648119309917092" minlon="14.620055146515369" maxlat="40.718714380636811" maxlon="14.646686380729079"/>
</metadata>
<wpt lat="40.648119309917092" lon="14.640745120123029">
<ele>10</ele>
<name>03_Maiori (1)</name>
<cmt></cmt>
<desc></desc>
<sym>Crossing</sym>
</wpt>

<wpt lat="40.670132031664252" lon="14.644556036219001">
<ele>80</ele>
<name>03_Ponteprimario (2)</name>
<cmt></cmt>
<desc></desc>
<sym>Crossing</sym>
</wpt>

<wpt lat="40.688192853704095" lon="14.639617251232266">
<ele>255</ele>
<name>03_Paterno (3)</name>
<cmt></cmt>
<desc></desc>
<sym>Crossing</sym>
</wpt>

<wpt lat="40.694111986085773" lon="14.641249962151051">
<ele>276</ele>
<name>03_Polvica (4)</name>
<cmt></cmt>
<desc></desc>
<sym>Crossing</sym>
</wpt>

<wpt lat="40.718714380636811" lon="14.620055146515369">
<ele>656</ele>
<name>03_Torre di Chiunzi (5)</name>
<cmt></cmt>
<desc></desc>
<sym>Crossing</sym>
</wpt>

<trk>
<name>Neapel_03_Maiori - Torre di Chiunzi</name>
<trkseg>
<trkpt lat="40.648119309917092" lon="14.640745120123029">
<ele>10</ele>
</trkpt>
<trkpt lat="40.648182258009911" lon="14.640871016308665">
<ele>10</ele>
</trkpt>
<trkpt lat="40.648257527500391" lon="14.640952572226524">
<ele>10</ele>
</trkpt>
<trkpt lat="40.648275380954146" lon="14.640957936644554">
<ele>10</ele>
</trkpt>
<trkpt lat="40.648417957127094" lon="14.64112632907927">
<ele>10</ele>
</trkpt>
<trkpt lat="40.648510912433267" lon="14.641216937452555">
<ele>10</ele>
</trkpt>
<trkpt lat="40.648763040080667" lon="14.641410056501627">
<ele>10</ele>
</trkpt>
<trkpt lat="40.649038553237915" lon="14.641633601859212">
<ele>10</ele>
</trkpt>
<trkpt lat="40.649299817159772" lon="14.641761006787419">
<ele>10</ele>
</trkpt>
<trkpt lat="40.649431999772787" lon="14.641905259341002">
<ele>10</ele>
</trkpt>
<trkpt lat="40.64970575273037" lon="14.642008608207107">
<ele>10</ele>
</trkpt>
<trkpt lat="40.649940613657236" lon="14.642147161066532">
<ele>10</ele>
</trkpt>
<trkpt lat="40.650124009698629" lon="14.642295269295573">
<ele>11</ele>
</trkpt>
<trkpt lat="40.650296425446868" lon="14.642353355884552">
<ele>11</ele>
</trkpt>
<trkpt lat="40.650449981912971" lon="14.642415214329958">
<ele>11</ele>
</trkpt>
<trkpt lat="40.650503123179078" lon="14.642514875158668">
<ele>12</ele>
</trkpt>
<trkpt lat="40.65071526914835" lon="14.642609003931284">
<ele>12</ele>
</trkpt>
<trkpt lat="40.65088139846921" lon="14.642699025571346">
<ele>12</ele>
</trkpt>
<trkpt lat="40.651053059846163" lon="14.642708916217089">
<ele>12</ele>
</trkpt>
<trkpt lat="40.651258081197739" lon="14.642665078863502">
<ele>13</ele>
</trkpt>
<trkpt lat="40.651402752846479" lon="14.642697181552649">
<ele>13</ele>
</trkpt>
<trkpt lat="40.651593524962664" lon="14.642691062763333">
<ele>13</ele>
</trkpt>
<trkpt lat="40.651926873251796" lon="14.642696343362331">
<ele>14</ele>
</trkpt>
<trkpt lat="40.651992252096534" lon="14.642716962844133">
<ele>14</ele>
</trkpt>
<trkpt lat="40.652124769985676" lon="14.642620487138629">
<ele>14</ele>
</trkpt>
<trkpt lat="40.652320822700858" lon="14.642446478828788">
<ele>14</ele>
</trkpt>
<trkpt lat="40.65245870500803" lon="14.64224330149591">
<ele>15</ele>
</trkpt>
<trkpt lat="40.65259943716228" lon="14.642063425853848">
<ele>15</ele>
</trkpt>
<trkpt lat="40.652610501274467" lon="14.642037693411112">
<ele>15</ele>
</trkpt>
<trkpt lat="40.652694068849087" lon="14.641897715628147">
<ele>16</ele>
</trkpt>
<trkpt lat="40.652831615880132" lon="14.641808699816465">
<ele>16</ele>
</trkpt>
<trkpt lat="40.653035882860422" lon="14.641650700941682">
<ele>17</ele>
</trkpt>
<trkpt lat="40.653328327462077" lon="14.641472585499287">
<ele>17</ele>
</trkpt>
<trkpt lat="40.653605181723833" lon="14.6413544844836">
<ele>18</ele>
</trkpt>
<trkpt lat="40.653733341023326" lon="14.641366889700294">
<ele>18</ele>
</trkpt>
<trkpt lat="40.653958227485418" lon="14.64134132489562">
<ele>19</ele>
</trkpt>
<trkpt lat="40.654088649898767" lon="14.641391532495618">
<ele>20</ele>
</trkpt>
<trkpt lat="40.654287803918123" lon="14.641447942703962">
<ele>20</ele>
</trkpt>
<trkpt lat="40.654512271285057" lon="14.641455570235848">
<ele>21</ele>
</trkpt>
<trkpt lat="40.654640598222613" lon="14.641478285193443">
<ele>21</ele>
</trkpt>
<trkpt lat="40.654833801090717" lon="14.641561517491937">
<ele>22</ele>
</trkpt>
<trkpt lat="40.655033709481359" lon="14.641695627942681">
<ele>23</ele>
</trkpt>
<trkpt lat="40.655220709741116" lon="14.641867373138666">
<ele>23</ele>
</trkpt>
<trkpt lat="40.65542665310204" lon="14.641978433355689">
<ele>24</ele>
</trkpt>
<trkpt lat="40.655597057193518" lon="14.642059151083231">
<ele>24</ele>
</trkpt>
<trkpt lat="40.655779950320721" lon="14.642161829397082">
<ele>25</ele>
</trkpt>
<trkpt lat="40.655956054106355" lon="14.64225453324616">
<ele>26</ele>
</trkpt>
<trkpt lat="40.656157052144408" lon="14.642277415841818">
<ele>26</ele>
</trkpt>
<trkpt lat="40.656316727399826" lon="14.642323767766356">
<ele>27</ele>
</trkpt>
<trkpt lat="40.656477240845561" lon="14.642386296764016">
<ele>27</ele>
</trkpt>
<trkpt lat="40.656661307439208" lon="14.642453268170357">
<ele>28</ele>
</trkpt>
<trkpt lat="40.656781168654561" lon="14.64248419739306">
<ele>28</ele>
</trkpt>
<trkpt lat="40.6569535844028" lon="14.642563238739967">
<ele>29</ele>
</trkpt>
<trkpt lat="40.657147709280252" lon="14.642645549029112">
<ele>30</ele>
</trkpt>
<trkpt lat="40.657308138906956" lon="14.642727607861161">
<ele>30</ele>
</trkpt>
<trkpt lat="40.657531097531319" lon="14.642721069976687">
<ele>30</ele>
</trkpt>
<trkpt lat="40.657688342034817" lon="14.64267329312861">
<ele>31</ele>
</trkpt>
<trkpt lat="40.657879868522286" lon="14.642573716118932">
<ele>32</ele>
</trkpt>
<trkpt lat="40.658070053905249" lon="14.642460141330957">
<ele>32</ele>
</trkpt>
<trkpt lat="40.658155214041471" lon="14.642381519079208">
<ele>32</ele>
</trkpt>
<trkpt lat="40.658275997266173" lon="14.642263920977712">
<ele>33</ele>
</trkpt>
<trkpt lat="40.658531310036778" lon="14.642184460535645">
<ele>33</ele>
</trkpt>
<trkpt lat="40.658707832917571" lon="14.642098294571042">
<ele>34</ele>
</trkpt>
<trkpt lat="40.658890558406711" lon="14.642156632617116">
<ele>34</ele>
</trkpt>
<trkpt lat="40.659035313874483" lon="14.642082955688238">
<ele>35</ele>
</trkpt>
<trkpt lat="40.659165484830737" lon="14.642098546028137">
<ele>35</ele>
</trkpt>
<trkpt lat="40.65946513786912" lon="14.64218957349658">
<ele>35</ele>
</trkpt>
<trkpt lat="40.659652641043067" lon="14.642261825501919">
<ele>36</ele>
</trkpt>
<trkpt lat="40.659844502806664" lon="14.642385290935636">
<ele>36</ele>
</trkpt>
<trkpt lat="40.659957239404321" lon="14.642420997843146">
<ele>37</ele>
</trkpt>
<trkpt lat="40.660145245492458" lon="14.642467265948653">
<ele>37</ele>
</trkpt>
<trkpt lat="40.660325875505805" lon="14.642497105523944">
<ele>38</ele>
</trkpt>
<trkpt lat="40.660466775298119" lon="14.642509846016765">
<ele>38</ele>
</trkpt>
<trkpt lat="40.660501644015312" lon="14.642499117180705">
<ele>39</ele>
</trkpt>
<trkpt lat="40.66062611527741" lon="14.642526274546981">
<ele>39</ele>
</trkpt>
<trkpt lat="40.660830130800605" lon="14.642602214589715">
<ele>40</ele>
</trkpt>
<trkpt lat="40.66096281632781" lon="14.6426219958812">
<ele>41</ele>
</trkpt>
<trkpt lat="40.661172363907099" lon="14.642731128260493">
<ele>41</ele>
</trkpt>
<trkpt lat="40.661243693903089" lon="14.642763817682862">
<ele>42</ele>
</trkpt>
<trkpt lat="40.661433711647987" lon="14.642838668078184">
<ele>42</ele>
</trkpt>
<trkpt lat="40.661591542884707" lon="14.64292299002409">
<ele>43</ele>
</trkpt>
<trkpt lat="40.661674607545137" lon="14.642953416332603">
<ele>43</ele>
</trkpt>
<trkpt lat="40.661827325820923" lon="14.643043437972665">
<ele>44</ele>
</trkpt>
<trkpt lat="40.662019019946456" lon="14.643124993890524">
<ele>44</ele>
</trkpt>
<trkpt lat="40.662040812894702" lon="14.643140248954296">
<ele>45</ele>
</trkpt>
<trkpt lat="40.662223622202873" lon="14.643156258389354">
<ele>45</ele>
</trkpt>
<trkpt lat="40.662382626906037" lon="14.64315801858902">
<ele>45</ele>
</trkpt>
<trkpt lat="40.662499722093344" lon="14.643159275874496">
<ele>46</ele>
</trkpt>
<trkpt lat="40.662709102034569" lon="14.643214177340269">
<ele>46</ele>
</trkpt>
<trkpt lat="40.662817731499672" lon="14.643304031342268">
<ele>47</ele>
</trkpt>
<trkpt lat="40.662907920777798" lon="14.643479883670807">
<ele>47</ele>
</trkpt>
<trkpt lat="40.66303457133472" lon="14.643603935837746">
<ele>48</ele>
</trkpt>
<trkpt lat="40.663160551339388" lon="14.643704853951931">
<ele>48</ele>
</trkpt>
<trkpt lat="40.66328527405858" lon="14.643818344920874">
<ele>49</ele>
</trkpt>
<trkpt lat="40.663496162742376" lon="14.644062928855419">
<ele>49</ele>
</trkpt>
<trkpt lat="40.663596326485276" lon="14.644243726506829">
<ele>50</ele>
</trkpt>
<trkpt lat="40.663876114413142" lon="14.644192093983293">
<ele>51</ele>
</trkpt>
<trkpt lat="40.663937972858548" lon="14.644171809777617">
<ele>51</ele>
</trkpt>
<trkpt lat="40.664114495739341" lon="14.644122608006001">
<ele>52</ele>
</trkpt>
<trkpt lat="40.66415548324585" lon="14.644127134233713">
<ele>52</ele>
</trkpt>
<trkpt lat="40.664209043607116" lon="14.644136186689138">
<ele>53</ele>
</trkpt>
<trkpt lat="40.664356984198093" lon="14.64407667517662">
<ele>54</ele>
</trkpt>
<trkpt lat="40.66450048238039" lon="14.644033927470446">
<ele>54</ele>
</trkpt>
<trkpt lat="40.664633503183722" lon="14.644011631608009">
<ele>54</ele>
</trkpt>
<trkpt lat="40.664803655818105" lon="14.644033508375287">
<ele>55</ele>
</trkpt>
<trkpt lat="40.664936592802405" lon="14.64405027218163">
<ele>56</ele>
</trkpt>
<trkpt lat="40.665092328563333" lon="14.64407810010016">
<ele>56</ele>
</trkpt>
<trkpt lat="40.665295422077179" lon="14.644083045423031">
<ele>56</ele>
</trkpt>
<trkpt lat="40.665419558063149" lon="14.644109029322863">
<ele>57</ele>
</trkpt>
<trkpt lat="40.66559549421072" lon="14.644115399569273">
<ele>58</ele>
</trkpt>
<trkpt lat="40.665769753977656" lon="14.64412403292954">
<ele>58</ele>
</trkpt>
<trkpt lat="40.665919287130237" lon="14.643976846709847">
<ele>58</ele>
</trkpt>
<trkpt lat="40.666018109768629" lon="14.643815662711859">
<ele>59</ele>
</trkpt>
<trkpt lat="40.666143922135234" lon="14.643729580566287">
<ele>60</ele>
</trkpt>
<trkpt lat="40.666205864399672" lon="14.643710302188993">
<ele>60</ele>
</trkpt>
<trkpt lat="40.666246600449085" lon="14.64385874569416">
<ele>60</ele>
</trkpt>
<trkpt lat="40.666270991787314" lon="14.643922448158264">
<ele>61</ele>
</trkpt>
<trkpt lat="40.666411137208343" lon="14.643959244713187">
<ele>62</ele>
</trkpt>
<trkpt lat="40.66658791154623" lon="14.643930410966277">
<ele>62</ele>
</trkpt>
<trkpt lat="40.666670054197311" lon="14.643893279135227">
<ele>62</ele>
</trkpt>
<trkpt lat="40.666810367256403" lon="14.643792696297169">
<ele>63</ele>
</trkpt>
<trkpt lat="40.666935592889786" lon="14.643736369907856">
<ele>64</ele>
</trkpt>
<trkpt lat="40.667111026123166" lon="14.643650455400348">
<ele>64</ele>
</trkpt>
<trkpt lat="40.667285537347198" lon="14.643567809835076">
<ele>65</ele>
</trkpt>
<trkpt lat="40.667392574250698" lon="14.643517434597015">
<ele>65</ele>
</trkpt>
<trkpt lat="40.667568342760205" lon="14.643435627222061">
<ele>66</ele>
</trkpt>
<trkpt lat="40.667709661647677" lon="14.643368488177657">
<ele>67</ele>
</trkpt>
<trkpt lat="40.667854333296418" lon="14.64330461807549">
<ele>67</ele>
</trkpt>
<trkpt lat="40.66801861859858" lon="14.64322691783309">
<ele>68</ele>
</trkpt>
<trkpt lat="40.66814174875617" lon="14.643159611150622">
<ele>68</ele>
</trkpt>
<trkpt lat="40.668285330757499" lon="14.643106134608388">
<ele>69</ele>
</trkpt>
<trkpt lat="40.668422542512417" lon="14.643050478771329">
<ele>70</ele>
</trkpt>
<trkpt lat="40.668535111472011" lon="14.643001444637775">
<ele>70</ele>
</trkpt>
<trkpt lat="40.668620187789202" lon="14.642955595627427">
<ele>70</ele>
</trkpt>
<trkpt lat="40.668836608529091" lon="14.642960038036108">
<ele>71</ele>
</trkpt>
<trkpt lat="40.669000307098031" lon="14.642972694709897">
<ele>72</ele>
</trkpt>
<trkpt lat="40.669163251295686" lon="14.643073696643114">
<ele>72</ele>
</trkpt>
<trkpt lat="40.669310688972473" lon="14.643239993602037">
<ele>72</ele>
</trkpt>
<trkpt lat="40.669416803866625" lon="14.64339941740036">
<ele>73</ele>
</trkpt>
<trkpt lat="40.669484697282314" lon="14.643479632213712">
<ele>74</ele>
</trkpt>
<trkpt lat="40.66950892098248" lon="14.643485248088837">
<ele>74</ele>
</trkpt>
<trkpt lat="40.669640768319368" lon="14.643623633310199">
<ele>74</ele>
</trkpt>
<trkpt lat="40.669748559594154" lon="14.64365741237998">
<ele>75</ele>
</trkpt>
<trkpt lat="40.669844280928373" lon="14.643610473722219">
<ele>76</ele>
</trkpt>
<trkpt lat="40.669914353638887" lon="14.643616592511535">
<ele>76</ele>
</trkpt>
<trkpt lat="40.669944863766432" lon="14.643621621653438">
<ele>76</ele>
</trkpt>
<trkpt lat="40.669990880414844" lon="14.643770735710859">
<ele>77</ele>
</trkpt>
<trkpt lat="40.670067071914673" lon="14.643949186429381">
<ele>78</ele>
</trkpt>
<trkpt lat="40.670094648376107" lon="14.644198548048735">
<ele>78</ele>
</trkpt>
<trkpt lat="40.670122811570764" lon="14.644237523898482">
<ele>78</ele>
</trkpt>
<trkpt lat="40.67013873718679" lon="14.64443726465106">
<ele>79</ele>
</trkpt>
<trkpt lat="40.670147873461246" lon="14.644547235220671">
<ele>80</ele>
</trkpt>
<trkpt lat="40.670132031664252" lon="14.644556036219001">
<ele>80</ele>
</trkpt>
<trkpt lat="40.670149717479944" lon="14.644513791427016">
<ele>81</ele>
</trkpt>
<trkpt lat="40.67015633918345" lon="14.644524771720171">
<ele>82</ele>
</trkpt>
<trkpt lat="40.670105796307325" lon="14.644623678177595">
<ele>82</ele>
</trkpt>
<trkpt lat="40.670098420232534" lon="14.64476021938026">
<ele>83</ele>
</trkpt>
<trkpt lat="40.670188441872597" lon="14.644842362031341">
<ele>84</ele>
</trkpt>
<trkpt lat="40.670337891206145" lon="14.644968090578914">
<ele>85</ele>
</trkpt>
<trkpt lat="40.670442329719663" lon="14.64506808668375">
<ele>86</ele>
</trkpt>
<trkpt lat="40.67056143656373" lon="14.645108571276069">
<ele>86</ele>
</trkpt>
<trkpt lat="40.670760674402118" lon="14.645119635388255">
<ele>87</ele>
</trkpt>
<trkpt lat="40.670880954712629" lon="14.645135141909122">
<ele>88</ele>
</trkpt>
<trkpt lat="40.670937029644847" lon="14.645140925422311">
<ele>89</ele>
</trkpt>
<trkpt lat="40.671093016862869" lon="14.645126760005951">
<ele>90</ele>
</trkpt>
<trkpt lat="40.671210363507271" lon="14.645098345354199">
<ele>91</ele>
</trkpt>
<trkpt lat="40.671378169208765" lon="14.645124580711126">
<ele>92</ele>
</trkpt>
<trkpt lat="40.671497359871864" lon="14.645132962614298">
<ele>93</ele>
</trkpt>
<trkpt lat="40.671600541099906" lon="14.645154168829322">
<ele>94</ele>
</trkpt>
<trkpt lat="40.671720067039132" lon="14.645169507712126">
<ele>95</ele>
</trkpt>
<trkpt lat="40.671728448942304" lon="14.645182499662042">
<ele>96</ele>
</trkpt>
<trkpt lat="40.671986443921924" lon="14.645094573497772">
<ele>97</ele>
</trkpt>
<trkpt lat="40.672100773081183" lon="14.645180990919471">
<ele>98</ele>
</trkpt>
<trkpt lat="40.672198673710227" lon="14.64524888433516">
<ele>99</ele>
</trkpt>
<trkpt lat="40.672343848273158" lon="14.645353658124804">
<ele>100</ele>
</trkpt>
<trkpt lat="40.672520874068141" lon="14.645470669493079">
<ele>102</ele>
</trkpt>
<trkpt lat="40.672696391120553" lon="14.645542921498418">
<ele>103</ele>
</trkpt>
<trkpt lat="40.672827316448092" lon="14.645652137696743">
<ele>104</ele>
</trkpt>
<trkpt lat="40.672913063317537" lon="14.645745009183884">
<ele>105</ele>
</trkpt>
<trkpt lat="40.673037953674793" lon="14.645843328908086">
<ele>106</ele>
</trkpt>
<trkpt lat="40.673230066895485" lon="14.645957909524441">
<ele>108</ele>
</trkpt>
<trkpt lat="40.673380773514509" lon="14.646031754091382">
<ele>109</ele>
</trkpt>
<trkpt lat="40.673532821238041" lon="14.646128229796886">
<ele>110</ele>
</trkpt>
<trkpt lat="40.673675565049052" lon="14.646135186776519">
<ele>111</ele>
</trkpt>
<trkpt lat="40.673791570588946" lon="14.646183550357819">
<ele>112</ele>
</trkpt>
<trkpt lat="40.673851501196623" lon="14.646203080192208">
<ele>113</ele>
</trkpt>
<trkpt lat="40.673922412097454" lon="14.646358396857977">
<ele>114</ele>
</trkpt>
<trkpt lat="40.673955604434013" lon="14.646504241973162">
<ele>116</ele>
</trkpt>
<trkpt lat="40.674053421244025" lon="14.646584372967482">
<ele>117</ele>
</trkpt>
<trkpt lat="40.674144951626658" lon="14.646591497585177">
<ele>118</ele>
</trkpt>
<trkpt lat="40.674227345734835" lon="14.646686380729079">
<ele>119</ele>
</trkpt>
<trkpt lat="40.674303369596601" lon="14.64662192389369">
<ele>120</ele>
</trkpt>
<trkpt lat="40.67431753501296" lon="14.646594682708383">
<ele>121</ele>
</trkpt>
<trkpt lat="40.674370257183909" lon="14.646456046029925">
<ele>122</ele>
</trkpt>
<trkpt lat="40.674342680722475" lon="14.646298885345459">
<ele>123</ele>
</trkpt>
<trkpt lat="40.674332454800606" lon="14.646179359406233">
<ele>124</ele>
</trkpt>
<trkpt lat="40.674292473122478" lon="14.646080117672682">
<ele>125</ele>
</trkpt>
<trkpt lat="40.674172108992934" lon="14.646002501249313">
<ele>126</ele>
</trkpt>
<trkpt lat="40.674177054315805" lon="14.645909043028951">
<ele>126</ele>
</trkpt>
<trkpt lat="40.674125337973237" lon="14.645822122693062">
<ele>127</ele>
</trkpt>
<trkpt lat="40.674103628844023" lon="14.645782811567187">
<ele>128</ele>
</trkpt>
<trkpt lat="40.674040429294109" lon="14.645615424960852">
<ele>129</ele>
</trkpt>
<trkpt lat="40.673998519778252" lon="14.645524900406599">
<ele>130</ele>
</trkpt>
<trkpt lat="40.673931883648038" lon="14.645444853231311">
<ele>131</ele>
</trkpt>
<trkpt lat="40.673824260011315" lon="14.645287608727813">
<ele>132</ele>
</trkpt>
<trkpt lat="40.673734406009316" lon="14.645119551569223">
<ele>134</ele>
</trkpt>
<trkpt lat="40.673764999955893" lon="14.644980328157544">
<ele>135</ele>
</trkpt>
<trkpt lat="40.673725856468081" lon="14.644862394779921">
<ele>136</ele>
</trkpt>
<trkpt lat="40.673810346052051" lon="14.644742030650377">
<ele>137</ele>
</trkpt>
<trkpt lat="40.673930877819657" lon="14.644665168598294">
<ele>138</ele>
</trkpt>
<trkpt lat="40.674044955521822" lon="14.644741863012314">
<ele>140</ele>
</trkpt>
<trkpt lat="40.674101281911135" lon="14.64463516138494">
<ele>141</ele>
</trkpt>
<trkpt lat="40.674160122871399" lon="14.644702216610312">
<ele>142</ele>
</trkpt>
<trkpt lat="40.674282498657703" lon="14.644774803891778">
<ele>144</ele>
</trkpt>
<trkpt lat="40.674353074282408" lon="14.644833225756884">
<ele>146</ele>
</trkpt>
<trkpt lat="40.674474444240332" lon="14.644899861887097">
<ele>147</ele>
</trkpt>
<trkpt lat="40.674675861373544" lon="14.645014107227325">
<ele>149</ele>
</trkpt>
<trkpt lat="40.674756830558181" lon="14.64508711360395">
<ele>151</ele>
</trkpt>
<trkpt lat="40.674924971535802" lon="14.64511108584702">
<ele>153</ele>
</trkpt>
<trkpt lat="40.67506218329072" lon="14.645174788311124">
<ele>155</ele>
</trkpt>
<trkpt lat="40.675152707844973" lon="14.645270593464375">
<ele>156</ele>
</trkpt>
<trkpt lat="40.675295786932111" lon="14.645279394462705">
<ele>158</ele>
</trkpt>
<trkpt lat="40.675348928198218" lon="14.645351059734821">
<ele>160</ele>
</trkpt>
<trkpt lat="40.675462670624256" lon="14.645370002835989">
<ele>161</ele>
</trkpt>
<trkpt lat="40.675535760819912" lon="14.645376708358526">
<ele>161</ele>
</trkpt>
<trkpt lat="40.675650844350457" lon="14.645383246243">
<ele>162</ele>
</trkpt>
<trkpt lat="40.675782691687346" lon="14.645446948707104">
<ele>163</ele>
</trkpt>
<trkpt lat="40.675895679742098" lon="14.645480727776885">
<ele>164</ele>
</trkpt>
<trkpt lat="40.676024593412876" lon="14.645457258448005">
<ele>164</ele>
</trkpt>
<trkpt lat="40.67615820094943" lon="14.645313592627645">
<ele>165</ele>
</trkpt>
<trkpt lat="40.676249647513032" lon="14.645129274576902">
<ele>166</ele>
</trkpt>
<trkpt lat="40.676343524828553" lon="14.644982842728496">
<ele>166</ele>
</trkpt>
<trkpt lat="40.676440922543406" lon="14.644896173849702">
<ele>167</ele>
</trkpt>
<trkpt lat="40.676470762118697" lon="14.644766254350543">
<ele>166</ele>
</trkpt>
<trkpt lat="40.676493309438229" lon="14.644742952659726">
<ele>164</ele>
</trkpt>
<trkpt lat="40.676550809293985" lon="14.644610686227679">
<ele>163</ele>
</trkpt>
<trkpt lat="40.676640747115016" lon="14.644420500844717">
<ele>162</ele>
</trkpt>
<trkpt lat="40.676711825653911" lon="14.644222436472774">
<ele>160</ele>
</trkpt>
<trkpt lat="40.676783574745059" lon="14.644151777029037">
<ele>159</ele>
</trkpt>
<trkpt lat="40.6769351195544" lon="14.64412696659565">
<ele>158</ele>
</trkpt>
<trkpt lat="40.677079455927014" lon="14.644068628549576">
<ele>157</ele>
</trkpt>
<trkpt lat="40.677175596356392" lon="14.644003920257092">
<ele>155</ele>
</trkpt>
<trkpt lat="40.677276765927672" lon="14.643947426229715">
<ele>154</ele>
</trkpt>
<trkpt lat="40.677344659343362" lon="14.643917251378298">
<ele>153</ele>
</trkpt>
<trkpt lat="40.677436273545027" lon="14.643878946080804">
<ele>151</ele>
</trkpt>
<trkpt lat="40.677647329866886" lon="14.643753804266453">
<ele>150</ele>
</trkpt>
<trkpt lat="40.677599385380745" lon="14.643654311075807">
<ele>149</ele>
</trkpt>
<trkpt lat="40.677685718983412" lon="14.64357971213758">
<ele>148</ele>
</trkpt>
<trkpt lat="40.677864588797092" lon="14.643447194248438">
<ele>146</ele>
</trkpt>
<trkpt lat="40.677895098924637" lon="14.643413918092847">
<ele>145</ele>
</trkpt>
<trkpt lat="40.677956454455853" lon="14.643326578661799">
<ele>144</ele>
</trkpt>
<trkpt lat="40.678128367289901" lon="14.643108062446117">
<ele>142</ele>
</trkpt>
<trkpt lat="40.678305393084884" lon="14.642911506816745">
<ele>141</ele>
</trkpt>
<trkpt lat="40.67846791818738" lon="14.642757531255484">
<ele>141</ele>
</trkpt>
<trkpt lat="40.678574703633785" lon="14.642617637291551">
<ele>142</ele>
</trkpt>
<trkpt lat="40.678683081641793" lon="14.642496686428785">
<ele>142</ele>
</trkpt>
<trkpt lat="40.678780982270837" lon="14.642367186024785">
<ele>143</ele>
</trkpt>
<trkpt lat="40.678968736901879" lon="14.642279511317611">
<ele>143</ele>
</trkpt>
<trkpt lat="40.679003521800041" lon="14.642271799966693">
<ele>143</ele>
</trkpt>
<trkpt lat="40.679112402722239" lon="14.642310775816441">
<ele>144</ele>
</trkpt>
<trkpt lat="40.679298732429743" lon="14.642356457188725">
<ele>144</ele>
</trkpt>
<trkpt lat="40.679499311372638" lon="14.642437929287553">
<ele>145</ele>
</trkpt>
<trkpt lat="40.679652616381645" lon="14.642526609823108">
<ele>145</ele>
</trkpt>
<trkpt lat="40.679869707673788" lon="14.642631635069847">
<ele>145</ele>
</trkpt>
<trkpt lat="40.679950509220362" lon="14.642634987831116">
<ele>145</ele>
</trkpt>
<trkpt lat="40.680188052356243" lon="14.642512109130621">
<ele>145</ele>
</trkpt>
<trkpt lat="40.680204061791301" lon="14.642381267622113">
<ele>145</ele>
</trkpt>
<trkpt lat="40.680218394845724" lon="14.642355116084218">
<ele>145</ele>
</trkpt>
<trkpt lat="40.680315876379609" lon="14.64216124266386">
<ele>145</ele>
</trkpt>
<trkpt lat="40.680361725389957" lon="14.642064264044166">
<ele>145</ele>
</trkpt>
<trkpt lat="40.680593904107809" lon="14.641951359808445">
<ele>145</ele>
</trkpt>
<trkpt lat="40.680753663182259" lon="14.641864858567715">
<ele>145</ele>
</trkpt>
<trkpt lat="40.680817700922489" lon="14.641709541901946">
<ele>145</ele>
</trkpt>
<trkpt lat="40.680822059512138" lon="14.641501503065228">
<ele>145</ele>
</trkpt>
<trkpt lat="40.680867740884423" lon="14.641421120613813">
<ele>146</ele>
</trkpt>
<trkpt lat="40.681044850498438" lon="14.641481721773744">
<ele>146</ele>
</trkpt>
<trkpt lat="40.681182984262705" lon="14.641582807525992">
<ele>147</ele>
</trkpt>
<trkpt lat="40.6812315993011" lon="14.641656149178743">
<ele>147</ele>
</trkpt>
<trkpt lat="40.681349532678723" lon="14.641754301264882">
<ele>147</ele>
</trkpt>
<trkpt lat="40.681525636464357" lon="14.64175564236939">
<ele>148</ele>
</trkpt>
<trkpt lat="40.681710625067353" lon="14.641734352335334">
<ele>148</ele>
</trkpt>
<trkpt lat="40.681808022782207" lon="14.641691101714969">
<ele>149</ele>
</trkpt>
<trkpt lat="40.68195378407836" lon="14.641683055087924">
<ele>149</ele>
</trkpt>
<trkpt lat="40.682017654180527" lon="14.641530672088265">
<ele>151</ele>
</trkpt>
<trkpt lat="40.682071885094047" lon="14.641407709568739">
<ele>153</ele>
</trkpt>
<trkpt lat="40.68208085373044" lon="14.641315927729011">
<ele>155</ele>
</trkpt>
<trkpt lat="40.682123517617583" lon="14.641146110370755">
<ele>157</ele>
</trkpt>
<trkpt lat="40.682148411870003" lon="14.641029266640544">
<ele>158</ele>
</trkpt>
<trkpt lat="40.682179676368833" lon="14.640809493139386">
<ele>160</ele>
</trkpt>
<trkpt lat="40.682234996929765" lon="14.640754088759422">
<ele>162</ele>
</trkpt>
<trkpt lat="40.682331304997206" lon="14.64091326110065">
<ele>164</ele>
</trkpt>
<trkpt lat="40.682373130694032" lon="14.641012502834201">
<ele>166</ele>
</trkpt>
<trkpt lat="40.68238721229136" lon="14.641139321029186">
<ele>168</ele>
</trkpt>
<trkpt lat="40.682432809844613" lon="14.641087017953396">
<ele>170</ele>
</trkpt>
<trkpt lat="40.682444041594863" lon="14.640983082354069">
<ele>172</ele>
</trkpt>
<trkpt lat="40.682525848969817" lon="14.640848385170102">
<ele>175</ele>
</trkpt>
<trkpt lat="40.682662222534418" lon="14.640852240845561">
<ele>177</ele>
</trkpt>
<trkpt lat="40.682738916948438" lon="14.640899850055575">
<ele>179</ele>
</trkpt>
<trkpt lat="40.682849809527397" lon="14.640971347689629">
<ele>181</ele>
</trkpt>
<trkpt lat="40.683090286329389" lon="14.641028847545385">
<ele>183</ele>
</trkpt>
<trkpt lat="40.683262953534722" lon="14.641068745404482">
<ele>186</ele>
</trkpt>
<trkpt lat="40.683429669588804" lon="14.641040582209826">
<ele>188</ele>
</trkpt>
<trkpt lat="40.683522624894977" lon="14.641000181436539">
<ele>190</ele>
</trkpt>
<trkpt lat="40.683650365099311" lon="14.640865568071604">
<ele>192</ele>
</trkpt>
<trkpt lat="40.683822864666581" lon="14.64073003269732">
<ele>195</ele>
</trkpt>
<trkpt lat="40.683923112228513" lon="14.640651410445571">
<ele>198</ele>
</trkpt>
<trkpt lat="40.683993771672249" lon="14.640582930296659">
<ele>200</ele>
</trkpt>
<trkpt lat="40.684120589867234" lon="14.640502966940403">
<ele>202</ele>
</trkpt>
<trkpt lat="40.684157470241189" lon="14.640416465699673">
<ele>205</ele>
</trkpt>
<trkpt lat="40.684229135513306" lon="14.640343375504017">
<ele>208</ele>
</trkpt>
<trkpt lat="40.684264758601785" lon="14.640243547037244">
<ele>210</ele>
</trkpt>
<trkpt lat="40.684313038364053" lon="14.640128882601857">
<ele>212</ele>
</trkpt>
<trkpt lat="40.684368275105953" lon="14.639995442703366">
<ele>215</ele>
</trkpt>
<trkpt lat="40.68443994037807" lon="14.639902571216226">
<ele>216</ele>
</trkpt>
<trkpt lat="40.684610847383738" lon="14.63981288485229">
<ele>217</ele>
</trkpt>
<trkpt lat="40.684703635051847" lon="14.639781285077333">
<ele>218</ele>
</trkpt>
<trkpt lat="40.684809749945998" lon="14.639724707230926">
<ele>219</ele>
</trkpt>
<trkpt lat="40.685013262555003" lon="14.639683719724417">
<ele>220</ele>
</trkpt>
<trkpt lat="40.685198167338967" lon="14.639685312286019">
<ele>220</ele>
</trkpt>
<trkpt lat="40.685229850932956" lon="14.639685479924083">
<ele>221</ele>
</trkpt>
<trkpt lat="40.6853829883039" lon="14.639701656997204">
<ele>222</ele>
</trkpt>
<trkpt lat="40.685545094311237" lon="14.639663267880678">
<ele>223</ele>
</trkpt>
<trkpt lat="40.685680713504553" lon="14.639709200710058">
<ele>224</ele>
</trkpt>
<trkpt lat="40.685903420671821" lon="14.639756642282009">
<ele>225</ele>
</trkpt>
<trkpt lat="40.685926806181669" lon="14.639750607311726">
<ele>227</ele>
</trkpt>
<trkpt lat="40.686144568026066" lon="14.639701070263982">
<ele>228</ele>
</trkpt>
<trkpt lat="40.68618044257164" lon="14.639677098020911">
<ele>229</ele>
</trkpt>
<trkpt lat="40.686285383999348" lon="14.639668799936771">
<ele>230</ele>
</trkpt>
<trkpt lat="40.686521837487817" lon="14.639678858220577">
<ele>232</ele>
</trkpt>
<trkpt lat="40.686732809990644" lon="14.639645498245955">
<ele>233</ele>
</trkpt>
<trkpt lat="40.686849066987634" lon="14.639567965641618">
<ele>234</ele>
</trkpt>
<trkpt lat="40.68701259791851" lon="14.639505939558148">
<ele>236</ele>
</trkpt>
<trkpt lat="40.6871322914958" lon="14.639432262629271">
<ele>237</ele>
</trkpt>
<trkpt lat="40.687204962596297" lon="14.639408960938454">
<ele>238</ele>
</trkpt>
<trkpt lat="40.687304204329848" lon="14.639363195747137">
<ele>240</ele>
</trkpt>
<trkpt lat="40.687390705570579" lon="14.639294547960162">
<ele>242</ele>
</trkpt>
<trkpt lat="40.68755934946239" lon="14.639248950406909">
<ele>243</ele>
</trkpt>
<trkpt lat="40.68774945102632" lon="14.639295386150479">
<ele>244</ele>
</trkpt>
<trkpt lat="40.687856404110789" lon="14.639360932633281">
<ele>246</ele>
</trkpt>
<trkpt lat="40.687887333333492" lon="14.639393454417586">
<ele>248</ele>
</trkpt>
<trkpt lat="40.688004428520799" lon="14.639478111639619">
<ele>249</ele>
</trkpt>
<trkpt lat="40.68804893642664" lon="14.639558577910066">
<ele>250</ele>
</trkpt>
<trkpt lat="40.688136108219624" lon="14.639638876542449">
<ele>252</ele>
</trkpt>
<trkpt lat="40.688148261979222" lon="14.639623956754804">
<ele>254</ele>
</trkpt>
<trkpt lat="40.688192853704095" lon="14.639617251232266">
<ele>255</ele>
</trkpt>
<trkpt lat="40.688228812068701" lon="14.63964432477951">
<ele>256</ele>
</trkpt>
<trkpt lat="40.688313385471702" lon="14.639632673934102">
<ele>257</ele>
</trkpt>
<trkpt lat="40.688519831746817" lon="14.639600068330765">
<ele>259</ele>
</trkpt>
<trkpt lat="40.688719907775521" lon="14.639567127451301">
<ele>260</ele>
</trkpt>
<trkpt lat="40.688924929127097" lon="14.639520607888699">
<ele>261</ele>
</trkpt>
<trkpt lat="40.689123831689358" lon="14.639428658410907">
<ele>262</ele>
</trkpt>
<trkpt lat="40.689278393983841" lon="14.639345007017255">
<ele>263</ele>
</trkpt>
<trkpt lat="40.689429519698024" lon="14.639333607628942">
<ele>265</ele>
</trkpt>
<trkpt lat="40.689558098092675" lon="14.63936579413712">
<ele>266</ele>
</trkpt>
<trkpt lat="40.689764292910695" lon="14.639466796070337">
<ele>267</ele>
</trkpt>
<trkpt lat="40.689822295680642" lon="14.639342408627272">
<ele>268</ele>
</trkpt>
<trkpt lat="40.689978618174791" lon="14.639252470806241">
<ele>269</ele>
</trkpt>
<trkpt lat="40.690102921798825" lon="14.639227576553822">
<ele>270</ele>
</trkpt>
<trkpt lat="40.690286904573441" lon="14.639272755011916">
<ele>271</ele>
</trkpt>
<trkpt lat="40.690399557352066" lon="14.63931349106133">
<ele>272</ele>
</trkpt>
<trkpt lat="40.690516401082277" lon="14.639347521588206">
<ele>272</ele>
</trkpt>
<trkpt lat="40.690567698329687" lon="14.639351293444633">
<ele>273</ele>
</trkpt>
<trkpt lat="40.690739443525672" lon="14.639337630942464">
<ele>274</ele>
</trkpt>
<trkpt lat="40.690811779350042" lon="14.639332015067339">
<ele>275</ele>
</trkpt>
<trkpt lat="40.69107354618609" lon="14.639134788885713">
<ele>276</ele>
</trkpt>
<trkpt lat="40.691101374104619" lon="14.639090783894062">
<ele>277</ele>
</trkpt>
<trkpt lat="40.69124118424952" lon="14.63886396959424">
<ele>277</ele>
</trkpt>
<trkpt lat="40.691273789852858" lon="14.638811331242323">
<ele>278</ele>
</trkpt>
<trkpt lat="40.691397087648511" lon="14.638595329597592">
<ele>278</ele>
</trkpt>
<trkpt lat="40.691437572240829" lon="14.638394750654697">
<ele>279</ele>
</trkpt>
<trkpt lat="40.691451905295253" lon="14.638065844774246">
<ele>280</ele>
</trkpt>
<trkpt lat="40.691512925550342" lon="14.637799384072423">
<ele>280</ele>
</trkpt>
<trkpt lat="40.691646281629801" lon="14.637514650821686">
<ele>281</ele>
</trkpt>
<trkpt lat="40.691734878346324" lon="14.637250285595655">
<ele>281</ele>
</trkpt>
<trkpt lat="40.691784163936973" lon="14.636952476575971">
<ele>282</ele>
</trkpt>
<trkpt lat="40.691786929965019" lon="14.636714681982994">
<ele>283</ele>
</trkpt>
<trkpt lat="40.691774189472198" lon="14.63637144304812">
<ele>284</ele>
</trkpt>
<trkpt lat="40.691753821447492" lon="14.636089475825429">
<ele>285</ele>
</trkpt>
<trkpt lat="40.691734123975039" lon="14.635759564116597">
<ele>286</ele>
</trkpt>
<trkpt lat="40.691796066239476" lon="14.635531408712268">
<ele>287</ele>
</trkpt>
<trkpt lat="40.691985078155994" lon="14.635474579408765">
<ele>288</ele>
</trkpt>
<trkpt lat="40.692193955183029" lon="14.635504670441151">
<ele>289</ele>
</trkpt>
<trkpt lat="40.692338543012738" lon="14.635555883869529">
<ele>290</ele>
</trkpt>
<trkpt lat="40.692545408383012" lon="14.635492181405425">
<ele>291</ele>
</trkpt>
<trkpt lat="40.692733079195023" lon="14.635380115360022">
<ele>292</ele>
</trkpt>
<trkpt lat="40.69293575361371" lon="14.635215913876891">
<ele>292</ele>
</trkpt>
<trkpt lat="40.692994678393006" lon="14.635159336030483">
<ele>291</ele>
</trkpt>
<trkpt lat="40.693171536549926" lon="14.635055903345346">
<ele>291</ele>
</trkpt>
<trkpt lat="40.69333154708147" lon="14.634959176182747">
<ele>291</ele>
</trkpt>
<trkpt lat="40.693509327247739" lon="14.634842332452536">
<ele>290</ele>
</trkpt>
<trkpt lat="40.693692471832037" lon="14.634739989414811">
<ele>290</ele>
</trkpt>
<trkpt lat="40.693867150694132" lon="14.634632617235184">
<ele>290</ele>
</trkpt>
<trkpt lat="40.69397016428411" lon="14.63457377627492">
<ele>290</ele>
</trkpt>
<trkpt lat="40.694149117916822" lon="14.63442332111299">
<ele>289</ele>
</trkpt>
<trkpt lat="40.694208461791277" lon="14.634279068559408">
<ele>289</ele>
</trkpt>
<trkpt lat="40.694307032972574" lon="14.63409349322319">
<ele>287</ele>
</trkpt>
<trkpt lat="40.694404095411301" lon="14.633953683078289">
<ele>285</ele>
</trkpt>
<trkpt lat="40.694427229464054" lon="14.633954940363765">
<ele>283</ele>
</trkpt>
<trkpt lat="40.694536194205284" lon="14.634033730253577">
<ele>281</ele>
</trkpt>
<trkpt lat="40.694494787603617" lon="14.634239003062248">
<ele>278</ele>
</trkpt>
<trkpt lat="40.694419434294105" lon="14.63441401720047">
<ele>276</ele>
</trkpt>
<trkpt lat="40.694377943873405" lon="14.634547457098961">
<ele>274</ele>
</trkpt>
<trkpt lat="40.694308374077082" lon="14.634706964716315">
<ele>272</ele>
</trkpt>
<trkpt lat="40.694252885878086" lon="14.634849457070231">
<ele>270</ele>
</trkpt>
<trkpt lat="40.694161355495453" lon="14.635069565847516">
<ele>268</ele>
</trkpt>
<trkpt lat="40.694101257249713" lon="14.635252626612782">
<ele>268</ele>
</trkpt>
<trkpt lat="40.694096982479095" lon="14.635447505861521">
<ele>268</ele>
</trkpt>
<trkpt lat="40.694125648587942" lon="14.635581532493234">
<ele>269</ele>
</trkpt>
<trkpt lat="40.694150207564235" lon="14.635816477239132">
<ele>269</ele>
</trkpt>
<trkpt lat="40.694179628044367" lon="14.636089643463492">
<ele>269</ele>
</trkpt>
<trkpt lat="40.694168983027339" lon="14.636311931535602">
<ele>269</ele>
</trkpt>
<trkpt lat="40.694094132632017" lon="14.636467499658465">
<ele>269</ele>
</trkpt>
<trkpt lat="40.694015678018332" lon="14.636700935661793">
<ele>270</ele>
</trkpt>
<trkpt lat="40.693905875086784" lon="14.636947195976973">
<ele>270</ele>
</trkpt>
<trkpt lat="40.693813338875771" lon="14.637210052460432">
<ele>270</ele>
</trkpt>
<trkpt lat="40.693711750209332" lon="14.637448936700821">
<ele>270</ele>
</trkpt>
<trkpt lat="40.693607060238719" lon="14.637679941952229">
<ele>271</ele>
</trkpt>
<trkpt lat="40.693572526797652" lon="14.637868367135525">
<ele>271</ele>
</trkpt>
<trkpt lat="40.693576633930206" lon="14.63811781257391">
<ele>271</ele>
</trkpt>
<trkpt lat="40.693569425493479" lon="14.638355439528823">
<ele>272</ele>
</trkpt>
<trkpt lat="40.693548303097486" lon="14.638614188879728">
<ele>272</ele>
</trkpt>
<trkpt lat="40.693525085225701" lon="14.638843517750502">
<ele>272</ele>
</trkpt>
<trkpt lat="40.693517038598657" lon="14.638988357037306">
<ele>272</ele>
</trkpt>
<trkpt lat="40.693500693887472" lon="14.639226319268346">
<ele>273</ele>
</trkpt>
<trkpt lat="40.693452833220363" lon="14.639477273449302">
<ele>273</ele>
</trkpt>
<trkpt lat="40.693449145182967" lon="14.639609288424253">
<ele>273</ele>
</trkpt>
<trkpt lat="40.69339407607913" lon="14.639919670298696">
<ele>273</ele>
</trkpt>
<trkpt lat="40.693366667255759" lon="14.640150172635913">
<ele>274</ele>
</trkpt>
<trkpt lat="40.693353423848748" lon="14.640425015240908">
<ele>274</ele>
</trkpt>
<trkpt lat="40.693355435505509" lon="14.640597347170115">
<ele>274</ele>
</trkpt>
<trkpt lat="40.693495245650411" lon="14.640780407935381">
<ele>274</ele>
</trkpt>
<trkpt lat="40.69366036914289" lon="14.640845870599151">
<ele>274</ele>
</trkpt>
<trkpt lat="40.693831108510494" lon="14.640930024906993">
<ele>275</ele>
</trkpt>
<trkpt lat="40.694006038829684" lon="14.640973191708326">
<ele>275</ele>
</trkpt>
<trkpt lat="40.694103436544538" lon="14.640986099839211">
<ele>275</ele>
</trkpt>
<trkpt lat="40.694130845367908" lon="14.641115181148052">
<ele>275</ele>
</trkpt>
<trkpt lat="40.694116428494453" lon="14.641121467575431">
<ele>276</ele>
</trkpt>
<trkpt lat="40.694114584475756" lon="14.641210399568081">
<ele>276</ele>
</trkpt>
<trkpt lat="40.694111986085773" lon="14.641249962151051">
<ele>276</ele>
</trkpt>
<trkpt lat="40.694095222279429" lon="14.641301510855556">
<ele>277</ele>
</trkpt>
<trkpt lat="40.694099832326174" lon="14.641321627423167">
<ele>278</ele>
</trkpt>
<trkpt lat="40.694097736850381" lon="14.641320705413818">
<ele>279</ele>
</trkpt>
<trkpt lat="40.694160517305136" lon="14.641337720677257">
<ele>280</ele>
</trkpt>
<trkpt lat="40.694187004119158" lon="14.641335709020495">
<ele>280</ele>
</trkpt>
<trkpt lat="40.694269565865397" lon="14.641354819759727">
<ele>281</ele>
</trkpt>
<trkpt lat="40.694313906133175" lon="14.641315843909979">
<ele>282</ele>
</trkpt>
<trkpt lat="40.694356067106128" lon="14.641234539449215">
<ele>283</ele>
</trkpt>
<trkpt lat="40.694557651877403" lon="14.641421958804131">
<ele>284</ele>
</trkpt>
<trkpt lat="40.69456578232348" lon="14.641425646841526">
<ele>285</ele>
</trkpt>
<trkpt lat="40.694617414847016" lon="14.641529330983758">
<ele>286</ele>
</trkpt>
<trkpt lat="40.694619929417968" lon="14.641756732016802">
<ele>288</ele>
</trkpt>
<trkpt lat="40.694622443988919" lon="14.641855722293258">
<ele>289</ele>
</trkpt>
<trkpt lat="40.694679189473391" lon="14.642034340649843">
<ele>290</ele>
</trkpt>
<trkpt lat="40.694764768704772" lon="14.642167780548334">
<ele>292</ele>
</trkpt>
<trkpt lat="40.694824531674385" lon="14.642214383929968">
<ele>293</ele>
</trkpt>
<trkpt lat="40.695008682087064" lon="14.642490483820438">
<ele>294</ele>
</trkpt>
<trkpt lat="40.695136003196239" lon="14.642643705010414">
<ele>295</ele>
</trkpt>
<trkpt lat="40.695143630728126" lon="14.642663234844804">
<ele>297</ele>
</trkpt>
<trkpt lat="40.695311520248652" lon="14.642811426892877">
<ele>298</ele>
</trkpt>
<trkpt lat="40.69542970508337" lon="14.642907148227096">
<ele>300</ele>
</trkpt>
<trkpt lat="40.695464489981532" lon="14.642909411340952">
<ele>301</ele>
</trkpt>
<trkpt lat="40.695645874366164" lon="14.643021980300546">
<ele>303</ele>
</trkpt>
<trkpt lat="40.695655513554811" lon="14.643028853461146">
<ele>304</ele>
</trkpt>
<trkpt lat="40.695830192416906" lon="14.643116611987352">
<ele>306</ele>
</trkpt>
<trkpt lat="40.696054827421904" lon="14.643134968355298">
<ele>308</ele>
</trkpt>
<trkpt lat="40.696225315332413" lon="14.643114348873496">
<ele>309</ele>
</trkpt>
<trkpt lat="40.696437126025558" lon="14.643060620874166">
<ele>311</ele>
</trkpt>
<trkpt lat="40.696577690541744" lon="14.642991637811065">
<ele>312</ele>
</trkpt>
<trkpt lat="40.696721272543073" lon="14.642890887334943">
<ele>314</ele>
</trkpt>
<trkpt lat="40.696901483461261" lon="14.642888205125928">
<ele>316</ele>
</trkpt>
<trkpt lat="40.696949092671275" lon="14.64304125867784">
<ele>317</ele>
</trkpt>
<trkpt lat="40.696949679404497" lon="14.64319808408618">
<ele>318</ele>
</trkpt>
<trkpt lat="40.696913301944733" lon="14.643488517031074">
<ele>320</ele>
</trkpt>
<trkpt lat="40.696925204247236" lon="14.643770316615701">
<ele>322</ele>
</trkpt>
<trkpt lat="40.69693811237812" lon="14.643822787329555">
<ele>323</ele>
</trkpt>
<trkpt lat="40.697044227272272" lon="14.644006099551916">
<ele>324</ele>
</trkpt>
<trkpt lat="40.697242375463247" lon="14.644145658239722">
<ele>326</ele>
</trkpt>
<trkpt lat="40.697390902787447" lon="14.644147586077452">
<ele>328</ele>
</trkpt>
<trkpt lat="40.697563653811812" lon="14.644071310758591">
<ele>329</ele>
</trkpt>
<trkpt lat="40.697573544457555" lon="14.644065275788307">
<ele>330</ele>
</trkpt>
<trkpt lat="40.697716036811471" lon="14.643947845324874">
<ele>331</ele>
</trkpt>
<trkpt lat="40.697835646569729" lon="14.64381130412221">
<ele>333</ele>
</trkpt>
<trkpt lat="40.697939833626151" lon="14.643678786233068">
<ele>334</ele>
</trkpt>
<trkpt lat="40.698024742305279" lon="14.643532689660788">
<ele>335</ele>
</trkpt>
<trkpt lat="40.698057599365711" lon="14.643490947782993">
<ele>336</ele>
</trkpt>
<trkpt lat="40.698190787807107" lon="14.643334206193686">
<ele>337</ele>
</trkpt>
<trkpt lat="40.698285335674882" lon="14.643233120441437">
<ele>339</ele>
</trkpt>
<trkpt lat="40.698426151648164" lon="14.643033212050796">
<ele>340</ele>
</trkpt>
<trkpt lat="40.698431432247162" lon="14.643004545941949">
<ele>341</ele>
</trkpt>
<trkpt lat="40.698555400595069" lon="14.642678825184703">
<ele>342</ele>
</trkpt>
<trkpt lat="40.698653720319271" lon="14.642497608438134">
<ele>343</ele>
</trkpt>
<trkpt lat="40.698701580986381" lon="14.642432061955333">
<ele>344</ele>
</trkpt>
<trkpt lat="40.698841894045472" lon="14.642250342294574">
<ele>345</ele>
</trkpt>
<trkpt lat="40.698977597057819" lon="14.642080441117287">
<ele>346</ele>
</trkpt>
<trkpt lat="40.699039371684194" lon="14.642004584893584">
<ele>346</ele>
</trkpt>
<trkpt lat="40.699150348082185" lon="14.6418621763587">
<ele>347</ele>
</trkpt>
<trkpt lat="40.699186809360981" lon="14.641814231872559">
<ele>348</ele>
</trkpt>
<trkpt lat="40.699289990589023" lon="14.641682216897607">
<ele>349</ele>
</trkpt>
<trkpt lat="40.699398284777999" lon="14.641527319326997">
<ele>350</ele>
</trkpt>
<trkpt lat="40.699507165700197" lon="14.641371164470911">
<ele>351</ele>
</trkpt>
<trkpt lat="40.699605820700526" lon="14.6412025205791">
<ele>353</ele>
</trkpt>
<trkpt lat="40.69969785399735" lon="14.641046533361077">
<ele>354</ele>
</trkpt>
<trkpt lat="40.699862139299512" lon="14.640885684639215">
<ele>356</ele>
</trkpt>
<trkpt lat="40.700009409338236" lon="14.64074520394206">
<ele>357</ele>
</trkpt>
<trkpt lat="40.700132455676794" lon="14.64058049954474">
<ele>358</ele>
</trkpt>
<trkpt lat="40.700200432911515" lon="14.640466505661607">
<ele>360</ele>
</trkpt>
<trkpt lat="40.700242342427373" lon="14.640286210924387">
<ele>361</ele>
</trkpt>
<trkpt lat="40.700270421802998" lon="14.640138354152441">
<ele>363</ele>
</trkpt>
<trkpt lat="40.700349379330873" lon="14.639942971989512">
<ele>364</ele>
</trkpt>
<trkpt lat="40.700359102338552" lon="14.639806598424911">
<ele>365</ele>
</trkpt>
<trkpt lat="40.700459685176611" lon="14.639641894027591">
<ele>365</ele>
</trkpt>
<trkpt lat="40.700556244701147" lon="14.639474591240287">
<ele>366</ele>
</trkpt>
<trkpt lat="40.70079336874187" lon="14.639254817739129">
<ele>367</ele>
</trkpt>
<trkpt lat="40.700846007093787" lon="14.639077456668019">
<ele>368</ele>
</trkpt>
<trkpt lat="40.700843911617994" lon="14.639048539102077">
<ele>368</ele>
</trkpt>
<trkpt lat="40.700835026800632" lon="14.639001432806253">
<ele>369</ele>
</trkpt>
<trkpt lat="40.700915493071079" lon="14.638852905482054">
<ele>370</ele>
</trkpt>
<trkpt lat="40.700932843610644" lon="14.638853911310434">
<ele>370</ele>
</trkpt>
<trkpt lat="40.70091356523335" lon="14.638699851930141">
<ele>371</ele>
</trkpt>
<trkpt lat="40.70090476423502" lon="14.638565238565207">
<ele>371</ele>
</trkpt>
<trkpt lat="40.70091599598527" lon="14.638430373743176">
<ele>372</ele>
</trkpt>
<trkpt lat="40.700922282412648" lon="14.638376897200942">
<ele>372</ele>
</trkpt>
<trkpt lat="40.700966622680426" lon="14.638231974095106">
<ele>372</ele>
</trkpt>
<trkpt lat="40.701012806966901" lon="14.638052936643362">
<ele>372</ele>
</trkpt>
<trkpt lat="40.701219085603952" lon="14.637765688821673">
<ele>373</ele>
</trkpt>
<trkpt lat="40.701238866895437" lon="14.637714056298137">
<ele>373</ele>
</trkpt>
<trkpt lat="40.701337270438671" lon="14.637551866471767">
<ele>373</ele>
</trkpt>
<trkpt lat="40.701458556577563" lon="14.637336200103164">
<ele>374</ele>
</trkpt>
<trkpt lat="40.701569952070713" lon="14.637077953666449">
<ele>374</ele>
</trkpt>
<trkpt lat="40.701704397797585" lon="14.63686790317297">
<ele>375</ele>
</trkpt>
<trkpt lat="40.701823756098747" lon="14.636653326451778">
<ele>376</ele>
</trkpt>
<trkpt lat="40.701929535716772" lon="14.636460207402706">
<ele>376</ele>
</trkpt>
<trkpt lat="40.702058197930455" lon="14.636279828846455">
<ele>377</ele>
</trkpt>
<trkpt lat="40.702095162123442" lon="14.636223251000047">
<ele>378</ele>
</trkpt>
<trkpt lat="40.702216196805239" lon="14.636086793616414">
<ele>379</ele>
</trkpt>
<trkpt lat="40.702302698045969" lon="14.635963663458824">
<ele>380</ele>
</trkpt>
<trkpt lat="40.702441837638617" lon="14.635785799473524">
<ele>380</ele>
</trkpt>
<trkpt lat="40.702481400221586" lon="14.635719079524279">
<ele>381</ele>
</trkpt>
<trkpt lat="40.702594723552465" lon="14.63559502735734">
<ele>382</ele>
</trkpt>
<trkpt lat="40.702772168442607" lon="14.635464940220118">
<ele>382</ele>
</trkpt>
<trkpt lat="40.702958246693015" lon="14.635318927466869">
<ele>381</ele>
</trkpt>
<trkpt lat="40.703152371570468" lon="14.63523980230093">
<ele>381</ele>
</trkpt>
<trkpt lat="40.703236944973469" lon="14.635244160890579">
<ele>381</ele>
</trkpt>
<trkpt lat="40.703380024060607" lon="14.635197222232819">
<ele>380</ele>
</trkpt>
<trkpt lat="40.703642629086971" lon="14.635138297453523">
<ele>380</ele>
</trkpt>
<trkpt lat="40.703892577439547" lon="14.634992284700274">
<ele>380</ele>
</trkpt>
<trkpt lat="40.704035237431526" lon="14.634808972477913">
<ele>380</ele>
</trkpt>
<trkpt lat="40.704149985685945" lon="14.634567406028509">
<ele>379</ele>
</trkpt>
<trkpt lat="40.704209916293621" lon="14.634282840415835">
<ele>379</ele>
</trkpt>
<trkpt lat="40.704253586009145" lon="14.634198853746057">
<ele>380</ele>
</trkpt>
<trkpt lat="40.70442826487124" lon="14.634020403027534">
<ele>380</ele>
</trkpt>
<trkpt lat="40.70464426651597" lon="14.633856033906341">
<ele>381</ele>
</trkpt>
<trkpt lat="40.704851215705276" lon="14.633749667555094">
<ele>381</ele>
</trkpt>
<trkpt lat="40.705059505999088" lon="14.633613461628556">
<ele>382</ele>
</trkpt>
<trkpt lat="40.705229071900249" lon="14.633474238216877">
<ele>383</ele>
</trkpt>
<trkpt lat="40.705344658344984" lon="14.633357645943761">
<ele>383</ele>
</trkpt>
<trkpt lat="40.705456892028451" lon="14.633209872990847">
<ele>384</ele>
</trkpt>
<trkpt lat="40.705562168732285" lon="14.633042486384511">
<ele>384</ele>
</trkpt>
<trkpt lat="40.705674821510911" lon="14.632905442267656">
<ele>385</ele>
</trkpt>
<trkpt lat="40.705874562263489" lon="14.632731266319752">
<ele>386</ele>
</trkpt>
<trkpt lat="40.706087043508887" lon="14.632559269666672">
<ele>387</ele>
</trkpt>
<trkpt lat="40.706266751512885" lon="14.632442258298397">
<ele>389</ele>
</trkpt>
<trkpt lat="40.706441849470139" lon="14.632327845320106">
<ele>390</ele>
</trkpt>
<trkpt lat="40.706616193056107" lon="14.632203038781881">
<ele>391</ele>
</trkpt>
<trkpt lat="40.706776287406683" lon="14.632034813985229">
<ele>392</ele>
</trkpt>
<trkpt lat="40.706932693719864" lon="14.631884107366204">
<ele>393</ele>
</trkpt>
<trkpt lat="40.707018356770277" lon="14.631777238100767">
<ele>395</ele>
</trkpt>
<trkpt lat="40.707188844680786" lon="14.63164396584034">
<ele>396</ele>
</trkpt>
<trkpt lat="40.707326056435704" lon="14.631515806540847">
<ele>397</ele>
</trkpt>
<trkpt lat="40.707477433606982" lon="14.631416480988264">
<ele>400</ele>
</trkpt>
<trkpt lat="40.707605425268412" lon="14.631322771310806">
<ele>402</ele>
</trkpt>
<trkpt lat="40.707766357809305" lon="14.631221937015653">
<ele>404</ele>
</trkpt>
<trkpt lat="40.707914885133505" lon="14.631114732474089">
<ele>407</ele>
</trkpt>
<trkpt lat="40.708049163222313" lon="14.631017586216331">
<ele>410</ele>
</trkpt>
<trkpt lat="40.708174975588918" lon="14.630879117175937">
<ele>412</ele>
</trkpt>
<trkpt lat="40.708271116018295" lon="14.630774762481451">
<ele>414</ele>
</trkpt>
<trkpt lat="40.70838276296854" lon="14.630661522969604">
<ele>417</ele>
</trkpt>
<trkpt lat="40.708467504009604" lon="14.630529507994652">
<ele>420</ele>
</trkpt>
<trkpt lat="40.708595914766192" lon="14.630408892408013">
<ele>422</ele>
</trkpt>
<trkpt lat="40.708665233105421" lon="14.630304537713528">
<ele>424</ele>
</trkpt>
<trkpt lat="40.70877218618989" lon="14.630143018439412">
<ele>425</ele>
</trkpt>
<trkpt lat="40.708829266950488" lon="14.629992479458451">
<ele>427</ele>
</trkpt>
<trkpt lat="40.708905290812254" lon="14.629844035953283">
<ele>429</ele>
</trkpt>
<trkpt lat="40.708976704627275" lon="14.62965820915997">
<ele>430</ele>
</trkpt>
<trkpt lat="40.709006795659661" lon="14.629506999626756">
<ele>432</ele>
</trkpt>
<trkpt lat="40.709134871140122" lon="14.629356125369668">
<ele>434</ele>
</trkpt>
<trkpt lat="40.709295887500048" lon="14.629179267212749">
<ele>436</ele>
</trkpt>
<trkpt lat="40.709417928010225" lon="14.629018334671855">
<ele>437</ele>
</trkpt>
<trkpt lat="40.709491269662976" lon="14.628864275291562">
<ele>439</ele>
</trkpt>
<trkpt lat="40.709581458941102" lon="14.628702756017447">
<ele>440</ele>
</trkpt>
<trkpt lat="40.709613226354122" lon="14.628613740205765">
<ele>442</ele>
</trkpt>
<trkpt lat="40.709688160568476" lon="14.628470912575722">
<ele>443</ele>
</trkpt>
<trkpt lat="40.709837190806866" lon="14.628337053582072">
<ele>444</ele>
</trkpt>
<trkpt lat="40.709985047578812" lon="14.628240577876568">
<ele>446</ele>
</trkpt>
<trkpt lat="40.710158804431558" lon="14.62813027203083">
<ele>447</ele>
</trkpt>
<trkpt lat="40.710299117490649" lon="14.628077214583755">
<ele>448</ele>
</trkpt>
<trkpt lat="40.710450662299991" lon="14.627946959808469">
<ele>449</ele>
</trkpt>
<trkpt lat="40.710550406947732" lon="14.627873115241528">
<ele>451</ele>
</trkpt>
<trkpt lat="40.710642524063587" lon="14.62777060456574">
<ele>452</ele>
</trkpt>
<trkpt lat="40.710771605372429" lon="14.627625346183777">
<ele>451</ele>
</trkpt>
<trkpt lat="40.710938237607479" lon="14.627460557967424">
<ele>450</ele>
</trkpt>
<trkpt lat="40.711150467395782" lon="14.627291243523359">
<ele>450</ele>
</trkpt>
<trkpt lat="40.711221629753709" lon="14.627159731462598">
<ele>449</ele>
</trkpt>
<trkpt lat="40.711351381614804" lon="14.626987650990486">
<ele>448</ele>
</trkpt>
<trkpt lat="40.711486162617803" lon="14.626876842230558">
<ele>447</ele>
</trkpt>
<trkpt lat="40.711543327197433" lon="14.626843901351094">
<ele>446</ele>
</trkpt>
<trkpt lat="40.711793443188071" lon="14.626816241070628">
<ele>446</ele>
</trkpt>
<trkpt lat="40.711832419037819" lon="14.626800147816539">
<ele>445</ele>
</trkpt>
<trkpt lat="40.711921937763691" lon="14.626573920249939">
<ele>444</ele>
</trkpt>
<trkpt lat="40.712033752351999" lon="14.626451209187508">
<ele>446</ele>
</trkpt>
<trkpt lat="40.712176999077201" lon="14.626390943303704">
<ele>448</ele>
</trkpt>
<trkpt lat="40.712276827543974" lon="14.626368647441268">
<ele>451</ele>
</trkpt>
<trkpt lat="40.712332986295223" lon="14.626334700733423">
<ele>453</ele>
</trkpt>
<trkpt lat="40.712431138381362" lon="14.626368479803205">
<ele>455</ele>
</trkpt>
<trkpt lat="40.712507916614413" lon="14.626366049051285">
<ele>457</ele>
</trkpt>
<trkpt lat="40.712609002366662" lon="14.626374179497361">
<ele>459</ele>
</trkpt>
<trkpt lat="40.71271788328886" lon="14.626379795372486">
<ele>462</ele>
</trkpt>
<trkpt lat="40.712786698713899" lon="14.626377867534757">
<ele>464</ele>
</trkpt>
<trkpt lat="40.712837241590023" lon="14.626362947747111">
<ele>466</ele>
</trkpt>
<trkpt lat="40.712993396446109" lon="14.626327157020569">
<ele>469</ele>
</trkpt>
<trkpt lat="40.713021643459797" lon="14.626356242224574">
<ele>471</ele>
</trkpt>
<trkpt lat="40.713083753362298" lon="14.626416508108377">
<ele>474</ele>
</trkpt>
<trkpt lat="40.713206883519888" lon="14.626394966617227">
<ele>476</ele>
</trkpt>
<trkpt lat="40.713315093889832" lon="14.626392452046275">
<ele>479</ele>
</trkpt>
<trkpt lat="40.713376868516207" lon="14.626305112615228">
<ele>482</ele>
</trkpt>
<trkpt lat="40.713423052802682" lon="14.626214085146785">
<ele>484</ele>
</trkpt>
<trkpt lat="40.713472841307521" lon="14.62597981095314">
<ele>487</ele>
</trkpt>
<trkpt lat="40.713457586243749" lon="14.625838911160827">
<ele>489</ele>
</trkpt>
<trkpt lat="40.713468985632062" lon="14.625814352184534">
<ele>492</ele>
</trkpt>
<trkpt lat="40.713479379191995" lon="14.625788033008575">
<ele>494</ele>
</trkpt>
<trkpt lat="40.7135050278157" lon="14.625660125166178">
<ele>496</ele>
</trkpt>
<trkpt lat="40.713509554043412" lon="14.625429203733802">
<ele>499</ele>
</trkpt>
<trkpt lat="40.71350360289216" lon="14.625199539586902">
<ele>501</ele>
</trkpt>
<trkpt lat="40.713553056120872" lon="14.625042965635657">
<ele>503</ele>
</trkpt>
<trkpt lat="40.713598150759935" lon="14.62484666146338">
<ele>505</ele>
</trkpt>
<trkpt lat="40.713624972850084" lon="14.624673239886761">
<ele>507</ele>
</trkpt>
<trkpt lat="40.713670318946242" lon="14.624518426135182">
<ele>510</ele>
</trkpt>
<trkpt lat="40.713670989498496" lon="14.624515576288104">
<ele>512</ele>
</trkpt>
<trkpt lat="40.713719604536891" lon="14.624403761699796">
<ele>514</ele>
</trkpt>
<trkpt lat="40.713735530152917" lon="14.624320110306144">
<ele>516</ele>
</trkpt>
<trkpt lat="40.713781295344234" lon="14.624194549396634">
<ele>518</ele>
</trkpt>
<trkpt lat="40.713833346962929" lon="14.624103019014001">
<ele>521</ele>
</trkpt>
<trkpt lat="40.71388715878129" lon="14.623972680419683">
<ele>523</ele>
</trkpt>
<trkpt lat="40.713888332247734" lon="14.623952563852072">
<ele>525</ele>
</trkpt>
<trkpt lat="40.713935606181622" lon="14.623791379854083">
<ele>527</ele>
</trkpt>
<trkpt lat="40.7139677926898" lon="14.623616449534893">
<ele>529</ele>
</trkpt>
<trkpt lat="40.714011797681451" lon="14.623566996306181">
<ele>532</ele>
</trkpt>
<trkpt lat="40.714111290872097" lon="14.623533301055431">
<ele>534</ele>
</trkpt>
<trkpt lat="40.714153703302145" lon="14.623471107333899">
<ele>536</ele>
</trkpt>
<trkpt lat="40.714200641959906" lon="14.623344456776977">
<ele>539</ele>
</trkpt>
<trkpt lat="40.714265434071422" lon="14.62324152700603">
<ele>542</ele>
</trkpt>
<trkpt lat="40.714323688298464" lon="14.623107751831412">
<ele>545</ele>
</trkpt>
<trkpt lat="40.714377919211984" lon="14.623049078509212">
<ele>548</ele>
</trkpt>
<trkpt lat="40.714475987479091" lon="14.622834837064147">
<ele>551</ele>
</trkpt>
<trkpt lat="40.714537426829338" lon="14.622742803767323">
<ele>554</ele>
</trkpt>
<trkpt lat="40.714572379365563" lon="14.622653368860483">
<ele>557</ele>
</trkpt>
<trkpt lat="40.714672459289432" lon="14.62248413823545">
<ele>560</ele>
</trkpt>
<trkpt lat="40.714696263894439" lon="14.622474582865834">
<ele>563</ele>
</trkpt>
<trkpt lat="40.714730462059379" lon="14.622426219284534">
<ele>566</ele>
</trkpt>
<trkpt lat="40.714818723499775" lon="14.622260592877865">
<ele>569</ele>
</trkpt>
<trkpt lat="40.714908242225647" lon="14.622140899300575">
<ele>572</ele>
</trkpt>
<trkpt lat="40.714997425675392" lon="14.622038304805756">
<ele>575</ele>
</trkpt>
<trkpt lat="40.715104378759861" lon="14.621939398348331">
<ele>578</ele>
</trkpt>
<trkpt lat="40.715141259133816" lon="14.621919868513942">
<ele>580</ele>
</trkpt>
<trkpt lat="40.715285008773208" lon="14.621887933462858">
<ele>583</ele>
</trkpt>
<trkpt lat="40.715465387329459" lon="14.621832780539989">
<ele>586</ele>
</trkpt>
<trkpt lat="40.715624811127782" lon="14.621787266805768">
<ele>589</ele>
</trkpt>
<trkpt lat="40.71573712863028" lon="14.621727084740996">
<ele>592</ele>
</trkpt>
<trkpt lat="40.715820612385869" lon="14.621709482744336">
<ele>595</ele>
</trkpt>
<trkpt lat="40.715978778898716" lon="14.621750637888908">
<ele>598</ele>
</trkpt>
<trkpt lat="40.71604541502893" lon="14.621773017570376">
<ele>601</ele>
</trkpt>
<trkpt lat="40.716029573231936" lon="14.621861865743995">
<ele>604</ele>
</trkpt>
<trkpt lat="40.715991938486695" lon="14.621998155489564">
<ele>607</ele>
</trkpt>
<trkpt lat="40.716055305674672" lon="14.622039142996073">
<ele>610</ele>
</trkpt>
<trkpt lat="40.716157900169492" lon="14.622053056955338">
<ele>614</ele>
</trkpt>
<trkpt lat="40.716268038377166" lon="14.62200335226953">
<ele>617</ele>
</trkpt>
<trkpt lat="40.716362586244941" lon="14.621965046972036">
<ele>620</ele>
</trkpt>
<trkpt lat="40.71646124124527" lon="14.621957587078214">
<ele>623</ele>
</trkpt>
<trkpt lat="40.716574396938086" lon="14.621941242367029">
<ele>626</ele>
</trkpt>
<trkpt lat="40.716635752469301" lon="14.621933698654175">
<ele>628</ele>
</trkpt>
<trkpt lat="40.716757625341415" lon="14.621926071122289">
<ele>629</ele>
</trkpt>
<trkpt lat="40.716844629496336" lon="14.621900338679552">
<ele>631</ele>
</trkpt>
<trkpt lat="40.716986116021872" lon="14.621846443042159">
<ele>632</ele>
</trkpt>
<trkpt lat="40.717191807925701" lon="14.621778046712279">
<ele>634</ele>
</trkpt>
<trkpt lat="40.717371515929699" lon="14.621631614863873">
<ele>636</ele>
</trkpt>
<trkpt lat="40.717557929456234" lon="14.621513430029154">
<ele>637</ele>
</trkpt>
<trkpt lat="40.717587601393461" lon="14.621434723958373">
<ele>639</ele>
</trkpt>
<trkpt lat="40.717635378241539" lon="14.621205562725663">
<ele>640</ele>
</trkpt>
<trkpt lat="40.717776613309979" lon="14.621056616306305">
<ele>642</ele>
</trkpt>
<trkpt lat="40.717791365459561" lon="14.621059130877256">
<ele>643</ele>
</trkpt>
<trkpt lat="40.717973168939352" lon="14.620909849181771">
<ele>645</ele>
</trkpt>
<trkpt lat="40.71812454611063" lon="14.620823599398136">
<ele>646</ele>
</trkpt>
<trkpt lat="40.71820174343884" lon="14.620742546394467">
<ele>647</ele>
</trkpt>
<trkpt lat="40.718210879713297" lon="14.620744055137038">
<ele>648</ele>
</trkpt>
<trkpt lat="40.718306349590421" lon="14.620749922469258">
<ele>650</ele>
</trkpt>
<trkpt lat="40.718501228839159" lon="14.620696194469929">
<ele>651</ele>
</trkpt>
<trkpt lat="40.718643050640821" lon="14.620353039354086">
<ele>652</ele>
</trkpt>
<trkpt lat="40.718695521354675" lon="14.620190598070621">
<ele>653</ele>
</trkpt>
<trkpt lat="40.718707507476211" lon="14.620118597522378">
<ele>655</ele>
</trkpt>
<trkpt lat="40.718714380636811" lon="14.620055146515369">
<ele>656</ele>
</trkpt>
</trkseg>
</trk>
</gpx>
