<?xml version="1.0" encoding="UTF-8"?>
<gpx version="1.1"
creator="Smartprofil-Office - http://www.rother.de"
xmlns:xsi="http://www.w3.org/2001/XMLSchema-instance"
xmlns="http://www.topografix.com/GPX/1/1"
xsi:schemaLocation="http://www.topografix.com/GPX/1/1 http://www.topografix.com/GPX/1/1/gpx.xsd">
<metadata>

<bounds minlat="40.624699350446463" minlon="14.552326519042253" maxlat="40.657036732882261" maxlon="14.574295068159699"/>
</metadata>
<wpt lat="40.625233026221395" lon="14.567427020519972">
<ele>640</ele>
<name>20_Agerola S. Lazzaro (1)</name>
<cmt></cmt>
<desc></desc>
<sym>Crossing</sym>
</wpt>

<wpt lat="40.644786665216088" lon="14.552373709157109">
<ele>730</ele>
<name>20_Abzweigung oberhalb Campora (2)</name>
<cmt></cmt>
<desc></desc>
<sym>Crossing</sym>
</wpt>

<wpt lat="40.657036732882261" lon="14.562444481998682">
<ele>1039</ele>
<name>20_Imbarrata (3)</name>
<cmt></cmt>
<desc></desc>
<sym>Crossing</sym>
</wpt>

<wpt lat="40.653672656044364" lon="14.562426628544927">
<ele>1078</ele>
<name>20_Croce di Scupolo (4)</name>
<cmt></cmt>
<desc></desc>
<sym>Crossing</sym>
</wpt>

<wpt lat="40.635518375784159" lon="14.569166516885161">
<ele>863</ele>
<name>20_Monte (5)</name>
<cmt></cmt>
<desc></desc>
<sym>Crossing</sym>
</wpt>

<trk>
<name>Neapel_20_Croce di Scupolo</name>
<trkseg>
<trkpt lat="40.625233026221395" lon="14.567427020519972">
<ele>640</ele>
</trkpt>
<trkpt lat="40.625369902700186" lon="14.567394498735666">
<ele>640</ele>
</trkpt>
<trkpt lat="40.625536367297173" lon="14.567379830405116">
<ele>640</ele>
</trkpt>
<trkpt lat="40.62571263872087" lon="14.567350158467889">
<ele>640</ele>
</trkpt>
<trkpt lat="40.625791680067778" lon="14.567267848178744">
<ele>640</ele>
</trkpt>
<trkpt lat="40.625856639817357" lon="14.567247563973069">
<ele>640</ele>
</trkpt>
<trkpt lat="40.625996617600322" lon="14.567132983356714">
<ele>639</ele>
</trkpt>
<trkpt lat="40.626189736649394" lon="14.567004824057221">
<ele>639</ele>
</trkpt>
<trkpt lat="40.626535154879093" lon="14.566718749701977">
<ele>639</ele>
</trkpt>
<trkpt lat="40.626688543707132" lon="14.566621435806155">
<ele>639</ele>
</trkpt>
<trkpt lat="40.626745540648699" lon="14.566629733890295">
<ele>639</ele>
</trkpt>
<trkpt lat="40.626776721328497" lon="14.566585728898644">
<ele>640</ele>
</trkpt>
<trkpt lat="40.626877639442682" lon="14.566683797165751">
<ele>642</ele>
</trkpt>
<trkpt lat="40.626889877021313" lon="14.566714810207486">
<ele>644</ele>
</trkpt>
<trkpt lat="40.627031279727817" lon="14.566960483789444">
<ele>645</ele>
</trkpt>
<trkpt lat="40.627073021605611" lon="14.567064503207803">
<ele>646</ele>
</trkpt>
<trkpt lat="40.62714284285903" lon="14.567112699151039">
<ele>648</ele>
</trkpt>
<trkpt lat="40.627261698246002" lon="14.56721244379878">
<ele>650</ele>
</trkpt>
<trkpt lat="40.627437634393573" lon="14.5672891382128">
<ele>651</ele>
</trkpt>
<trkpt lat="40.627592196688056" lon="14.567319815978408">
<ele>652</ele>
</trkpt>
<trkpt lat="40.627733767032623" lon="14.567308081313968">
<ele>654</ele>
</trkpt>
<trkpt lat="40.627874163910747" lon="14.567306656390429">
<ele>656</ele>
</trkpt>
<trkpt lat="40.628005927428603" lon="14.567339513450861">
<ele>658</ele>
</trkpt>
<trkpt lat="40.628154119476676" lon="14.56734387204051">
<ele>660</ele>
</trkpt>
<trkpt lat="40.628283368423581" lon="14.567294670268893">
<ele>662</ele>
</trkpt>
<trkpt lat="40.628308011218905" lon="14.567298106849194">
<ele>664</ele>
</trkpt>
<trkpt lat="40.628394261002541" lon="14.567262986674905">
<ele>665</ele>
</trkpt>
<trkpt lat="40.62844212166965" lon="14.567238846793771">
<ele>667</ele>
</trkpt>
<trkpt lat="40.628519151359797" lon="14.567288300022483">
<ele>669</ele>
</trkpt>
<trkpt lat="40.628536250442266" lon="14.567277319729328">
<ele>671</ele>
</trkpt>
<trkpt lat="40.62860774807632" lon="14.567299950867891">
<ele>673</ele>
</trkpt>
<trkpt lat="40.628747809678316" lon="14.567270530387759">
<ele>675</ele>
</trkpt>
<trkpt lat="40.628843111917377" lon="14.567225184291601">
<ele>677</ele>
</trkpt>
<trkpt lat="40.62891561537981" lon="14.567228704690933">
<ele>679</ele>
</trkpt>
<trkpt lat="40.629039248451591" lon="14.567302130162716">
<ele>681</ele>
</trkpt>
<trkpt lat="40.629056682810187" lon="14.567311434075236">
<ele>682</ele>
</trkpt>
<trkpt lat="40.62920831143856" lon="14.567352253943682">
<ele>684</ele>
</trkpt>
<trkpt lat="40.629233457148075" lon="14.567343955859542">
<ele>686</ele>
</trkpt>
<trkpt lat="40.629337141290307" lon="14.567342028021812">
<ele>688</ele>
</trkpt>
<trkpt lat="40.629421714693308" lon="14.567348230630159">
<ele>690</ele>
</trkpt>
<trkpt lat="40.629592621698976" lon="14.56737513653934">
<ele>692</ele>
</trkpt>
<trkpt lat="40.629740562289953" lon="14.567297184839845">
<ele>694</ele>
</trkpt>
<trkpt lat="40.629907445982099" lon="14.567266255617142">
<ele>697</ele>
</trkpt>
<trkpt lat="40.630104672163725" lon="14.567178413271904">
<ele>699</ele>
</trkpt>
<trkpt lat="40.63015328720212" lon="14.567175563424826">
<ele>701</ele>
</trkpt>
<trkpt lat="40.630306089296937" lon="14.567116135731339">
<ele>704</ele>
</trkpt>
<trkpt lat="40.630424106493592" lon="14.56706190481782">
<ele>706</ele>
</trkpt>
<trkpt lat="40.630558300763369" lon="14.567039608955383">
<ele>708</ele>
</trkpt>
<trkpt lat="40.630689477548003" lon="14.567053858190775">
<ele>710</ele>
</trkpt>
<trkpt lat="40.630813613533974" lon="14.567004321143031">
<ele>713</ele>
</trkpt>
<trkpt lat="40.630887458100915" lon="14.566973391920328">
<ele>715</ele>
</trkpt>
<trkpt lat="40.630907323211432" lon="14.566951766610146">
<ele>715</ele>
</trkpt>
<trkpt lat="40.631035398691893" lon="14.566836599260569">
<ele>716</ele>
</trkpt>
<trkpt lat="40.631115864962339" lon="14.566788822412491">
<ele>716</ele>
</trkpt>
<trkpt lat="40.631223153322935" lon="14.566725706681609">
<ele>717</ele>
</trkpt>
<trkpt lat="40.631324406713247" lon="14.566652867943048">
<ele>717</ele>
</trkpt>
<trkpt lat="40.631366400048137" lon="14.566639037802815">
<ele>717</ele>
</trkpt>
<trkpt lat="40.63161819241941" lon="14.56666661426425">
<ele>718</ele>
</trkpt>
<trkpt lat="40.631867721676826" lon="14.566679941490293">
<ele>718</ele>
</trkpt>
<trkpt lat="40.63190745189786" lon="14.566678684204817">
<ele>719</ele>
</trkpt>
<trkpt lat="40.631939303129911" lon="14.566677175462246">
<ele>719</ele>
</trkpt>
<trkpt lat="40.632107611745596" lon="14.566748002544045">
<ele>719</ele>
</trkpt>
<trkpt lat="40.632177600637078" lon="14.566813129931688">
<ele>719</ele>
</trkpt>
<trkpt lat="40.632334006950259" lon="14.566887812688947">
<ele>720</ele>
</trkpt>
<trkpt lat="40.632431823760271" lon="14.566913126036525">
<ele>720</ele>
</trkpt>
<trkpt lat="40.632598707452416" lon="14.566937601193786">
<ele>720</ele>
</trkpt>
<trkpt lat="40.632752766832709" lon="14.56701940856874">
<ele>720</ele>
</trkpt>
<trkpt lat="40.632860055193305" lon="14.56712200306356">
<ele>720</ele>
</trkpt>
<trkpt lat="40.63295803964138" lon="14.567158045247197">
<ele>721</ele>
</trkpt>
<trkpt lat="40.633057281374931" lon="14.567058132961392">
<ele>721</ele>
</trkpt>
<trkpt lat="40.633076475933194" lon="14.566995436325669">
<ele>721</ele>
</trkpt>
<trkpt lat="40.633130706846714" lon="14.566823439672589">
<ele>721</ele>
</trkpt>
<trkpt lat="40.63317010179162" lon="14.566704584285617">
<ele>721</ele>
</trkpt>
<trkpt lat="40.633189212530851" lon="14.566646749153733">
<ele>721</ele>
</trkpt>
<trkpt lat="40.63330153003335" lon="14.566266965121031">
<ele>721</ele>
</trkpt>
<trkpt lat="40.633446453139186" lon="14.565970245748758">
<ele>721</ele>
</trkpt>
<trkpt lat="40.633417451754212" lon="14.565642429515719">
<ele>721</ele>
</trkpt>
<trkpt lat="40.633378475904465" lon="14.565396504476666">
<ele>721</ele>
</trkpt>
<trkpt lat="40.633372021839023" lon="14.565154602751136">
<ele>721</ele>
</trkpt>
<trkpt lat="40.633416110649705" lon="14.564858470112085">
<ele>721</ele>
</trkpt>
<trkpt lat="40.633419882506132" lon="14.564822679385543">
<ele>721</ele>
</trkpt>
<trkpt lat="40.633491799235344" lon="14.564497964456677">
<ele>721</ele>
</trkpt>
<trkpt lat="40.633536893874407" lon="14.564372403547168">
<ele>721</ele>
</trkpt>
<trkpt lat="40.633641583845019" lon="14.564161095768213">
<ele>721</ele>
</trkpt>
<trkpt lat="40.633715847507119" lon="14.564046431332827">
<ele>721</ele>
</trkpt>
<trkpt lat="40.633870409801602" lon="14.563799584284425">
<ele>722</ele>
</trkpt>
<trkpt lat="40.633955067023635" lon="14.563688607886434">
<ele>722</ele>
</trkpt>
<trkpt lat="40.634085908532143" lon="14.563520299270749">
<ele>722</ele>
</trkpt>
<trkpt lat="40.634249607101083" lon="14.563316199928522">
<ele>722</ele>
</trkpt>
<trkpt lat="40.634346585720778" lon="14.563254928216338">
<ele>722</ele>
</trkpt>
<trkpt lat="40.634588655084372" lon="14.563089720904827">
<ele>722</ele>
</trkpt>
<trkpt lat="40.634605921804905" lon="14.563077315688133">
<ele>723</ele>
</trkpt>
<trkpt lat="40.634813206270337" lon="14.562867265194654">
<ele>723</ele>
</trkpt>
<trkpt lat="40.634978748857975" lon="14.562676073983312">
<ele>724</ele>
</trkpt>
<trkpt lat="40.635093413293362" lon="14.562546154484153">
<ele>725</ele>
</trkpt>
<trkpt lat="40.635321736335754" lon="14.562442637979984">
<ele>726</ele>
</trkpt>
<trkpt lat="40.635523069649935" lon="14.562420677393675">
<ele>726</ele>
</trkpt>
<trkpt lat="40.63565474934876" lon="14.56241506151855">
<ele>727</ele>
</trkpt>
<trkpt lat="40.635744435712695" lon="14.562450600787997">
<ele>728</ele>
</trkpt>
<trkpt lat="40.636086668819189" lon="14.562535174190998">
<ele>728</ele>
</trkpt>
<trkpt lat="40.636207954958081" lon="14.562550932168961">
<ele>729</ele>
</trkpt>
<trkpt lat="40.636355979368091" lon="14.562592087313533">
<ele>729</ele>
</trkpt>
<trkpt lat="40.636473745107651" lon="14.56266425549984">
<ele>728</ele>
</trkpt>
<trkpt lat="40.636681951582432" lon="14.562788559123874">
<ele>728</ele>
</trkpt>
<trkpt lat="40.636736266314983" lon="14.56284555606544">
<ele>727</ele>
</trkpt>
<trkpt lat="40.636915052309632" lon="14.562949743121862">
<ele>727</ele>
</trkpt>
<trkpt lat="40.637036338448524" lon="14.562863828614354">
<ele>727</ele>
</trkpt>
<trkpt lat="40.637218309566379" lon="14.562461748719215">
<ele>726</ele>
</trkpt>
<trkpt lat="40.637191906571388" lon="14.562397627159953">
<ele>726</ele>
</trkpt>
<trkpt lat="40.637202467769384" lon="14.562376756221056">
<ele>725</ele>
</trkpt>
<trkpt lat="40.63722912222147" lon="14.562155976891518">
<ele>725</ele>
</trkpt>
<trkpt lat="40.637286873534322" lon="14.561809049919248">
<ele>725</ele>
</trkpt>
<trkpt lat="40.637254351750016" lon="14.561741910874844">
<ele>725</ele>
</trkpt>
<trkpt lat="40.6371826864779" lon="14.561443598940969">
<ele>724</ele>
</trkpt>
<trkpt lat="40.637131975963712" lon="14.561319714412093">
<ele>724</ele>
</trkpt>
<trkpt lat="40.63707766123116" lon="14.561253916472197">
<ele>724</ele>
</trkpt>
<trkpt lat="40.637041367590427" lon="14.561118548735976">
<ele>724</ele>
</trkpt>
<trkpt lat="40.637183524668217" lon="14.560924340039492">
<ele>724</ele>
</trkpt>
<trkpt lat="40.637240018695593" lon="14.560819566249847">
<ele>723</ele>
</trkpt>
<trkpt lat="40.637355772778392" lon="14.560687132179737">
<ele>723</ele>
</trkpt>
<trkpt lat="40.637412266805768" lon="14.560626614838839">
<ele>723</ele>
</trkpt>
<trkpt lat="40.637502456083894" lon="14.560503736138344">
<ele>723</ele>
</trkpt>
<trkpt lat="40.637641679495573" lon="14.560308353975415">
<ele>723</ele>
</trkpt>
<trkpt lat="40.637809736654162" lon="14.560151444748044">
<ele>724</ele>
</trkpt>
<trkpt lat="40.637896824628115" lon="14.560117162764072">
<ele>724</ele>
</trkpt>
<trkpt lat="40.638022134080529" lon="14.560046168044209">
<ele>724</ele>
</trkpt>
<trkpt lat="40.638112910091877" lon="14.559983974322677">
<ele>724</ele>
</trkpt>
<trkpt lat="40.638179127126932" lon="14.559951703995466">
<ele>724</ele>
</trkpt>
<trkpt lat="40.638393452391028" lon="14.559866208583117">
<ele>725</ele>
</trkpt>
<trkpt lat="40.638488167896867" lon="14.559811558574438">
<ele>725</ele>
</trkpt>
<trkpt lat="40.638525299727917" lon="14.559778785333037">
<ele>725</ele>
</trkpt>
<trkpt lat="40.638628480955958" lon="14.559718184173107">
<ele>725</ele>
</trkpt>
<trkpt lat="40.638747839257121" lon="14.55968901515007">
<ele>725</ele>
</trkpt>
<trkpt lat="40.638817241415381" lon="14.559673592448235">
<ele>724</ele>
</trkpt>
<trkpt lat="40.639006672427058" lon="14.559654146432877">
<ele>724</ele>
</trkpt>
<trkpt lat="40.639202641323209" lon="14.559584157541394">
<ele>724</ele>
</trkpt>
<trkpt lat="40.63929945230484" lon="14.559568064287305">
<ele>724</ele>
</trkpt>
<trkpt lat="40.639476394280791" lon="14.559548366814852">
<ele>724</ele>
</trkpt>
<trkpt lat="40.639615282416344" lon="14.559601424261928">
<ele>723</ele>
</trkpt>
<trkpt lat="40.639713099226356" lon="14.559687841683626">
<ele>723</ele>
</trkpt>
<trkpt lat="40.639767916873097" lon="14.559751208871603">
<ele>723</ele>
</trkpt>
<trkpt lat="40.639958521351218" lon="14.559871237725019">
<ele>724</ele>
</trkpt>
<trkpt lat="40.640174690634012" lon="14.560003420338035">
<ele>724</ele>
</trkpt>
<trkpt lat="40.640309387817979" lon="14.560010796412826">
<ele>725</ele>
</trkpt>
<trkpt lat="40.640371330082417" lon="14.559930246323347">
<ele>726</ele>
</trkpt>
<trkpt lat="40.640411898493767" lon="14.559814827516675">
<ele>726</ele>
</trkpt>
<trkpt lat="40.640338053926826" lon="14.55947108566761">
<ele>727</ele>
</trkpt>
<trkpt lat="40.640264796093106" lon="14.559146873652935">
<ele>728</ele>
</trkpt>
<trkpt lat="40.640169577673078" lon="14.558857278898358">
<ele>729</ele>
</trkpt>
<trkpt lat="40.640072263777256" lon="14.558573132380843">
<ele>729</ele>
</trkpt>
<trkpt lat="40.640086010098457" lon="14.558343552052975">
<ele>730</ele>
</trkpt>
<trkpt lat="40.640233950689435" lon="14.558271886780858">
<ele>731</ele>
</trkpt>
<trkpt lat="40.640380382537842" lon="14.558222182095051">
<ele>731</ele>
</trkpt>
<trkpt lat="40.640474511310458" lon="14.558194940909743">
<ele>732</ele>
</trkpt>
<trkpt lat="40.64052983187139" lon="14.558187816292048">
<ele>732</ele>
</trkpt>
<trkpt lat="40.640608621761203" lon="14.558097207918763">
<ele>733</ele>
</trkpt>
<trkpt lat="40.640603173524141" lon="14.557852959260345">
<ele>734</ele>
</trkpt>
<trkpt lat="40.640540393069386" lon="14.557655230164528">
<ele>734</ele>
</trkpt>
<trkpt lat="40.640535112470388" lon="14.557577949017286">
<ele>735</ele>
</trkpt>
<trkpt lat="40.640595210716128" lon="14.557233033701777">
<ele>735</ele>
</trkpt>
<trkpt lat="40.64069202169776" lon="14.557094229385257">
<ele>736</ele>
</trkpt>
<trkpt lat="40.640768799930811" lon="14.55700202845037">
<ele>736</ele>
</trkpt>
<trkpt lat="40.640824288129807" lon="14.556915191933513">
<ele>736</ele>
</trkpt>
<trkpt lat="40.640990333631635" lon="14.556720983237028">
<ele>736</ele>
</trkpt>
<trkpt lat="40.641170041635633" lon="14.556515961885452">
<ele>736</ele>
</trkpt>
<trkpt lat="40.641204491257668" lon="14.556479835882783">
<ele>736</ele>
</trkpt>
<trkpt lat="40.641278503462672" lon="14.556374559178948">
<ele>737</ele>
</trkpt>
<trkpt lat="40.641400124877691" lon="14.556252602487803">
<ele>737</ele>
</trkpt>
<trkpt lat="40.641506239771843" lon="14.556096782907844">
<ele>737</ele>
</trkpt>
<trkpt lat="40.641555190086365" lon="14.556057304143906">
<ele>737</ele>
</trkpt>
<trkpt lat="40.641645127907395" lon="14.555941130965948">
<ele>737</ele>
</trkpt>
<trkpt lat="40.641753422096372" lon="14.555867118760943">
<ele>737</ele>
</trkpt>
<trkpt lat="40.641845958307385" lon="14.555785562843084">
<ele>736</ele>
</trkpt>
<trkpt lat="40.641966657713056" lon="14.555700486525893">
<ele>736</ele>
</trkpt>
<trkpt lat="40.642085345461965" lon="14.555586576461792">
<ele>735</ele>
</trkpt>
<trkpt lat="40.642259521409869" lon="14.555414663627744">
<ele>735</ele>
</trkpt>
<trkpt lat="40.642271004617214" lon="14.55540569499135">
<ele>735</ele>
</trkpt>
<trkpt lat="40.642418442294002" lon="14.555276362225413">
<ele>734</ele>
</trkpt>
<trkpt lat="40.642598737031221" lon="14.555138563737273">
<ele>734</ele>
</trkpt>
<trkpt lat="40.642737289890647" lon="14.555085003376007">
<ele>733</ele>
</trkpt>
<trkpt lat="40.64295488409698" lon="14.555025575682521">
<ele>733</ele>
</trkpt>
<trkpt lat="40.643151858821511" lon="14.555008141323924">
<ele>733</ele>
</trkpt>
<trkpt lat="40.643297620117664" lon="14.554934045299888">
<ele>733</ele>
</trkpt>
<trkpt lat="40.643369955942035" lon="14.554685018956661">
<ele>733</ele>
</trkpt>
<trkpt lat="40.643345648422837" lon="14.554403638467193">
<ele>733</ele>
</trkpt>
<trkpt lat="40.643417732790112" lon="14.554146733134985">
<ele>734</ele>
</trkpt>
<trkpt lat="40.643578832969069" lon="14.553919248282909">
<ele>734</ele>
</trkpt>
<trkpt lat="40.643739514052868" lon="14.553678184747696">
<ele>734</ele>
</trkpt>
<trkpt lat="40.643915785476565" lon="14.553474001586437">
<ele>734</ele>
</trkpt>
<trkpt lat="40.644083926454186" lon="14.553347853943706">
<ele>734</ele>
</trkpt>
<trkpt lat="40.6440953258425" lon="14.553340058773756">
<ele>734</ele>
</trkpt>
<trkpt lat="40.644305208697915" lon="14.553282056003809">
<ele>734</ele>
</trkpt>
<trkpt lat="40.644513079896569" lon="14.553307620808482">
<ele>733</ele>
</trkpt>
<trkpt lat="40.644721621647477" lon="14.553379453718662">
<ele>733</ele>
</trkpt>
<trkpt lat="40.644811727106571" lon="14.553421027958393">
<ele>732</ele>
</trkpt>
<trkpt lat="40.645045498386025" lon="14.553222041577101">
<ele>732</ele>
</trkpt>
<trkpt lat="40.645057484507561" lon="14.553197901695967">
<ele>732</ele>
</trkpt>
<trkpt lat="40.645100316032767" lon="14.552888190373778">
<ele>731</ele>
</trkpt>
<trkpt lat="40.64506184309721" lon="14.552796659991145">
<ele>731</ele>
</trkpt>
<trkpt lat="40.644925385713577" lon="14.552584765478969">
<ele>730</ele>
</trkpt>
<trkpt lat="40.644786665216088" lon="14.552373709157109">
<ele>730</ele>
</trkpt>
<trkpt lat="40.644847434014082" lon="14.552326519042253">
<ele>733</ele>
</trkpt>
<trkpt lat="40.644839974120259" lon="14.552331464365125">
<ele>736</ele>
</trkpt>
<trkpt lat="40.644886745139956" lon="14.552352167665958">
<ele>739</ele>
</trkpt>
<trkpt lat="40.644936785101891" lon="14.552390137687325">
<ele>742</ele>
</trkpt>
<trkpt lat="40.645032757893205" lon="14.552456689998507">
<ele>745</ele>
</trkpt>
<trkpt lat="40.645146081224084" lon="14.552545035257936">
<ele>748</ele>
</trkpt>
<trkpt lat="40.645248675718904" lon="14.552622567862272">
<ele>751</ele>
</trkpt>
<trkpt lat="40.645316820591688" lon="14.552677134051919">
<ele>754</ele>
</trkpt>
<trkpt lat="40.645438944920897" lon="14.552781991660595">
<ele>757</ele>
</trkpt>
<trkpt lat="40.645536091178656" lon="14.552816860377789">
<ele>760</ele>
</trkpt>
<trkpt lat="40.645596608519554" lon="14.552837396040559">
<ele>763</ele>
</trkpt>
<trkpt lat="40.645611528307199" lon="14.552797498181462">
<ele>766</ele>
</trkpt>
<trkpt lat="40.645714793354273" lon="14.552871845662594">
<ele>769</ele>
</trkpt>
<trkpt lat="40.645830547437072" lon="14.552927250042558">
<ele>772</ele>
</trkpt>
<trkpt lat="40.645928699523211" lon="14.552970249205828">
<ele>776</ele>
</trkpt>
<trkpt lat="40.645994246006012" lon="14.552974523976445">
<ele>779</ele>
</trkpt>
<trkpt lat="40.646097930148244" lon="14.552995059639215">
<ele>782</ele>
</trkpt>
<trkpt lat="40.646211840212345" lon="14.552971925586462">
<ele>785</ele>
</trkpt>
<trkpt lat="40.646325666457415" lon="14.553070580586791">
<ele>788</ele>
</trkpt>
<trkpt lat="40.646349973976612" lon="14.553086338564754">
<ele>791</ele>
</trkpt>
<trkpt lat="40.646407306194305" lon="14.553108969703317">
<ele>795</ele>
</trkpt>
<trkpt lat="40.646514510735869" lon="14.553159512579441">
<ele>798</ele>
</trkpt>
<trkpt lat="40.646640071645379" lon="14.553196812048554">
<ele>802</ele>
</trkpt>
<trkpt lat="40.646716682240367" lon="14.553175857290626">
<ele>806</ele>
</trkpt>
<trkpt lat="40.646808128803968" lon="14.553208965808153">
<ele>810</ele>
</trkpt>
<trkpt lat="40.646829586476088" lon="14.55329236574471">
<ele>813</ele>
</trkpt>
<trkpt lat="40.646875854581594" lon="14.553319187834859">
<ele>817</ele>
</trkpt>
<trkpt lat="40.64699194394052" lon="14.553412143141031">
<ele>821</ele>
</trkpt>
<trkpt lat="40.647119600325823" lon="14.553260933607817">
<ele>824</ele>
</trkpt>
<trkpt lat="40.647162850946188" lon="14.55309396609664">
<ele>828</ele>
</trkpt>
<trkpt lat="40.647213812917471" lon="14.553116597235203">
<ele>831</ele>
</trkpt>
<trkpt lat="40.647386899217963" lon="14.553101425990462">
<ele>834</ele>
</trkpt>
<trkpt lat="40.647392263635993" lon="14.553095391020179">
<ele>836</ele>
</trkpt>
<trkpt lat="40.64746200107038" lon="14.553041830658913">
<ele>839</ele>
</trkpt>
<trkpt lat="40.647485889494419" lon="14.553205110132694">
<ele>842</ele>
</trkpt>
<trkpt lat="40.647539785131812" lon="14.553281385451555">
<ele>845</ele>
</trkpt>
<trkpt lat="40.647652689367533" lon="14.55334416590631">
<ele>848</ele>
</trkpt>
<trkpt lat="40.647722259163857" lon="14.553378196433187">
<ele>850</ele>
</trkpt>
<trkpt lat="40.647733239457011" lon="14.553461177274585">
<ele>853</ele>
</trkpt>
<trkpt lat="40.64764279872179" lon="14.55350250005722">
<ele>856</ele>
</trkpt>
<trkpt lat="40.647744555026293" lon="14.55362856388092">
<ele>859</ele>
</trkpt>
<trkpt lat="40.647806162014604" lon="14.553737863898277">
<ele>861</ele>
</trkpt>
<trkpt lat="40.64783675596118" lon="14.553759070113301">
<ele>864</ele>
</trkpt>
<trkpt lat="40.647889478132129" lon="14.553863676264882">
<ele>867</ele>
</trkpt>
<trkpt lat="40.64800095744431" lon="14.554046988487244">
<ele>870</ele>
</trkpt>
<trkpt lat="40.648068012669683" lon="14.55411865375936">
<ele>872</ele>
</trkpt>
<trkpt lat="40.648148478940129" lon="14.554213955998421">
<ele>875</ele>
</trkpt>
<trkpt lat="40.648180246353149" lon="14.554301211610436">
<ele>878</ele>
</trkpt>
<trkpt lat="40.648262891918421" lon="14.554404644295573">
<ele>880</ele>
</trkpt>
<trkpt lat="40.64840848557651" lon="14.554499108344316">
<ele>883</ele>
</trkpt>
<trkpt lat="40.648500267416239" lon="14.554598517715931">
<ele>885</ele>
</trkpt>
<trkpt lat="40.648616440594196" lon="14.554657191038132">
<ele>886</ele>
</trkpt>
<trkpt lat="40.648751221597195" lon="14.554813429713249">
<ele>888</ele>
</trkpt>
<trkpt lat="40.648814337328076" lon="14.554931446909904">
<ele>889</ele>
</trkpt>
<trkpt lat="40.64885557629168" lon="14.554972853511572">
<ele>891</ele>
</trkpt>
<trkpt lat="40.648884158581495" lon="14.555013924837112">
<ele>893</ele>
</trkpt>
<trkpt lat="40.649105776101351" lon="14.555085422471166">
<ele>894</ele>
</trkpt>
<trkpt lat="40.649208454415202" lon="14.55516530200839">
<ele>896</ele>
</trkpt>
<trkpt lat="40.649282047525048" lon="14.555251719430089">
<ele>897</ele>
</trkpt>
<trkpt lat="40.649301996454597" lon="14.555275440216064">
<ele>899</ele>
</trkpt>
<trkpt lat="40.649426467716694" lon="14.555361438542604">
<ele>901</ele>
</trkpt>
<trkpt lat="40.649522440508008" lon="14.555438049137592">
<ele>902</ele>
</trkpt>
<trkpt lat="40.649543479084969" lon="14.55546235665679">
<ele>904</ele>
</trkpt>
<trkpt lat="40.649616401642561" lon="14.555597389116883">
<ele>906</ele>
</trkpt>
<trkpt lat="40.649673147127032" lon="14.555703168734908">
<ele>908</ele>
</trkpt>
<trkpt lat="40.649685217067599" lon="14.555732170119882">
<ele>909</ele>
</trkpt>
<trkpt lat="40.64977222122252" lon="14.555813055485487">
<ele>911</ele>
</trkpt>
<trkpt lat="40.649790829047561" lon="14.555837363004684">
<ele>913</ele>
</trkpt>
<trkpt lat="40.64983525313437" lon="14.555960157886147">
<ele>914</ele>
</trkpt>
<trkpt lat="40.649892669171095" lon="14.556021178141236">
<ele>916</ele>
</trkpt>
<trkpt lat="40.649994676932693" lon="14.556145817041397">
<ele>917</ele>
</trkpt>
<trkpt lat="40.650030300021172" lon="14.556180350482464">
<ele>919</ele>
</trkpt>
<trkpt lat="40.650123003870249" lon="14.556281268596649">
<ele>920</ele>
</trkpt>
<trkpt lat="40.650186706334352" lon="14.556365674361587">
<ele>922</ele>
</trkpt>
<trkpt lat="40.650246553122997" lon="14.556431556120515">
<ele>923</ele>
</trkpt>
<trkpt lat="40.650351829826832" lon="14.556515291333199">
<ele>924</ele>
</trkpt>
<trkpt lat="40.650372784584761" lon="14.556531552225351">
<ele>926</ele>
</trkpt>
<trkpt lat="40.650496752932668" lon="14.556653341278434">
<ele>927</ele>
</trkpt>
<trkpt lat="40.650541847571731" lon="14.556787619367242">
<ele>929</ele>
</trkpt>
<trkpt lat="40.650550648570061" lon="14.556943271309137">
<ele>930</ele>
</trkpt>
<trkpt lat="40.650615273043513" lon="14.557116525247693">
<ele>932</ele>
</trkpt>
<trkpt lat="40.650609992444515" lon="14.557244349271059">
<ele>933</ele>
</trkpt>
<trkpt lat="40.650623152032495" lon="14.557467475533485">
<ele>934</ele>
</trkpt>
<trkpt lat="40.650627594441175" lon="14.557556239888072">
<ele>936</ele>
</trkpt>
<trkpt lat="40.650724992156029" lon="14.557889755815268">
<ele>938</ele>
</trkpt>
<trkpt lat="40.650797579437494" lon="14.558010874316096">
<ele>939</ele>
</trkpt>
<trkpt lat="40.650828760117292" lon="14.558060076087713">
<ele>940</ele>
</trkpt>
<trkpt lat="40.650920122861862" lon="14.558169543743134">
<ele>942</ele>
</trkpt>
<trkpt lat="40.651059346273541" lon="14.558273311704397">
<ele>944</ele>
</trkpt>
<trkpt lat="40.651169652119279" lon="14.558387557044625">
<ele>945</ele>
</trkpt>
<trkpt lat="40.651217764243484" lon="14.558429131284356">
<ele>947</ele>
</trkpt>
<trkpt lat="40.651421947404742" lon="14.558448242023587">
<ele>949</ele>
</trkpt>
<trkpt lat="40.651543065905571" lon="14.558481853455305">
<ele>951</ele>
</trkpt>
<trkpt lat="40.651627387851477" lon="14.55850163474679">
<ele>953</ele>
</trkpt>
<trkpt lat="40.651656808331609" lon="14.55860230140388">
<ele>956</ele>
</trkpt>
<trkpt lat="40.651792846620083" lon="14.558771615847945">
<ele>958</ele>
</trkpt>
<trkpt lat="40.651843221858144" lon="14.558876724913716">
<ele>960</ele>
</trkpt>
<trkpt lat="40.651864847168326" lon="14.558988539502025">
<ele>962</ele>
</trkpt>
<trkpt lat="40.651912875473499" lon="14.559096414595842">
<ele>964</ele>
</trkpt>
<trkpt lat="40.651953862980008" lon="14.559141006320715">
<ele>966</ele>
</trkpt>
<trkpt lat="40.652004824951291" lon="14.559246618300676">
<ele>967</ele>
</trkpt>
<trkpt lat="40.652129547670484" lon="14.559392044320703">
<ele>968</ele>
</trkpt>
<trkpt lat="40.652177995070815" lon="14.559486843645573">
<ele>969</ele>
</trkpt>
<trkpt lat="40.652347225695848" lon="14.559663198888302">
<ele>970</ele>
</trkpt>
<trkpt lat="40.652488628402352" lon="14.559800243005157">
<ele>970</ele>
</trkpt>
<trkpt lat="40.652651404961944" lon="14.559917422011495">
<ele>971</ele>
</trkpt>
<trkpt lat="40.65281393006444" lon="14.560029823333025">
<ele>972</ele>
</trkpt>
<trkpt lat="40.652949716895819" lon="14.56010727211833">
<ele>973</ele>
</trkpt>
<trkpt lat="40.653056753799319" lon="14.560207352042198">
<ele>974</ele>
</trkpt>
<trkpt lat="40.653134202584624" lon="14.560301648452878">
<ele>975</ele>
</trkpt>
<trkpt lat="40.653232522308826" lon="14.560287650674582">
<ele>978</ele>
</trkpt>
<trkpt lat="40.653340648859739" lon="14.56019913777709">
<ele>980</ele>
</trkpt>
<trkpt lat="40.653415834531188" lon="14.560177009552717">
<ele>982</ele>
</trkpt>
<trkpt lat="40.653604511171579" lon="14.560065865516663">
<ele>985</ele>
</trkpt>
<trkpt lat="40.653722025454044" lon="14.560073995962739">
<ele>988</ele>
</trkpt>
<trkpt lat="40.653825961053371" lon="14.560097884386778">
<ele>990</ele>
</trkpt>
<trkpt lat="40.653866864740849" lon="14.560194360092282">
<ele>992</ele>
</trkpt>
<trkpt lat="40.653937691822648" lon="14.560343055054545">
<ele>995</ele>
</trkpt>
<trkpt lat="40.653968788683414" lon="14.56054899841547">
<ele>998</ele>
</trkpt>
<trkpt lat="40.653981110081077" lon="14.560565175488591">
<ele>1000</ele>
</trkpt>
<trkpt lat="40.654063252732158" lon="14.560745134949684">
<ele>1001</ele>
</trkpt>
<trkpt lat="40.65413810312748" lon="14.560972284525633">
<ele>1002</ele>
</trkpt>
<trkpt lat="40.654251929372549" lon="14.561184598132968">
<ele>1003</ele>
</trkpt>
<trkpt lat="40.654325690120459" lon="14.561267411336303">
<ele>1004</ele>
</trkpt>
<trkpt lat="40.654356284067035" lon="14.561315020546317">
<ele>1004</ele>
</trkpt>
<trkpt lat="40.654427278786898" lon="14.561397917568684">
<ele>1005</ele>
</trkpt>
<trkpt lat="40.654503721743822" lon="14.561621462926269">
<ele>1006</ele>
</trkpt>
<trkpt lat="40.654538841918111" lon="14.561690697446465">
<ele>1007</ele>
</trkpt>
<trkpt lat="40.654580751433969" lon="14.561789017170668">
<ele>1008</ele>
</trkpt>
<trkpt lat="40.654692063108087" lon="14.561910387128592">
<ele>1009</ele>
</trkpt>
<trkpt lat="40.654920553788543" lon="14.562034187838435">
<ele>1011</ele>
</trkpt>
<trkpt lat="40.654985848814249" lon="14.562038127332926">
<ele>1012</ele>
</trkpt>
<trkpt lat="40.655148457735777" lon="14.561993619427085">
<ele>1014</ele>
</trkpt>
<trkpt lat="40.655261110514402" lon="14.561994457617402">
<ele>1015</ele>
</trkpt>
<trkpt lat="40.65531961619854" lon="14.561988255009055">
<ele>1017</ele>
</trkpt>
<trkpt lat="40.65546914935112" lon="14.562109960243106">
<ele>1019</ele>
</trkpt>
<trkpt lat="40.655611641705036" lon="14.56220543012023">
<ele>1020</ele>
</trkpt>
<trkpt lat="40.655684396624565" lon="14.562244908884168">
<ele>1022</ele>
</trkpt>
<trkpt lat="40.655844155699015" lon="14.562291093170643">
<ele>1023</ele>
</trkpt>
<trkpt lat="40.655970554798841" lon="14.562273826450109">
<ele>1025</ele>
</trkpt>
<trkpt lat="40.656068539246917" lon="14.562258906662464">
<ele>1026</ele>
</trkpt>
<trkpt lat="40.656171049922705" lon="14.562251782044768">
<ele>1028</ele>
</trkpt>
<trkpt lat="40.656255623325706" lon="14.562248764559627">
<ele>1029</ele>
</trkpt>
<trkpt lat="40.656399121508002" lon="14.562239879742265">
<ele>1030</ele>
</trkpt>
<trkpt lat="40.656403563916683" lon="14.562235437333584">
<ele>1031</ele>
</trkpt>
<trkpt lat="40.656541110947728" lon="14.562281034886837">
<ele>1033</ele>
</trkpt>
<trkpt lat="40.656548570841551" lon="14.562286483123899">
<ele>1034</ele>
</trkpt>
<trkpt lat="40.656734984368086" lon="14.562318250536919">
<ele>1035</ele>
</trkpt>
<trkpt lat="40.65687395632267" lon="14.56234716810286">
<ele>1036</ele>
</trkpt>
<trkpt lat="40.656879404559731" lon="14.562346832826734">
<ele>1038</ele>
</trkpt>
<trkpt lat="40.657036732882261" lon="14.562444481998682">
<ele>1039</ele>
</trkpt>
<trkpt lat="40.656986106187105" lon="14.562465604394674">
<ele>1041</ele>
</trkpt>
<trkpt lat="40.656944783404469" lon="14.562465772032738">
<ele>1042</ele>
</trkpt>
<trkpt lat="40.656902370974422" lon="14.562489911913872">
<ele>1044</ele>
</trkpt>
<trkpt lat="40.656721405684948" lon="14.562569372355938">
<ele>1046</ele>
</trkpt>
<trkpt lat="40.656620236113667" lon="14.5626007206738">
<ele>1048</ele>
</trkpt>
<trkpt lat="40.656571956351399" lon="14.562605582177639">
<ele>1049</ele>
</trkpt>
<trkpt lat="40.656347740441561" lon="14.562670541927218">
<ele>1051</ele>
</trkpt>
<trkpt lat="40.65615956671536" lon="14.56267599016428">
<ele>1053</ele>
</trkpt>
<trkpt lat="40.656039789319038" lon="14.562609856948256">
<ele>1054</ele>
</trkpt>
<trkpt lat="40.655894447118044" lon="14.562645396217704">
<ele>1056</ele>
</trkpt>
<trkpt lat="40.655737621709704" lon="14.562604324892163">
<ele>1057</ele>
</trkpt>
<trkpt lat="40.655515668913722" lon="14.562599379569292">
<ele>1058</ele>
</trkpt>
<trkpt lat="40.655302181839943" lon="14.562592003494501">
<ele>1060</ele>
</trkpt>
<trkpt lat="40.655122054740787" lon="14.562678085640073">
<ele>1061</ele>
</trkpt>
<trkpt lat="40.654952405020595" lon="14.562763832509518">
<ele>1062</ele>
</trkpt>
<trkpt lat="40.654709413647652" lon="14.562766933813691">
<ele>1063</ele>
</trkpt>
<trkpt lat="40.654496848583221" lon="14.562726533040404">
<ele>1064</ele>
</trkpt>
<trkpt lat="40.654304064810276" lon="14.562596529722214">
<ele>1066</ele>
</trkpt>
<trkpt lat="40.654124189168215" lon="14.562469879165292">
<ele>1067</ele>
</trkpt>
<trkpt lat="40.654038693755865" lon="14.562405087053776">
<ele>1068</ele>
</trkpt>
<trkpt lat="40.65393241122365" lon="14.562260834500194">
<ele>1069</ele>
</trkpt>
<trkpt lat="40.653864936903119" lon="14.562154300510883">
<ele>1071</ele>
</trkpt>
<trkpt lat="40.653824117034674" lon="14.562148014083505">
<ele>1072</ele>
</trkpt>
<trkpt lat="40.653819087892771" lon="14.56224650144577">
<ele>1074</ele>
</trkpt>
<trkpt lat="40.653734765946865" lon="14.562282375991344">
<ele>1075</ele>
</trkpt>
<trkpt lat="40.653710542246699" lon="14.562351861968637">
<ele>1077</ele>
</trkpt>
<trkpt lat="40.653672656044364" lon="14.562426628544927">
<ele>1078</ele>
</trkpt>
<trkpt lat="40.653602834790945" lon="14.562503322958946">
<ele>1076</ele>
</trkpt>
<trkpt lat="40.653570983558893" lon="14.562601558864117">
<ele>1074</ele>
</trkpt>
<trkpt lat="40.653514070436358" lon="14.562692837789655">
<ele>1072</ele>
</trkpt>
<trkpt lat="40.653456905856729" lon="14.562749583274126">
<ele>1070</ele>
</trkpt>
<trkpt lat="40.653397897258401" lon="14.562788894400001">
<ele>1068</ele>
</trkpt>
<trkpt lat="40.653266217559576" lon="14.562903307378292">
<ele>1066</ele>
</trkpt>
<trkpt lat="40.653205197304487" lon="14.562819488346577">
<ele>1064</ele>
</trkpt>
<trkpt lat="40.653194803744555" lon="14.562888890504837">
<ele>1062</ele>
</trkpt>
<trkpt lat="40.65314618870616" lon="14.563099695369601">
<ele>1060</ele>
</trkpt>
<trkpt lat="40.653096567839384" lon="14.562991401180625">
<ele>1058</ele>
</trkpt>
<trkpt lat="40.653061028569937" lon="14.563023252412677">
<ele>1055</ele>
</trkpt>
<trkpt lat="40.652980981394649" lon="14.562987545505166">
<ele>1053</ele>
</trkpt>
<trkpt lat="40.652911495417356" lon="14.563003806397319">
<ele>1050</ele>
</trkpt>
<trkpt lat="40.652841087430716" lon="14.563061138615012">
<ele>1048</ele>
</trkpt>
<trkpt lat="40.652672946453094" lon="14.563164822757244">
<ele>1045</ele>
</trkpt>
<trkpt lat="40.652595749124885" lon="14.563184520229697">
<ele>1042</ele>
</trkpt>
<trkpt lat="40.652498519048095" lon="14.563145125284791">
<ele>1040</ele>
</trkpt>
<trkpt lat="40.652433726936579" lon="14.563214527443051">
<ele>1037</ele>
</trkpt>
<trkpt lat="40.652318811044097" lon="14.563246043398976">
<ele>1035</ele>
</trkpt>
<trkpt lat="40.652205320075154" lon="14.563225926831365">
<ele>1032</ele>
</trkpt>
<trkpt lat="40.652121417224407" lon="14.563256436958909">
<ele>1029</ele>
</trkpt>
<trkpt lat="40.652043800801039" lon="14.563278816640377">
<ele>1027</ele>
</trkpt>
<trkpt lat="40.651908265426755" lon="14.563288707286119">
<ele>1024</ele>
</trkpt>
<trkpt lat="40.651831906288862" lon="14.563278146088123">
<ele>1022</ele>
</trkpt>
<trkpt lat="40.651744985952973" lon="14.563244618475437">
<ele>1019</ele>
</trkpt>
<trkpt lat="40.651667956262827" lon="14.563240008428693">
<ele>1016</ele>
</trkpt>
<trkpt lat="40.651528732851148" lon="14.563215030357242">
<ele>1014</ele>
</trkpt>
<trkpt lat="40.651372075080872" lon="14.563209498301148">
<ele>1011</ele>
</trkpt>
<trkpt lat="40.651281550526619" lon="14.563206732273102">
<ele>1009</ele>
</trkpt>
<trkpt lat="40.65110519528389" lon="14.563116459175944">
<ele>1006</ele>
</trkpt>
<trkpt lat="40.651000924408436" lon="14.563052672892809">
<ele>1003</ele>
</trkpt>
<trkpt lat="40.650961278006434" lon="14.562957203015685">
<ele>1001</ele>
</trkpt>
<trkpt lat="40.650856420397758" lon="14.562972458079457">
<ele>998</ele>
</trkpt>
<trkpt lat="40.650788359344006" lon="14.5629892218858">
<ele>995</ele>
</trkpt>
<trkpt lat="40.650602532550693" lon="14.562948066741228">
<ele>992</ele>
</trkpt>
<trkpt lat="40.650440258905292" lon="14.562911186367273">
<ele>990</ele>
</trkpt>
<trkpt lat="40.650276727974415" lon="14.562863325700164">
<ele>987</ele>
</trkpt>
<trkpt lat="40.65016214735806" lon="14.56284161657095">
<ele>984</ele>
</trkpt>
<trkpt lat="40.649951510131359" lon="14.562811441719532">
<ele>982</ele>
</trkpt>
<trkpt lat="40.649741962552071" lon="14.562844047322869">
<ele>979</ele>
</trkpt>
<trkpt lat="40.649713464081287" lon="14.562850249931216">
<ele>977</ele>
</trkpt>
<trkpt lat="40.649536522105336" lon="14.562860643491149">
<ele>975</ele>
</trkpt>
<trkpt lat="40.649383552372456" lon="14.562898529693484">
<ele>972</ele>
</trkpt>
<trkpt lat="40.649280203506351" lon="14.562952257692814">
<ele>970</ele>
</trkpt>
<trkpt lat="40.649132849648595" lon="14.562982600182295">
<ele>968</ele>
</trkpt>
<trkpt lat="40.648984825238585" lon="14.562989138066769">
<ele>966</ele>
</trkpt>
<trkpt lat="40.648918775841594" lon="14.562968350946903">
<ele>964</ele>
</trkpt>
<trkpt lat="40.648711742833257" lon="14.562985030934215">
<ele>961</ele>
</trkpt>
<trkpt lat="40.648649465292692" lon="14.562994753941894">
<ele>959</ele>
</trkpt>
<trkpt lat="40.648310920223594" lon="14.563033226877451">
<ele>957</ele>
</trkpt>
<trkpt lat="40.648168344050646" lon="14.563024593517184">
<ele>955</ele>
</trkpt>
<trkpt lat="40.647883024066687" lon="14.56306247971952">
<ele>953</ele>
</trkpt>
<trkpt lat="40.647672470659018" lon="14.563168762251735">
<ele>951</ele>
</trkpt>
<trkpt lat="40.647429060190916" lon="14.563324833288789">
<ele>949</ele>
</trkpt>
<trkpt lat="40.647231750190258" lon="14.563392223790288">
<ele>946</ele>
</trkpt>
<trkpt lat="40.647142985835671" lon="14.56338350661099">
<ele>944</ele>
</trkpt>
<trkpt lat="40.64708523452282" lon="14.563355259597301">
<ele>942</ele>
</trkpt>
<trkpt lat="40.646946430206299" lon="14.563375543802977">
<ele>940</ele>
</trkpt>
<trkpt lat="40.646938551217318" lon="14.563371855765581">
<ele>938</ele>
</trkpt>
<trkpt lat="40.646757334470749" lon="14.563398007303476">
<ele>936</ele>
</trkpt>
<trkpt lat="40.646632695570588" lon="14.563382752239704">
<ele>935</ele>
</trkpt>
<trkpt lat="40.646450640633702" lon="14.563431870192289">
<ele>934</ele>
</trkpt>
<trkpt lat="40.646338490769267" lon="14.563454333692789">
<ele>933</ele>
</trkpt>
<trkpt lat="40.646311836317182" lon="14.563465900719166">
<ele>932</ele>
</trkpt>
<trkpt lat="40.646197339519858" lon="14.563468331471086">
<ele>930</ele>
</trkpt>
<trkpt lat="40.646048141643405" lon="14.563558353111148">
<ele>929</ele>
</trkpt>
<trkpt lat="40.645841024816036" lon="14.56361660733819">
<ele>928</ele>
</trkpt>
<trkpt lat="40.64558613114059" lon="14.563657846301794">
<ele>927</ele>
</trkpt>
<trkpt lat="40.645470712333918" lon="14.563660193234682">
<ele>926</ele>
</trkpt>
<trkpt lat="40.645246580243111" lon="14.563698833808303">
<ele>925</ele>
</trkpt>
<trkpt lat="40.644986489787698" lon="14.563736971467733">
<ele>924</ele>
</trkpt>
<trkpt lat="40.644748946651816" lon="14.563795225694776">
<ele>923</ele>
</trkpt>
<trkpt lat="40.644723968580365" lon="14.563801847398281">
<ele>922</ele>
</trkpt>
<trkpt lat="40.644521713256836" lon="14.563859682530165">
<ele>921</ele>
</trkpt>
<trkpt lat="40.644306717440486" lon="14.563916847109795">
<ele>920</ele>
</trkpt>
<trkpt lat="40.643998431041837" lon="14.563931431621313">
<ele>919</ele>
</trkpt>
<trkpt lat="40.643741860985756" lon="14.563922714442015">
<ele>918</ele>
</trkpt>
<trkpt lat="40.643471125513315" lon="14.563843924552202">
<ele>917</ele>
</trkpt>
<trkpt lat="40.643432401120663" lon="14.563827663660049">
<ele>916</ele>
</trkpt>
<trkpt lat="40.643271217122674" lon="14.563816599547863">
<ele>915</ele>
</trkpt>
<trkpt lat="40.643123025074601" lon="14.563829004764557">
<ele>915</ele>
</trkpt>
<trkpt lat="40.642967792227864" lon="14.56387217156589">
<ele>914</ele>
</trkpt>
<trkpt lat="40.642737960442901" lon="14.563898155465722">
<ele>914</ele>
</trkpt>
<trkpt lat="40.642549451440573" lon="14.563942328095436">
<ele>913</ele>
</trkpt>
<trkpt lat="40.642475439235568" lon="14.563920367509127">
<ele>913</ele>
</trkpt>
<trkpt lat="40.642438223585486" lon="14.563923636451364">
<ele>913</ele>
</trkpt>
<trkpt lat="40.642396314069629" lon="14.56396940164268">
<ele>912</ele>
</trkpt>
<trkpt lat="40.642351470887661" lon="14.564004940912127">
<ele>912</ele>
</trkpt>
<trkpt lat="40.642153322696686" lon="14.564059674739838">
<ele>911</ele>
</trkpt>
<trkpt lat="40.64211686141789" lon="14.56405783072114">
<ele>911</ele>
</trkpt>
<trkpt lat="40.641977554187179" lon="14.564073756337166">
<ele>909</ele>
</trkpt>
<trkpt lat="40.641852160915732" lon="14.564067386090755">
<ele>908</ele>
</trkpt>
<trkpt lat="40.6417640671134" lon="14.564088424667716">
<ele>906</ele>
</trkpt>
<trkpt lat="40.641515795141459" lon="14.56416193395853">
<ele>905</ele>
</trkpt>
<trkpt lat="40.64124665223062" lon="14.564214404672384">
<ele>903</ele>
</trkpt>
<trkpt lat="40.640936940908432" lon="14.564283974468708">
<ele>901</ele>
</trkpt>
<trkpt lat="40.640675760805607" lon="14.564446499571204">
<ele>900</ele>
</trkpt>
<trkpt lat="40.640448946505785" lon="14.564541298896074">
<ele>898</ele>
</trkpt>
<trkpt lat="40.640245685353875" lon="14.564658477902412">
<ele>897</ele>
</trkpt>
<trkpt lat="40.639980146661401" lon="14.564804658293724">
<ele>895</ele>
</trkpt>
<trkpt lat="40.639700274914503" lon="14.564889734610915">
<ele>894</ele>
</trkpt>
<trkpt lat="40.639489134773612" lon="14.565009428188205">
<ele>893</ele>
</trkpt>
<trkpt lat="40.639233822003007" lon="14.565259041264653">
<ele>892</ele>
</trkpt>
<trkpt lat="40.639014719054103" lon="14.565471522510052">
<ele>891</ele>
</trkpt>
<trkpt lat="40.638781366869807" lon="14.565657433122396">
<ele>890</ele>
</trkpt>
<trkpt lat="40.6386573985219" lon="14.565721806138754">
<ele>889</ele>
</trkpt>
<trkpt lat="40.638558240607381" lon="14.565822137519717">
<ele>888</ele>
</trkpt>
<trkpt lat="40.638475427404046" lon="14.565891455858946">
<ele>887</ele>
</trkpt>
<trkpt lat="40.638260012492537" lon="14.566066469997168">
<ele>886</ele>
</trkpt>
<trkpt lat="40.638178372755647" lon="14.566251039505005">
<ele>885</ele>
</trkpt>
<trkpt lat="40.638056583702564" lon="14.566460084170103">
<ele>883</ele>
</trkpt>
<trkpt lat="40.637832451611757" lon="14.566786140203476">
<ele>882</ele>
</trkpt>
<trkpt lat="40.637739831581712" lon="14.566955789923668">
<ele>880</ele>
</trkpt>
<trkpt lat="40.63759071752429" lon="14.56711764447391">
<ele>879</ele>
</trkpt>
<trkpt lat="40.637411763891578" lon="14.567258125171065">
<ele>877</ele>
</trkpt>
<trkpt lat="40.637201378121972" lon="14.567496171221137">
<ele>875</ele>
</trkpt>
<trkpt lat="40.636987304314971" lon="14.567611087113619">
<ele>874</ele>
</trkpt>
<trkpt lat="40.636722687631845" lon="14.567797249183059">
<ele>872</ele>
</trkpt>
<trkpt lat="40.63659930601716" lon="14.567823149263859">
<ele>871</ele>
</trkpt>
<trkpt lat="40.636568963527679" lon="14.567902777343988">
<ele>869</ele>
</trkpt>
<trkpt lat="40.636391518637538" lon="14.568125484511256">
<ele>869</ele>
</trkpt>
<trkpt lat="40.636372491717339" lon="14.568166555836797">
<ele>868</ele>
</trkpt>
<trkpt lat="40.636344915255904" lon="14.568297145888209">
<ele>868</ele>
</trkpt>
<trkpt lat="40.636246176436543" lon="14.568407032638788">
<ele>867</ele>
</trkpt>
<trkpt lat="40.636143917217851" lon="14.568502083420753">
<ele>867</ele>
</trkpt>
<trkpt lat="40.636083902791142" lon="14.568583555519581">
<ele>866</ele>
</trkpt>
<trkpt lat="40.635963454842567" lon="14.568680617958307">
<ele>866</ele>
</trkpt>
<trkpt lat="40.635839067399502" lon="14.568796288222075">
<ele>866</ele>
</trkpt>
<trkpt lat="40.635701939463615" lon="14.5689348410815">
<ele>865</ele>
</trkpt>
<trkpt lat="40.635649301111698" lon="14.569168947637081">
<ele>865</ele>
</trkpt>
<trkpt lat="40.635587861761451" lon="14.569280007854104">
<ele>864</ele>
</trkpt>
<trkpt lat="40.635536648333073" lon="14.569170121103525">
<ele>864</ele>
</trkpt>
<trkpt lat="40.63553161919117" lon="14.569144221022725">
<ele>863</ele>
</trkpt>
<trkpt lat="40.635518375784159" lon="14.569166516885161">
<ele>863</ele>
</trkpt>
<trkpt lat="40.635483507066965" lon="14.569161236286163">
<ele>864</ele>
</trkpt>
<trkpt lat="40.635471353307366" lon="14.569317810237408">
<ele>866</ele>
</trkpt>
<trkpt lat="40.635413769632578" lon="14.569530626758933">
<ele>867</ele>
</trkpt>
<trkpt lat="40.635352246463299" lon="14.569638501852751">
<ele>869</ele>
</trkpt>
<trkpt lat="40.635283263400197" lon="14.569918122142553">
<ele>870</ele>
</trkpt>
<trkpt lat="40.635246131569147" lon="14.570108391344547">
<ele>871</ele>
</trkpt>
<trkpt lat="40.635203048586845" lon="14.570271922275424">
<ele>873</ele>
</trkpt>
<trkpt lat="40.635127611458302" lon="14.570455066859722">
<ele>874</ele>
</trkpt>
<trkpt lat="40.635016886517406" lon="14.570777853950858">
<ele>876</ele>
</trkpt>
<trkpt lat="40.634963242337108" lon="14.570949850603938">
<ele>877</ele>
</trkpt>
<trkpt lat="40.634785713627934" lon="14.571236344054341">
<ele>878</ele>
</trkpt>
<trkpt lat="40.634688148275018" lon="14.571379674598575">
<ele>879</ele>
</trkpt>
<trkpt lat="40.634478181600571" lon="14.571580421179533">
<ele>879</ele>
</trkpt>
<trkpt lat="40.634415065869689" lon="14.571586037054658">
<ele>880</ele>
</trkpt>
<trkpt lat="40.634295204654336" lon="14.571628533303738">
<ele>881</ele>
</trkpt>
<trkpt lat="40.634282045066357" lon="14.571620402857661">
<ele>882</ele>
</trkpt>
<trkpt lat="40.634269891306758" lon="14.571630964055657">
<ele>883</ele>
</trkpt>
<trkpt lat="40.634162602946162" lon="14.571694247424603">
<ele>883</ele>
</trkpt>
<trkpt lat="40.634109377861023" lon="14.571793153882027">
<ele>884</ele>
</trkpt>
<trkpt lat="40.633984738960862" lon="14.572032541036606">
<ele>885</ele>
</trkpt>
<trkpt lat="40.633869403973222" lon="14.572228593751788">
<ele>885</ele>
</trkpt>
<trkpt lat="40.633782986551523" lon="14.572348119691014">
<ele>885</ele>
</trkpt>
<trkpt lat="40.633695563301444" lon="14.572401260957122">
<ele>885</ele>
</trkpt>
<trkpt lat="40.633641332387924" lon="14.572427831590176">
<ele>885</ele>
</trkpt>
<trkpt lat="40.63352482393384" lon="14.572509974241257">
<ele>886</ele>
</trkpt>
<trkpt lat="40.633452655747533" lon="14.572584321722388">
<ele>886</ele>
</trkpt>
<trkpt lat="40.633442429825664" lon="14.572581304237247">
<ele>886</ele>
</trkpt>
<trkpt lat="40.633392725139856" lon="14.572656825184822">
<ele>886</ele>
</trkpt>
<trkpt lat="40.633233636617661" lon="14.572808453813195">
<ele>886</ele>
</trkpt>
<trkpt lat="40.633136574178934" lon="14.572997130453587">
<ele>886</ele>
</trkpt>
<trkpt lat="40.633024675771594" lon="14.573088241741061">
<ele>884</ele>
</trkpt>
<trkpt lat="40.632902970537543" lon="14.573202906176448">
<ele>881</ele>
</trkpt>
<trkpt lat="40.632833736017346" lon="14.573379093781114">
<ele>878</ele>
</trkpt>
<trkpt lat="40.632819151505828" lon="14.573413878679276">
<ele>876</ele>
</trkpt>
<trkpt lat="40.632746228948236" lon="14.573616972193122">
<ele>874</ele>
</trkpt>
<trkpt lat="40.632675066590309" lon="14.573757369071245">
<ele>871</ele>
</trkpt>
<trkpt lat="40.632607340812683" lon="14.573818640783429">
<ele>868</ele>
</trkpt>
<trkpt lat="40.632494855672121" lon="14.573908494785428">
<ele>866</ele>
</trkpt>
<trkpt lat="40.632359236478806" lon="14.573986111208797">
<ele>864</ele>
</trkpt>
<trkpt lat="40.632327720522881" lon="14.573991727083921">
<ele>861</ele>
</trkpt>
<trkpt lat="40.63222412019968" lon="14.574038246646523">
<ele>859</ele>
</trkpt>
<trkpt lat="40.632191011682153" lon="14.57406590692699">
<ele>857</ele>
</trkpt>
<trkpt lat="40.632023205980659" lon="14.574249554425478">
<ele>854</ele>
</trkpt>
<trkpt lat="40.631830086931586" lon="14.574221977964044">
<ele>852</ele>
</trkpt>
<trkpt lat="40.63173352740705" lon="14.574295068159699">
<ele>850</ele>
</trkpt>
<trkpt lat="40.631734197959304" lon="14.574281657114625">
<ele>848</ele>
</trkpt>
<trkpt lat="40.63172816298902" lon="14.574287692084908">
<ele>846</ele>
</trkpt>
<trkpt lat="40.631670244038105" lon="14.574161041527987">
<ele>843</ele>
</trkpt>
<trkpt lat="40.631610145792365" lon="14.574040677398443">
<ele>841</ele>
</trkpt>
<trkpt lat="40.631560944020748" lon="14.573910422623158">
<ele>839</ele>
</trkpt>
<trkpt lat="40.631542587652802" lon="14.573813863098621">
<ele>836</ele>
</trkpt>
<trkpt lat="40.631418954581022" lon="14.573993235826492">
<ele>832</ele>
</trkpt>
<trkpt lat="40.63129180110991" lon="14.57388267852366">
<ele>828</ele>
</trkpt>
<trkpt lat="40.631194235756993" lon="14.573825262486935">
<ele>825</ele>
</trkpt>
<trkpt lat="40.631087953224778" lon="14.573749573901296">
<ele>822</ele>
</trkpt>
<trkpt lat="40.631040511652827" lon="14.573731133714318">
<ele>818</ele>
</trkpt>
<trkpt lat="40.630889385938644" lon="14.573720153421164">
<ele>814</ele>
</trkpt>
<trkpt lat="40.630806824192405" lon="14.573733396828175">
<ele>811</ele>
</trkpt>
<trkpt lat="40.630681263282895" lon="14.573743958026171">
<ele>808</ele>
</trkpt>
<trkpt lat="40.630572382360697" lon="14.573760135099292">
<ele>804</ele>
</trkpt>
<trkpt lat="40.630551679059863" lon="14.573764158412814">
<ele>801</ele>
</trkpt>
<trkpt lat="40.63035948202014" lon="14.573762398213148">
<ele>797</ele>
</trkpt>
<trkpt lat="40.630353363230824" lon="14.573761476203799">
<ele>794</ele>
</trkpt>
<trkpt lat="40.630214475095272" lon="14.573762062937021">
<ele>790</ele>
</trkpt>
<trkpt lat="40.630126800388098" lon="14.573729960247874">
<ele>787</ele>
</trkpt>
<trkpt lat="40.630031079053879" lon="14.573721997439861">
<ele>784</ele>
</trkpt>
<trkpt lat="40.629940135404468" lon="14.573739683255553">
<ele>780</ele>
</trkpt>
<trkpt lat="40.629848688840866" lon="14.573732307180762">
<ele>777</ele>
</trkpt>
<trkpt lat="40.629791943356395" lon="14.573722751811147">
<ele>773</ele>
</trkpt>
<trkpt lat="40.629685241729021" lon="14.573719147592783">
<ele>770</ele>
</trkpt>
<trkpt lat="40.629663867875934" lon="14.573697354644537">
<ele>768</ele>
</trkpt>
<trkpt lat="40.629651043564081" lon="14.573679165914655">
<ele>765</ele>
</trkpt>
<trkpt lat="40.62956353649497" lon="14.573652176186442">
<ele>762</ele>
</trkpt>
<trkpt lat="40.629485165700316" lon="14.573619402945042">
<ele>760</ele>
</trkpt>
<trkpt lat="40.629346529021859" lon="14.573470372706652">
<ele>758</ele>
</trkpt>
<trkpt lat="40.629266146570444" lon="14.573419326916337">
<ele>755</ele>
</trkpt>
<trkpt lat="40.629186350852251" lon="14.57338135689497">
<ele>752</ele>
</trkpt>
<trkpt lat="40.629064394161105" lon="14.573293011635542">
<ele>750</ele>
</trkpt>
<trkpt lat="40.6289903819561" lon="14.573230482637882">
<ele>748</ele>
</trkpt>
<trkpt lat="40.628963140770793" lon="14.573211707174778">
<ele>745</ele>
</trkpt>
<trkpt lat="40.628875717520714" lon="14.573019426316023">
<ele>742</ele>
</trkpt>
<trkpt lat="40.628836741670966" lon="14.572867127135396">
<ele>739</ele>
</trkpt>
<trkpt lat="40.628818133845925" lon="14.572852207347751">
<ele>735</ele>
</trkpt>
<trkpt lat="40.628742277622223" lon="14.572668559849262">
<ele>732</ele>
</trkpt>
<trkpt lat="40.628734650090337" lon="14.572525313124061">
<ele>729</ele>
</trkpt>
<trkpt lat="40.628713611513376" lon="14.572412073612213">
<ele>726</ele>
</trkpt>
<trkpt lat="40.628598360344768" lon="14.572343844920397">
<ele>723</ele>
</trkpt>
<trkpt lat="40.628493586555123" lon="14.572299839928746">
<ele>719</ele>
</trkpt>
<trkpt lat="40.628371126949787" lon="14.572283746674657">
<ele>716</ele>
</trkpt>
<trkpt lat="40.628216983750463" lon="14.572284333407879">
<ele>713</ele>
</trkpt>
<trkpt lat="40.628073737025261" lon="14.572329763323069">
<ele>711</ele>
</trkpt>
<trkpt lat="40.627955468371511" lon="14.572338815778494">
<ele>709</ele>
</trkpt>
<trkpt lat="40.627818843349814" lon="14.57231174223125">
<ele>707</ele>
</trkpt>
<trkpt lat="40.627804258838296" lon="14.572301851585507">
<ele>705</ele>
</trkpt>
<trkpt lat="40.627667549997568" lon="14.572249967604876">
<ele>702</ele>
</trkpt>
<trkpt lat="40.627614073455334" lon="14.572205292060971">
<ele>700</ele>
</trkpt>
<trkpt lat="40.627529080957174" lon="14.572137733921409">
<ele>698</ele>
</trkpt>
<trkpt lat="40.627400670200586" lon="14.572072271257639">
<ele>696</ele>
</trkpt>
<trkpt lat="40.627321545034647" lon="14.572048634290695">
<ele>694</ele>
</trkpt>
<trkpt lat="40.627210568636656" lon="14.57200882025063">
<ele>692</ele>
</trkpt>
<trkpt lat="40.627136304974556" lon="14.572009323164821">
<ele>690</ele>
</trkpt>
<trkpt lat="40.62700504437089" lon="14.571989793330431">
<ele>689</ele>
</trkpt>
<trkpt lat="40.626963134855032" lon="14.571989709511399">
<ele>688</ele>
</trkpt>
<trkpt lat="40.626896750181913" lon="14.571879403665662">
<ele>686</ele>
</trkpt>
<trkpt lat="40.626896331086755" lon="14.571693241596222">
<ele>684</ele>
</trkpt>
<trkpt lat="40.62688778154552" lon="14.571488723158836">
<ele>683</ele>
</trkpt>
<trkpt lat="40.626863893121481" lon="14.571185633540154">
<ele>682</ele>
</trkpt>
<trkpt lat="40.626849308609962" lon="14.571136431768537">
<ele>680</ele>
</trkpt>
<trkpt lat="40.626759119331837" lon="14.570990670472383">
<ele>678</ele>
</trkpt>
<trkpt lat="40.626748306676745" lon="14.570981869474053">
<ele>677</ele>
</trkpt>
<trkpt lat="40.626644790172577" lon="14.570949682965875">
<ele>675</ele>
</trkpt>
<trkpt lat="40.626607742160559" lon="14.570918083190918">
<ele>673</ele>
</trkpt>
<trkpt lat="40.626473883166909" lon="14.570799982175231">
<ele>671</ele>
</trkpt>
<trkpt lat="40.626386795192957" lon="14.570757318288088">
<ele>669</ele>
</trkpt>
<trkpt lat="40.626201219856739" lon="14.570656316354871">
<ele>668</ele>
</trkpt>
<trkpt lat="40.626067277044058" lon="14.570577275007963">
<ele>666</ele>
</trkpt>
<trkpt lat="40.62590709887445" lon="14.570458168163896">
<ele>664</ele>
</trkpt>
<trkpt lat="40.625765947625041" lon="14.5703802164644">
<ele>662</ele>
</trkpt>
<trkpt lat="40.625711046159267" lon="14.570355154573917">
<ele>660</ele>
</trkpt>
<trkpt lat="40.62560074031353" lon="14.570248788222671">
<ele>658</ele>
</trkpt>
<trkpt lat="40.625599315389991" lon="14.570245267823339">
<ele>657</ele>
</trkpt>
<trkpt lat="40.625571068376303" lon="14.570201262831688">
<ele>656</ele>
</trkpt>
<trkpt lat="40.625503342598677" lon="14.570016609504819">
<ele>654</ele>
</trkpt>
<trkpt lat="40.625511053949594" lon="14.569977717474103">
<ele>653</ele>
</trkpt>
<trkpt lat="40.625409884378314" lon="14.569862633943558">
<ele>652</ele>
</trkpt>
<trkpt lat="40.625291112810373" lon="14.569734809920192">
<ele>651</ele>
</trkpt>
<trkpt lat="40.625188518315554" lon="14.569600615650415">
<ele>650</ele>
</trkpt>
<trkpt lat="40.625103022903204" lon="14.569422164931893">
<ele>648</ele>
</trkpt>
<trkpt lat="40.625008726492524" lon="14.569265842437744">
<ele>647</ele>
</trkpt>
<trkpt lat="40.624919040128589" lon="14.569094181060791">
<ele>646</ele>
</trkpt>
<trkpt lat="40.624807560816407" lon="14.568874407559633">
<ele>646</ele>
</trkpt>
<trkpt lat="40.624751318246126" lon="14.56873401068151">
<ele>645</ele>
</trkpt>
<trkpt lat="40.624728435650468" lon="14.568680031225085">
<ele>644</ele>
</trkpt>
<trkpt lat="40.624699350446463" lon="14.56854835152626">
<ele>644</ele>
</trkpt>
<trkpt lat="40.62470898963511" lon="14.568474004045129">
<ele>644</ele>
</trkpt>
<trkpt lat="40.624763974919915" lon="14.56833234988153">
<ele>643</ele>
</trkpt>
<trkpt lat="40.624723574146628" lon="14.567911829799414">
<ele>642</ele>
</trkpt>
<trkpt lat="40.624771183356643" lon="14.567855000495911">
<ele>642</ele>
</trkpt>
<trkpt lat="40.624995399266481" lon="14.567669928073883">
<ele>642</ele>
</trkpt>
<trkpt lat="40.625020125880837" lon="14.56765023060143">
<ele>641</ele>
</trkpt>
<trkpt lat="40.62518198043108" lon="14.567568339407444">
<ele>640</ele>
</trkpt>
<trkpt lat="40.625233026221395" lon="14.567427020519972">
<ele>640</ele>
</trkpt>
</trkseg>
</trk>
</gpx>
