<?xml version="1.0" encoding="UTF-8"?>
<gpx version="1.1"
creator="Smartprofil-Office - http://www.rother.de"
xmlns:xsi="http://www.w3.org/2001/XMLSchema-instance"
xmlns="http://www.topografix.com/GPX/1/1"
xsi:schemaLocation="http://www.topografix.com/GPX/1/1 http://www.topografix.com/GPX/1/1/gpx.xsd">
<metadata>

<bounds minlat="40.629470162093639" minlon="14.477780889719725" maxlat="40.644278051331639" maxlon="14.498633136972785"/>
</metadata>
<wpt lat="40.629536965861917" lon="14.482368975877762">
<ele>164</ele>
<name>31_Positano Chiesa Nuova (1)</name>
<cmt></cmt>
<desc></desc>
<sym>Crossing</sym>
</wpt>

<wpt lat="40.638627894222736" lon="14.479918107390404">
<ele>685</ele>
<name>31_S. Maria del Castello (2)</name>
<cmt></cmt>
<desc></desc>
<sym>Crossing</sym>
</wpt>

<wpt lat="40.638936432078481" lon="14.494047649204731">
<ele>767</ele>
<name>31_Caserma Forestale (3)</name>
<cmt></cmt>
<desc></desc>
<sym>Crossing</sym>
</wpt>

<wpt lat="40.633404040709138" lon="14.4929129909724">
<ele>352</ele>
<name>31_Montepertuso (4)</name>
<cmt></cmt>
<desc></desc>
<sym>Crossing</sym>
</wpt>

<wpt lat="40.630385633558035" lon="14.48744329623878">
<ele>96</ele>
<name>31_Positano Li Parlati (5)</name>
<cmt></cmt>
<desc></desc>
<sym>Crossing</sym>
</wpt>

<trk>
<name>Neapel_31_Positano - Caserma Forestale</name>
<trkseg>
<trkpt lat="40.629536965861917" lon="14.482368975877762">
<ele>164</ele>
</trkpt>
<trkpt lat="40.629501678049564" lon="14.482302675023675">
<ele>166</ele>
</trkpt>
<trkpt lat="40.62949656508863" lon="14.482275014743209">
<ele>168</ele>
</trkpt>
<trkpt lat="40.629470162093639" lon="14.482282726094127">
<ele>170</ele>
</trkpt>
<trkpt lat="40.629471335560083" lon="14.482237463817">
<ele>172</ele>
</trkpt>
<trkpt lat="40.629473850131035" lon="14.482226651161909">
<ele>174</ele>
</trkpt>
<trkpt lat="40.629503102973104" lon="14.482066389173269">
<ele>175</ele>
</trkpt>
<trkpt lat="40.629643248394132" lon="14.482055576518178">
<ele>177</ele>
</trkpt>
<trkpt lat="40.629719607532024" lon="14.481961280107498">
<ele>179</ele>
</trkpt>
<trkpt lat="40.629748776555061" lon="14.48189833201468">
<ele>181</ele>
</trkpt>
<trkpt lat="40.629780627787113" lon="14.481768663972616">
<ele>183</ele>
</trkpt>
<trkpt lat="40.629743495956063" lon="14.481608821079135">
<ele>185</ele>
</trkpt>
<trkpt lat="40.629779957234859" lon="14.48151477612555">
<ele>187</ele>
</trkpt>
<trkpt lat="40.629911636933684" lon="14.481402123346925">
<ele>189</ele>
</trkpt>
<trkpt lat="40.629989923909307" lon="14.481231132522225">
<ele>191</ele>
</trkpt>
<trkpt lat="40.630045915022492" lon="14.481086041778326">
<ele>194</ele>
</trkpt>
<trkpt lat="40.630049854516983" lon="14.481081264093518">
<ele>196</ele>
</trkpt>
<trkpt lat="40.63013568520546" lon="14.480928126722574">
<ele>198</ele>
</trkpt>
<trkpt lat="40.630213804543018" lon="14.480798291042447">
<ele>200</ele>
</trkpt>
<trkpt lat="40.630217827856541" lon="14.480703240260482">
<ele>202</ele>
</trkpt>
<trkpt lat="40.630272645503283" lon="14.480587150901556">
<ele>204</ele>
</trkpt>
<trkpt lat="40.630402397364378" lon="14.480640459805727">
<ele>206</ele>
</trkpt>
<trkpt lat="40.630551846697927" lon="14.480675244703889">
<ele>208</ele>
</trkpt>
<trkpt lat="40.630450174212456" lon="14.480505092069507">
<ele>211</ele>
</trkpt>
<trkpt lat="40.630479510873556" lon="14.480425212532282">
<ele>213</ele>
</trkpt>
<trkpt lat="40.630518235266209" lon="14.480392104014754">
<ele>215</ele>
</trkpt>
<trkpt lat="40.630672881379724" lon="14.480399815365672">
<ele>217</ele>
</trkpt>
<trkpt lat="40.630767764523625" lon="14.480328569188714">
<ele>219</ele>
</trkpt>
<trkpt lat="40.630814619362354" lon="14.480330413207412">
<ele>222</ele>
</trkpt>
<trkpt lat="40.63084663823247" lon="14.480328653007746">
<ele>224</ele>
</trkpt>
<trkpt lat="40.630889721214771" lon="14.480259753763676">
<ele>226</ele>
</trkpt>
<trkpt lat="40.630983682349324" lon="14.480146933346987">
<ele>228</ele>
</trkpt>
<trkpt lat="40.630996003746986" lon="14.480133941397071">
<ele>230</ele>
</trkpt>
<trkpt lat="40.631134305149317" lon="14.480059677734971">
<ele>231</ele>
</trkpt>
<trkpt lat="40.631136819720268" lon="14.480056408792734">
<ele>233</ele>
</trkpt>
<trkpt lat="40.631303871050477" lon="14.480084152892232">
<ele>235</ele>
</trkpt>
<trkpt lat="40.631419289857149" lon="14.480087421834469">
<ele>237</ele>
</trkpt>
<trkpt lat="40.631514089182019" lon="14.480105945840478">
<ele>239</ele>
</trkpt>
<trkpt lat="40.631540575996041" lon="14.479998741298914">
<ele>240</ele>
</trkpt>
<trkpt lat="40.631438652053475" lon="14.479971416294575">
<ele>242</ele>
</trkpt>
<trkpt lat="40.631353491917253" lon="14.479990694671869">
<ele>244</ele>
</trkpt>
<trkpt lat="40.631296830251813" lon="14.479927411302924">
<ele>246</ele>
</trkpt>
<trkpt lat="40.631399340927601" lon="14.479871839284897">
<ele>248</ele>
</trkpt>
<trkpt lat="40.63153613358736" lon="14.479887429624796">
<ele>251</ele>
</trkpt>
<trkpt lat="40.631592879071832" lon="14.479862116277218">
<ele>253</ele>
</trkpt>
<trkpt lat="40.631503947079182" lon="14.4797732681036">
<ele>255</ele>
</trkpt>
<trkpt lat="40.631390204653144" lon="14.479706967249513">
<ele>257</ele>
</trkpt>
<trkpt lat="40.631308062002063" lon="14.479658184573054">
<ele>259</ele>
</trkpt>
<trkpt lat="40.631207479164004" lon="14.479588195681572">
<ele>262</ele>
</trkpt>
<trkpt lat="40.631286855787039" lon="14.479609150439501">
<ele>264</ele>
</trkpt>
<trkpt lat="40.631407219916582" lon="14.479627339169383">
<ele>266</ele>
</trkpt>
<trkpt lat="40.631513418629766" lon="14.479622729122639">
<ele>268</ele>
</trkpt>
<trkpt lat="40.631633950397372" lon="14.479630691930652">
<ele>271</ele>
</trkpt>
<trkpt lat="40.631744926795363" lon="14.479613425210118">
<ele>274</ele>
</trkpt>
<trkpt lat="40.631806785240769" lon="14.479634128510952">
<ele>276</ele>
</trkpt>
<trkpt lat="40.631872666999698" lon="14.479651479050517">
<ele>278</ele>
</trkpt>
<trkpt lat="40.631828662008047" lon="14.479544861242175">
<ele>281</ele>
</trkpt>
<trkpt lat="40.631769737228751" lon="14.479426927864552">
<ele>284</ele>
</trkpt>
<trkpt lat="40.631677787750959" lon="14.47932961396873">
<ele>286</ele>
</trkpt>
<trkpt lat="40.63159815967083" lon="14.479242777451873">
<ele>288</ele>
</trkpt>
<trkpt lat="40.631560776382685" lon="14.479195419698954">
<ele>291</ele>
</trkpt>
<trkpt lat="40.631734114140272" lon="14.479141440242529">
<ele>294</ele>
</trkpt>
<trkpt lat="40.631882641464472" lon="14.479136914014816">
<ele>296</ele>
</trkpt>
<trkpt lat="40.631980961188674" lon="14.479150827974081">
<ele>299</ele>
</trkpt>
<trkpt lat="40.632088920101523" lon="14.479160131886601">
<ele>302</ele>
</trkpt>
<trkpt lat="40.632180869579315" lon="14.47921134531498">
<ele>304</ele>
</trkpt>
<trkpt lat="40.632304754108191" lon="14.479313101619482">
<ele>307</ele>
</trkpt>
<trkpt lat="40.632410952821374" lon="14.479341097176075">
<ele>310</ele>
</trkpt>
<trkpt lat="40.632539195939898" lon="14.479408487677574">
<ele>313</ele>
</trkpt>
<trkpt lat="40.632598539814353" lon="14.479456935077906">
<ele>315</ele>
</trkpt>
<trkpt lat="40.632697613909841" lon="14.479496581479907">
<ele>318</ele>
</trkpt>
<trkpt lat="40.632782774046063" lon="14.479572018608451">
<ele>320</ele>
</trkpt>
<trkpt lat="40.63282610848546" lon="14.479570342227817">
<ele>323</ele>
</trkpt>
<trkpt lat="40.632790150120854" lon="14.47941510938108">
<ele>325</ele>
</trkpt>
<trkpt lat="40.632822336629033" lon="14.479414438828826">
<ele>328</ele>
</trkpt>
<trkpt lat="40.632892912253737" lon="14.479535892605782">
<ele>330</ele>
</trkpt>
<trkpt lat="40.632985951378942" lon="14.479644102975726">
<ele>332</ele>
</trkpt>
<trkpt lat="40.633033309131861" lon="14.479694226756692">
<ele>335</ele>
</trkpt>
<trkpt lat="40.633002128452063" lon="14.479563133791089">
<ele>337</ele>
</trkpt>
<trkpt lat="40.632968684658408" lon="14.479480404406786">
<ele>340</ele>
</trkpt>
<trkpt lat="40.633001541718841" lon="14.47929885238409">
<ele>342</ele>
</trkpt>
<trkpt lat="40.632900791242719" lon="14.479174967855215">
<ele>345</ele>
</trkpt>
<trkpt lat="40.632837759330869" lon="14.479107744991779">
<ele>348</ele>
</trkpt>
<trkpt lat="40.632894169539213" lon="14.479115372523665">
<ele>351</ele>
</trkpt>
<trkpt lat="40.63298343680799" lon="14.479204555973411">
<ele>354</ele>
</trkpt>
<trkpt lat="40.632961057126522" lon="14.479133980348706">
<ele>356</ele>
</trkpt>
<trkpt lat="40.632995842024684" lon="14.479129957035184">
<ele>359</ele>
</trkpt>
<trkpt lat="40.633100448176265" lon="14.479161137714982">
<ele>362</ele>
</trkpt>
<trkpt lat="40.633096424862742" lon="14.479062063619494">
<ele>365</ele>
</trkpt>
<trkpt lat="40.633180662989616" lon="14.479081761091948">
<ele>368</ele>
</trkpt>
<trkpt lat="40.633202791213989" lon="14.47911218740046">
<ele>371</ele>
</trkpt>
<trkpt lat="40.633274959400296" lon="14.479191144928336">
<ele>374</ele>
</trkpt>
<trkpt lat="40.63327856361866" lon="14.47914102114737">
<ele>376</ele>
</trkpt>
<trkpt lat="40.633322820067406" lon="14.479194581508636">
<ele>378</ele>
</trkpt>
<trkpt lat="40.633364981040359" lon="14.478987967595458">
<ele>381</ele>
</trkpt>
<trkpt lat="40.633422816172242" lon="14.479097602888942">
<ele>384</ele>
</trkpt>
<trkpt lat="40.633472353219986" lon="14.479187624529004">
<ele>386</ele>
</trkpt>
<trkpt lat="40.633522057905793" lon="14.479157868772745">
<ele>388</ele>
</trkpt>
<trkpt lat="40.633562207221985" lon="14.479225007817149">
<ele>391</ele>
</trkpt>
<trkpt lat="40.633597075939178" lon="14.479195168241858">
<ele>394</ele>
</trkpt>
<trkpt lat="40.633634626865387" lon="14.479159880429506">
<ele>396</ele>
</trkpt>
<trkpt lat="40.633702352643013" lon="14.479083605110645">
<ele>399</ele>
</trkpt>
<trkpt lat="40.633724899962544" lon="14.479038761928678">
<ele>401</ele>
</trkpt>
<trkpt lat="40.633743507787585" lon="14.478821167722344">
<ele>404</ele>
</trkpt>
<trkpt lat="40.633865715935826" lon="14.478689571842551">
<ele>407</ele>
</trkpt>
<trkpt lat="40.633999910205603" lon="14.478674232959747">
<ele>410</ele>
</trkpt>
<trkpt lat="40.634099906310439" lon="14.478645902127028">
<ele>412</ele>
</trkpt>
<trkpt lat="40.634142486378551" lon="14.478596867993474">
<ele>415</ele>
</trkpt>
<trkpt lat="40.634231586009264" lon="14.478580774739385">
<ele>418</ele>
</trkpt>
<trkpt lat="40.634386232122779" lon="14.478661324828863">
<ele>420</ele>
</trkpt>
<trkpt lat="40.634315991774201" lon="14.478600891306996">
<ele>423</ele>
</trkpt>
<trkpt lat="40.634234519675374" lon="14.478537691757083">
<ele>426</ele>
</trkpt>
<trkpt lat="40.63413561321795" lon="14.478485807776451">
<ele>428</ele>
</trkpt>
<trkpt lat="40.634133014827967" lon="14.478466110303998">
<ele>431</ele>
</trkpt>
<trkpt lat="40.634219096973538" lon="14.478459740057588">
<ele>434</ele>
</trkpt>
<trkpt lat="40.634410455822945" lon="14.478396456688643">
<ele>436</ele>
</trkpt>
<trkpt lat="40.634493185207248" lon="14.478398133069277">
<ele>439</ele>
</trkpt>
<trkpt lat="40.634559486061335" lon="14.478391846641898">
<ele>442</ele>
</trkpt>
<trkpt lat="40.634676748886704" lon="14.478453285992146">
<ele>445</ele>
</trkpt>
<trkpt lat="40.634607514366508" lon="14.478385979309678">
<ele>447</ele>
</trkpt>
<trkpt lat="40.634539453312755" lon="14.47832009755075">
<ele>450</ele>
</trkpt>
<trkpt lat="40.634623691439629" lon="14.478290509432554">
<ele>452</ele>
</trkpt>
<trkpt lat="40.634623020887375" lon="14.478246169164777">
<ele>454</ele>
</trkpt>
<trkpt lat="40.634494693949819" lon="14.47819939814508">
<ele>456</ele>
</trkpt>
<trkpt lat="40.634367372840643" lon="14.47824876755476">
<ele>458</ele>
</trkpt>
<trkpt lat="40.634332755580544" lon="14.478215156123042">
<ele>460</ele>
</trkpt>
<trkpt lat="40.634447587653995" lon="14.478134354576468">
<ele>462</ele>
</trkpt>
<trkpt lat="40.634530233219266" lon="14.4780567381531">
<ele>464</ele>
</trkpt>
<trkpt lat="40.634622182697058" lon="14.478037292137742">
<ele>466</ele>
</trkpt>
<trkpt lat="40.634714383631945" lon="14.478020444512367">
<ele>468</ele>
</trkpt>
<trkpt lat="40.634809266775846" lon="14.478044584393501">
<ele>470</ele>
</trkpt>
<trkpt lat="40.634885290637612" lon="14.478089595213532">
<ele>473</ele>
</trkpt>
<trkpt lat="40.634895516559482" lon="14.477969901636243">
<ele>476</ele>
</trkpt>
<trkpt lat="40.63493306748569" lon="14.477951796725392">
<ele>479</ele>
</trkpt>
<trkpt lat="40.634887050837278" lon="14.477857165038586">
<ele>482</ele>
</trkpt>
<trkpt lat="40.634982101619244" lon="14.47791944257915">
<ele>485</ele>
</trkpt>
<trkpt lat="40.635095676407218" lon="14.477951796725392">
<ele>488</ele>
</trkpt>
<trkpt lat="40.635126354172826" lon="14.477962106466293">
<ele>491</ele>
</trkpt>
<trkpt lat="40.635234983637929" lon="14.477995885536075">
<ele>494</ele>
</trkpt>
<trkpt lat="40.635282173752785" lon="14.478077860549092">
<ele>497</ele>
</trkpt>
<trkpt lat="40.635345373302698" lon="14.478218425065279">
<ele>500</ele>
</trkpt>
<trkpt lat="40.635395832359791" lon="14.478390337899327">
<ele>502</ele>
</trkpt>
<trkpt lat="40.635452996939421" lon="14.478514557704329">
<ele>505</ele>
</trkpt>
<trkpt lat="40.635466407984495" lon="14.478664007037878">
<ele>507</ele>
</trkpt>
<trkpt lat="40.635503120720387" lon="14.47878235951066">
<ele>510</ele>
</trkpt>
<trkpt lat="40.635527009144425" lon="14.478841284289956">
<ele>512</ele>
</trkpt>
<trkpt lat="40.635567661374807" lon="14.478943375870585">
<ele>514</ele>
</trkpt>
<trkpt lat="40.635573025792837" lon="14.479109505191445">
<ele>517</ele>
</trkpt>
<trkpt lat="40.635561794042587" lon="14.479282088577747">
<ele>519</ele>
</trkpt>
<trkpt lat="40.635607643052936" lon="14.479198437184095">
<ele>522</ele>
</trkpt>
<trkpt lat="40.635664220899343" lon="14.479094920679927">
<ele>524</ele>
</trkpt>
<trkpt lat="40.63570118509233" lon="14.478990482166409">
<ele>526</ele>
</trkpt>
<trkpt lat="40.635716943070292" lon="14.478857377544045">
<ele>528</ele>
</trkpt>
<trkpt lat="40.635749381035566" lon="14.478712705895305">
<ele>530</ele>
</trkpt>
<trkpt lat="40.635804198682308" lon="14.478598795831203">
<ele>532</ele>
</trkpt>
<trkpt lat="40.635843174532056" lon="14.478684207424521">
<ele>534</ele>
</trkpt>
<trkpt lat="40.635872595012188" lon="14.478861903771758">
<ele>537</ele>
</trkpt>
<trkpt lat="40.635888520628214" lon="14.479018896818161">
<ele>539</ele>
</trkpt>
<trkpt lat="40.635882401838899" lon="14.479085700586438">
<ele>541</ele>
</trkpt>
<trkpt lat="40.635837391018867" lon="14.479245627298951">
<ele>543</ele>
</trkpt>
<trkpt lat="40.635770335793495" lon="14.479391556233168">
<ele>545</ele>
</trkpt>
<trkpt lat="40.635747872292995" lon="14.479433298110962">
<ele>547</ele>
</trkpt>
<trkpt lat="40.635907547548413" lon="14.479261301457882">
<ele>549</ele>
</trkpt>
<trkpt lat="40.635989354923368" lon="14.479132387787104">
<ele>551</ele>
</trkpt>
<trkpt lat="40.63600167632103" lon="14.479252584278584">
<ele>553</ele>
</trkpt>
<trkpt lat="40.635947193950415" lon="14.479442937299609">
<ele>554</ele>
</trkpt>
<trkpt lat="40.635923305526376" lon="14.479539664462209">
<ele>556</ele>
</trkpt>
<trkpt lat="40.636003101244569" lon="14.479413097724319">
<ele>558</ele>
</trkpt>
<trkpt lat="40.63607937656343" lon="14.479342186823487">
<ele>560</ele>
</trkpt>
<trkpt lat="40.636141737923026" lon="14.479248225688934">
<ele>562</ele>
</trkpt>
<trkpt lat="40.636126985773444" lon="14.479340091347694">
<ele>564</ele>
</trkpt>
<trkpt lat="40.63610871322453" lon="14.479473866522312">
<ele>566</ele>
</trkpt>
<trkpt lat="40.636108964681625" lon="14.479549806565046">
<ele>568</ele>
</trkpt>
<trkpt lat="40.636168643832207" lon="14.479440841823816">
<ele>571</ele>
</trkpt>
<trkpt lat="40.636211223900318" lon="14.479298433288932">
<ele>573</ele>
</trkpt>
<trkpt lat="40.636224634945393" lon="14.479378899559379">
<ele>575</ele>
</trkpt>
<trkpt lat="40.636207116767764" lon="14.479567660018802">
<ele>577</ele>
</trkpt>
<trkpt lat="40.63620837405324" lon="14.479690957814455">
<ele>579</ele>
</trkpt>
<trkpt lat="40.636283978819847" lon="14.479609653353691">
<ele>582</ele>
</trkpt>
<trkpt lat="40.636347262188792" lon="14.479529103264213">
<ele>584</ele>
</trkpt>
<trkpt lat="40.636414401233196" lon="14.479423742741346">
<ele>586</ele>
</trkpt>
<trkpt lat="40.636480450630188" lon="14.479331038892269">
<ele>588</ele>
</trkpt>
<trkpt lat="40.636539459228516" lon="14.479264318943024">
<ele>591</ele>
</trkpt>
<trkpt lat="40.636554295197129" lon="14.47934721596539">
<ele>593</ele>
</trkpt>
<trkpt lat="40.636529149487615" lon="14.479416534304619">
<ele>595</ele>
</trkpt>
<trkpt lat="40.636528227478266" lon="14.479565313085914">
<ele>598</ele>
</trkpt>
<trkpt lat="40.636574998497963" lon="14.479445284232497">
<ele>600</ele>
</trkpt>
<trkpt lat="40.636614393442869" lon="14.479320561513305">
<ele>602</ele>
</trkpt>
<trkpt lat="40.636668121442199" lon="14.479166166856885">
<ele>604</ele>
</trkpt>
<trkpt lat="40.636731404811144" lon="14.479161556810141">
<ele>607</ele>
</trkpt>
<trkpt lat="40.636724112555385" lon="14.47901101782918">
<ele>609</ele>
</trkpt>
<trkpt lat="40.636629648506641" lon="14.47886785492301">
<ele>611</ele>
</trkpt>
<trkpt lat="40.636525712907314" lon="14.478777498006821">
<ele>613</ele>
</trkpt>
<trkpt lat="40.636518420651555" lon="14.478738270699978">
<ele>616</ele>
</trkpt>
<trkpt lat="40.636582961305976" lon="14.478697283193469">
<ele>618</ele>
</trkpt>
<trkpt lat="40.636696787551045" lon="14.47878772392869">
<ele>620</ele>
</trkpt>
<trkpt lat="40.636788904666901" lon="14.478874979540706">
<ele>622</ele>
</trkpt>
<trkpt lat="40.636818241328001" lon="14.479015124961734">
<ele>624</ele>
</trkpt>
<trkpt lat="40.636860989034176" lon="14.479160299524665">
<ele>627</ele>
</trkpt>
<trkpt lat="40.636913878843188" lon="14.47928074747324">
<ele>629</ele>
</trkpt>
<trkpt lat="40.636938605457544" lon="14.479426173493266">
<ele>631</ele>
</trkpt>
<trkpt lat="40.636932905763388" lon="14.47957000695169">
<ele>632</ele>
</trkpt>
<trkpt lat="40.636964505538344" lon="14.479704955592752">
<ele>634</ele>
</trkpt>
<trkpt lat="40.637028040364385" lon="14.479670841246843">
<ele>635</ele>
</trkpt>
<trkpt lat="40.637080511078238" lon="14.479549890384078">
<ele>636</ele>
</trkpt>
<trkpt lat="40.637073889374733" lon="14.479465316981077">
<ele>638</ele>
</trkpt>
<trkpt lat="40.637089144438505" lon="14.479409577324986">
<ele>639</ele>
</trkpt>
<trkpt lat="40.637091156095266" lon="14.479399770498276">
<ele>640</ele>
</trkpt>
<trkpt lat="40.637124851346016" lon="14.479271778836846">
<ele>641</ele>
</trkpt>
<trkpt lat="40.637138346210122" lon="14.479005066677928">
<ele>643</ele>
</trkpt>
<trkpt lat="40.637161312624812" lon="14.478749670088291">
<ele>644</ele>
</trkpt>
<trkpt lat="40.637183357030153" lon="14.478500559926033">
<ele>645</ele>
</trkpt>
<trkpt lat="40.637187296524644" lon="14.47837139479816">
<ele>646</ele>
</trkpt>
<trkpt lat="40.637213196605444" lon="14.478219263255596">
<ele>646</ele>
</trkpt>
<trkpt lat="40.637242952361703" lon="14.478082722052932">
<ele>647</ele>
</trkpt>
<trkpt lat="40.637268852442503" lon="14.47804894298315">
<ele>648</ele>
</trkpt>
<trkpt lat="40.637365831062198" lon="14.477998232468963">
<ele>649</ele>
</trkpt>
<trkpt lat="40.637420983985066" lon="14.477965626865625">
<ele>650</ele>
</trkpt>
<trkpt lat="40.637573953717947" lon="14.477893710136414">
<ele>650</ele>
</trkpt>
<trkpt lat="40.637644696980715" lon="14.477870743721724">
<ele>651</ele>
</trkpt>
<trkpt lat="40.637812502682209" lon="14.477797066792846">
<ele>652</ele>
</trkpt>
<trkpt lat="40.637860111892223" lon="14.477780889719725">
<ele>654</ele>
</trkpt>
<trkpt lat="40.637999083846807" lon="14.478004518896341">
<ele>656</ele>
</trkpt>
<trkpt lat="40.638120202347636" lon="14.478205181658268">
<ele>659</ele>
</trkpt>
<trkpt lat="40.638245511800051" lon="14.47839830070734">
<ele>661</ele>
</trkpt>
<trkpt lat="40.638402085751295" lon="14.47855562902987">
<ele>663</ele>
</trkpt>
<trkpt lat="40.638582799583673" lon="14.478662246838212">
<ele>665</ele>
</trkpt>
<trkpt lat="40.638746581971645" lon="14.478763835504651">
<ele>667</ele>
</trkpt>
<trkpt lat="40.638906341046095" lon="14.478817144408822">
<ele>670</ele>
</trkpt>
<trkpt lat="40.639091245830059" lon="14.47891035117209">
<ele>672</ele>
</trkpt>
<trkpt lat="40.63899502158165" lon="14.479382419958711">
<ele>674</ele>
</trkpt>
<trkpt lat="40.638938946649432" lon="14.47956271469593">
<ele>676</ele>
</trkpt>
<trkpt lat="40.638904999941587" lon="14.479721132665873">
<ele>678</ele>
</trkpt>
<trkpt lat="40.638877004384995" lon="14.479828923940659">
<ele>680</ele>
</trkpt>
<trkpt lat="40.638850266113877" lon="14.47989497333765">
<ele>681</ele>
</trkpt>
<trkpt lat="40.638793185353279" lon="14.47995993308723">
<ele>683</ele>
</trkpt>
<trkpt lat="40.638627894222736" lon="14.479918107390404">
<ele>685</ele>
</trkpt>
<trkpt lat="40.638795364648104" lon="14.479959681630135">
<ele>684</ele>
</trkpt>
<trkpt lat="40.63883132301271" lon="14.479864798486233">
<ele>682</ele>
</trkpt>
<trkpt lat="40.638854037970304" lon="14.479723395779729">
<ele>681</ele>
</trkpt>
<trkpt lat="40.638871137052774" lon="14.47961057536304">
<ele>680</ele>
</trkpt>
<trkpt lat="40.638884548097849" lon="14.479531534016132">
<ele>678</ele>
</trkpt>
<trkpt lat="40.638950178399682" lon="14.479402285069227">
<ele>677</ele>
</trkpt>
<trkpt lat="40.639041708782315" lon="14.479234227910638">
<ele>676</ele>
</trkpt>
<trkpt lat="40.639140112325549" lon="14.479070529341698">
<ele>675</ele>
</trkpt>
<trkpt lat="40.639295512810349" lon="14.478944633156061">
<ele>673</ele>
</trkpt>
<trkpt lat="40.639316719025373" lon="14.478938095271587">
<ele>672</ele>
</trkpt>
<trkpt lat="40.639487458392978" lon="14.478896940127015">
<ele>671</ele>
</trkpt>
<trkpt lat="40.639613941311836" lon="14.478860730305314">
<ele>671</ele>
</trkpt>
<trkpt lat="40.639759115874767" lon="14.478806499391794">
<ele>670</ele>
</trkpt>
<trkpt lat="40.639874115586281" lon="14.478672221302986">
<ele>669</ele>
</trkpt>
<trkpt lat="40.64001870341599" lon="14.478474156931043">
<ele>668</ele>
</trkpt>
<trkpt lat="40.640129428356886" lon="14.478317499160767">
<ele>668</ele>
</trkpt>
<trkpt lat="40.640205452218652" lon="14.478264106437564">
<ele>667</ele>
</trkpt>
<trkpt lat="40.640275189653039" lon="14.478178946301341">
<ele>666</ele>
</trkpt>
<trkpt lat="40.640372503548861" lon="14.478082889690995">
<ele>666</ele>
</trkpt>
<trkpt lat="40.640529412776232" lon="14.478038214147091">
<ele>665</ele>
</trkpt>
<trkpt lat="40.64053863286972" lon="14.478041147813201">
<ele>665</ele>
</trkpt>
<trkpt lat="40.640679700300097" lon="14.47805430740118">
<ele>666</ele>
</trkpt>
<trkpt lat="40.640897126868367" lon="14.478080375120044">
<ele>666</ele>
</trkpt>
<trkpt lat="40.641105584800243" lon="14.478101329877973">
<ele>666</ele>
</trkpt>
<trkpt lat="40.641288226470351" lon="14.478131588548422">
<ele>666</ele>
</trkpt>
<trkpt lat="40.641439938917756" lon="14.478141143918037">
<ele>667</ele>
</trkpt>
<trkpt lat="40.641594165936112" lon="14.478120189160109">
<ele>667</ele>
</trkpt>
<trkpt lat="40.641737245023251" lon="14.478084230795503">
<ele>667</ele>
</trkpt>
<trkpt lat="40.641904715448618" lon="14.478033939376473">
<ele>668</ele>
</trkpt>
<trkpt lat="40.642066486179829" lon="14.477989766746759">
<ele>668</ele>
</trkpt>
<trkpt lat="40.642217025160789" lon="14.477955652400851">
<ele>667</ele>
</trkpt>
<trkpt lat="40.642395811155438" lon="14.477888513356447">
<ele>667</ele>
</trkpt>
<trkpt lat="40.6425048597157" lon="14.477856829762459">
<ele>666</ele>
</trkpt>
<trkpt lat="40.642524221912026" lon="14.477877281606197">
<ele>665</ele>
</trkpt>
<trkpt lat="40.642498908564448" lon="14.477942325174809">
<ele>664</ele>
</trkpt>
<trkpt lat="40.642451802268624" lon="14.478051541373134">
<ele>664</ele>
</trkpt>
<trkpt lat="40.642499830573797" lon="14.47811926715076">
<ele>663</ele>
</trkpt>
<trkpt lat="40.642595300450921" lon="14.478209624066949">
<ele>662</ele>
</trkpt>
<trkpt lat="40.64260795712471" lon="14.478224460035563">
<ele>662</ele>
</trkpt>
<trkpt lat="40.642723124474287" lon="14.478458315134048">
<ele>661</ele>
</trkpt>
<trkpt lat="40.642795460298657" lon="14.478611284866929">
<ele>660</ele>
</trkpt>
<trkpt lat="40.642865784466267" lon="14.478739695623517">
<ele>659</ele>
</trkpt>
<trkpt lat="40.642909621819854" lon="14.478783868253231">
<ele>658</ele>
</trkpt>
<trkpt lat="40.642973491922021" lon="14.478860395029187">
<ele>657</ele>
</trkpt>
<trkpt lat="40.643075415864587" lon="14.478890737518668">
<ele>656</ele>
</trkpt>
<trkpt lat="40.643181363120675" lon="14.478916134685278">
<ele>654</ele>
</trkpt>
<trkpt lat="40.643260907381773" lon="14.479063991457224">
<ele>653</ele>
</trkpt>
<trkpt lat="40.643324693664908" lon="14.479185026139021">
<ele>652</ele>
</trkpt>
<trkpt lat="40.643428126350045" lon="14.479317627847195">
<ele>651</ele>
</trkpt>
<trkpt lat="40.643579084426165" lon="14.479308323934674">
<ele>650</ele>
</trkpt>
<trkpt lat="40.643773712217808" lon="14.479399854317307">
<ele>651</ele>
</trkpt>
<trkpt lat="40.643777400255203" lon="14.479405302554369">
<ele>652</ele>
</trkpt>
<trkpt lat="40.643881084397435" lon="14.479575119912624">
<ele>653</ele>
</trkpt>
<trkpt lat="40.643887287005782" lon="14.479799252003431">
<ele>654</ele>
</trkpt>
<trkpt lat="40.643865913152695" lon="14.479860188439488">
<ele>654</ele>
</trkpt>
<trkpt lat="40.643859039992094" lon="14.479921208694577">
<ele>655</ele>
</trkpt>
<trkpt lat="40.643822327256203" lon="14.480073004961014">
<ele>656</ele>
</trkpt>
<trkpt lat="40.643826853483915" lon="14.480199906975031">
<ele>657</ele>
</trkpt>
<trkpt lat="40.643912684172392" lon="14.480381207540631">
<ele>658</ele>
</trkpt>
<trkpt lat="40.644002286717296" lon="14.480536775663495">
<ele>659</ele>
</trkpt>
<trkpt lat="40.644031036645174" lon="14.480657894164324">
<ele>660</ele>
</trkpt>
<trkpt lat="40.644123321399093" lon="14.480783119797707">
<ele>661</ele>
</trkpt>
<trkpt lat="40.644187359139323" lon="14.480867357924581">
<ele>662</ele>
</trkpt>
<trkpt lat="40.644278051331639" lon="14.480933910235763">
<ele>663</ele>
</trkpt>
<trkpt lat="40.644217114895582" lon="14.480986213311553">
<ele>664</ele>
</trkpt>
<trkpt lat="40.644104965031147" lon="14.481007922440767">
<ele>665</ele>
</trkpt>
<trkpt lat="40.644083926454186" lon="14.481006246060133">
<ele>666</ele>
</trkpt>
<trkpt lat="40.644000442698598" lon="14.48098361492157">
<ele>667</ele>
</trkpt>
<trkpt lat="40.643873875960708" lon="14.480908345431089">
<ele>668</ele>
</trkpt>
<trkpt lat="40.643801623955369" lon="14.480909183621407">
<ele>669</ele>
</trkpt>
<trkpt lat="40.643702130764723" lon="14.480916643515229">
<ele>671</ele>
</trkpt>
<trkpt lat="40.643651755526662" lon="14.481003815308213">
<ele>672</ele>
</trkpt>
<trkpt lat="40.643631555140018" lon="14.481061566621065">
<ele>674</ele>
</trkpt>
<trkpt lat="40.643619820475578" lon="14.481191486120224">
<ele>676</ele>
</trkpt>
<trkpt lat="40.643606493249536" lon="14.481316627934575">
<ele>678</ele>
</trkpt>
<trkpt lat="40.643600542098284" lon="14.481405895203352">
<ele>679</ele>
</trkpt>
<trkpt lat="40.643541533499956" lon="14.481645366176963">
<ele>681</ele>
</trkpt>
<trkpt lat="40.643498450517654" lon="14.481764556840062">
<ele>683</ele>
</trkpt>
<trkpt lat="40.643471628427505" lon="14.481906797736883">
<ele>684</ele>
</trkpt>
<trkpt lat="40.643476909026504" lon="14.482023138552904">
<ele>686</ele>
</trkpt>
<trkpt lat="40.643483195453882" lon="14.482154063880444">
<ele>688</ele>
</trkpt>
<trkpt lat="40.643489146605134" lon="14.482210809364915">
<ele>689</ele>
</trkpt>
<trkpt lat="40.643413458019495" lon="14.482350032776594">
<ele>691</ele>
</trkpt>
<trkpt lat="40.64337121322751" lon="14.482481712475419">
<ele>692</ele>
</trkpt>
<trkpt lat="40.643333410844207" lon="14.482595371082425">
<ele>694</ele>
</trkpt>
<trkpt lat="40.643340032547712" lon="14.482677849009633">
<ele>696</ele>
</trkpt>
<trkpt lat="40.643345816060901" lon="14.482757980003953">
<ele>697</ele>
</trkpt>
<trkpt lat="40.643317149952054" lon="14.482892341911793">
<ele>699</ele>
</trkpt>
<trkpt lat="40.643319496884942" lon="14.483132399618626">
<ele>700</ele>
</trkpt>
<trkpt lat="40.643266523256898" lon="14.483241783455014">
<ele>702</ele>
</trkpt>
<trkpt lat="40.643142303451896" lon="14.483368014916778">
<ele>703</ele>
</trkpt>
<trkpt lat="40.643011797219515" lon="14.483424006029963">
<ele>704</ele>
</trkpt>
<trkpt lat="40.642918003723025" lon="14.483519475907087">
<ele>706</ele>
</trkpt>
<trkpt lat="40.642824042588472" lon="14.483754504472017">
<ele>707</ele>
</trkpt>
<trkpt lat="40.642735110595822" lon="14.483957765623927">
<ele>708</ele>
</trkpt>
<trkpt lat="40.642604101449251" lon="14.484130935743451">
<ele>709</ele>
</trkpt>
<trkpt lat="40.64250092022121" lon="14.484264710918069">
<ele>710</ele>
</trkpt>
<trkpt lat="40.642475271597505" lon="14.484403682872653">
<ele>712</ele>
</trkpt>
<trkpt lat="40.64244476146996" lon="14.484592527151108">
<ele>713</ele>
</trkpt>
<trkpt lat="40.642478372901678" lon="14.484798051416874">
<ele>714</ele>
</trkpt>
<trkpt lat="40.642489269375801" lon="14.48490634560585">
<ele>714</ele>
</trkpt>
<trkpt lat="40.642548277974129" lon="14.485089909285307">
<ele>713</ele>
</trkpt>
<trkpt lat="40.642592534422874" lon="14.485329547896981">
<ele>713</ele>
</trkpt>
<trkpt lat="40.642584320157766" lon="14.48533927090466">
<ele>712</ele>
</trkpt>
<trkpt lat="40.64248139038682" lon="14.485426442697644">
<ele>712</ele>
</trkpt>
<trkpt lat="40.6424530595541" lon="14.48544722981751">
<ele>712</ele>
</trkpt>
<trkpt lat="40.642321044579148" lon="14.485579915344715">
<ele>711</ele>
</trkpt>
<trkpt lat="40.642238650470972" lon="14.485734896734357">
<ele>711</ele>
</trkpt>
<trkpt lat="40.642237812280655" lon="14.485920304432511">
<ele>710</ele>
</trkpt>
<trkpt lat="40.642319200560451" lon="14.486115854233503">
<ele>710</ele>
</trkpt>
<trkpt lat="40.642378712072968" lon="14.486212749034166">
<ele>712</ele>
</trkpt>
<trkpt lat="40.642309309914708" lon="14.486394636332989">
<ele>713</ele>
</trkpt>
<trkpt lat="40.642171008512378" lon="14.486459596082568">
<ele>715</ele>
</trkpt>
<trkpt lat="40.642015691846609" lon="14.486549030989408">
<ele>717</ele>
</trkpt>
<trkpt lat="40.641899518668652" lon="14.486613823100924">
<ele>718</ele>
</trkpt>
<trkpt lat="40.641745878383517" lon="14.486701497808099">
<ele>720</ele>
</trkpt>
<trkpt lat="40.641654096543789" lon="14.486787328496575">
<ele>722</ele>
</trkpt>
<trkpt lat="40.641600452363491" lon="14.486859245225787">
<ele>724</ele>
</trkpt>
<trkpt lat="40.641493583098054" lon="14.487023446708918">
<ele>725</ele>
</trkpt>
<trkpt lat="40.64141764305532" lon="14.487116066738963">
<ele>727</ele>
</trkpt>
<trkpt lat="40.64133114181459" lon="14.487206758931279">
<ele>729</ele>
</trkpt>
<trkpt lat="40.641278419643641" lon="14.487316478043795">
<ele>730</ele>
</trkpt>
<trkpt lat="40.641244137659669" lon="14.487502723932266">
<ele>732</ele>
</trkpt>
<trkpt lat="40.641207089647651" lon="14.487635744735599">
<ele>734</ele>
</trkpt>
<trkpt lat="40.641156295314431" lon="14.487782344222069">
<ele>736</ele>
</trkpt>
<trkpt lat="40.641138860955834" lon="14.487939169630408">
<ele>737</ele>
</trkpt>
<trkpt lat="40.641147159039974" lon="14.488046206533909">
<ele>739</ele>
</trkpt>
<trkpt lat="40.641157384961843" lon="14.488175204023719">
<ele>741</ele>
</trkpt>
<trkpt lat="40.64119677990675" lon="14.488333454355597">
<ele>742</ele>
</trkpt>
<trkpt lat="40.641246400773525" lon="14.48854073882103">
<ele>744</ele>
</trkpt>
<trkpt lat="40.64128378406167" lon="14.488680465146899">
<ele>745</ele>
</trkpt>
<trkpt lat="40.641238521784544" lon="14.488873248919845">
<ele>745</ele>
</trkpt>
<trkpt lat="40.641129389405251" lon="14.488935526460409">
<ele>746</ele>
</trkpt>
<trkpt lat="40.641020843759179" lon="14.489048263058066">
<ele>747</ele>
</trkpt>
<trkpt lat="40.640966864302754" lon="14.489191258326173">
<ele>748</ele>
</trkpt>
<trkpt lat="40.640963511541486" lon="14.489349676296115">
<ele>748</ele>
</trkpt>
<trkpt lat="40.640904000028968" lon="14.48951555415988">
<ele>749</ele>
</trkpt>
<trkpt lat="40.640864353626966" lon="14.489696184173226">
<ele>750</ele>
</trkpt>
<trkpt lat="40.640892516821623" lon="14.48976332321763">
<ele>750</ele>
</trkpt>
<trkpt lat="40.640888996422291" lon="14.489809675142169">
<ele>751</ele>
</trkpt>
<trkpt lat="40.640883129090071" lon="14.489923752844334">
<ele>750</ele>
</trkpt>
<trkpt lat="40.640859743580222" lon="14.490060461685061">
<ele>750</ele>
</trkpt>
<trkpt lat="40.640854462981224" lon="14.490135563537478">
<ele>749</ele>
</trkpt>
<trkpt lat="40.640847003087401" lon="14.490269254893064">
<ele>749</ele>
</trkpt>
<trkpt lat="40.640828981995583" lon="14.49047570116818">
<ele>748</ele>
</trkpt>
<trkpt lat="40.640801824629307" lon="14.490667060017586">
<ele>747</ele>
</trkpt>
<trkpt lat="40.640777852386236" lon="14.490888342261314">
<ele>747</ele>
</trkpt>
<trkpt lat="40.640660421922803" lon="14.4909115601331">
<ele>746</ele>
</trkpt>
<trkpt lat="40.640531172975898" lon="14.490816257894039">
<ele>746</ele>
</trkpt>
<trkpt lat="40.640401169657707" lon="14.490807875990868">
<ele>745</ele>
</trkpt>
<trkpt lat="40.640283906832337" lon="14.490842493250966">
<ele>746</ele>
</trkpt>
<trkpt lat="40.640181731432676" lon="14.490867219865322">
<ele>748</ele>
</trkpt>
<trkpt lat="40.64011299982667" lon="14.490845678374171">
<ele>749</ele>
</trkpt>
<trkpt lat="40.640014931559563" lon="14.490819443017244">
<ele>751</ele>
</trkpt>
<trkpt lat="40.639862464740872" lon="14.49077820405364">
<ele>752</ele>
</trkpt>
<trkpt lat="40.639794487506151" lon="14.490789603441954">
<ele>753</ele>
</trkpt>
<trkpt lat="40.639772191643715" lon="14.490846935659647">
<ele>755</ele>
</trkpt>
<trkpt lat="40.639713183045387" lon="14.491140889003873">
<ele>756</ele>
</trkpt>
<trkpt lat="40.639638165012002" lon="14.491324201226234">
<ele>758</ele>
</trkpt>
<trkpt lat="40.639588795602322" lon="14.491416653618217">
<ele>759</ele>
</trkpt>
<trkpt lat="40.639506820589304" lon="14.49163475073874">
<ele>759</ele>
</trkpt>
<trkpt lat="40.639497181400657" lon="14.491682443767786">
<ele>760</ele>
</trkpt>
<trkpt lat="40.639486368745565" lon="14.491802807897329">
<ele>760</ele>
</trkpt>
<trkpt lat="40.639484943822026" lon="14.492032891139388">
<ele>761</ele>
</trkpt>
<trkpt lat="40.63963221386075" lon="14.492191392928362">
<ele>761</ele>
</trkpt>
<trkpt lat="40.639727097004652" lon="14.492356516420841">
<ele>761</ele>
</trkpt>
<trkpt lat="40.639775628224015" lon="14.492609901353717">
<ele>762</ele>
</trkpt>
<trkpt lat="40.639840671792626" lon="14.49271802790463">
<ele>762</ele>
</trkpt>
<trkpt lat="40.639900602400303" lon="14.492813078686595">
<ele>763</ele>
</trkpt>
<trkpt lat="40.639844192191958" lon="14.492911146953702">
<ele>763</ele>
</trkpt>
<trkpt lat="40.639748303219676" lon="14.492975100874901">
<ele>763</ele>
</trkpt>
<trkpt lat="40.639656186103821" lon="14.493038384243846">
<ele>764</ele>
</trkpt>
<trkpt lat="40.639593238011003" lon="14.493137206882238">
<ele>764</ele>
</trkpt>
<trkpt lat="40.639531631022692" lon="14.493258157745004">
<ele>764</ele>
</trkpt>
<trkpt lat="40.639503803104162" lon="14.493316579610109">
<ele>765</ele>
</trkpt>
<trkpt lat="40.639373632147908" lon="14.493409115821123">
<ele>765</ele>
</trkpt>
<trkpt lat="40.63925938680768" lon="14.493504418060184">
<ele>765</ele>
</trkpt>
<trkpt lat="40.639142710715532" lon="14.493655879050493">
<ele>766</ele>
</trkpt>
<trkpt lat="40.639059897512197" lon="14.493783116340637">
<ele>766</ele>
</trkpt>
<trkpt lat="40.639031901955605" lon="14.493811782449484">
<ele>766</ele>
</trkpt>
<trkpt lat="40.638977671042085" lon="14.493996351957321">
<ele>767</ele>
</trkpt>
<trkpt lat="40.638936432078481" lon="14.494047649204731">
<ele>767</ele>
</trkpt>
<trkpt lat="40.638889158144593" lon="14.494146388024092">
<ele>765</ele>
</trkpt>
<trkpt lat="40.638872813433409" lon="14.494227105751634">
<ele>763</ele>
</trkpt>
<trkpt lat="40.638822270557284" lon="14.494250323623419">
<ele>761</ele>
</trkpt>
<trkpt lat="40.638755299150944" lon="14.49424110352993">
<ele>759</ele>
</trkpt>
<trkpt lat="40.638699727132916" lon="14.494269769638777">
<ele>758</ele>
</trkpt>
<trkpt lat="40.638675922527909" lon="14.494269769638777">
<ele>756</ele>
</trkpt>
<trkpt lat="40.638683801516891" lon="14.494405221194029">
<ele>754</ele>
</trkpt>
<trkpt lat="40.638736607506871" lon="14.494514856487513">
<ele>752</ele>
</trkpt>
<trkpt lat="40.638802237808704" lon="14.494566572830081">
<ele>750</ele>
</trkpt>
<trkpt lat="40.638887481763959" lon="14.4946622941643">
<ele>748</ele>
</trkpt>
<trkpt lat="40.639011114835739" lon="14.494826244190335">
<ele>746</ele>
</trkpt>
<trkpt lat="40.639124941080809" lon="14.494909476488829">
<ele>743</ele>
</trkpt>
<trkpt lat="40.639031566679478" lon="14.495039228349924">
<ele>740</ele>
</trkpt>
<trkpt lat="40.63895495608449" lon="14.495152635499835">
<ele>738</ele>
</trkpt>
<trkpt lat="40.638918746262789" lon="14.495220109820366">
<ele>736</ele>
</trkpt>
<trkpt lat="40.638814391568303" lon="14.495408702641726">
<ele>733</ele>
</trkpt>
<trkpt lat="40.638791676610708" lon="14.49537131935358">
<ele>730</ele>
</trkpt>
<trkpt lat="40.638781953603029" lon="14.495316669344902">
<ele>728</ele>
</trkpt>
<trkpt lat="40.638635018840432" lon="14.495429322123528">
<ele>726</ele>
</trkpt>
<trkpt lat="40.638558911159635" lon="14.495481457561255">
<ele>723</ele>
</trkpt>
<trkpt lat="40.638572573661804" lon="14.495602492243052">
<ele>720</ele>
</trkpt>
<trkpt lat="40.638489341363311" lon="14.495633589103818">
<ele>716</ele>
</trkpt>
<trkpt lat="40.63849713653326" lon="14.495799718424678">
<ele>713</ele>
</trkpt>
<trkpt lat="40.638504093512893" lon="14.495867192745209">
<ele>710</ele>
</trkpt>
<trkpt lat="40.638497471809387" lon="14.496068945154548">
<ele>706</ele>
</trkpt>
<trkpt lat="40.638541644439101" lon="14.496169779449701">
<ele>703</ele>
</trkpt>
<trkpt lat="40.63852152787149" lon="14.496187549084425">
<ele>700</ele>
</trkpt>
<trkpt lat="40.63850149512291" lon="14.496139939874411">
<ele>697</ele>
</trkpt>
<trkpt lat="40.638467129319906" lon="14.496129211038351">
<ele>693</ele>
</trkpt>
<trkpt lat="40.638420525938272" lon="14.496286539360881">
<ele>690</ele>
</trkpt>
<trkpt lat="40.63830753788352" lon="14.496297854930162">
<ele>689</ele>
</trkpt>
<trkpt lat="40.638228077441454" lon="14.49640329927206">
<ele>687</ele>
</trkpt>
<trkpt lat="40.638139396905899" lon="14.49637396261096">
<ele>686</ele>
</trkpt>
<trkpt lat="40.638104025274515" lon="14.496329538524151">
<ele>684</ele>
</trkpt>
<trkpt lat="40.638016937300563" lon="14.49624203145504">
<ele>683</ele>
</trkpt>
<trkpt lat="40.63786581158638" lon="14.496226273477077">
<ele>682</ele>
</trkpt>
<trkpt lat="40.637698760256171" lon="14.496289389207959">
<ele>680</ele>
</trkpt>
<trkpt lat="40.637686438858509" lon="14.496280252933502">
<ele>679</ele>
</trkpt>
<trkpt lat="40.637651989236474" lon="14.496276061981916">
<ele>677</ele>
</trkpt>
<trkpt lat="40.637551071122289" lon="14.496277822181582">
<ele>676</ele>
</trkpt>
<trkpt lat="40.637334482744336" lon="14.49617070145905">
<ele>675</ele>
</trkpt>
<trkpt lat="40.637230379506946" lon="14.496289305388927">
<ele>674</ele>
</trkpt>
<trkpt lat="40.63720716163516" lon="14.496357953175902">
<ele>673</ele>
</trkpt>
<trkpt lat="40.637096939608455" lon="14.496459038928151">
<ele>672</ele>
</trkpt>
<trkpt lat="40.636938437819481" lon="14.49663489125669">
<ele>672</ele>
</trkpt>
<trkpt lat="40.636853612959385" lon="14.496809067204595">
<ele>671</ele>
</trkpt>
<trkpt lat="40.636823689565063" lon="14.496992463245988">
<ele>670</ele>
</trkpt>
<trkpt lat="40.63682503066957" lon="14.497089441865683">
<ele>669</ele>
</trkpt>
<trkpt lat="40.636787312105298" lon="14.497117940336466">
<ele>668</ele>
</trkpt>
<trkpt lat="40.636731740087271" lon="14.497075947001576">
<ele>667</ele>
</trkpt>
<trkpt lat="40.636699050664902" lon="14.497198909521103">
<ele>665</ele>
</trkpt>
<trkpt lat="40.636503249406815" lon="14.497462939471006">
<ele>663</ele>
</trkpt>
<trkpt lat="40.636465447023511" lon="14.497503004968166">
<ele>660</ele>
</trkpt>
<trkpt lat="40.636367462575436" lon="14.49761020950973">
<ele>658</ele>
</trkpt>
<trkpt lat="40.6363036762923" lon="14.497734010219574">
<ele>656</ele>
</trkpt>
<trkpt lat="40.636237962171435" lon="14.497911706566811">
<ele>654</ele>
</trkpt>
<trkpt lat="40.6361741758883" lon="14.498059479519725">
<ele>652</ele>
</trkpt>
<trkpt lat="40.636133020743728" lon="14.498077165335417">
<ele>649</ele>
</trkpt>
<trkpt lat="40.636032270267606" lon="14.498144974932075">
<ele>647</ele>
</trkpt>
<trkpt lat="40.63594208098948" lon="14.498166181147099">
<ele>645</ele>
</trkpt>
<trkpt lat="40.635872092097998" lon="14.498280007392168">
<ele>642</ele>
</trkpt>
<trkpt lat="40.635792631655931" lon="14.498349661007524">
<ele>638</ele>
</trkpt>
<trkpt lat="40.635716943070292" lon="14.498400622978806">
<ele>635</ele>
</trkpt>
<trkpt lat="40.635619293898344" lon="14.4983802549541">
<ele>631</ele>
</trkpt>
<trkpt lat="40.635646367445588" lon="14.498204737901688">
<ele>628</ele>
</trkpt>
<trkpt lat="40.635706130415201" lon="14.498145058751106">
<ele>625</ele>
</trkpt>
<trkpt lat="40.635743429884315" lon="14.498058138415217">
<ele>621</ele>
</trkpt>
<trkpt lat="40.635797493159771" lon="14.497911958023906">
<ele>618</ele>
</trkpt>
<trkpt lat="40.635802606120706" lon="14.49788136407733">
<ele>614</ele>
</trkpt>
<trkpt lat="40.635685427114367" lon="14.497762341052294">
<ele>611</ele>
</trkpt>
<trkpt lat="40.63570705242455" lon="14.497637031599879">
<ele>609</ele>
</trkpt>
<trkpt lat="40.635694731026888" lon="14.497517673298717">
<ele>607</ele>
</trkpt>
<trkpt lat="40.635637482628226" lon="14.497534269466996">
<ele>605</ele>
</trkpt>
<trkpt lat="40.635521309450269" lon="14.497676678001881">
<ele>603</ele>
</trkpt>
<trkpt lat="40.635429946705699" lon="14.497865103185177">
<ele>600</ele>
</trkpt>
<trkpt lat="40.635377559810877" lon="14.497924614697695">
<ele>598</ele>
</trkpt>
<trkpt lat="40.635272366926074" lon="14.498015725985169">
<ele>596</ele>
</trkpt>
<trkpt lat="40.635177735239267" lon="14.49806752614677">
<ele>594</ele>
</trkpt>
<trkpt lat="40.635146051645279" lon="14.498067609965801">
<ele>592</ele>
</trkpt>
<trkpt lat="40.635073632001877" lon="14.498135251924396">
<ele>590</ele>
</trkpt>
<trkpt lat="40.635058209300041" lon="14.498236002400517">
<ele>587</ele>
</trkpt>
<trkpt lat="40.635004648938775" lon="14.498360473662615">
<ele>584</ele>
</trkpt>
<trkpt lat="40.634996937587857" lon="14.498267099261284">
<ele>581</ele>
</trkpt>
<trkpt lat="40.634961985051632" lon="14.498228877782822">
<ele>578</ele>
</trkpt>
<trkpt lat="40.634919824078679" lon="14.498269781470299">
<ele>576</ele>
</trkpt>
<trkpt lat="40.634829383343458" lon="14.498435324057937">
<ele>573</ele>
</trkpt>
<trkpt lat="40.634739529341459" lon="14.498456111177802">
<ele>570</ele>
</trkpt>
<trkpt lat="40.634723100811243" lon="14.498501624912024">
<ele>567</ele>
</trkpt>
<trkpt lat="40.634651519358158" lon="14.498633136972785">
<ele>564</ele>
</trkpt>
<trkpt lat="40.634620590135455" lon="14.498575804755092">
<ele>561</ele>
</trkpt>
<trkpt lat="40.634619500488043" lon="14.498474383726716">
<ele>558</ele>
</trkpt>
<trkpt lat="40.634630229324102" lon="14.498368687927723">
<ele>555</ele>
</trkpt>
<trkpt lat="40.634634168818593" lon="14.498315127566457">
<ele>553</ele>
</trkpt>
<trkpt lat="40.63462377525866" lon="14.498172383755445">
<ele>550</ele>
</trkpt>
<trkpt lat="40.634616650640965" lon="14.497995609417558">
<ele>547</ele>
</trkpt>
<trkpt lat="40.634598378092051" lon="14.497880106791854">
<ele>544</ele>
</trkpt>
<trkpt lat="40.634577423334122" lon="14.497696040198207">
<ele>541</ele>
</trkpt>
<trkpt lat="40.634564431384206" lon="14.497644994407892">
<ele>539</ele>
</trkpt>
<trkpt lat="40.634535597637296" lon="14.497474087402225">
<ele>536</ele>
</trkpt>
<trkpt lat="40.634510368108749" lon="14.497383898124099">
<ele>533</ele>
</trkpt>
<trkpt lat="40.634490502998233" lon="14.497262695804238">
<ele>530</ele>
</trkpt>
<trkpt lat="40.634483965113759" lon="14.497138224542141">
<ele>527</ele>
</trkpt>
<trkpt lat="40.634406935423613" lon="14.497196478769183">
<ele>525</ele>
</trkpt>
<trkpt lat="40.63441950827837" lon="14.497113665565848">
<ele>522</ele>
</trkpt>
<trkpt lat="40.634364858269691" lon="14.497105535119772">
<ele>519</ele>
</trkpt>
<trkpt lat="40.634411796927452" lon="14.497051052749157">
<ele>516</ele>
</trkpt>
<trkpt lat="40.634402828291059" lon="14.497027583420277">
<ele>513</ele>
</trkpt>
<trkpt lat="40.634336611256003" lon="14.497022219002247">
<ele>511</ele>
</trkpt>
<trkpt lat="40.634292522445321" lon="14.496951643377542">
<ele>508</ele>
</trkpt>
<trkpt lat="40.634210966527462" lon="14.49682348407805">
<ele>505</ele>
</trkpt>
<trkpt lat="40.63416788354516" lon="14.496744610369205">
<ele>502</ele>
</trkpt>
<trkpt lat="40.634163441136479" lon="14.496635226532817">
<ele>498</ele>
</trkpt>
<trkpt lat="40.634160088375211" lon="14.496522406116128">
<ele>494</ele>
</trkpt>
<trkpt lat="40.634248517453671" lon="14.49641746468842">
<ele>491</ele>
</trkpt>
<trkpt lat="40.634223120287061" lon="14.49638469144702">
<ele>488</ele>
</trkpt>
<trkpt lat="40.634154388681054" lon="14.496387792751193">
<ele>484</ele>
</trkpt>
<trkpt lat="40.634155981242657" lon="14.496315876021981">
<ele>480</ele>
</trkpt>
<trkpt lat="40.634182635694742" lon="14.496233901008964">
<ele>477</ele>
</trkpt>
<trkpt lat="40.634243991225958" lon="14.496169108897448">
<ele>474</ele>
</trkpt>
<trkpt lat="40.634136367589235" lon="14.49613943696022">
<ele>470</ele>
</trkpt>
<trkpt lat="40.634194705635309" lon="14.495965763926506">
<ele>465</ele>
</trkpt>
<trkpt lat="40.634229155257344" lon="14.495930979028344">
<ele>461</ele>
</trkpt>
<trkpt lat="40.634091105312109" lon="14.495918406173587">
<ele>456</ele>
</trkpt>
<trkpt lat="40.634010136127472" lon="14.496005661785603">
<ele>452</ele>
</trkpt>
<trkpt lat="40.633981470018625" lon="14.495864007622004">
<ele>447</ele>
</trkpt>
<trkpt lat="40.633941907435656" lon="14.495819751173258">
<ele>442</ele>
</trkpt>
<trkpt lat="40.633884910494089" lon="14.49570843949914">
<ele>438</ele>
</trkpt>
<trkpt lat="40.633815173059702" lon="14.49562001042068">
<ele>433</ele>
</trkpt>
<trkpt lat="40.633761361241341" lon="14.495553458109498">
<ele>429</ele>
</trkpt>
<trkpt lat="40.633686594665051" lon="14.495485732331872">
<ele>424</ele>
</trkpt>
<trkpt lat="40.633586347103119" lon="14.495375761762261">
<ele>420</ele>
</trkpt>
<trkpt lat="40.633563045412302" lon="14.495258331298828">
<ele>416</ele>
</trkpt>
<trkpt lat="40.633516777306795" lon="14.495146181434393">
<ele>412</ele>
</trkpt>
<trkpt lat="40.633508060127497" lon="14.495095470920205">
<ele>408</ele>
</trkpt>
<trkpt lat="40.633492805063725" lon="14.494946105405688">
<ele>404</ele>
</trkpt>
<trkpt lat="40.633465060964227" lon="14.494841080158949">
<ele>400</ele>
</trkpt>
<trkpt lat="40.633437149226665" lon="14.494836637750268">
<ele>396</ele>
</trkpt>
<trkpt lat="40.633404208347201" lon="14.494832865893841">
<ele>392</ele>
</trkpt>
<trkpt lat="40.633403202518821" lon="14.494715519249439">
<ele>388</ele>
</trkpt>
<trkpt lat="40.633314102888107" lon="14.494781903922558">
<ele>384</ele>
</trkpt>
<trkpt lat="40.633304212242365" lon="14.494740329682827">
<ele>382</ele>
</trkpt>
<trkpt lat="40.633351150900126" lon="14.494689870625734">
<ele>381</ele>
</trkpt>
<trkpt lat="40.63347009010613" lon="14.49459632858634">
<ele>379</ele>
</trkpt>
<trkpt lat="40.633642505854368" lon="14.49455576017499">
<ele>378</ele>
</trkpt>
<trkpt lat="40.633757170289755" lon="14.494548719376326">
<ele>376</ele>
</trkpt>
<trkpt lat="40.633928412571549" lon="14.494528938084841">
<ele>374</ele>
</trkpt>
<trkpt lat="40.634075682610273" lon="14.494422236457467">
<ele>373</ele>
</trkpt>
<trkpt lat="40.634101666510105" lon="14.494397845119238">
<ele>371</ele>
</trkpt>
<trkpt lat="40.634236950427294" lon="14.494274547323585">
<ele>370</ele>
</trkpt>
<trkpt lat="40.634171906858683" lon="14.494211850687861">
<ele>368</ele>
</trkpt>
<trkpt lat="40.634041149169207" lon="14.494165582582355">
<ele>367</ele>
</trkpt>
<trkpt lat="40.633857501670718" lon="14.494142029434443">
<ele>365</ele>
</trkpt>
<trkpt lat="40.633788518607616" lon="14.493941282853484">
<ele>364</ele>
</trkpt>
<trkpt lat="40.633696485310793" lon="14.493719665333629">
<ele>362</ele>
</trkpt>
<trkpt lat="40.633570840582252" lon="14.493623021990061">
<ele>361</ele>
</trkpt>
<trkpt lat="40.633518537506461" lon="14.493488073348999">
<ele>359</ele>
</trkpt>
<trkpt lat="40.63344125635922" lon="14.493286907672882">
<ele>358</ele>
</trkpt>
<trkpt lat="40.63337386585772" lon="14.493201663717628">
<ele>356</ele>
</trkpt>
<trkpt lat="40.633343271911144" lon="14.493134273216128">
<ele>355</ele>
</trkpt>
<trkpt lat="40.633311253041029" lon="14.493048610165715">
<ele>353</ele>
</trkpt>
<trkpt lat="40.633404040709138" lon="14.4929129909724">
<ele>352</ele>
</trkpt>
<trkpt lat="40.633384678512812" lon="14.492896059527993">
<ele>351</ele>
</trkpt>
<trkpt lat="40.633371183648705" lon="14.492824226617813">
<ele>350</ele>
</trkpt>
<trkpt lat="40.633347043767571" lon="14.492771672084928">
<ele>350</ele>
</trkpt>
<trkpt lat="40.633315360173583" lon="14.492573523893952">
<ele>349</ele>
</trkpt>
<trkpt lat="40.633279401808977" lon="14.492518287152052">
<ele>348</ele>
</trkpt>
<trkpt lat="40.633174292743206" lon="14.492450896650553">
<ele>347</ele>
</trkpt>
<trkpt lat="40.632817978039384" lon="14.491832396015525">
<ele>346</ele>
</trkpt>
<trkpt lat="40.632814625278115" lon="14.491805406287313">
<ele>346</ele>
</trkpt>
<trkpt lat="40.632257144898176" lon="14.491353537887335">
<ele>345</ele>
</trkpt>
<trkpt lat="40.631877025589347" lon="14.491186905652285">
<ele>344</ele>
</trkpt>
<trkpt lat="40.631756410002708" lon="14.491119766607881">
<ele>342</ele>
</trkpt>
<trkpt lat="40.631660437211394" lon="14.491078527644277">
<ele>340</ele>
</trkpt>
<trkpt lat="40.631587095558643" lon="14.491050951182842">
<ele>337</ele>
</trkpt>
<trkpt lat="40.63149313442409" lon="14.491079952567816">
<ele>335</ele>
</trkpt>
<trkpt lat="40.631485087797046" lon="14.491133010014892">
<ele>333</ele>
</trkpt>
<trkpt lat="40.631402693688869" lon="14.4911221973598">
<ele>331</ele>
</trkpt>
<trkpt lat="40.631306804716587" lon="14.491082970052958">
<ele>329</ele>
</trkpt>
<trkpt lat="40.631263386458158" lon="14.490961767733097">
<ele>326</ele>
</trkpt>
<trkpt lat="40.631231116130948" lon="14.49083000421524">
<ele>324</ele>
</trkpt>
<trkpt lat="40.631225667893887" lon="14.49066873639822">
<ele>322</ele>
</trkpt>
<trkpt lat="40.631204629316926" lon="14.490501349791884">
<ele>320</ele>
</trkpt>
<trkpt lat="40.631185015663505" lon="14.490339159965515">
<ele>318</ele>
</trkpt>
<trkpt lat="40.63114914111793" lon="14.490193817764521">
<ele>315</ele>
</trkpt>
<trkpt lat="40.631097005680203" lon="14.490282665938139">
<ele>313</ele>
</trkpt>
<trkpt lat="40.63109046779573" lon="14.490190297365189">
<ele>311</ele>
</trkpt>
<trkpt lat="40.631084935739636" lon="14.490099688991904">
<ele>309</ele>
</trkpt>
<trkpt lat="40.631074123084545" lon="14.489924758672714">
<ele>307</ele>
</trkpt>
<trkpt lat="40.631150901317596" lon="14.489759551361203">
<ele>304</ele>
</trkpt>
<trkpt lat="40.631198342889547" lon="14.489671625196934">
<ele>302</ele>
</trkpt>
<trkpt lat="40.631106477230787" lon="14.489678582176566">
<ele>300</ele>
</trkpt>
<trkpt lat="40.630984604358673" lon="14.489764831960201">
<ele>298</ele>
</trkpt>
<trkpt lat="40.630872203037143" lon="14.48984638787806">
<ele>296</ele>
</trkpt>
<trkpt lat="40.630905060097575" lon="14.489752175286412">
<ele>294</ele>
</trkpt>
<trkpt lat="40.630883602425456" lon="14.489718731492758">
<ele>292</ele>
</trkpt>
<trkpt lat="40.630791904404759" lon="14.489802215248346">
<ele>290</ele>
</trkpt>
<trkpt lat="40.630816714838147" lon="14.489722084254026">
<ele>287</ele>
</trkpt>
<trkpt lat="40.630854098126292" lon="14.489651340991259">
<ele>285</ele>
</trkpt>
<trkpt lat="40.630727866664529" lon="14.489634158089757">
<ele>283</ele>
</trkpt>
<trkpt lat="40.630673300474882" lon="14.489580178633332">
<ele>281</ele>
</trkpt>
<trkpt lat="40.630773045122623" lon="14.489521170035005">
<ele>279</ele>
</trkpt>
<trkpt lat="40.630845045670867" lon="14.489469872787595">
<ele>277</ele>
</trkpt>
<trkpt lat="40.630922913551331" lon="14.489332661032677">
<ele>275</ele>
</trkpt>
<trkpt lat="40.630841525271535" lon="14.489319585263729">
<ele>273</ele>
</trkpt>
<trkpt lat="40.6307328119874" lon="14.489298798143864">
<ele>271</ele>
</trkpt>
<trkpt lat="40.630711102858186" lon="14.489356549456716">
<ele>269</ele>
</trkpt>
<trkpt lat="40.630584200844169" lon="14.489436680451035">
<ele>267</ele>
</trkpt>
<trkpt lat="40.630479427054524" lon="14.4894696213305">
<ele>265</ele>
</trkpt>
<trkpt lat="40.630390578880906" lon="14.489546315744519">
<ele>263</ele>
</trkpt>
<trkpt lat="40.630312459543347" lon="14.489630050957203">
<ele>261</ele>
</trkpt>
<trkpt lat="40.630304664373398" lon="14.489533575251698">
<ele>259</ele>
</trkpt>
<trkpt lat="40.630362750962377" lon="14.489467442035675">
<ele>256</ele>
</trkpt>
<trkpt lat="40.630446150898933" lon="14.489388316869736">
<ele>254</ele>
</trkpt>
<trkpt lat="40.63051831908524" lon="14.489315142855048">
<ele>252</ele>
</trkpt>
<trkpt lat="40.630536926910281" lon="14.489243729040027">
<ele>249</ele>
</trkpt>
<trkpt lat="40.630647568032146" lon="14.4891138933599">
<ele>246</ele>
</trkpt>
<trkpt lat="40.630612866953015" lon="14.489103583618999">
<ele>244</ele>
</trkpt>
<trkpt lat="40.630497364327312" lon="14.489202322438359">
<ele>242</ele>
</trkpt>
<trkpt lat="40.630379347130656" lon="14.489173153415322">
<ele>239</ele>
</trkpt>
<trkpt lat="40.63031354919076" lon="14.489142391830683">
<ele>236</ele>
</trkpt>
<trkpt lat="40.630395021289587" lon="14.48912026360631">
<ele>234</ele>
</trkpt>
<trkpt lat="40.630478421226144" lon="14.489037869498134">
<ele>232</ele>
</trkpt>
<trkpt lat="40.630561737343669" lon="14.488896131515503">
<ele>230</ele>
</trkpt>
<trkpt lat="40.630644215270877" lon="14.488841816782951">
<ele>227</ele>
</trkpt>
<trkpt lat="40.630752593278885" lon="14.488782305270433">
<ele>225</ele>
</trkpt>
<trkpt lat="40.630866084247828" lon="14.488713825121522">
<ele>223</ele>
</trkpt>
<trkpt lat="40.631003547459841" lon="14.488669820129871">
<ele>221</ele>
</trkpt>
<trkpt lat="40.631171436980367" lon="14.488610979169607">
<ele>219</ele>
</trkpt>
<trkpt lat="40.631241509690881" lon="14.488640148192644">
<ele>216</ele>
</trkpt>
<trkpt lat="40.63133966177702" lon="14.488621540367603">
<ele>214</ele>
</trkpt>
<trkpt lat="40.63138316385448" lon="14.488649033010006">
<ele>212</ele>
</trkpt>
<trkpt lat="40.63138953410089" lon="14.488647356629372">
<ele>209</ele>
</trkpt>
<trkpt lat="40.631546946242452" lon="14.488624725490808">
<ele>206</ele>
</trkpt>
<trkpt lat="40.631559602916241" lon="14.488615086302161">
<ele>204</ele>
</trkpt>
<trkpt lat="40.631657419726253" lon="14.488419033586979">
<ele>201</ele>
</trkpt>
<trkpt lat="40.631709136068821" lon="14.488268243148923">
<ele>198</ele>
</trkpt>
<trkpt lat="40.6316480319947" lon="14.48827100917697">
<ele>195</ele>
</trkpt>
<trkpt lat="40.631571840494871" lon="14.48831451125443">
<ele>192</ele>
</trkpt>
<trkpt lat="40.631616432219744" lon="14.48821384459734">
<ele>190</ele>
</trkpt>
<trkpt lat="40.631679799407721" lon="14.488114351406693">
<ele>187</ele>
</trkpt>
<trkpt lat="40.631697233766317" lon="14.488021228462458">
<ele>184</ele>
</trkpt>
<trkpt lat="40.631698239594698" lon="14.487853422760963">
<ele>180</ele>
</trkpt>
<trkpt lat="40.631581647321582" lon="14.487992059439421">
<ele>177</ele>
</trkpt>
<trkpt lat="40.631533870473504" lon="14.488003710284829">
<ele>174</ele>
</trkpt>
<trkpt lat="40.63153806142509" lon="14.487804807722569">
<ele>170</ele>
</trkpt>
<trkpt lat="40.631545353680849" lon="14.487719815224409">
<ele>166</ele>
</trkpt>
<trkpt lat="40.631490116938949" lon="14.48766952380538">
<ele>163</ele>
</trkpt>
<trkpt lat="40.631490536034107" lon="14.48754882439971">
<ele>160</ele>
</trkpt>
<trkpt lat="40.631454326212406" lon="14.487514207139611">
<ele>156</ele>
</trkpt>
<trkpt lat="40.63142373226583" lon="14.487481266260147">
<ele>152</ele>
</trkpt>
<trkpt lat="40.631347121670842" lon="14.487410187721252">
<ele>149</ele>
</trkpt>
<trkpt lat="40.631320718675852" lon="14.487386550754309">
<ele>145</ele>
</trkpt>
<trkpt lat="40.631342511624098" lon="14.487312287092209">
<ele>141</ele>
</trkpt>
<trkpt lat="40.63129129819572" lon="14.487178511917591">
<ele>138</ele>
</trkpt>
<trkpt lat="40.631225584074855" lon="14.487157724797726">
<ele>134</ele>
</trkpt>
<trkpt lat="40.631114775314927" lon="14.487250680103898">
<ele>130</ele>
</trkpt>
<trkpt lat="40.631058868020773" lon="14.48731429874897">
<ele>126</ele>
</trkpt>
<trkpt lat="40.631038919091225" lon="14.487460479140282">
<ele>122</ele>
</trkpt>
<trkpt lat="40.631023328751326" lon="14.487508675083518">
<ele>119</ele>
</trkpt>
<trkpt lat="40.630975468084216" lon="14.487473554909229">
<ele>115</ele>
</trkpt>
<trkpt lat="40.630869101732969" lon="14.487555781379342">
<ele>111</ele>
</trkpt>
<trkpt lat="40.630674976855516" lon="14.487565588206053">
<ele>107</ele>
</trkpt>
<trkpt lat="40.630539525300264" lon="14.487539855763316">
<ele>104</ele>
</trkpt>
<trkpt lat="40.630443301051855" lon="14.487494425848126">
<ele>100</ele>
</trkpt>
<trkpt lat="40.630385633558035" lon="14.48744329623878">
<ele>96</ele>
</trkpt>
</trkseg>
</trk>
</gpx>
