<?xml version="1.0" encoding="UTF-8"?>
<gpx version="1.1"
creator="Smartprofil-Office - http://www.rother.de"
xmlns:xsi="http://www.w3.org/2001/XMLSchema-instance"
xmlns="http://www.topografix.com/GPX/1/1"
xsi:schemaLocation="http://www.topografix.com/GPX/1/1 http://www.topografix.com/GPX/1/1/gpx.xsd">
<metadata>

<bounds minlat="40.611055875197053" minlon="14.343744115903974" maxlat="40.63411901704967" maxlon="14.375813445076346"/>
</metadata>
<wpt lat="40.626452006399632" lon="14.375729039311409">
<ele>53</ele>
<name>35_Sorrento Piazza Tasso (1)</name>
<cmt></cmt>
<desc></desc>
<sym>Crossing</sym>
</wpt>

<wpt lat="40.625186003744602" lon="14.355592019855976">
<ele>130</ele>
<name>35_Verzweigung Pantano (2)</name>
<cmt></cmt>
<desc></desc>
<sym>Crossing</sym>
</wpt>

<wpt lat="40.63411901704967" lon="14.351194035261869">
<ele>10</ele>
<name>35_Villa di Pollio (3)</name>
<cmt></cmt>
<desc></desc>
<sym>Crossing</sym>
</wpt>

<wpt lat="40.611921977251768" lon="14.343885015696287">
<ele>137</ele>
<name>35_Massa Lubrense (4)</name>
<cmt></cmt>
<desc></desc>
<sym>Crossing</sym>
</wpt>

<trk>
<name>Neapel_35_Sorrento - Massa Lubrense</name>
<trkseg>
<trkpt lat="40.626452006399632" lon="14.375729039311409">
<ele>53</ele>
</trkpt>
<trkpt lat="40.626444211229682" lon="14.375772122293711">
<ele>53</ele>
</trkpt>
<trkpt lat="40.626438427716494" lon="14.375796681270003">
<ele>53</ele>
</trkpt>
<trkpt lat="40.626422250643373" lon="14.375796848908067">
<ele>53</ele>
</trkpt>
<trkpt lat="40.626396434381604" lon="14.375813445076346">
<ele>53</ele>
</trkpt>
<trkpt lat="40.626299288123846" lon="14.375700037926435">
<ele>53</ele>
</trkpt>
<trkpt lat="40.626207087188959" lon="14.375557210296392">
<ele>53</ele>
</trkpt>
<trkpt lat="40.626159561797976" lon="14.375447072088718">
<ele>53</ele>
</trkpt>
<trkpt lat="40.626128548756242" lon="14.375388901680708">
<ele>53</ele>
</trkpt>
<trkpt lat="40.626097535714507" lon="14.37524976208806">
<ele>53</ele>
</trkpt>
<trkpt lat="40.626070881262422" lon="14.375093020498753">
<ele>53</ele>
</trkpt>
<trkpt lat="40.626061912626028" lon="14.375033173710108">
<ele>53</ele>
</trkpt>
<trkpt lat="40.62553477473557" lon="14.373141964897513">
<ele>53</ele>
</trkpt>
<trkpt lat="40.625474760308862" lon="14.3729302380234">
<ele>53</ele>
</trkpt>
<trkpt lat="40.625039907172322" lon="14.371090410277247">
<ele>53</ele>
</trkpt>
<trkpt lat="40.624927170574665" lon="14.370676595717669">
<ele>54</ele>
</trkpt>
<trkpt lat="40.62483019195497" lon="14.370451960712671">
<ele>54</ele>
</trkpt>
<trkpt lat="40.624676048755646" lon="14.369645034894347">
<ele>54</ele>
</trkpt>
<trkpt lat="40.623891334980726" lon="14.367094924673438">
<ele>54</ele>
</trkpt>
<trkpt lat="40.623908098787069" lon="14.367011524736881">
<ele>54</ele>
</trkpt>
<trkpt lat="40.623928047716618" lon="14.366834666579962">
<ele>54</ele>
</trkpt>
<trkpt lat="40.623921845108271" lon="14.366813460364938">
<ele>54</ele>
</trkpt>
<trkpt lat="40.623957635834813" lon="14.366756547242403">
<ele>54</ele>
</trkpt>
<trkpt lat="40.623979428783059" lon="14.366717906668782">
<ele>54</ele>
</trkpt>
<trkpt lat="40.62414069660008" lon="14.36650475487113">
<ele>54</ele>
</trkpt>
<trkpt lat="40.624178163707256" lon="14.366465779021382">
<ele>54</ele>
</trkpt>
<trkpt lat="40.624339347705245" lon="14.366200743243098">
<ele>55</ele>
</trkpt>
<trkpt lat="40.624430291354656" lon="14.366068812087178">
<ele>55</ele>
</trkpt>
<trkpt lat="40.624546380713582" lon="14.365918356925249">
<ele>55</ele>
</trkpt>
<trkpt lat="40.624547554180026" lon="14.365924810990691">
<ele>55</ele>
</trkpt>
<trkpt lat="40.624664733186364" lon="14.365809476003051">
<ele>55</ele>
</trkpt>
<trkpt lat="40.624771350994706" lon="14.365724483504891">
<ele>56</ele>
</trkpt>
<trkpt lat="40.624905629083514" lon="14.365706043317914">
<ele>57</ele>
</trkpt>
<trkpt lat="40.62505935318768" lon="14.365636976435781">
<ele>57</ele>
</trkpt>
<trkpt lat="40.625300835818052" lon="14.365485934540629">
<ele>58</ele>
</trkpt>
<trkpt lat="40.625394629314542" lon="14.365472523495555">
<ele>59</ele>
</trkpt>
<trkpt lat="40.625502420589328" lon="14.365422315895557">
<ele>60</ele>
</trkpt>
<trkpt lat="40.625542569905519" lon="14.365370851010084">
<ele>61</ele>
</trkpt>
<trkpt lat="40.625645080581307" lon="14.365284685045481">
<ele>61</ele>
</trkpt>
<trkpt lat="40.62570434063673" lon="14.365270351991057">
<ele>62</ele>
</trkpt>
<trkpt lat="40.625900225713849" lon="14.365180833265185">
<ele>63</ele>
</trkpt>
<trkpt lat="40.626006089150906" lon="14.365051249042153">
<ele>64</ele>
</trkpt>
<trkpt lat="40.625988822430372" lon="14.36499735340476">
<ele>65</ele>
</trkpt>
<trkpt lat="40.625950433313847" lon="14.365013195201755">
<ele>66</ele>
</trkpt>
<trkpt lat="40.625922018662095" lon="14.365032808855176">
<ele>67</ele>
</trkpt>
<trkpt lat="40.625829817727208" lon="14.365071197971702">
<ele>68</ele>
</trkpt>
<trkpt lat="40.625737197697163" lon="14.365077316761017">
<ele>70</ele>
</trkpt>
<trkpt lat="40.625633765012026" lon="14.365184940397739">
<ele>71</ele>
</trkpt>
<trkpt lat="40.62560317106545" lon="14.365215450525284">
<ele>72</ele>
</trkpt>
<trkpt lat="40.625520190224051" lon="14.365280158817768">
<ele>73</ele>
</trkpt>
<trkpt lat="40.625400831922889" lon="14.365392560139298">
<ele>74</ele>
</trkpt>
<trkpt lat="40.625358754768968" lon="14.365354925394058">
<ele>76</ele>
</trkpt>
<trkpt lat="40.625448692589998" lon="14.365268591791391">
<ele>78</ele>
</trkpt>
<trkpt lat="40.625508958473802" lon="14.36517077498138">
<ele>79</ele>
</trkpt>
<trkpt lat="40.625563273206353" lon="14.365101121366024">
<ele>81</ele>
</trkpt>
<trkpt lat="40.62562907114625" lon="14.364989222958684">
<ele>83</ele>
</trkpt>
<trkpt lat="40.625688666477799" lon="14.364910181611776">
<ele>85</ele>
</trkpt>
<trkpt lat="40.625779442489147" lon="14.364779843017459">
<ele>87</ele>
</trkpt>
<trkpt lat="40.625881869345903" lon="14.36468412168324">
<ele>88</ele>
</trkpt>
<trkpt lat="40.625973232090473" lon="14.364637853577733">
<ele>90</ele>
</trkpt>
<trkpt lat="40.626104827970266" lon="14.364513130858541">
<ele>92</ele>
</trkpt>
<trkpt lat="40.626187222078443" lon="14.364457726478577">
<ele>94</ele>
</trkpt>
<trkpt lat="40.626265173777938" lon="14.364429814741015">
<ele>96</ele>
</trkpt>
<trkpt lat="40.626327032223344" lon="14.3643166590482">
<ele>98</ele>
</trkpt>
<trkpt lat="40.626347735524178" lon="14.364305678755045">
<ele>100</ele>
</trkpt>
<trkpt lat="40.626386040821671" lon="14.364166203886271">
<ele>102</ele>
</trkpt>
<trkpt lat="40.626452760770917" lon="14.364059586077929">
<ele>104</ele>
</trkpt>
<trkpt lat="40.626496095210314" lon="14.363932181149721">
<ele>106</ele>
</trkpt>
<trkpt lat="40.626560719683766" lon="14.363845093175769">
<ele>108</ele>
</trkpt>
<trkpt lat="40.626614531502128" lon="14.363779798150063">
<ele>110</ele>
</trkpt>
<trkpt lat="40.626675635576248" lon="14.363684747368097">
<ele>112</ele>
</trkpt>
<trkpt lat="40.626684939488769" lon="14.363609980791807">
<ele>114</ele>
</trkpt>
<trkpt lat="40.626653674989939" lon="14.363495903089643">
<ele>116</ele>
</trkpt>
<trkpt lat="40.626649903133512" lon="14.363405629992485">
<ele>117</ele>
</trkpt>
<trkpt lat="40.626646382734179" lon="14.363257689401507">
<ele>119</ele>
</trkpt>
<trkpt lat="40.626661218702793" lon="14.363155011087656">
<ele>121</ele>
</trkpt>
<trkpt lat="40.626612603664398" lon="14.363058870658278">
<ele>123</ele>
</trkpt>
<trkpt lat="40.626529706642032" lon="14.362985361367464">
<ele>125</ele>
</trkpt>
<trkpt lat="40.62652375549078" lon="14.362986283376813">
<ele>126</ele>
</trkpt>
<trkpt lat="40.626468602567911" lon="14.362929202616215">
<ele>128</ele>
</trkpt>
<trkpt lat="40.626402636989951" lon="14.362870780751109">
<ele>130</ele>
</trkpt>
<trkpt lat="40.62633809633553" lon="14.362897854298353">
<ele>130</ele>
</trkpt>
<trkpt lat="40.626321248710155" lon="14.362900955602527">
<ele>129</ele>
</trkpt>
<trkpt lat="40.626246398314834" lon="14.362637428566813">
<ele>129</ele>
</trkpt>
<trkpt lat="40.626134919002652" lon="14.362418409436941">
<ele>129</ele>
</trkpt>
<trkpt lat="40.625989157706499" lon="14.362214393913746">
<ele>128</ele>
</trkpt>
<trkpt lat="40.625956300646067" lon="14.362164521589875">
<ele>128</ele>
</trkpt>
<trkpt lat="40.625786148011684" lon="14.361988166347146">
<ele>128</ele>
</trkpt>
<trkpt lat="40.625670393928885" lon="14.361878866329789">
<ele>128</ele>
</trkpt>
<trkpt lat="40.625646254047751" lon="14.361861012876034">
<ele>127</ele>
</trkpt>
<trkpt lat="40.625512730330229" lon="14.361828910186887">
<ele>127</ele>
</trkpt>
<trkpt lat="40.625455901026726" lon="14.361742408946157">
<ele>128</ele>
</trkpt>
<trkpt lat="40.62544584274292" lon="14.361717263236642">
<ele>128</ele>
</trkpt>
<trkpt lat="40.625291615724564" lon="14.361500423401594">
<ele>128</ele>
</trkpt>
<trkpt lat="40.625235708430409" lon="14.361358853057027">
<ele>129</ele>
</trkpt>
<trkpt lat="40.625163875520229" lon="14.361209068447351">
<ele>130</ele>
</trkpt>
<trkpt lat="40.625053737312555" lon="14.361117202788591">
<ele>130</ele>
</trkpt>
<trkpt lat="40.625022640451789" lon="14.361096248030663">
<ele>130</ele>
</trkpt>
<trkpt lat="40.624872939661145" lon="14.360987283289433">
<ele>131</ele>
</trkpt>
<trkpt lat="40.624743942171335" lon="14.360890807583928">
<ele>132</ele>
</trkpt>
<trkpt lat="40.624566832557321" lon="14.360756278038025">
<ele>132</ele>
</trkpt>
<trkpt lat="40.624400703236461" lon="14.360712440684438">
<ele>132</ele>
</trkpt>
<trkpt lat="40.624226862564683" lon="14.360611774027348">
<ele>133</ele>
</trkpt>
<trkpt lat="40.624067187309265" lon="14.360508257523179">
<ele>133</ele>
</trkpt>
<trkpt lat="40.623869122937322" lon="14.360491242259741">
<ele>133</ele>
</trkpt>
<trkpt lat="40.623715482652187" lon="14.360520243644714">
<ele>134</ele>
</trkpt>
<trkpt lat="40.623543988913298" lon="14.360464671626687">
<ele>134</ele>
</trkpt>
<trkpt lat="40.623342907056212" lon="14.360344475135207">
<ele>134</ele>
</trkpt>
<trkpt lat="40.623157666996121" lon="14.360210113227367">
<ele>134</ele>
</trkpt>
<trkpt lat="40.623037219047546" lon="14.360134257003665">
<ele>135</ele>
</trkpt>
<trkpt lat="40.622900761663914" lon="14.360077260062099">
<ele>135</ele>
</trkpt>
<trkpt lat="40.622928338125348" lon="14.360021352767944">
<ele>135</ele>
</trkpt>
<trkpt lat="40.623064544051886" lon="14.35988774523139">
<ele>135</ele>
</trkpt>
<trkpt lat="40.623168060556054" lon="14.359805015847087">
<ele>135</ele>
</trkpt>
<trkpt lat="40.623161690309644" lon="14.359723376110196">
<ele>135</ele>
</trkpt>
<trkpt lat="40.623070746660233" lon="14.35956328175962">
<ele>135</ele>
</trkpt>
<trkpt lat="40.623033195734024" lon="14.359370665624738">
<ele>135</ele>
</trkpt>
<trkpt lat="40.622990615665913" lon="14.359183665364981">
<ele>135</ele>
</trkpt>
<trkpt lat="40.622984832152724" lon="14.359098337590694">
<ele>135</ele>
</trkpt>
<trkpt lat="40.622995560988784" lon="14.358940757811069">
<ele>135</ele>
</trkpt>
<trkpt lat="40.623077619820833" lon="14.358817795291543">
<ele>135</ele>
</trkpt>
<trkpt lat="40.623143082484603" lon="14.358796589076519">
<ele>135</ele>
</trkpt>
<trkpt lat="40.623298985883594" lon="14.358688546344638">
<ele>136</ele>
</trkpt>
<trkpt lat="40.623427229002118" lon="14.358481261879206">
<ele>136</ele>
</trkpt>
<trkpt lat="40.623575085774064" lon="14.358378751203418">
<ele>136</ele>
</trkpt>
<trkpt lat="40.623743729665875" lon="14.358291579410434">
<ele>136</ele>
</trkpt>
<trkpt lat="40.623778011649847" lon="14.358286550268531">
<ele>137</ele>
</trkpt>
<trkpt lat="40.624033408239484" lon="14.358312953263521">
<ele>137</ele>
</trkpt>
<trkpt lat="40.624168356880546" lon="14.358247071504593">
<ele>137</ele>
</trkpt>
<trkpt lat="40.624331133440137" lon="14.358118241652846">
<ele>138</ele>
</trkpt>
<trkpt lat="40.624376898631454" lon="14.35808127745986">
<ele>138</ele>
</trkpt>
<trkpt lat="40.62442610040307" lon="14.357964182272553">
<ele>137</ele>
</trkpt>
<trkpt lat="40.624515535309911" lon="14.357819929718971">
<ele>137</ele>
</trkpt>
<trkpt lat="40.62453649006784" lon="14.35780132189393">
<ele>136</ele>
</trkpt>
<trkpt lat="40.624610921368003" lon="14.357697889208794">
<ele>135</ele>
</trkpt>
<trkpt lat="40.624702787026763" lon="14.357579536736012">
<ele>134</ele>
</trkpt>
<trkpt lat="40.624823570251465" lon="14.357354901731014">
<ele>134</ele>
</trkpt>
<trkpt lat="40.624926500022411" lon="14.357142252847552">
<ele>133</ele>
</trkpt>
<trkpt lat="40.624890541657805" lon="14.357019206508994">
<ele>132</ele>
</trkpt>
<trkpt lat="40.624848967418075" lon="14.35679079964757">
<ele>132</ele>
</trkpt>
<trkpt lat="40.624835304915905" lon="14.356569601222873">
<ele>131</ele>
</trkpt>
<trkpt lat="40.624779229983687" lon="14.356287634000182">
<ele>131</ele>
</trkpt>
<trkpt lat="40.624834885820746" lon="14.356205239892006">
<ele>131</ele>
</trkpt>
<trkpt lat="40.62486925162375" lon="14.356140699237585">
<ele>131</ele>
</trkpt>
<trkpt lat="40.62496648170054" lon="14.355937270447612">
<ele>130</ele>
</trkpt>
<trkpt lat="40.625037476420403" lon="14.355778601020575">
<ele>130</ele>
</trkpt>
<trkpt lat="40.625068238005042" lon="14.355714898556471">
<ele>130</ele>
</trkpt>
<trkpt lat="40.625126324594021" lon="14.355626637116075">
<ele>130</ele>
</trkpt>
<trkpt lat="40.625186003744602" lon="14.355592019855976">
<ele>130</ele>
</trkpt>
<trkpt lat="40.625229002907872" lon="14.355573914945126">
<ele>130</ele>
</trkpt>
<trkpt lat="40.625269906595349" lon="14.355575926601887">
<ele>129</ele>
</trkpt>
<trkpt lat="40.625323802232742" lon="14.355538040399551">
<ele>129</ele>
</trkpt>
<trkpt lat="40.625451961532235" lon="14.355565197765827">
<ele>128</ele>
</trkpt>
<trkpt lat="40.625621611252427" lon="14.355589421465993">
<ele>128</ele>
</trkpt>
<trkpt lat="40.62576393596828" lon="14.355593612417579">
<ele>128</ele>
</trkpt>
<trkpt lat="40.625967867672443" lon="14.35563518665731">
<ele>127</ele>
</trkpt>
<trkpt lat="40.626149168238044" lon="14.355665361508727">
<ele>127</ele>
</trkpt>
<trkpt lat="40.626336000859737" lon="14.355600653216243">
<ele>126</ele>
</trkpt>
<trkpt lat="40.62649299390614" lon="14.355504512786865">
<ele>126</ele>
</trkpt>
<trkpt lat="40.626645796000957" lon="14.355472074821591">
<ele>124</ele>
</trkpt>
<trkpt lat="40.626775547862053" lon="14.355496549978852">
<ele>122</ele>
</trkpt>
<trkpt lat="40.626875711604953" lon="14.3554646987468">
<ele>120</ele>
</trkpt>
<trkpt lat="40.627085845917463" lon="14.355504177510738">
<ele>118</ele>
</trkpt>
<trkpt lat="40.627277959138155" lon="14.355578608810902">
<ele>116</ele>
</trkpt>
<trkpt lat="40.627408046275377" lon="14.355609202757478">
<ele>114</ele>
</trkpt>
<trkpt lat="40.62755523249507" lon="14.355556815862656">
<ele>112</ele>
</trkpt>
<trkpt lat="40.627768216654658" lon="14.355491520836949">
<ele>110</ele>
</trkpt>
<trkpt lat="40.627893442288041" lon="14.355437206104398">
<ele>108</ele>
</trkpt>
<trkpt lat="40.62805462628603" lon="14.355386830866337">
<ele>106</ele>
</trkpt>
<trkpt lat="40.628133835271001" lon="14.355380712077022">
<ele>104</ele>
</trkpt>
<trkpt lat="40.628270041197538" lon="14.355232771486044">
<ele>102</ele>
</trkpt>
<trkpt lat="40.628372132778168" lon="14.355122465640306">
<ele>101</ele>
</trkpt>
<trkpt lat="40.62851588241756" lon="14.355005370453">
<ele>99</ele>
</trkpt>
<trkpt lat="40.628642784431577" lon="14.354866649955511">
<ele>97</ele>
</trkpt>
<trkpt lat="40.628739511594176" lon="14.354807054623961">
<ele>95</ele>
</trkpt>
<trkpt lat="40.628871861845255" lon="14.354726672172546">
<ele>93</ele>
</trkpt>
<trkpt lat="40.628937827423215" lon="14.354645954445004">
<ele>92</ele>
</trkpt>
<trkpt lat="40.628967499360442" lon="14.354621060192585">
<ele>90</ele>
</trkpt>
<trkpt lat="40.629137065261602" lon="14.354459876194596">
<ele>88</ele>
</trkpt>
<trkpt lat="40.629316857084632" lon="14.354298859834671">
<ele>87</ele>
</trkpt>
<trkpt lat="40.629476616159081" lon="14.354223841801286">
<ele>86</ele>
</trkpt>
<trkpt lat="40.629628915339708" lon="14.354281006380916">
<ele>84</ele>
</trkpt>
<trkpt lat="40.629676776006818" lon="14.35429927892983">
<ele>83</ele>
</trkpt>
<trkpt lat="40.629845168441534" lon="14.354464570060372">
<ele>82</ele>
</trkpt>
<trkpt lat="40.629923874512315" lon="14.354487452656031">
<ele>81</ele>
</trkpt>
<trkpt lat="40.630118837580085" lon="14.354341104626656">
<ele>80</ele>
</trkpt>
<trkpt lat="40.630285553634167" lon="14.354149829596281">
<ele>78</ele>
</trkpt>
<trkpt lat="40.630456544458866" lon="14.354008175432682">
<ele>77</ele>
</trkpt>
<trkpt lat="40.630579590797424" lon="14.353942377492785">
<ele>76</ele>
</trkpt>
<trkpt lat="40.630594091489911" lon="14.353962577879429">
<ele>74</ele>
</trkpt>
<trkpt lat="40.630610771477222" lon="14.353981437161565">
<ele>72</ele>
</trkpt>
<trkpt lat="40.630781846120954" lon="14.354082606732845">
<ele>70</ele>
</trkpt>
<trkpt lat="40.630829371511936" lon="14.354100879281759">
<ele>68</ele>
</trkpt>
<trkpt lat="40.630989382043481" lon="14.35402519069612">
<ele>66</ele>
</trkpt>
<trkpt lat="40.63112273812294" lon="14.353950591757894">
<ele>65</ele>
</trkpt>
<trkpt lat="40.631265733391047" lon="14.353871466591954">
<ele>63</ele>
</trkpt>
<trkpt lat="40.631406549364328" lon="14.353780103847384">
<ele>61</ele>
</trkpt>
<trkpt lat="40.631558764725924" lon="14.35367725789547">
<ele>59</ele>
</trkpt>
<trkpt lat="40.631749620661139" lon="14.353547506034374">
<ele>57</ele>
</trkpt>
<trkpt lat="40.631873924285173" lon="14.353437619283795">
<ele>55</ele>
</trkpt>
<trkpt lat="40.631977189332247" lon="14.353353716433048">
<ele>53</ele>
</trkpt>
<trkpt lat="40.632093278691173" lon="14.353248188272119">
<ele>51</ele>
</trkpt>
<trkpt lat="40.632213642820716" lon="14.353205021470785">
<ele>49</ele>
</trkpt>
<trkpt lat="40.632262090221047" lon="14.353228490799665">
<ele>46</ele>
</trkpt>
<trkpt lat="40.632369797676802" lon="14.353343490511179">
<ele>44</ele>
</trkpt>
<trkpt lat="40.632532741874456" lon="14.353264616802335">
<ele>42</ele>
</trkpt>
<trkpt lat="40.632637767121196" lon="14.353220527991652">
<ele>40</ele>
</trkpt>
<trkpt lat="40.632750587537885" lon="14.353174176067114">
<ele>38</ele>
</trkpt>
<trkpt lat="40.632845303043723" lon="14.353131763637066">
<ele>36</ele>
</trkpt>
<trkpt lat="40.632981341332197" lon="14.353041155263782">
<ele>34</ele>
</trkpt>
<trkpt lat="40.633121654391289" lon="14.352975776419044">
<ele>32</ele>
</trkpt>
<trkpt lat="40.633298344910145" lon="14.35284904204309">
<ele>30</ele>
</trkpt>
<trkpt lat="40.633398843929172" lon="14.352724570780993">
<ele>28</ele>
</trkpt>
<trkpt lat="40.633469419553876" lon="14.3526482116431">
<ele>26</ele>
</trkpt>
<trkpt lat="40.633520046249032" lon="14.352565733715892">
<ele>25</ele>
</trkpt>
<trkpt lat="40.633601434528828" lon="14.35239365324378">
<ele>23</ele>
</trkpt>
<trkpt lat="40.63362205401063" lon="14.35229348950088">
<ele>21</ele>
</trkpt>
<trkpt lat="40.633535133674741" lon="14.352117637172341">
<ele>19</ele>
</trkpt>
<trkpt lat="40.633499091491103" lon="14.35190306045115">
<ele>17</ele>
</trkpt>
<trkpt lat="40.633495822548866" lon="14.351830892264843">
<ele>16</ele>
</trkpt>
<trkpt lat="40.633594058454037" lon="14.351639114320278">
<ele>15</ele>
</trkpt>
<trkpt lat="40.633681230247021" lon="14.35158547013998">
<ele>15</ele>
</trkpt>
<trkpt lat="40.633710231631994" lon="14.351558899506927">
<ele>14</ele>
</trkpt>
<trkpt lat="40.633773012086749" lon="14.351508524268866">
<ele>13</ele>
</trkpt>
<trkpt lat="40.633937381207943" lon="14.351395452395082">
<ele>12</ele>
</trkpt>
<trkpt lat="40.633977698162198" lon="14.351373910903931">
<ele>12</ele>
</trkpt>
<trkpt lat="40.634088506922126" lon="14.351269556209445">
<ele>11</ele>
</trkpt>
<trkpt lat="40.63411901704967" lon="14.351194035261869">
<ele>10</ele>
</trkpt>
<trkpt lat="40.634101247414947" lon="14.351158244535327">
<ele>11</ele>
</trkpt>
<trkpt lat="40.634077526628971" lon="14.35118867084384">
<ele>12</ele>
</trkpt>
<trkpt lat="40.633920030668378" lon="14.351368043571711">
<ele>12</ele>
</trkpt>
<trkpt lat="40.633856328204274" lon="14.351530065760016">
<ele>13</ele>
</trkpt>
<trkpt lat="40.633781058713794" lon="14.351554708555341">
<ele>14</ele>
</trkpt>
<trkpt lat="40.63369732350111" lon="14.351582787930965">
<ele>15</ele>
</trkpt>
<trkpt lat="40.633561620488763" lon="14.351665182039142">
<ele>16</ele>
</trkpt>
<trkpt lat="40.633527506142855" lon="14.351730812340975">
<ele>16</ele>
</trkpt>
<trkpt lat="40.633466569706798" lon="14.351820666342974">
<ele>17</ele>
</trkpt>
<trkpt lat="40.633469084277749" lon="14.351916471496224">
<ele>18</ele>
</trkpt>
<trkpt lat="40.633491715416312" lon="14.352124007418752">
<ele>19</ele>
</trkpt>
<trkpt lat="40.633623646572232" lon="14.352280916646123">
<ele>21</ele>
</trkpt>
<trkpt lat="40.633632028475404" lon="14.352304637432098">
<ele>22</ele>
</trkpt>
<trkpt lat="40.6335942260921" lon="14.352463306859136">
<ele>24</ele>
</trkpt>
<trkpt lat="40.633533708751202" lon="14.352534301578999">
<ele>25</ele>
</trkpt>
<trkpt lat="40.63344762660563" lon="14.352683499455452">
<ele>26</ele>
</trkpt>
<trkpt lat="40.633388785645366" lon="14.352790787816048">
<ele>28</ele>
</trkpt>
<trkpt lat="40.633316282182932" lon="14.352891286835074">
<ele>29</ele>
</trkpt>
<trkpt lat="40.633173286914825" lon="14.352945853024721">
<ele>31</ele>
</trkpt>
<trkpt lat="40.633078487589955" lon="14.353007124736905">
<ele>32</ele>
</trkpt>
<trkpt lat="40.632997686043382" lon="14.35307040810585">
<ele>34</ele>
</trkpt>
<trkpt lat="40.63290674239397" lon="14.353105025365949">
<ele>35</ele>
</trkpt>
<trkpt lat="40.632830634713173" lon="14.353155568242073">
<ele>37</ele>
</trkpt>
<trkpt lat="40.632727537304163" lon="14.353199573233724">
<ele>39</ele>
</trkpt>
<trkpt lat="40.632622512057424" lon="14.353255480527878">
<ele>40</ele>
</trkpt>
<trkpt lat="40.63251581043005" lon="14.353311974555254">
<ele>42</ele>
</trkpt>
<trkpt lat="40.632425202056766" lon="14.353339048102498">
<ele>44</ele>
</trkpt>
<trkpt lat="40.63237558118999" lon="14.353292696177959">
<ele>46</ele>
</trkpt>
<trkpt lat="40.632289247587323" lon="14.353220192715526">
<ele>47</ele>
</trkpt>
<trkpt lat="40.632180450484157" lon="14.353261347860098">
<ele>49</ele>
</trkpt>
<trkpt lat="40.632079113274813" lon="14.353297892957926">
<ele>51</ele>
</trkpt>
<trkpt lat="40.632024798542261" lon="14.353377604857087">
<ele>53</ele>
</trkpt>
<trkpt lat="40.631896052509546" lon="14.353461842983961">
<ele>54</ele>
</trkpt>
<trkpt lat="40.631753141060472" lon="14.353568125516176">
<ele>56</ele>
</trkpt>
<trkpt lat="40.631661945953965" lon="14.353647837415338">
<ele>58</ele>
</trkpt>
<trkpt lat="40.631525823846459" lon="14.353726375848055">
<ele>60</ele>
</trkpt>
<trkpt lat="40.631409818306565" lon="14.353797370567918">
<ele>62</ele>
</trkpt>
<trkpt lat="40.631309738382697" lon="14.353865096345544">
<ele>63</ele>
</trkpt>
<trkpt lat="40.631177723407745" lon="14.353937683627009">
<ele>65</ele>
</trkpt>
<trkpt lat="40.63107973895967" lon="14.353996692225337">
<ele>67</ele>
</trkpt>
<trkpt lat="40.630964068695903" lon="14.354063412174582">
<ele>68</ele>
</trkpt>
<trkpt lat="40.630855690687895" lon="14.354108758270741">
<ele>70</ele>
</trkpt>
<trkpt lat="40.630756784230471" lon="14.354086797684431">
<ele>71</ele>
</trkpt>
<trkpt lat="40.630661565810442" lon="14.353982862085104">
<ele>73</ele>
</trkpt>
<trkpt lat="40.630652597174048" lon="14.353975569829345">
<ele>74</ele>
</trkpt>
<trkpt lat="40.630547655746341" lon="14.353934749960899">
<ele>75</ele>
</trkpt>
<trkpt lat="40.630433661863208" lon="14.354085624217987">
<ele>77</ele>
</trkpt>
<trkpt lat="40.630318494513631" lon="14.354169443249702">
<ele>78</ele>
</trkpt>
<trkpt lat="40.63023149035871" lon="14.354247646406293">
<ele>80</ele>
</trkpt>
<trkpt lat="40.630085645243526" lon="14.354383265599608">
<ele>81</ele>
</trkpt>
<trkpt lat="40.629958491772413" lon="14.354455098509789">
<ele>82</ele>
</trkpt>
<trkpt lat="40.629785573109984" lon="14.354387959465384">
<ele>83</ele>
</trkpt>
<trkpt lat="40.629575354978442" lon="14.354292154312134">
<ele>84</ele>
</trkpt>
<trkpt lat="40.629489775747061" lon="14.354236079379916">
<ele>85</ele>
</trkpt>
<trkpt lat="40.629322389140725" lon="14.354308499023318">
<ele>86</ele>
</trkpt>
<trkpt lat="40.629192134365439" lon="14.354422325268388">
<ele>87</ele>
</trkpt>
<trkpt lat="40.629144525155425" lon="14.354492733255029">
<ele>88</ele>
</trkpt>
<trkpt lat="40.629017371684313" lon="14.354594573378563">
<ele>89</ele>
</trkpt>
<trkpt lat="40.628877058625221" lon="14.354690462350845">
<ele>90</ele>
</trkpt>
<trkpt lat="40.628820564597845" lon="14.354684092104435">
<ele>91</ele>
</trkpt>
<trkpt lat="40.628724256530404" lon="14.354796912521124">
<ele>93</ele>
</trkpt>
<trkpt lat="40.628603138029575" lon="14.354846784844995">
<ele>95</ele>
</trkpt>
<trkpt lat="40.628505740314722" lon="14.354931861162186">
<ele>97</ele>
</trkpt>
<trkpt lat="40.628451509401202" lon="14.354988355189562">
<ele>99</ele>
</trkpt>
<trkpt lat="40.628385543823242" lon="14.355124058201909">
<ele>100</ele>
</trkpt>
<trkpt lat="40.628294600173831" lon="14.355236794799566">
<ele>102</ele>
</trkpt>
<trkpt lat="40.628187227994204" lon="14.355311812832952">
<ele>104</ele>
</trkpt>
<trkpt lat="40.628084046766162" lon="14.355399236083031">
<ele>106</ele>
</trkpt>
<trkpt lat="40.627977764233947" lon="14.355425387620926">
<ele>108</ele>
</trkpt>
<trkpt lat="40.627881959080696" lon="14.355460004881024">
<ele>110</ele>
</trkpt>
<trkpt lat="40.627804845571518" lon="14.355511553585529">
<ele>112</ele>
</trkpt>
<trkpt lat="40.627668304368854" lon="14.355485066771507">
<ele>113</ele>
</trkpt>
<trkpt lat="40.627572918310761" lon="14.355540303513408">
<ele>114</ele>
</trkpt>
<trkpt lat="40.627431347966194" lon="14.355595540255308">
<ele>116</ele>
</trkpt>
<trkpt lat="40.62730704434216" lon="14.355563521385193">
<ele>118</ele>
</trkpt>
<trkpt lat="40.627196570858359" lon="14.355542985722423">
<ele>119</ele>
</trkpt>
<trkpt lat="40.627085426822305" lon="14.355458663776517">
<ele>120</ele>
</trkpt>
<trkpt lat="40.626969756558537" lon="14.35546905733645">
<ele>122</ele>
</trkpt>
<trkpt lat="40.626842100173235" lon="14.355484480038285">
<ele>124</ele>
</trkpt>
<trkpt lat="40.6267074868083" lon="14.355485988780856">
<ele>125</ele>
</trkpt>
<trkpt lat="40.62662685289979" lon="14.355482133105397">
<ele>125</ele>
</trkpt>
<trkpt lat="40.626470698043704" lon="14.355521779507399">
<ele>125</ele>
</trkpt>
<trkpt lat="40.626371540129185" lon="14.355568634346128">
<ele>126</ele>
</trkpt>
<trkpt lat="40.626356285065413" lon="14.355584057047963">
<ele>126</ele>
</trkpt>
<trkpt lat="40.62624229118228" lon="14.355646669864655">
<ele>126</ele>
</trkpt>
<trkpt lat="40.626149252057076" lon="14.355680868029594">
<ele>126</ele>
</trkpt>
<trkpt lat="40.62611966393888" lon="14.355679107829928">
<ele>126</ele>
</trkpt>
<trkpt lat="40.626012878492475" lon="14.355637868866324">
<ele>127</ele>
</trkpt>
<trkpt lat="40.625979183241725" lon="14.355639712885022">
<ele>127</ele>
</trkpt>
<trkpt lat="40.62585337087512" lon="14.355613645166159">
<ele>127</ele>
</trkpt>
<trkpt lat="40.625672321766615" lon="14.355605766177177">
<ele>128</ele>
</trkpt>
<trkpt lat="40.625506862998009" lon="14.35560735873878">
<ele>128</ele>
</trkpt>
<trkpt lat="40.625343667343259" lon="14.355587158352137">
<ele>128</ele>
</trkpt>
<trkpt lat="40.625243503600359" lon="14.355584559962153">
<ele>129</ele>
</trkpt>
<trkpt lat="40.625211484730244" lon="14.355579949915409">
<ele>130</ele>
</trkpt>
<trkpt lat="40.625186003744602" lon="14.355592019855976">
<ele>130</ele>
</trkpt>
<trkpt lat="40.625168737024069" lon="14.355550026521087">
<ele>131</ele>
</trkpt>
<trkpt lat="40.625169239938259" lon="14.355533262714744">
<ele>132</ele>
</trkpt>
<trkpt lat="40.625156247988343" lon="14.355406276881695">
<ele>134</ele>
</trkpt>
<trkpt lat="40.625117439776659" lon="14.355280548334122">
<ele>135</ele>
</trkpt>
<trkpt lat="40.625090952962637" lon="14.355135625228286">
<ele>136</ele>
</trkpt>
<trkpt lat="40.62505298294127" lon="14.355024229735136">
<ele>137</ele>
</trkpt>
<trkpt lat="40.625008307397366" lon="14.354907721281052">
<ele>138</ele>
</trkpt>
<trkpt lat="40.624928679317236" lon="14.354732623323798">
<ele>140</ele>
</trkpt>
<trkpt lat="40.62487025745213" lon="14.354634722694755">
<ele>141</ele>
</trkpt>
<trkpt lat="40.624850392341614" lon="14.35456607490778">
<ele>142</ele>
</trkpt>
<trkpt lat="40.624785181134939" lon="14.354330459609628">
<ele>142</ele>
</trkpt>
<trkpt lat="40.624690381810069" lon="14.354117810726166">
<ele>141</ele>
</trkpt>
<trkpt lat="40.624626763164997" lon="14.353918237611651">
<ele>141</ele>
</trkpt>
<trkpt lat="40.624561300501227" lon="14.353700391948223">
<ele>140</ele>
</trkpt>
<trkpt lat="40.624578902497888" lon="14.353632917627692">
<ele>140</ele>
</trkpt>
<trkpt lat="40.624589798972011" lon="14.353543482720852">
<ele>140</ele>
</trkpt>
<trkpt lat="40.624542608857155" lon="14.353338712826371">
<ele>139</ele>
</trkpt>
<trkpt lat="40.624505057930946" lon="14.353228574618697">
<ele>139</ele>
</trkpt>
<trkpt lat="40.624386621639132" lon="14.353166045621037">
<ele>138</ele>
</trkpt>
<trkpt lat="40.624184785410762" lon="14.353130590170622">
<ele>138</ele>
</trkpt>
<trkpt lat="40.624049669131637" lon="14.353088513016701">
<ele>138</ele>
</trkpt>
<trkpt lat="40.623958809301257" lon="14.353086920455098">
<ele>137</ele>
</trkpt>
<trkpt lat="40.623924611136317" lon="14.353094045072794">
<ele>137</ele>
</trkpt>
<trkpt lat="40.623851101845503" lon="14.353097984567285">
<ele>137</ele>
</trkpt>
<trkpt lat="40.623689750209451" lon="14.353115083649755">
<ele>136</ele>
</trkpt>
<trkpt lat="40.623580534011126" lon="14.353171829134226">
<ele>136</ele>
</trkpt>
<trkpt lat="40.623489674180746" lon="14.353216253221035">
<ele>136</ele>
</trkpt>
<trkpt lat="40.623406693339348" lon="14.35323310084641">
<ele>136</ele>
</trkpt>
<trkpt lat="40.623278366401792" lon="14.353252043947577">
<ele>135</ele>
</trkpt>
<trkpt lat="40.623169401660562" lon="14.353191694244742">
<ele>135</ele>
</trkpt>
<trkpt lat="40.623136796057224" lon="14.353142157196999">
<ele>135</ele>
</trkpt>
<trkpt lat="40.623042918741703" lon="14.353055655956268">
<ele>135</ele>
</trkpt>
<trkpt lat="40.622907467186451" lon="14.353069989010692">
<ele>135</ele>
</trkpt>
<trkpt lat="40.622804537415504" lon="14.353101002052426">
<ele>135</ele>
</trkpt>
<trkpt lat="40.622683251276612" lon="14.353132685646415">
<ele>135</ele>
</trkpt>
<trkpt lat="40.622571185231209" lon="14.353169901296496">
<ele>135</ele>
</trkpt>
<trkpt lat="40.622454676777124" lon="14.353153221309185">
<ele>135</ele>
</trkpt>
<trkpt lat="40.62233867123723" lon="14.352986169978976">
<ele>135</ele>
</trkpt>
<trkpt lat="40.622289972379804" lon="14.352916348725557">
<ele>135</ele>
</trkpt>
<trkpt lat="40.622248649597168" lon="14.352786932140589">
<ele>135</ele>
</trkpt>
<trkpt lat="40.622198106721044" lon="14.352649720385671">
<ele>136</ele>
</trkpt>
<trkpt lat="40.622222162783146" lon="14.352494152262807">
<ele>138</ele>
</trkpt>
<trkpt lat="40.622238172218204" lon="14.35232232324779">
<ele>140</ele>
</trkpt>
<trkpt lat="40.622239345684648" lon="14.352268427610397">
<ele>141</ele>
</trkpt>
<trkpt lat="40.622279746457934" lon="14.352084528654814">
<ele>142</ele>
</trkpt>
<trkpt lat="40.622340766713023" lon="14.351932061836123">
<ele>144</ele>
</trkpt>
<trkpt lat="40.622372115030885" lon="14.35178236104548">
<ele>146</ele>
</trkpt>
<trkpt lat="40.622399188578129" lon="14.351681023836136">
<ele>147</ele>
</trkpt>
<trkpt lat="40.622370857745409" lon="14.351541632786393">
<ele>148</ele>
</trkpt>
<trkpt lat="40.622340431436896" lon="14.351493855938315">
<ele>150</ele>
</trkpt>
<trkpt lat="40.622265497222543" lon="14.351361421868205">
<ele>151</ele>
</trkpt>
<trkpt lat="40.622236328199506" lon="14.351324792951345">
<ele>151</ele>
</trkpt>
<trkpt lat="40.622139852494001" lon="14.351150281727314">
<ele>152</ele>
</trkpt>
<trkpt lat="40.622112108394504" lon="14.350934782996774">
<ele>152</ele>
</trkpt>
<trkpt lat="40.622110767289996" lon="14.350695144385099">
<ele>153</ele>
</trkpt>
<trkpt lat="40.622097691521049" lon="14.350474951788783">
<ele>154</ele>
</trkpt>
<trkpt lat="40.622082771733403" lon="14.350373614579439">
<ele>154</ele>
</trkpt>
<trkpt lat="40.622048573568463" lon="14.35019969008863">
<ele>155</ele>
</trkpt>
<trkpt lat="40.622021751478314" lon="14.350126516073942">
<ele>155</ele>
</trkpt>
<trkpt lat="40.622027367353439" lon="14.349932642653584">
<ele>156</ele>
</trkpt>
<trkpt lat="40.622095596045256" lon="14.349743463099003">
<ele>156</ele>
</trkpt>
<trkpt lat="40.622175056487322" lon="14.349565599113703">
<ele>157</ele>
</trkpt>
<trkpt lat="40.622224844992161" lon="14.349370719864964">
<ele>157</ele>
</trkpt>
<trkpt lat="40.622290559113026" lon="14.349231580272317">
<ele>158</ele>
</trkpt>
<trkpt lat="40.622289385646582" lon="14.349046843126416">
<ele>158</ele>
</trkpt>
<trkpt lat="40.622249571606517" lon="14.348845425993204">
<ele>158</ele>
</trkpt>
<trkpt lat="40.622209506109357" lon="14.348712572827935">
<ele>159</ele>
</trkpt>
<trkpt lat="40.622179750353098" lon="14.348528170958161">
<ele>159</ele>
</trkpt>
<trkpt lat="40.622150916606188" lon="14.348467318341136">
<ele>160</ele>
</trkpt>
<trkpt lat="40.622057793661952" lon="14.348255675286055">
<ele>160</ele>
</trkpt>
<trkpt lat="40.622014459222555" lon="14.348144950345159">
<ele>159</ele>
</trkpt>
<trkpt lat="40.621935920789838" lon="14.347971612587571">
<ele>159</ele>
</trkpt>
<trkpt lat="40.621872888877988" lon="14.347837250679731">
<ele>158</ele>
</trkpt>
<trkpt lat="40.621805666014552" lon="14.347678497433662">
<ele>157</ele>
</trkpt>
<trkpt lat="40.621714470908046" lon="14.347507422789931">
<ele>156</ele>
</trkpt>
<trkpt lat="40.621628975495696" lon="14.347331235185266">
<ele>156</ele>
</trkpt>
<trkpt lat="40.621563764289021" lon="14.347203997895122">
<ele>155</ele>
</trkpt>
<trkpt lat="40.621445579454303" lon="14.347056308761239">
<ele>154</ele>
</trkpt>
<trkpt lat="40.62134818173945" lon="14.346939213573933">
<ele>154</ele>
</trkpt>
<trkpt lat="40.621310295537114" lon="14.346898309886456">
<ele>153</ele>
</trkpt>
<trkpt lat="40.621218178421259" lon="14.346819017082453">
<ele>153</ele>
</trkpt>
<trkpt lat="40.62108775600791" lon="14.34676269069314">
<ele>153</ele>
</trkpt>
<trkpt lat="40.620909640565515" lon="14.34670745395124">
<ele>154</ele>
</trkpt>
<trkpt lat="40.620711743831635" lon="14.34675196185708">
<ele>154</ele>
</trkpt>
<trkpt lat="40.620673019438982" lon="14.346752800047398">
<ele>154</ele>
</trkpt>
<trkpt lat="40.620564641430974" lon="14.346744334325194">
<ele>154</ele>
</trkpt>
<trkpt lat="40.62041150406003" lon="14.346815496683121">
<ele>154</ele>
</trkpt>
<trkpt lat="40.620310418307781" lon="14.346850281581283">
<ele>155</ele>
</trkpt>
<trkpt lat="40.620100116357207" lon="14.346852377057076">
<ele>155</ele>
</trkpt>
<trkpt lat="40.62005870975554" lon="14.346858831122518">
<ele>155</ele>
</trkpt>
<trkpt lat="40.620022248476744" lon="14.346861345693469">
<ele>154</ele>
</trkpt>
<trkpt lat="40.619838181883097" lon="14.346944661810994">
<ele>153</ele>
</trkpt>
<trkpt lat="40.619643051177263" lon="14.346981877461076">
<ele>151</ele>
</trkpt>
<trkpt lat="40.619512712582946" lon="14.346985733136535">
<ele>150</ele>
</trkpt>
<trkpt lat="40.619317581877112" lon="14.34704122133553">
<ele>149</ele>
</trkpt>
<trkpt lat="40.619129911065102" lon="14.347060332074761">
<ele>148</ele>
</trkpt>
<trkpt lat="40.618955483660102" lon="14.347069803625345">
<ele>147</ele>
</trkpt>
<trkpt lat="40.618870072066784" lon="14.347110623493791">
<ele>145</ele>
</trkpt>
<trkpt lat="40.618772758170962" lon="14.347112718969584">
<ele>144</ele>
</trkpt>
<trkpt lat="40.618552733212709" lon="14.347087740898132">
<ele>143</ele>
</trkpt>
<trkpt lat="40.618482576683164" lon="14.347008783370256">
<ele>142</ele>
</trkpt>
<trkpt lat="40.618468662723899" lon="14.347016913816333">
<ele>142</ele>
</trkpt>
<trkpt lat="40.618446366861463" lon="14.347041808068752">
<ele>142</ele>
</trkpt>
<trkpt lat="40.618331450968981" lon="14.34717608615756">
<ele>141</ele>
</trkpt>
<trkpt lat="40.618276130408049" lon="14.347218750044703">
<ele>140</ele>
</trkpt>
<trkpt lat="40.61815844848752" lon="14.347310615703464">
<ele>140</ele>
</trkpt>
<trkpt lat="40.618022326380014" lon="14.347346825525165">
<ele>140</ele>
</trkpt>
<trkpt lat="40.617917887866497" lon="14.34744531288743">
<ele>139</ele>
</trkpt>
<trkpt lat="40.617849491536617" lon="14.347529718652368">
<ele>138</ele>
</trkpt>
<trkpt lat="40.617806240916252" lon="14.347550002858043">
<ele>138</ele>
</trkpt>
<trkpt lat="40.617740023881197" lon="14.347635162994266">
<ele>136</ele>
</trkpt>
<trkpt lat="40.617660479620099" lon="14.347761645913124">
<ele>135</ele>
</trkpt>
<trkpt lat="40.617618570104241" lon="14.347857031971216">
<ele>133</ele>
</trkpt>
<trkpt lat="40.617543384432793" lon="14.347980665042996">
<ele>131</ele>
</trkpt>
<trkpt lat="40.617480184882879" lon="14.348114775493741">
<ele>130</ele>
</trkpt>
<trkpt lat="40.617341296747327" lon="14.348024753853679">
<ele>128</ele>
</trkpt>
<trkpt lat="40.617316486313939" lon="14.347972869873047">
<ele>126</ele>
</trkpt>
<trkpt lat="40.617245491594076" lon="14.347943868488073">
<ele>124</ele>
</trkpt>
<trkpt lat="40.617094533517957" lon="14.347945880144835">
<ele>123</ele>
</trkpt>
<trkpt lat="40.616982718929648" lon="14.347927523776889">
<ele>121</ele>
</trkpt>
<trkpt lat="40.616801837459207" lon="14.347757622599602">
<ele>122</ele>
</trkpt>
<trkpt lat="40.616750791668892" lon="14.347629966214299">
<ele>122</ele>
</trkpt>
<trkpt lat="40.616775937378407" lon="14.347392003983259">
<ele>123</ele>
</trkpt>
<trkpt lat="40.616809884086251" lon="14.347306843847036">
<ele>123</ele>
</trkpt>
<trkpt lat="40.61691340059042" lon="14.34704708866775">
<ele>124</ele>
</trkpt>
<trkpt lat="40.616893032565713" lon="14.346804516389966">
<ele>125</ele>
</trkpt>
<trkpt lat="40.616832599043846" lon="14.346684403717518">
<ele>125</ele>
</trkpt>
<trkpt lat="40.616788594052196" lon="14.346684152260423">
<ele>126</ele>
</trkpt>
<trkpt lat="40.616732016205788" lon="14.346625059843063">
<ele>126</ele>
</trkpt>
<trkpt lat="40.616563623771071" lon="14.346492374315858">
<ele>127</ele>
</trkpt>
<trkpt lat="40.616482067853212" lon="14.346495727077127">
<ele>129</ele>
</trkpt>
<trkpt lat="40.616416018456221" lon="14.346724050119519">
<ele>131</ele>
</trkpt>
<trkpt lat="40.616390118375421" lon="14.346784399822354">
<ele>134</ele>
</trkpt>
<trkpt lat="40.616317447274923" lon="14.346999395638704">
<ele>136</ele>
</trkpt>
<trkpt lat="40.616259947419167" lon="14.347099978476763">
<ele>138</ele>
</trkpt>
<trkpt lat="40.616158861666918" lon="14.347216570749879">
<ele>140</ele>
</trkpt>
<trkpt lat="40.616149557754397" lon="14.34722051024437">
<ele>142</ele>
</trkpt>
<trkpt lat="40.616049142554402" lon="14.347292678430676">
<ele>145</ele>
</trkpt>
<trkpt lat="40.615966832265258" lon="14.347417317330837">
<ele>147</ele>
</trkpt>
<trkpt lat="40.615855101495981" lon="14.347360655665398">
<ele>149</ele>
</trkpt>
<trkpt lat="40.615763906389475" lon="14.347276585176587">
<ele>150</ele>
</trkpt>
<trkpt lat="40.615686625242233" lon="14.347235346212983">
<ele>151</ele>
</trkpt>
<trkpt lat="40.615520663559437" lon="14.347302569076419">
<ele>152</ele>
</trkpt>
<trkpt lat="40.61541966162622" lon="14.347324948757887">
<ele>153</ele>
</trkpt>
<trkpt lat="40.615310277789831" lon="14.347295612096786">
<ele>154</ele>
</trkpt>
<trkpt lat="40.615227883681655" lon="14.347328385338187">
<ele>156</ele>
</trkpt>
<trkpt lat="40.615092432126403" lon="14.347323440015316">
<ele>157</ele>
</trkpt>
<trkpt lat="40.614901324734092" lon="14.347400888800621">
<ele>158</ele>
</trkpt>
<trkpt lat="40.614775093272328" lon="14.34745847247541">
<ele>159</ele>
</trkpt>
<trkpt lat="40.614698985591531" lon="14.347544303163886">
<ele>160</ele>
</trkpt>
<trkpt lat="40.614498406648636" lon="14.34750147163868">
<ele>158</ele>
</trkpt>
<trkpt lat="40.614362955093384" lon="14.347410360351205">
<ele>157</ele>
</trkpt>
<trkpt lat="40.614349879324436" lon="14.34739351272583">
<ele>156</ele>
</trkpt>
<trkpt lat="40.614223228767514" lon="14.347295193001628">
<ele>154</ele>
</trkpt>
<trkpt lat="40.614028600975871" lon="14.3472620844841">
<ele>152</ele>
</trkpt>
<trkpt lat="40.614012591540813" lon="14.347261413931847">
<ele>151</ele>
</trkpt>
<trkpt lat="40.613845456391573" lon="14.347320003435016">
<ele>150</ele>
</trkpt>
<trkpt lat="40.613821400329471" lon="14.34732704423368">
<ele>148</ele>
</trkpt>
<trkpt lat="40.613676980137825" lon="14.347285134717822">
<ele>146</ele>
</trkpt>
<trkpt lat="40.613598106428981" lon="14.347254876047373">
<ele>145</ele>
</trkpt>
<trkpt lat="40.61344220302999" lon="14.34729821048677">
<ele>144</ele>
</trkpt>
<trkpt lat="40.613424517214298" lon="14.347297791391611">
<ele>144</ele>
</trkpt>
<trkpt lat="40.613303147256374" lon="14.347148509696126">
<ele>144</ele>
</trkpt>
<trkpt lat="40.613209689036012" lon="14.347080029547215">
<ele>143</ele>
</trkpt>
<trkpt lat="40.612998297438025" lon="14.346983218565583">
<ele>142</ele>
</trkpt>
<trkpt lat="40.612864773720503" lon="14.346927898004651">
<ele>142</ele>
</trkpt>
<trkpt lat="40.612679533660412" lon="14.346845084801316">
<ele>142</ele>
</trkpt>
<trkpt lat="40.612470740452409" lon="14.346820525825024">
<ele>141</ele>
</trkpt>
<trkpt lat="40.612333193421364" lon="14.346628664061427">
<ele>140</ele>
</trkpt>
<trkpt lat="40.612251469865441" lon="14.346511820331216">
<ele>140</ele>
</trkpt>
<trkpt lat="40.612184330821037" lon="14.346398748457432">
<ele>140</ele>
</trkpt>
<trkpt lat="40.612051729112864" lon="14.346233960241079">
<ele>141</ele>
</trkpt>
<trkpt lat="40.611972603946924" lon="14.346188697963953">
<ele>141</ele>
</trkpt>
<trkpt lat="40.611787112429738" lon="14.346039667725563">
<ele>141</ele>
</trkpt>
<trkpt lat="40.611635819077492" lon="14.345932966098189">
<ele>142</ele>
</trkpt>
<trkpt lat="40.611615618690848" lon="14.345904886722565">
<ele>142</ele>
</trkpt>
<trkpt lat="40.611467929556966" lon="14.345797430723906">
<ele>142</ele>
</trkpt>
<trkpt lat="40.611372208222747" lon="14.345721825957298">
<ele>142</ele>
</trkpt>
<trkpt lat="40.611215969547629" lon="14.34553281404078">
<ele>143</ele>
</trkpt>
<trkpt lat="40.611093929037452" lon="14.345336761325598">
<ele>143</ele>
</trkpt>
<trkpt lat="40.611055875197053" lon="14.345149425789714">
<ele>143</ele>
</trkpt>
<trkpt lat="40.611101137474179" lon="14.344938453286886">
<ele>142</ele>
</trkpt>
<trkpt lat="40.611193841323256" lon="14.344817837700248">
<ele>142</ele>
</trkpt>
<trkpt lat="40.611274978145957" lon="14.344693953171372">
<ele>141</ele>
</trkpt>
<trkpt lat="40.611368687823415" lon="14.344515670090914">
<ele>141</ele>
</trkpt>
<trkpt lat="40.611518723890185" lon="14.344280557706952">
<ele>140</ele>
</trkpt>
<trkpt lat="40.611578319221735" lon="14.344218447804451">
<ele>140</ele>
</trkpt>
<trkpt lat="40.611657863482833" lon="14.343980485573411">
<ele>139</ele>
</trkpt>
<trkpt lat="40.611694324761629" lon="14.343875460326672">
<ele>139</ele>
</trkpt>
<trkpt lat="40.611859951168299" lon="14.343744115903974">
<ele>138</ele>
</trkpt>
<trkpt lat="40.611894652247429" lon="14.343811925500631">
<ele>138</ele>
</trkpt>
<trkpt lat="40.611908147111535" lon="14.343839837238193">
<ele>137</ele>
</trkpt>
<trkpt lat="40.611921977251768" lon="14.343885015696287">
<ele>137</ele>
</trkpt>
</trkseg>
</trk>
</gpx>
