<?xml version="1.0" encoding="UTF-8"?>
<gpx version="1.1"
creator="Smartprofil-Office - http://www.rother.de"
xmlns:xsi="http://www.w3.org/2001/XMLSchema-instance"
xmlns="http://www.topografix.com/GPX/1/1"
xsi:schemaLocation="http://www.topografix.com/GPX/1/1 http://www.topografix.com/GPX/1/1/gpx.xsd">
<metadata>

<bounds minlat="40.582297565415502" minlon="14.356828015297651" maxlat="40.608119023963809" maxlon="14.380685091018677"/>
</metadata>
<wpt lat="40.608119023963809" lon="14.373402977362275">
<ele>394</ele>
<name>42_S. Agata (1)</name>
<cmt></cmt>
<desc></desc>
<sym>Crossing</sym>
</wpt>

<wpt lat="40.594450989738107" lon="14.379903730005026">
<ele>205</ele>
<name>42_La Guardia (2)</name>
<cmt></cmt>
<desc></desc>
<sym>Crossing</sym>
</wpt>

<wpt lat="40.59423272497952" lon="14.375231238082051">
<ele>210</ele>
<name>42_Scrivanessa (3)</name>
<cmt></cmt>
<desc></desc>
<sym>Crossing</sym>
</wpt>

<wpt lat="40.588868977501988" lon="14.365605041384697">
<ele>230</ele>
<name>42_Campi (4)</name>
<cmt></cmt>
<desc></desc>
<sym>Crossing</sym>
</wpt>

<wpt lat="40.583390984684229" lon="14.356828015297651">
<ele>10</ele>
<name>42_Marina del Cantone (5)</name>
<cmt></cmt>
<desc></desc>
<sym>Crossing</sym>
</wpt>

<trk>
<name>Neapel_42_Sant'Agata - Marina del Cantone</name>
<trkseg>
<trkpt lat="40.608119023963809" lon="14.373402977362275">
<ele>394</ele>
</trkpt>
<trkpt lat="40.607910733669996" lon="14.373605567961931">
<ele>395</ele>
</trkpt>
<trkpt lat="40.607732869684696" lon="14.373705396428704">
<ele>395</ele>
</trkpt>
<trkpt lat="40.607559951022267" lon="14.373818468302488">
<ele>396</ele>
</trkpt>
<trkpt lat="40.607371022924781" lon="14.373889546841383">
<ele>397</ele>
</trkpt>
<trkpt lat="40.60731771402061" lon="14.373915698379278">
<ele>398</ele>
</trkpt>
<trkpt lat="40.607109759002924" lon="14.374002702534199">
<ele>398</ele>
</trkpt>
<trkpt lat="40.606940863654017" lon="14.374049222096801">
<ele>399</ele>
</trkpt>
<trkpt lat="40.606768196448684" lon="14.374110577628016">
<ele>400</ele>
</trkpt>
<trkpt lat="40.606730980798602" lon="14.374108146876097">
<ele>400</ele>
</trkpt>
<trkpt lat="40.60649536550045" lon="14.374208645895123">
<ele>401</ele>
</trkpt>
<trkpt lat="40.606307275593281" lon="14.374299757182598">
<ele>401</ele>
</trkpt>
<trkpt lat="40.606206860393286" lon="14.374328339472413">
<ele>400</ele>
</trkpt>
<trkpt lat="40.606041150167584" lon="14.374373015016317">
<ele>400</ele>
</trkpt>
<trkpt lat="40.605959426611662" lon="14.374392544850707">
<ele>400</ele>
</trkpt>
<trkpt lat="40.605626748874784" lon="14.374493462964892">
<ele>400</ele>
</trkpt>
<trkpt lat="40.605555418878794" lon="14.374569822102785">
<ele>399</ele>
</trkpt>
<trkpt lat="40.605498421937227" lon="14.374580970034003">
<ele>399</ele>
</trkpt>
<trkpt lat="40.605262471362948" lon="14.374673087149858">
<ele>399</ele>
</trkpt>
<trkpt lat="40.605074884369969" lon="14.374825386330485">
<ele>398</ele>
</trkpt>
<trkpt lat="40.604920573532581" lon="14.374864362180233">
<ele>398</ele>
</trkpt>
<trkpt lat="40.604894757270813" lon="14.37489990144968">
<ele>397</ele>
</trkpt>
<trkpt lat="40.604760898277164" lon="14.374949689954519">
<ele>396</ele>
</trkpt>
<trkpt lat="40.604628380388021" lon="14.375028479844332">
<ele>395</ele>
</trkpt>
<trkpt lat="40.604547997936606" lon="14.375078016892076">
<ele>394</ele>
</trkpt>
<trkpt lat="40.604426460340619" lon="14.375190250575542">
<ele>394</ele>
</trkpt>
<trkpt lat="40.604382790625095" lon="14.37517206184566">
<ele>393</ele>
</trkpt>
<trkpt lat="40.604372899979353" lon="14.375175246968865">
<ele>392</ele>
</trkpt>
<trkpt lat="40.604323865845799" lon="14.375138534232974">
<ele>391</ele>
</trkpt>
<trkpt lat="40.60428430326283" lon="14.375157644972205">
<ele>390</ele>
</trkpt>
<trkpt lat="40.604164442047477" lon="14.375141384080052">
<ele>389</ele>
</trkpt>
<trkpt lat="40.604042317718267" lon="14.375119842588902">
<ele>386</ele>
</trkpt>
<trkpt lat="40.603919606655836" lon="14.375160075724125">
<ele>383</ele>
</trkpt>
<trkpt lat="40.603822628036141" lon="14.375202991068363">
<ele>380</ele>
</trkpt>
<trkpt lat="40.603732774034142" lon="14.375200644135475">
<ele>377</ele>
</trkpt>
<trkpt lat="40.603626742959023" lon="14.375312877818942">
<ele>374</ele>
</trkpt>
<trkpt lat="40.603542337194085" lon="14.375427458435297">
<ele>371</ele>
</trkpt>
<trkpt lat="40.603520795702934" lon="14.375628037378192">
<ele>368</ele>
</trkpt>
<trkpt lat="40.603432701900601" lon="14.37580238096416">
<ele>365</ele>
</trkpt>
<trkpt lat="40.603301525115967" lon="14.375912183895707">
<ele>362</ele>
</trkpt>
<trkpt lat="40.603262046352029" lon="14.376057693734765">
<ele>359</ele>
</trkpt>
<trkpt lat="40.603111172094941" lon="14.376148469746113">
<ele>357</ele>
</trkpt>
<trkpt lat="40.602942276746035" lon="14.376265481114388">
<ele>355</ele>
</trkpt>
<trkpt lat="40.602942109107971" lon="14.376270174980164">
<ele>353</ele>
</trkpt>
<trkpt lat="40.602861642837524" lon="14.376581311225891">
<ele>351</ele>
</trkpt>
<trkpt lat="40.602802634239197" lon="14.376640319824219">
<ele>349</ele>
</trkpt>
<trkpt lat="40.602663159370422" lon="14.376570582389832">
<ele>347</ele>
</trkpt>
<trkpt lat="40.602561235427856" lon="14.376372098922729">
<ele>345</ele>
</trkpt>
<trkpt lat="40.602512955665588" lon="14.376302361488342">
<ele>343</ele>
</trkpt>
<trkpt lat="40.602389574050903" lon="14.376291632652283">
<ele>341</ele>
</trkpt>
<trkpt lat="40.602142810821533" lon="14.376232624053955">
<ele>339</ele>
</trkpt>
<trkpt lat="40.601778030395508" lon="14.376162886619568">
<ele>335</ele>
</trkpt>
<trkpt lat="40.601601004600525" lon="14.376200437545776">
<ele>331</ele>
</trkpt>
<trkpt lat="40.601552724838257" lon="14.376189708709717">
<ele>326</ele>
</trkpt>
<trkpt lat="40.601429343223572" lon="14.37609851360321">
<ele>322</ele>
</trkpt>
<trkpt lat="40.601363210007548" lon="14.376077894121408">
<ele>318</ele>
</trkpt>
<trkpt lat="40.601118206977844" lon="14.376001954078674">
<ele>314</ele>
</trkpt>
<trkpt lat="40.601032376289368" lon="14.375969767570496">
<ele>310</ele>
</trkpt>
<trkpt lat="40.600672960281372" lon="14.375991225242615">
<ele>305</ele>
</trkpt>
<trkpt lat="40.600501298904419" lon="14.37610924243927">
<ele>301</ele>
</trkpt>
<trkpt lat="40.600211620330811" lon="14.376211166381836">
<ele>297</ele>
</trkpt>
<trkpt lat="40.600098967552185" lon="14.376200437545776">
<ele>295</ele>
</trkpt>
<trkpt lat="40.599997043609619" lon="14.376162886619568">
<ele>293</ele>
</trkpt>
<trkpt lat="40.599798560142517" lon="14.376237988471985">
<ele>291</ele>
</trkpt>
<trkpt lat="40.599508881568909" lon="14.376431107521057">
<ele>289</ele>
</trkpt>
<trkpt lat="40.599428415298462" lon="14.376388192176819">
<ele>287</ele>
</trkpt>
<trkpt lat="40.599380135536194" lon="14.376398921012878">
<ele>285</ele>
</trkpt>
<trkpt lat="40.599262118339539" lon="14.376490116119385">
<ele>283</ele>
</trkpt>
<trkpt lat="40.599101185798645" lon="14.376661777496338">
<ele>281</ele>
</trkpt>
<trkpt lat="40.599031448364258" lon="14.376710057258606">
<ele>279</ele>
</trkpt>
<trkpt lat="40.598918795585632" lon="14.376892447471619">
<ele>277</ele>
</trkpt>
<trkpt lat="40.598741769790649" lon="14.376951456069946">
<ele>274</ele>
</trkpt>
<trkpt lat="40.598618388175964" lon="14.37710165977478">
<ele>272</ele>
</trkpt>
<trkpt lat="40.598409175872803" lon="14.377278685569763">
<ele>270</ele>
</trkpt>
<trkpt lat="40.598189234733582" lon="14.377428889274597">
<ele>267</ele>
</trkpt>
<trkpt lat="40.598108768463135" lon="14.377498626708984">
<ele>264</ele>
</trkpt>
<trkpt lat="40.598060488700867" lon="14.377568364143372">
<ele>262</ele>
</trkpt>
<trkpt lat="40.597921013832092" lon="14.378002882003784">
<ele>260</ele>
</trkpt>
<trkpt lat="40.597872734069824" lon="14.378120899200439">
<ele>257</ele>
</trkpt>
<trkpt lat="40.597770810127258" lon="14.378271102905273">
<ele>254</ele>
</trkpt>
<trkpt lat="40.597588419914246" lon="14.378421306610107">
<ele>252</ele>
</trkpt>
<trkpt lat="40.597422122955322" lon="14.378491044044495">
<ele>251</ele>
</trkpt>
<trkpt lat="40.597372837364674" lon="14.378505377098918">
<ele>249</ele>
</trkpt>
<trkpt lat="40.597280468791723" lon="14.37851476483047">
<ele>248</ele>
</trkpt>
<trkpt lat="40.597161613404751" lon="14.378525326028466">
<ele>247</ele>
</trkpt>
<trkpt lat="40.597152393311262" lon="14.378527086228132">
<ele>246</ele>
</trkpt>
<trkpt lat="40.597007218748331" lon="14.378539407625794">
<ele>244</ele>
</trkpt>
<trkpt lat="40.596887692809105" lon="14.378573019057512">
<ele>243</ele>
</trkpt>
<trkpt lat="40.596873527392745" lon="14.378575785085559">
<ele>242</ele>
</trkpt>
<trkpt lat="40.596741596236825" lon="14.378634374588728">
<ele>240</ele>
</trkpt>
<trkpt lat="40.596607988700271" lon="14.378699082881212">
<ele>239</ele>
</trkpt>
<trkpt lat="40.596556859090924" lon="14.378796899691224">
<ele>238</ele>
</trkpt>
<trkpt lat="40.596494162455201" lon="14.378853058442473">
<ele>238</ele>
</trkpt>
<trkpt lat="40.596441943198442" lon="14.37901608645916">
<ele>238</ele>
</trkpt>
<trkpt lat="40.596415540203452" lon="14.379149526357651">
<ele>237</ele>
</trkpt>
<trkpt lat="40.596376564353704" lon="14.379271399229765">
<ele>236</ele>
</trkpt>
<trkpt lat="40.596311101689935" lon="14.379448927938938">
<ele>236</ele>
</trkpt>
<trkpt lat="40.596302049234509" lon="14.379472229629755">
<ele>236</ele>
</trkpt>
<trkpt lat="40.596281010657549" lon="14.379607765004039">
<ele>235</ele>
</trkpt>
<trkpt lat="40.59627422131598" lon="14.37969870865345">
<ele>234</ele>
</trkpt>
<trkpt lat="40.596189228817821" lon="14.379795603454113">
<ele>234</ele>
</trkpt>
<trkpt lat="40.596071127802134" lon="14.37990733422339">
<ele>233</ele>
</trkpt>
<trkpt lat="40.596064506098628" lon="14.379912782460451">
<ele>232</ele>
</trkpt>
<trkpt lat="40.595968449488282" lon="14.380089472979307">
<ele>230</ele>
</trkpt>
<trkpt lat="40.595923019573092" lon="14.380225008353591">
<ele>229</ele>
</trkpt>
<trkpt lat="40.595902651548386" lon="14.380281083285809">
<ele>228</ele>
</trkpt>
<trkpt lat="40.595824783667922" lon="14.380385940894485">
<ele>227</ele>
</trkpt>
<trkpt lat="40.595805421471596" lon="14.380409829318523">
<ele>226</ele>
</trkpt>
<trkpt lat="40.595765355974436" lon="14.380464982241392">
<ele>224</ele>
</trkpt>
<trkpt lat="40.595683213323355" lon="14.380551315844059">
<ele>223</ele>
</trkpt>
<trkpt lat="40.595553629100323" lon="14.380682911723852">
<ele>222</ele>
</trkpt>
<trkpt lat="40.595538290217519" lon="14.380685091018677">
<ele>220</ele>
</trkpt>
<trkpt lat="40.595395211130381" lon="14.380667572841048">
<ele>218</ele>
</trkpt>
<trkpt lat="40.595373082906008" lon="14.38067109324038">
<ele>216</ele>
</trkpt>
<trkpt lat="40.595326060429215" lon="14.380678553134203">
<ele>214</ele>
</trkpt>
<trkpt lat="40.595225226134062" lon="14.38066472299397">
<ele>212</ele>
</trkpt>
<trkpt lat="40.595207791775465" lon="14.380665309727192">
<ele>211</ele>
</trkpt>
<trkpt lat="40.595196057111025" lon="14.380667237564921">
<ele>209</ele>
</trkpt>
<trkpt lat="40.595095977187157" lon="14.380668494850397">
<ele>207</ele>
</trkpt>
<trkpt lat="40.595086757093668" lon="14.380670087412">
<ele>205</ele>
</trkpt>
<trkpt lat="40.594900008291006" lon="14.380634296685457">
<ele>203</ele>
</trkpt>
<trkpt lat="40.594853153452277" lon="14.380600182339549">
<ele>203</ele>
</trkpt>
<trkpt lat="40.594749972224236" lon="14.380497001111507">
<ele>203</ele>
</trkpt>
<trkpt lat="40.594720970839262" lon="14.38047613017261">
<ele>204</ele>
</trkpt>
<trkpt lat="40.594637235626578" lon="14.38041016459465">
<ele>204</ele>
</trkpt>
<trkpt lat="40.594615191221237" lon="14.380379151552916">
<ele>204</ele>
</trkpt>
<trkpt lat="40.594569342210889" lon="14.380215872079134">
<ele>204</ele>
</trkpt>
<trkpt lat="40.594547381624579" lon="14.380106991156936">
<ele>204</ele>
</trkpt>
<trkpt lat="40.594500694423914" lon="14.379956368356943">
<ele>205</ele>
</trkpt>
<trkpt lat="40.594462556764483" lon="14.379920577630401">
<ele>205</ele>
</trkpt>
<trkpt lat="40.594450989738107" lon="14.379903730005026">
<ele>205</ele>
</trkpt>
<trkpt lat="40.594461299479008" lon="14.379822844639421">
<ele>205</ele>
</trkpt>
<trkpt lat="40.594473872333765" lon="14.379767859354615">
<ele>205</ele>
</trkpt>
<trkpt lat="40.594478063285351" lon="14.379745228216052">
<ele>205</ele>
</trkpt>
<trkpt lat="40.594440428540111" lon="14.379584463313222">
<ele>205</ele>
</trkpt>
<trkpt lat="40.594449983909726" lon="14.379561161622405">
<ele>205</ele>
</trkpt>
<trkpt lat="40.594401368871331" lon="14.379430906847119">
<ele>205</ele>
</trkpt>
<trkpt lat="40.594365997239947" lon="14.379391260445118">
<ele>205</ele>
</trkpt>
<trkpt lat="40.594278071075678" lon="14.379143659025431">
<ele>205</ele>
</trkpt>
<trkpt lat="40.59430162422359" lon="14.379014996811748">
<ele>205</ele>
</trkpt>
<trkpt lat="40.594307323917747" lon="14.379004267975688">
<ele>205</ele>
</trkpt>
<trkpt lat="40.594314867630601" lon="14.378885580226779">
<ele>204</ele>
</trkpt>
<trkpt lat="40.594348562881351" lon="14.378767479211092">
<ele>203</ele>
</trkpt>
<trkpt lat="40.594321405515075" lon="14.378656083717942">
<ele>202</ele>
</trkpt>
<trkpt lat="40.594254266470671" lon="14.378478890284896">
<ele>201</ele>
</trkpt>
<trkpt lat="40.59423079714179" lon="14.378364225849509">
<ele>200</ele>
</trkpt>
<trkpt lat="40.594237502664328" lon="14.378256602212787">
<ele>198</ele>
</trkpt>
<trkpt lat="40.594163322821259" lon="14.378141853958368">
<ele>197</ele>
</trkpt>
<trkpt lat="40.594026362523437" lon="14.377968935295939">
<ele>196</ele>
</trkpt>
<trkpt lat="40.594019992277026" lon="14.377830801531672">
<ele>195</ele>
</trkpt>
<trkpt lat="40.59396349824965" lon="14.377684537321329">
<ele>194</ele>
</trkpt>
<trkpt lat="40.593914547935128" lon="14.377598036080599">
<ele>194</ele>
</trkpt>
<trkpt lat="40.59390340000391" lon="14.377381950616837">
<ele>193</ele>
</trkpt>
<trkpt lat="40.593879176303744" lon="14.377286396920681">
<ele>193</ele>
</trkpt>
<trkpt lat="40.593861658126116" lon="14.377164524048567">
<ele>193</ele>
</trkpt>
<trkpt lat="40.5938452295959" lon="14.377046003937721">
<ele>192</ele>
</trkpt>
<trkpt lat="40.593843720853329" lon="14.377022702246904">
<ele>192</ele>
</trkpt>
<trkpt lat="40.59380566701293" lon="14.376763617619872">
<ele>192</ele>
</trkpt>
<trkpt lat="40.593819413334131" lon="14.376609306782484">
<ele>192</ele>
</trkpt>
<trkpt lat="40.593814300373197" lon="14.376452313736081">
<ele>191</ele>
</trkpt>
<trkpt lat="40.593776581808925" lon="14.376284088939428">
<ele>191</ele>
</trkpt>
<trkpt lat="40.593759315088391" lon="14.376255003735423">
<ele>191</ele>
</trkpt>
<trkpt lat="40.593689912930131" lon="14.376086862757802">
<ele>192</ele>
</trkpt>
<trkpt lat="40.593677004799247" lon="14.376065153628588">
<ele>192</ele>
</trkpt>
<trkpt lat="40.593668958172202" lon="14.375906819477677">
<ele>192</ele>
</trkpt>
<trkpt lat="40.59368840418756" lon="14.375853342935443">
<ele>192</ele>
</trkpt>
<trkpt lat="40.593696534633636" lon="14.375826101750135">
<ele>193</ele>
</trkpt>
<trkpt lat="40.593666192144156" lon="14.375689309090376">
<ele>193</ele>
</trkpt>
<trkpt lat="40.593688320368528" lon="14.375592246651649">
<ele>193</ele>
</trkpt>
<trkpt lat="40.59376074001193" lon="14.375578919425607">
<ele>194</ele>
</trkpt>
<trkpt lat="40.59382033534348" lon="14.375570956617594">
<ele>194</ele>
</trkpt>
<trkpt lat="40.593919660896063" lon="14.375514211133122">
<ele>197</ele>
</trkpt>
<trkpt lat="40.59396299533546" lon="14.375466853380203">
<ele>199</ele>
</trkpt>
<trkpt lat="40.59408763423562" lon="14.375415137037635">
<ele>202</ele>
</trkpt>
<trkpt lat="40.594141781330109" lon="14.375354116782546">
<ele>205</ele>
</trkpt>
<trkpt lat="40.594181260094047" lon="14.375244984403253">
<ele>207</ele>
</trkpt>
<trkpt lat="40.59423272497952" lon="14.375231238082051">
<ele>210</ele>
</trkpt>
<trkpt lat="40.594294834882021" lon="14.375130152329803">
<ele>212</ele>
</trkpt>
<trkpt lat="40.594369433820248" lon="14.375058989971876">
<ele>214</ele>
</trkpt>
<trkpt lat="40.594376558437943" lon="14.374973326921463">
<ele>215</ele>
</trkpt>
<trkpt lat="40.594410840421915" lon="14.374862601980567">
<ele>217</ele>
</trkpt>
<trkpt lat="40.594422575086355" lon="14.374772077426314">
<ele>219</ele>
</trkpt>
<trkpt lat="40.594471944496036" lon="14.374545766040683">
<ele>221</ele>
</trkpt>
<trkpt lat="40.594528270885348" lon="14.374556997790933">
<ele>223</ele>
</trkpt>
<trkpt lat="40.594624076038599" lon="14.374450882896781">
<ele>224</ele>
</trkpt>
<trkpt lat="40.594598175957799" lon="14.374307468533516">
<ele>226</ele>
</trkpt>
<trkpt lat="40.59458015486598" lon="14.37425198033452">
<ele>228</ele>
</trkpt>
<trkpt lat="40.594641342759132" lon="14.374061124399304">
<ele>227</ele>
</trkpt>
<trkpt lat="40.594679731875658" lon="14.373961463570595">
<ele>227</ele>
</trkpt>
<trkpt lat="40.594626925885677" lon="14.373690141364932">
<ele>226</ele>
</trkpt>
<trkpt lat="40.594605132937431" lon="14.373575560748577">
<ele>226</ele>
</trkpt>
<trkpt lat="40.594591302797198" lon="14.37341496348381">
<ele>225</ele>
</trkpt>
<trkpt lat="40.594581160694361" lon="14.373284541070461">
<ele>224</ele>
</trkpt>
<trkpt lat="40.594567414373159" lon="14.37325076200068">
<ele>224</ele>
</trkpt>
<trkpt lat="40.594418803229928" lon="14.373267190530896">
<ele>223</ele>
</trkpt>
<trkpt lat="40.594318304210901" lon="14.373372634872794">
<ele>223</ele>
</trkpt>
<trkpt lat="40.594223253428936" lon="14.373428877443075">
<ele>222</ele>
</trkpt>
<trkpt lat="40.594112360849977" lon="14.373489059507847">
<ele>221</ele>
</trkpt>
<trkpt lat="40.593997109681368" lon="14.373517977073789">
<ele>221</ele>
</trkpt>
<trkpt lat="40.593848582357168" lon="14.373535830527544">
<ele>220</ele>
</trkpt>
<trkpt lat="40.593750514090061" lon="14.373492579907179">
<ele>219</ele>
</trkpt>
<trkpt lat="40.593697456642985" lon="14.373470200225711">
<ele>218</ele>
</trkpt>
<trkpt lat="40.593593521043658" lon="14.373438684269786">
<ele>218</ele>
</trkpt>
<trkpt lat="40.593583462759852" lon="14.373412113636732">
<ele>217</ele>
</trkpt>
<trkpt lat="40.593374166637659" lon="14.373347908258438">
<ele>216</ele>
</trkpt>
<trkpt lat="40.593279786407948" lon="14.373356541618705">
<ele>216</ele>
</trkpt>
<trkpt lat="40.593171995133162" lon="14.373355535790324">
<ele>215</ele>
</trkpt>
<trkpt lat="40.593087924644351" lon="14.373366348445415">
<ele>214</ele>
</trkpt>
<trkpt lat="40.593057833611965" lon="14.37337975949049">
<ele>214</ele>
</trkpt>
<trkpt lat="40.592887764796615" lon="14.3733274564147">
<ele>213</ele>
</trkpt>
<trkpt lat="40.592785757035017" lon="14.373285379260778">
<ele>213</ele>
</trkpt>
<trkpt lat="40.592745020985603" lon="14.37324145808816">
<ele>212</ele>
</trkpt>
<trkpt lat="40.592622561380267" lon="14.37316719442606">
<ele>211</ele>
</trkpt>
<trkpt lat="40.592619627714157" lon="14.373165434226394">
<ele>211</ele>
</trkpt>
<trkpt lat="40.592558439821005" lon="14.373065019026399">
<ele>210</ele>
</trkpt>
<trkpt lat="40.592454671859741" lon="14.372990503907204">
<ele>210</ele>
</trkpt>
<trkpt lat="40.592400943860412" lon="14.372979020699859">
<ele>209</ele>
</trkpt>
<trkpt lat="40.592318130657077" lon="14.372885311022401">
<ele>210</ele>
</trkpt>
<trkpt lat="40.592292817309499" lon="14.37284859828651">
<ele>210</ele>
</trkpt>
<trkpt lat="40.592225091531873" lon="14.37252321280539">
<ele>210</ele>
</trkpt>
<trkpt lat="40.592213356867433" lon="14.372481303289533">
<ele>211</ele>
</trkpt>
<trkpt lat="40.592103134840727" lon="14.37237954698503">
<ele>212</ele>
</trkpt>
<trkpt lat="40.59193080291152" lon="14.372338810935616">
<ele>212</ele>
</trkpt>
<trkpt lat="40.591858634725213" lon="14.372315090149641">
<ele>212</ele>
</trkpt>
<trkpt lat="40.59177934192121" lon="14.372248789295554">
<ele>213</ele>
</trkpt>
<trkpt lat="40.59172167442739" lon="14.372159857302904">
<ele>214</ele>
</trkpt>
<trkpt lat="40.591667024418712" lon="14.372052317485213">
<ele>214</ele>
</trkpt>
<trkpt lat="40.591683033853769" lon="14.371962463483214">
<ele>216</ele>
</trkpt>
<trkpt lat="40.591680770739913" lon="14.371848553419113">
<ele>219</ele>
</trkpt>
<trkpt lat="40.591696863994002" lon="14.371788874268532">
<ele>221</ele>
</trkpt>
<trkpt lat="40.59168403968215" lon="14.371671946719289">
<ele>223</ele>
</trkpt>
<trkpt lat="40.591650428250432" lon="14.371597515419126">
<ele>226</ele>
</trkpt>
<trkpt lat="40.591659815981984" lon="14.371426859870553">
<ele>228</ele>
</trkpt>
<trkpt lat="40.59165327809751" lon="14.371372880414128">
<ele>230</ele>
</trkpt>
<trkpt lat="40.591670460999012" lon="14.371284199878573">
<ele>232</ele>
</trkpt>
<trkpt lat="40.591695690527558" lon="14.371227119117975">
<ele>235</ele>
</trkpt>
<trkpt lat="40.591721758246422" lon="14.371064426377416">
<ele>237</ele>
</trkpt>
<trkpt lat="40.591703150421381" lon="14.370943559333682">
<ele>237</ele>
</trkpt>
<trkpt lat="40.591679010540247" lon="14.370880778878927">
<ele>237</ele>
</trkpt>
<trkpt lat="40.591657720506191" lon="14.37064491212368">
<ele>236</ele>
</trkpt>
<trkpt lat="40.591630060225725" lon="14.370586657896638">
<ele>236</ele>
</trkpt>
<trkpt lat="40.591541463509202" lon="14.37055790796876">
<ele>236</ele>
</trkpt>
<trkpt lat="40.591485723853111" lon="14.370479956269264">
<ele>236</ele>
</trkpt>
<trkpt lat="40.591326886788011" lon="14.370371326804161">
<ele>236</ele>
</trkpt>
<trkpt lat="40.591230159625411" lon="14.370388761162758">
<ele>235</ele>
</trkpt>
<trkpt lat="40.591106107458472" lon="14.370338805019855">
<ele>235</ele>
</trkpt>
<trkpt lat="40.591036370024085" lon="14.370360681787133">
<ele>235</ele>
</trkpt>
<trkpt lat="40.591002004221082" lon="14.370376439765096">
<ele>234</ele>
</trkpt>
<trkpt lat="40.590888513252139" lon="14.370394377037883">
<ele>234</ele>
</trkpt>
<trkpt lat="40.590750211849809" lon="14.370373925194144">
<ele>233</ele>
</trkpt>
<trkpt lat="40.590683156624436" lon="14.370336458086967">
<ele>232</ele>
</trkpt>
<trkpt lat="40.590607216581702" lon="14.37035271897912">
<ele>232</ele>
</trkpt>
<trkpt lat="40.59048349969089" lon="14.370264960452914">
<ele>231</ele>
</trkpt>
<trkpt lat="40.590452151373029" lon="14.370216345414519">
<ele>230</ele>
</trkpt>
<trkpt lat="40.590308485552669" lon="14.370096903294325">
<ele>229</ele>
</trkpt>
<trkpt lat="40.590210584923625" lon="14.370029512792826">
<ele>229</ele>
</trkpt>
<trkpt lat="40.590131124481559" lon="14.369881572201848">
<ele>228</ele>
</trkpt>
<trkpt lat="40.590142859145999" lon="14.369837986305356">
<ele>228</ele>
</trkpt>
<trkpt lat="40.590129029005766" lon="14.369782330468297">
<ele>228</ele>
</trkpt>
<trkpt lat="40.590118048712611" lon="14.369770931079984">
<ele>228</ele>
</trkpt>
<trkpt lat="40.590086951851845" lon="14.369570100679994">
<ele>228</ele>
</trkpt>
<trkpt lat="40.590076390653849" lon="14.369485443457961">
<ele>228</ele>
</trkpt>
<trkpt lat="40.590009000152349" lon="14.369407575577497">
<ele>228</ele>
</trkpt>
<trkpt lat="40.589952254667878" lon="14.369287546724081">
<ele>228</ele>
</trkpt>
<trkpt lat="40.589895425364375" lon="14.369257455691695">
<ele>228</ele>
</trkpt>
<trkpt lat="40.589825268834829" lon="14.369100965559483">
<ele>228</ele>
</trkpt>
<trkpt lat="40.589789897203445" lon="14.369056709110737">
<ele>228</ele>
</trkpt>
<trkpt lat="40.589693421497941" lon="14.368946989998221">
<ele>228</ele>
</trkpt>
<trkpt lat="40.589674394577742" lon="14.368908265605569">
<ele>227</ele>
</trkpt>
<trkpt lat="40.589584121480584" lon="14.368681367486715">
<ele>227</ele>
</trkpt>
<trkpt lat="40.589561993256211" lon="14.368605762720108">
<ele>226</ele>
</trkpt>
<trkpt lat="40.589521592482924" lon="14.368449356406927">
<ele>226</ele>
</trkpt>
<trkpt lat="40.589483538642526" lon="14.368282137438655">
<ele>226</ele>
</trkpt>
<trkpt lat="40.589429810643196" lon="14.368170574307442">
<ele>225</ele>
</trkpt>
<trkpt lat="40.589391253888607" lon="14.368033278733492">
<ele>225</ele>
</trkpt>
<trkpt lat="40.589375328272581" lon="14.367864383384585">
<ele>224</ele>
</trkpt>
<trkpt lat="40.589343477040529" lon="14.36772289685905">
<ele>224</ele>
</trkpt>
<trkpt lat="40.589322857558727" lon="14.367503207176924">
<ele>224</ele>
</trkpt>
<trkpt lat="40.589311877265573" lon="14.367426345124841">
<ele>225</ele>
</trkpt>
<trkpt lat="40.589257813990116" lon="14.367259293794632">
<ele>225</ele>
</trkpt>
<trkpt lat="40.58924088254571" lon="14.367141695693135">
<ele>226</ele>
</trkpt>
<trkpt lat="40.589229902252555" lon="14.367086961865425">
<ele>226</ele>
</trkpt>
<trkpt lat="40.589223029091954" lon="14.366897866129875">
<ele>226</ele>
</trkpt>
<trkpt lat="40.589205175638199" lon="14.36683994717896">
<ele>227</ele>
</trkpt>
<trkpt lat="40.589211042970419" lon="14.366714721545577">
<ele>227</ele>
</trkpt>
<trkpt lat="40.589245157316327" lon="14.366635512560606">
<ele>228</ele>
</trkpt>
<trkpt lat="40.589239792898297" lon="14.366495283320546">
<ele>228</ele>
</trkpt>
<trkpt lat="40.589292934164405" lon="14.366420181468129">
<ele>228</ele>
</trkpt>
<trkpt lat="40.589228812605143" lon="14.366262098774314">
<ele>228</ele>
</trkpt>
<trkpt lat="40.589231327176094" lon="14.366231421008706">
<ele>229</ele>
</trkpt>
<trkpt lat="40.589170223101974" lon="14.366205520927906">
<ele>229</ele>
</trkpt>
<trkpt lat="40.589143736287951" lon="14.366165455430746">
<ele>229</ele>
</trkpt>
<trkpt lat="40.589075842872262" lon="14.366060681641102">
<ele>229</ele>
</trkpt>
<trkpt lat="40.588997388258576" lon="14.365886086598039">
<ele>229</ele>
</trkpt>
<trkpt lat="40.588925806805491" lon="14.365796903148293">
<ele>230</ele>
</trkpt>
<trkpt lat="40.58889152482152" lon="14.365703696385026">
<ele>230</ele>
</trkpt>
<trkpt lat="40.588868977501988" lon="14.365605041384697">
<ele>230</ele>
</trkpt>
<trkpt lat="40.588829247280955" lon="14.365559946745634">
<ele>227</ele>
</trkpt>
<trkpt lat="40.588818183168769" lon="14.365542428568006">
<ele>225</ele>
</trkpt>
<trkpt lat="40.588796893134713" lon="14.365540584549308">
<ele>222</ele>
</trkpt>
<trkpt lat="40.588721875101328" lon="14.365308405831456">
<ele>220</ele>
</trkpt>
<trkpt lat="40.588609306141734" lon="14.365295497700572">
<ele>217</ele>
</trkpt>
<trkpt lat="40.588594805449247" lon="14.365292647853494">
<ele>214</ele>
</trkpt>
<trkpt lat="40.58849866501987" lon="14.365204134956002">
<ele>212</ele>
</trkpt>
<trkpt lat="40.588463880121708" lon="14.365125680342317">
<ele>209</ele>
</trkpt>
<trkpt lat="40.588418198749423" lon="14.364995341747999">
<ele>207</ele>
</trkpt>
<trkpt lat="40.588399255648255" lon="14.364821081981063">
<ele>204</ele>
</trkpt>
<trkpt lat="40.588393472135067" lon="14.364768611267209">
<ele>203</ele>
</trkpt>
<trkpt lat="40.588408811017871" lon="14.364535510540009">
<ele>202</ele>
</trkpt>
<trkpt lat="40.588399339467287" lon="14.364496953785419">
<ele>201</ele>
</trkpt>
<trkpt lat="40.588380815461278" lon="14.364457139745355">
<ele>200</ele>
</trkpt>
<trkpt lat="40.588336139917374" lon="14.364299643784761">
<ele>199</ele>
</trkpt>
<trkpt lat="40.58830319903791" lon="14.364123539999127">
<ele>198</ele>
</trkpt>
<trkpt lat="40.58828710578382" lon="14.364013653248549">
<ele>197</ele>
</trkpt>
<trkpt lat="40.588294314220548" lon="14.363836878910661">
<ele>196</ele>
</trkpt>
<trkpt lat="40.588277885690331" lon="14.363785581663251">
<ele>195</ele>
</trkpt>
<trkpt lat="40.588220385834575" lon="14.363764123991132">
<ele>194</ele>
</trkpt>
<trkpt lat="40.588098261505365" lon="14.363950118422508">
<ele>190</ele>
</trkpt>
<trkpt lat="40.588035313412547" lon="14.364112224429846">
<ele>185</ele>
</trkpt>
<trkpt lat="40.587961636483669" lon="14.364326717332006">
<ele>180</ele>
</trkpt>
<trkpt lat="40.587918553501368" lon="14.364481698721647">
<ele>176</ele>
</trkpt>
<trkpt lat="40.587884439155459" lon="14.364562751725316">
<ele>172</ele>
</trkpt>
<trkpt lat="40.587828699499369" lon="14.364686720073223">
<ele>167</ele>
</trkpt>
<trkpt lat="40.587771199643612" lon="14.364822590723634">
<ele>162</ele>
</trkpt>
<trkpt lat="40.58772811666131" lon="14.364958461374044">
<ele>158</ele>
</trkpt>
<trkpt lat="40.587673466652632" lon="14.365091901272535">
<ele>154</ele>
</trkpt>
<trkpt lat="40.587653685361147" lon="14.365199189633131">
<ele>149</ele>
</trkpt>
<trkpt lat="40.587614122778177" lon="14.365294575691223">
<ele>146</ele>
</trkpt>
<trkpt lat="40.587472217157483" lon="14.365196842700243">
<ele>143</ele>
</trkpt>
<trkpt lat="40.587393175810575" lon="14.365199189633131">
<ele>140</ele>
</trkpt>
<trkpt lat="40.58735721744597" lon="14.365311255678535">
<ele>137</ele>
</trkpt>
<trkpt lat="40.587285384535789" lon="14.365332713350654">
<ele>134</ele>
</trkpt>
<trkpt lat="40.587159655988216" lon="14.365265909582376">
<ele>130</ele>
</trkpt>
<trkpt lat="40.587105760350823" lon="14.365304047241807">
<ele>127</ele>
</trkpt>
<trkpt lat="40.587078770622611" lon="14.365311255678535">
<ele>124</ele>
</trkpt>
<trkpt lat="40.586992520838976" lon="14.36512291431427">
<ele>121</ele>
</trkpt>
<trkpt lat="40.586974583566189" lon="14.364884532988071">
<ele>118</ele>
</trkpt>
<trkpt lat="40.586958406493068" lon="14.364641373977065">
<ele>114</ele>
</trkpt>
<trkpt lat="40.586942229419947" lon="14.364493601024151">
<ele>111</ele>
</trkpt>
<trkpt lat="40.586929740384221" lon="14.364395868033171">
<ele>107</ele>
</trkpt>
<trkpt lat="40.586883472278714" lon="14.364068051800132">
<ele>104</ele>
</trkpt>
<trkpt lat="40.586817841976881" lon="14.364044163376093">
<ele>100</ele>
</trkpt>
<trkpt lat="40.586700076237321" lon="14.364014491438866">
<ele>96</ele>
</trkpt>
<trkpt lat="40.586626650765538" lon="14.363999655470252">
<ele>93</ele>
</trkpt>
<trkpt lat="40.586514752358198" lon="14.364025974646211">
<ele>89</ele>
</trkpt>
<trkpt lat="40.586447445675731" lon="14.363985154777765">
<ele>86</ele>
</trkpt>
<trkpt lat="40.586406793445349" lon="14.363996889442205">
<ele>82</ele>
</trkpt>
<trkpt lat="40.586397154256701" lon="14.364020023494959">
<ele>80</ele>
</trkpt>
<trkpt lat="40.586286680772901" lon="14.364094454795122">
<ele>77</ele>
</trkpt>
<trkpt lat="40.586264552548528" lon="14.364017928019166">
<ele>74</ele>
</trkpt>
<trkpt lat="40.586192132905126" lon="14.363978281617165">
<ele>72</ele>
</trkpt>
<trkpt lat="40.586032290011644" lon="14.364009546115994">
<ele>70</ele>
</trkpt>
<trkpt lat="40.58603991754353" lon="14.363934528082609">
<ele>67</ele>
</trkpt>
<trkpt lat="40.586003959178925" lon="14.363921284675598">
<ele>64</ele>
</trkpt>
<trkpt lat="40.58596758171916" lon="14.363960679620504">
<ele>62</ele>
</trkpt>
<trkpt lat="40.58593044988811" lon="14.363999236375093">
<ele>60</ele>
</trkpt>
<trkpt lat="40.585851157084107" lon="14.364096131175756">
<ele>57</ele>
</trkpt>
<trkpt lat="40.585797345265746" lon="14.364173077046871">
<ele>54</ele>
</trkpt>
<trkpt lat="40.585680501535535" lon="14.364190008491278">
<ele>52</ele>
</trkpt>
<trkpt lat="40.585659043863416" lon="14.36413049697876">
<ele>49</ele>
</trkpt>
<trkpt lat="40.585682094097137" lon="14.363977024331689">
<ele>47</ele>
</trkpt>
<trkpt lat="40.585697684437037" lon="14.363915920257568">
<ele>44</ele>
</trkpt>
<trkpt lat="40.585636412724853" lon="14.364028824493289">
<ele>41</ele>
</trkpt>
<trkpt lat="40.585635825991631" lon="14.364062435925007">
<ele>39</ele>
</trkpt>
<trkpt lat="40.585532309487462" lon="14.364115996286273">
<ele>36</ele>
</trkpt>
<trkpt lat="40.5855234246701" lon="14.364057993516326">
<ele>34</ele>
</trkpt>
<trkpt lat="40.585496602579951" lon="14.363962607458234">
<ele>31</ele>
</trkpt>
<trkpt lat="40.58553121984005" lon="14.36385054141283">
<ele>33</ele>
</trkpt>
<trkpt lat="40.585541445761919" lon="14.363759765401483">
<ele>35</ele>
</trkpt>
<trkpt lat="40.58551169000566" lon="14.363589864224195">
<ele>37</ele>
</trkpt>
<trkpt lat="40.585528705269098" lon="14.363512583076954">
<ele>39</ele>
</trkpt>
<trkpt lat="40.585517808794975" lon="14.363490790128708">
<ele>40</ele>
</trkpt>
<trkpt lat="40.585513450205326" lon="14.363444605842233">
<ele>42</ele>
</trkpt>
<trkpt lat="40.585451843217015" lon="14.363187784329057">
<ele>44</ele>
</trkpt>
<trkpt lat="40.585352014750242" lon="14.363109664991498">
<ele>46</ele>
</trkpt>
<trkpt lat="40.585292503237724" lon="14.363110838457942">
<ele>48</ele>
</trkpt>
<trkpt lat="40.585244726389647" lon="14.363114442676306">
<ele>50</ele>
</trkpt>
<trkpt lat="40.585086476057768" lon="14.363204464316368">
<ele>50</ele>
</trkpt>
<trkpt lat="40.585028389468789" lon="14.36318694613874">
<ele>49</ele>
</trkpt>
<trkpt lat="40.585065856575966" lon="14.363135816529393">
<ele>49</ele>
</trkpt>
<trkpt lat="40.585014978423715" lon="14.363152664154768">
<ele>48</ele>
</trkpt>
<trkpt lat="40.584993939846754" lon="14.363189628347754">
<ele>48</ele>
</trkpt>
<trkpt lat="40.584896961227059" lon="14.363311668857932">
<ele>48</ele>
</trkpt>
<trkpt lat="40.584801491349936" lon="14.363455837592483">
<ele>47</ele>
</trkpt>
<trkpt lat="40.584602421149611" lon="14.363596737384796">
<ele>47</ele>
</trkpt>
<trkpt lat="40.584535617381334" lon="14.363687010481954">
<ele>46</ele>
</trkpt>
<trkpt lat="40.584524888545275" lon="14.363698912784457">
<ele>46</ele>
</trkpt>
<trkpt lat="40.584411649033427" lon="14.363790946081281">
<ele>44</ele>
</trkpt>
<trkpt lat="40.584330428391695" lon="14.363816929981112">
<ele>43</ele>
</trkpt>
<trkpt lat="40.584233282133937" lon="14.363869819790125">
<ele>41</ele>
</trkpt>
<trkpt lat="40.584107134491205" lon="14.363950956612825">
<ele>40</ele>
</trkpt>
<trkpt lat="40.584005042910576" lon="14.363938383758068">
<ele>38</ele>
</trkpt>
<trkpt lat="40.583917619660497" lon="14.363921452313662">
<ele>36</ele>
</trkpt>
<trkpt lat="40.583841595798731" lon="14.363850792869925">
<ele>35</ele>
</trkpt>
<trkpt lat="40.583751071244478" lon="14.3637606035918">
<ele>33</ele>
</trkpt>
<trkpt lat="40.583698432892561" lon="14.363716933876276">
<ele>32</ele>
</trkpt>
<trkpt lat="40.583581170067191" lon="14.36352951452136">
<ele>30</ele>
</trkpt>
<trkpt lat="40.583514617756009" lon="14.363415939733386">
<ele>29</ele>
</trkpt>
<trkpt lat="40.583473881706595" lon="14.363312423229218">
<ele>29</ele>
</trkpt>
<trkpt lat="40.583399115130305" lon="14.363157693296671">
<ele>28</ele>
</trkpt>
<trkpt lat="40.58333633467555" lon="14.362963568419218">
<ele>27</ele>
</trkpt>
<trkpt lat="40.583271542564034" lon="14.362865583971143">
<ele>26</ele>
</trkpt>
<trkpt lat="40.583240026608109" lon="14.362861895933747">
<ele>26</ele>
</trkpt>
<trkpt lat="40.583136174827814" lon="14.36281168833375">
<ele>25</ele>
</trkpt>
<trkpt lat="40.583092672750354" lon="14.362760307267308">
<ele>24</ele>
</trkpt>
<trkpt lat="40.58297717012465" lon="14.36261965893209">
<ele>24</ele>
</trkpt>
<trkpt lat="40.582958813756704" lon="14.36258303001523">
<ele>23</ele>
</trkpt>
<trkpt lat="40.582889327779412" lon="14.362424109131098">
<ele>23</ele>
</trkpt>
<trkpt lat="40.582805089652538" lon="14.362201318144798">
<ele>22</ele>
</trkpt>
<trkpt lat="40.582739543169737" lon="14.362094197422266">
<ele>22</ele>
</trkpt>
<trkpt lat="40.58273677714169" lon="14.362057065591216">
<ele>21</ele>
</trkpt>
<trkpt lat="40.582654299214482" lon="14.361833436414599">
<ele>21</ele>
</trkpt>
<trkpt lat="40.582570396363735" lon="14.36171474866569">
<ele>21</ele>
</trkpt>
<trkpt lat="40.582570564001799" lon="14.361584829166532">
<ele>20</ele>
</trkpt>
<trkpt lat="40.582572994753718" lon="14.361428841948509">
<ele>20</ele>
</trkpt>
<trkpt lat="40.58257894590497" lon="14.361349884420633">
<ele>19</ele>
</trkpt>
<trkpt lat="40.582618257030845" lon="14.361134469509125">
<ele>19</ele>
</trkpt>
<trkpt lat="40.582548268139362" lon="14.3609509896487">
<ele>19</ele>
</trkpt>
<trkpt lat="40.582489427179098" lon="14.360892400145531">
<ele>18</ele>
</trkpt>
<trkpt lat="40.582432681694627" lon="14.360798019915819">
<ele>18</ele>
</trkpt>
<trkpt lat="40.582350706681609" lon="14.360672542825341">
<ele>17</ele>
</trkpt>
<trkpt lat="40.582327404990792" lon="14.360501635819674">
<ele>17</ele>
</trkpt>
<trkpt lat="40.582297565415502" lon="14.360296027734876">
<ele>17</ele>
</trkpt>
<trkpt lat="40.582351544871926" lon="14.360107183456421">
<ele>16</ele>
</trkpt>
<trkpt lat="40.582396974787116" lon="14.359917752444744">
<ele>16</ele>
</trkpt>
<trkpt lat="40.582371661439538" lon="14.359693201258779">
<ele>15</ele>
</trkpt>
<trkpt lat="40.582437040284276" lon="14.359508296474814">
<ele>15</ele>
</trkpt>
<trkpt lat="40.582464281469584" lon="14.35941961593926">
<ele>14</ele>
</trkpt>
<trkpt lat="40.58256670832634" lon="14.359292378649116">
<ele>14</ele>
</trkpt>
<trkpt lat="40.582605935633183" lon="14.359269244596362">
<ele>13</ele>
</trkpt>
<trkpt lat="40.582787990570068" lon="14.359170086681843">
<ele>13</ele>
</trkpt>
<trkpt lat="40.582922101020813" lon="14.359095236286521">
<ele>12</ele>
</trkpt>
<trkpt lat="40.582980271428823" lon="14.359026504680514">
<ele>11</ele>
</trkpt>
<trkpt lat="40.583118908107281" lon="14.358921563252807">
<ele>11</ele>
</trkpt>
<trkpt lat="40.583196524530649" lon="14.358811425045133">
<ele>10</ele>
</trkpt>
<trkpt lat="40.583261232823133" lon="14.358665328472853">
<ele>10</ele>
</trkpt>
<trkpt lat="40.583269279450178" lon="14.358563739806414">
<ele>9</ele>
</trkpt>
<trkpt lat="40.583353517577052" lon="14.358518058434129">
<ele>9</ele>
</trkpt>
<trkpt lat="40.583398612216115" lon="14.358557369560003">
<ele>10</ele>
</trkpt>
<trkpt lat="40.583439264446497" lon="14.358549825847149">
<ele>10</ele>
</trkpt>
<trkpt lat="40.583467846736312" lon="14.358534486964345">
<ele>11</ele>
</trkpt>
<trkpt lat="40.583544373512268" lon="14.358372632414103">
<ele>11</ele>
</trkpt>
<trkpt lat="40.58353029191494" lon="14.358301470056176">
<ele>11</ele>
</trkpt>
<trkpt lat="40.583506403490901" lon="14.358251178637147">
<ele>12</ele>
</trkpt>
<trkpt lat="40.583530040457845" lon="14.358009528368711">
<ele>12</ele>
</trkpt>
<trkpt lat="40.583536997437477" lon="14.357993099838495">
<ele>13</ele>
</trkpt>
<trkpt lat="40.583504475653172" lon="14.357799310237169">
<ele>13</ele>
</trkpt>
<trkpt lat="40.583500452339649" lon="14.35777734965086">
<ele>13</ele>
</trkpt>
<trkpt lat="40.58351025916636" lon="14.357620188966393">
<ele>12</ele>
</trkpt>
<trkpt lat="40.583457369357347" lon="14.357513403519988">
<ele>12</ele>
</trkpt>
<trkpt lat="40.583465751260519" lon="14.357456071302295">
<ele>12</ele>
</trkpt>
<trkpt lat="40.583416800945997" lon="14.357334449887276">
<ele>12</ele>
</trkpt>
<trkpt lat="40.58339886367321" lon="14.357271669432521">
<ele>11</ele>
</trkpt>
<trkpt lat="40.583337256684899" lon="14.357058769091964">
<ele>11</ele>
</trkpt>
<trkpt lat="40.583354523405433" lon="14.356947625055909">
<ele>11</ele>
</trkpt>
<trkpt lat="40.583365587517619" lon="14.356855256482959">
<ele>10</ele>
</trkpt>
<trkpt lat="40.583390984684229" lon="14.356828015297651">
<ele>10</ele>
</trkpt>
</trkseg>
</trk>
</gpx>
